{
  "id": 1914555989,
  "type": "Feature",
  "properties": {
    "date:cessation_lower": "1980-01-01",
    "date:cessation_upper": "1989-12-31",
    "date:inception_lower": "1980-01-01",
    "date:inception_upper": "1989-12-31",
    "edtf:cessation": "198X",
    "edtf:inception": "198X",
    "geom:area": 2.477324999997507e-7,
    "geom:bbox": "-122.386472,37.616105,-122.385834,37.616611",
    "geom:latitude": 37.61635756125121,
    "geom:longitude": -122.38615532866096,
    "media:fingerprint": "2b73e3e01ca3ee635e730a7373d0201058ec0b66",
    "media:imagehash_avg": "a:e1e1818081c7ffff",
    "media:imagehash_diff": "d:4547654565151531",
    "media:imagetext": "INFORMATION FOR YOUR SAFETY\nFORWARD DOOR EXITS\nINFORMACION PARA SU SEGURIDAD\nPUERTAS DELANTERAS DE SALIDA\nPassenger\nDoor Exit\nPuerta de\nSalıda de\nPasajeros\nGalley\nDoor\nC XIT\nPuerta de\nSalida de\nla Cocina\nCENTER OVERWING EXITS\nPUERTAS DE SALIDA DEL CENTRO SOBRE LAS ALAS\nOverwing\nExit\nSalıda\nsobre\nlas Alas\n1000\n00:\nNEW YORK AIR 5\nREAR TAILCONE EXIT\nSALIDA TRASERA DEL CONO DE LA COLA\nTailcone\nExit\nSalıda del\nCono de Cola\nFLOTATION CUSHION\nCOJIN DE FLOTACION\nDO NOT REMOVE THIS CARD FROM AIRCRAFT FORM 925\nNO SAQUE ESTA TARJETA DEL AVION",
    "media:imagetext_created": 1787973520,
    "media:imagetext_source": "com.apple.visionkit.VNImageRequestHandler#Version 26.6.2 (Build 25G83)",
    "media:mimetype": "image/tiff",
    "media:properties": {
      "sizes": {
        "b": {
          "extension": "jpg",
          "height": 768,
          "mimetype": "image/jpeg",
          "secret": "J5ywNBRS1jaNdyT2hUk1NMkoJiaYLp3G",
          "width": 619
        },
        "c": {
          "extension": "jpg",
          "height": 600,
          "mimetype": "image/jpeg",
          "secret": "J5ywNBRS1jaNdyT2hUk1NMkoJiaYLp3G",
          "width": 484
        },
        "dc": {
          "extension": "jpg",
          "height": 600,
          "mimetype": "image/jpeg",
          "secret": "J5ywNBRS1jaNdyT2hUk1NMkoJiaYLp3G",
          "width": 484
        },
        "ds": {
          "extension": "jpg",
          "height": 320,
          "mimetype": "image/jpeg",
          "secret": "J5ywNBRS1jaNdyT2hUk1NMkoJiaYLp3G",
          "width": 320
        },
        "k": {
          "extension": "jpg",
          "height": 1536,
          "mimetype": "image/jpeg",
          "secret": "J5ywNBRS1jaNdyT2hUk1NMkoJiaYLp3G",
          "width": 1239
        },
        "n": {
          "extension": "jpg",
          "height": 240,
          "mimetype": "image/jpeg",
          "secret": "J5ywNBRS1jaNdyT2hUk1NMkoJiaYLp3G",
          "width": 193
        },
        "o": {
          "extension": "jpg",
          "height": 2000,
          "mimetype": "image/jpeg",
          "secret": "2H7F8BYEj9g9JxHodthFVWtMJ6kOU2vs",
          "width": 1614
        },
        "s": {
          "extension": "jpg",
          "height": 320,
          "mimetype": "image/jpeg",
          "secret": "J5ywNBRS1jaNdyT2hUk1NMkoJiaYLp3G",
          "width": 320
        },
        "z": {
          "extension": "jpg",
          "height": 480,
          "mimetype": "image/jpeg",
          "secret": "J5ywNBRS1jaNdyT2hUk1NMkoJiaYLp3G",
          "width": 387
        }
      }
    },
    "media:source": "sfomuseum",
    "media:status_id": 1,
    "media:uri_template": "https://static.sfomuseum.org/media/191/455/598/9/1914555989_{secret}_{label}.{extention}",
    "millsfield:aircraft_id": [
      1159291239
    ],
    "millsfield:airline_id": [
      1159284857
    ],
    "millsfield:category_id": 1762671311,
    "millsfield:collection_id": 1511214207,
    "millsfield:company_id": [
      1159291223
    ],
    "millsfield:images_colors": [
      {
        "hex": "#beb7b6",
        "name": "#beb7b6",
        "reference": "marekm4"
      },
      {
        "hex": "#c0c0c0",
        "name": "silver",
        "reference": "css4"
      },
      {
        "hex": "#b0b7c6",
        "name": "Cadet Blue",
        "reference": "crayola"
      },
      {
        "hex": "#373431",
        "name": "#373431",
        "reference": "marekm4"
      },
      {
        "hex": "#2f4f4f",
        "name": "darkslategrey",
        "reference": "css4"
      },
      {
        "hex": "#414a4c",
        "name": "Outer Space",
        "reference": "crayola"
      },
      {
        "hex": "#a52e2e",
        "name": "#a52e2e",
        "reference": "marekm4"
      },
      {
        "hex": "#a52a2a",
        "name": "brown",
        "reference": "css4"
      },
      {
        "hex": "#9c2542",
        "name": "Big Dip O' Ruby",
        "reference": "crayola"
      }
    ],
    "millsfield:images_texts": [
      "INFORMATION FOR YOUR SAFETY\nNEW YORK AIR\nFOR TAKEOFF AND LANDING PARA DESPEGUE Y ATERRIZAJE\nSTOW BAGGAGE\nADJUST SEATBACKS AND SERVICE TRAYS\nDC-9:30\nINFORMACION PARA SU SEGURIDAD\nSEAT BELTS\nCINTURON DE SEGURIDAD\nTO FASTEN\nPONERSE\nTO TIGHTEN\nAPRETAR\nGUARDE EQUIPAJE DE\nMANO AQUI\nAT ALL TIMES\nFAVOR DE PONER SU ASIENTO EN POSICION\nVERTICAL Y ADJUSTE LA BANDEJA DE SERVICIO\nA TODO TIEMPO\nNO SMOKING\nNO FUME\nTO UNFASTEN\nQUITARSE\nREAR ROWS\nFILA TRASERAS\nPASSENGER OXYGEN MASKS\nLAVATORY\nLAVATORIO\nMASCARAS DE OXIGENO PARA PASAJEROS\nBRACE POSITIONS\nPOSICION EN CASO DE EMERGENCIA\nBRACE\nWITH\nINFANT\nASEGUARSE\nCON EL\nNINO\nDO NOT REMOVE THIS CARD FROM AIRCRAFT\nFORM 925\nSEE BACK FOR\nEMERGENCY EXIT PROCEDURES\n\u0026 WATER LANDING PROCEDURES\nMIRE EL REVERSE\nPARA PROCEDIMIENTO\nSOBRE SALIDA DE\nAUXILIO Y PROCEDIMIENTO\nSOBRE AGUATISAJE\nNO SAQUE ESTA TARJETA DEL AVION",
      "INFORMATION FOR YOUR SAFETY\nFORWARD DOOR EXITS\nINFORMACION PARA SU SEGURIDAD\nPUERTAS DELANTERAS DE SALIDA\nPassenger\nDoor Exit\nPuerta de\nSalıda de\nPasajeros\nGalley\nDoor\nC XIT\nPuerta de\nSalida de\nla Cocina\nCENTER OVERWING EXITS\nPUERTAS DE SALIDA DEL CENTRO SOBRE LAS ALAS\nOverwing\nExit\nSalıda\nsobre\nlas Alas\n1000\n00:\nNEW YORK AIR 5\nREAR TAILCONE EXIT\nSALIDA TRASERA DEL CONO DE LA COLA\nTailcone\nExit\nSalıda del\nCono de Cola\nFLOTATION CUSHION\nCOJIN DE FLOTACION\nDO NOT REMOVE THIS CARD FROM AIRCRAFT FORM 925\nNO SAQUE ESTA TARJETA DEL AVION"
    ],
    "millsfield:images_texts_ids": [
      1914555985,
      1914555989
    ],
    "millsfield:similar": {
      "apple/mobileclip_s0": [
        {
          "distance": 0.32937542,
          "id": 1930979323
        },
        {
          "distance": 0.4766398,
          "id": 1914430865
        },
        {
          "distance": 0.47812027,
          "id": 1914590395
        },
        {
          "distance": 0.48356065,
          "id": 1931110035
        },
        {
          "distance": 0.48808703,
          "id": 1931096273
        },
        {
          "distance": 0.49356282,
          "id": 1762894821
        },
        {
          "distance": 0.5058838,
          "id": 1914556421
        },
        {
          "distance": 0.50761956,
          "id": 1527850043
        },
        {
          "distance": 0.510638,
          "id": 1914580091
        },
        {
          "distance": 0.5128339,
          "id": 1914489101
        }
      ],
      "apple/mobileclip_s1": [
        {
          "distance": 0.2709855,
          "id": 1930979323
        },
        {
          "distance": 0.43120822,
          "id": 1914622859
        },
        {
          "distance": 0.43303487,
          "id": 1914579795
        },
        {
          "distance": 0.43446013,
          "id": 1762894219
        },
        {
          "distance": 0.4350336,
          "id": 1930979715
        },
        {
          "distance": 0.43538898,
          "id": 1913872217
        },
        {
          "distance": 0.43679464,
          "id": 1931109391
        },
        {
          "distance": 0.4381688,
          "id": 1930979883
        },
        {
          "distance": 0.43965626,
          "id": 1931110035
        },
        {
          "distance": 0.44298065,
          "id": 1914622591
        }
      ],
      "apple/mobileclip_s2": [
        {
          "distance": 0.31785142,
          "id": 1930979323
        },
        {
          "distance": 0.50921935,
          "id": 1914590395
        },
        {
          "distance": 0.5308159,
          "id": 1931110035
        },
        {
          "distance": 0.5406277,
          "id": 1914580091
        },
        {
          "distance": 0.5418318,
          "id": 1914579807
        },
        {
          "distance": 0.54407936,
          "id": 1914430865
        },
        {
          "distance": 0.549062,
          "id": 1931096273
        },
        {
          "distance": 0.5501124,
          "id": 1813192781
        },
        {
          "distance": 0.5528071,
          "id": 1914580083
        },
        {
          "distance": 0.56700534,
          "id": 1930979431
        }
      ]
    },
    "millsfield:subcategory_id": 1511213703,
    "mz:is_current": 1,
    "sfomuseum:filename": "76074.tif",
    "sfomuseum:image_id": 76074,
    "sfomuseum:image_index": 5,
    "sfomuseum:image_type": "studio",
    "sfomuseum:object_id": 69111,
    "sfomuseum:placetype": "image",
    "sfomuseum:primary_image": 0,
    "src:geom": "sfomuseum",
    "wof:belongsto": [
      102527513,
      1159162825,
      102191575,
      85633793,
      102087579,
      85922583,
      1914555565,
      85688637,
      1159160869
    ],
    "wof:country": "XY",
    "wof:created": 1720460105,
    "wof:depicts": [
      1159291223,
      1914555565,
      1159284857,
      1159291239
    ],
    "wof:geomhash": "ed7c2ab3547fc3916b5edc33488deaa7",
    "wof:hierarchy": [
      {
        "building_id": -1,
        "campus_id": 102527513,
        "collection_id": 1159162825,
        "concourse_id": 1159162825,
        "continent_id": 102191575,
        "country_id": 85633793,
        "county_id": 102087579,
        "custom_id": 1914555989,
        "locality_id": 85922583,
        "neighbourhood_id": -1,
        "object_id": 1914555565,
        "region_id": 85688637,
        "wing_id": 1159160869
      }
    ],
    "wof:id": 1914555989,
    "wof:lastmodified": 1788452365,
    "wof:name": "safety information card: New York Air, Douglas DC-9-30",
    "wof:parent_id": 1914555565,
    "wof:placetype": "custom",
    "wof:repo": "sfomuseum-data-media-collection",
    "wof:superseded_by": [],
    "wof:supersedes": []
  },
  "bbox": [
    -122.386472,
    37.616105,
    -122.385834,
    37.616611
  ],
  "geometry": {"type":"Polygon","coordinates":[[[-122.386472,37.616318],[-122.386435,37.616233],[-122.386376,37.616178],[-122.386301,37.616131],[-122.386161,37.616105],[-122.386022,37.616131],[-122.385914,37.616186],[-122.385855,37.616267],[-122.385834,37.616369],[-122.385871,37.616467],[-122.385941,37.616543],[-122.386054,37.616603],[-122.386183,37.616611],[-122.386306,37.616573],[-122.386419,37.616509],[-122.386467,37.616411],[-122.386472,37.616318]]]}
}
