{
  "id": 1763380085,
  "type": "Feature",
  "properties": {
    "date:cessation_lower": "1970-08-01",
    "date:cessation_upper": "1970-08-31",
    "date:inception_lower": "1970-05-01",
    "date:inception_upper": "1970-05-31",
    "edtf:cessation": "1970-08",
    "edtf:inception": "1970-05",
    "geom:area": 2.477324999997507e-7,
    "geom:bbox": "-122.386472,37.616105,-122.385834,37.616611",
    "geom:latitude": 37.61635756125121,
    "geom:longitude": -122.38615532866096,
    "media:fingerprint": "a85c27a0d99f40a45829d3365b89fef37899cd9f",
    "media:imagehash_avg": "a:ffffff0083e7ffff",
    "media:imagehash_diff": "d:17060f4d4d0f0f0f",
    "media:imagetext": "SETHANSA\nJUNIOR",
    "media:imagetext_created": 1787962419,
    "media:imagetext_source": "com.apple.visionkit.VNImageRequestHandler#Version 26.6.2 (Build 25G83)",
    "media:mimetype": "image/tiff",
    "media:properties": {
      "sizes": {
        "b": {
          "extension": "jpg",
          "height": 768,
          "mimetype": "image/jpeg",
          "secret": "MOjXDnbCnVuogVA1gXLMLmLUiwCyCwji",
          "width": 966
        },
        "c": {
          "extension": "jpg",
          "height": 600,
          "mimetype": "image/jpeg",
          "secret": "MOjXDnbCnVuogVA1gXLMLmLUiwCyCwji",
          "width": 754
        },
        "dc": {
          "extension": "jpg",
          "height": 600,
          "mimetype": "image/jpeg",
          "secret": "MOjXDnbCnVuogVA1gXLMLmLUiwCyCwji",
          "width": 754
        },
        "ds": {
          "extension": "jpg",
          "height": 320,
          "mimetype": "image/jpeg",
          "secret": "MOjXDnbCnVuogVA1gXLMLmLUiwCyCwji",
          "width": 320
        },
        "k": {
          "extension": "jpg",
          "height": 1536,
          "mimetype": "image/jpeg",
          "secret": "MOjXDnbCnVuogVA1gXLMLmLUiwCyCwji",
          "width": 1932
        },
        "n": {
          "extension": "jpg",
          "height": 240,
          "mimetype": "image/jpeg",
          "secret": "MOjXDnbCnVuogVA1gXLMLmLUiwCyCwji",
          "width": 301
        },
        "o": {
          "extension": "jpg",
          "height": 1667,
          "mimetype": "image/jpeg",
          "secret": "HcjQR424bih1tSE5wZJF8Qz3xzPzrjE6",
          "width": 2097
        },
        "s": {
          "extension": "jpg",
          "height": 320,
          "mimetype": "image/jpeg",
          "secret": "MOjXDnbCnVuogVA1gXLMLmLUiwCyCwji",
          "width": 320
        },
        "z": {
          "extension": "jpg",
          "height": 480,
          "mimetype": "image/jpeg",
          "secret": "MOjXDnbCnVuogVA1gXLMLmLUiwCyCwji",
          "width": 603
        }
      }
    },
    "media:source": "sfomuseum",
    "media:status_id": 1,
    "media:uri_template": "https://static.sfomuseum.org/media/176/338/008/5/1763380085_{secret}_{label}.{extension}",
    "millsfield:airline_id": [
      1159284711
    ],
    "millsfield:category_id": 1762679663,
    "millsfield:collection_id": 1511214203,
    "millsfield:company_id": [
      1159288215
    ],
    "millsfield:images_colors": [
      {
        "hex": "#b1aead",
        "name": "#b1aead",
        "reference": "marekm4"
      },
      {
        "hex": "#a9a9a9",
        "name": "darkgrey",
        "reference": "css4"
      },
      {
        "hex": "#b0b7c6",
        "name": "Cadet Blue",
        "reference": "crayola"
      },
      {
        "hex": "#363b4d",
        "name": "#363b4d",
        "reference": "marekm4"
      },
      {
        "hex": "#2f4f4f",
        "name": "darkslategrey",
        "reference": "css4"
      },
      {
        "hex": "#414a4c",
        "name": "Outer Space",
        "reference": "crayola"
      },
      {
        "hex": "#a18f75",
        "name": "#a18f75",
        "reference": "marekm4"
      },
      {
        "hex": "#bc8f8f",
        "name": "rosybrown",
        "reference": "css4"
      },
      {
        "hex": "#9f8170",
        "name": "Beaver",
        "reference": "crayola"
      }
    ],
    "millsfield:images_texts": [
      "SETHANSA\nJUNIOR"
    ],
    "millsfield:images_texts_ids": [
      1763380085
    ],
    "millsfield:similar": {
      "apple/mobileclip_s0": [
        {
          "distance": 0.2971114,
          "id": 1763379631
        },
        {
          "distance": 0.3459371,
          "id": 1763379633
        },
        {
          "distance": 0.53710693,
          "id": 1763373055
        },
        {
          "distance": 0.54275876,
          "id": 1763079305
        },
        {
          "distance": 0.5449181,
          "id": 1796444625
        },
        {
          "distance": 0.54816806,
          "id": 1763379201
        },
        {
          "distance": 0.54917216,
          "id": 1796444593
        },
        {
          "distance": 0.5506772,
          "id": 1796414205
        },
        {
          "distance": 0.5537925,
          "id": 1796229725
        },
        {
          "distance": 0.5543234,
          "id": 1763378963
        }
      ],
      "apple/mobileclip_s1": [
        {
          "distance": 0.18325427,
          "id": 1763379633
        },
        {
          "distance": 0.19151929,
          "id": 1763379631
        },
        {
          "distance": 0.33426142,
          "id": 1763379555
        },
        {
          "distance": 0.41436952,
          "id": 1796444593
        },
        {
          "distance": 0.41503325,
          "id": 1796414443
        },
        {
          "distance": 0.41552618,
          "id": 1779533633
        },
        {
          "distance": 0.4199899,
          "id": 1780027975
        },
        {
          "distance": 0.42118362,
          "id": 1796414413
        },
        {
          "distance": 0.42442092,
          "id": 1763380229
        },
        {
          "distance": 0.42871878,
          "id": 1796414389
        }
      ],
      "apple/mobileclip_s2": [
        {
          "distance": 0.25840855,
          "id": 1763379631
        },
        {
          "distance": 0.26235557,
          "id": 1763379633
        },
        {
          "distance": 0.47693703,
          "id": 1763379555
        },
        {
          "distance": 0.57684433,
          "id": 1763380013
        },
        {
          "distance": 0.58547765,
          "id": 1796444373
        },
        {
          "distance": 0.586964,
          "id": 1762946891
        },
        {
          "distance": 0.5913814,
          "id": 1763380079
        },
        {
          "distance": 0.59306645,
          "id": 1762987097
        },
        {
          "distance": 0.5932745,
          "id": 1763379039
        },
        {
          "distance": 0.59445584,
          "id": 1763101871
        }
      ]
    },
    "millsfield:subcategory_id": 1897358749,
    "mz:is_current": 1,
    "sfomuseum:filename": "112159.tif",
    "sfomuseum:image_id": 112159,
    "sfomuseum:image_index": 5,
    "sfomuseum:image_type": "studio",
    "sfomuseum:object_id": 154779,
    "sfomuseum:placetype": "image",
    "sfomuseum:primary_image": 1,
    "src:geom": "sfomuseum",
    "wof:belongsto": [
      102527513,
      1159162825,
      102191575,
      85633793,
      102087579,
      85922583,
      1763287161,
      85688637,
      1159160869
    ],
    "wof:country": "XY",
    "wof:created": 1648683493,
    "wof:depicts": [
      1159288215,
      1763287161,
      1159284711
    ],
    "wof:geomhash": "ed7c2ab3547fc3916b5edc33488deaa7",
    "wof:hierarchy": [
      {
        "building_id": -1,
        "campus_id": 102527513,
        "collection_id": 1159162825,
        "concourse_id": 1159162825,
        "continent_id": 102191575,
        "country_id": 85633793,
        "county_id": 102087579,
        "custom_id": 1763380085,
        "image_id": 1763380085,
        "locality_id": 85922583,
        "neighbourhood_id": -1,
        "object_id": 1763287161,
        "region_id": 85688637,
        "wing_id": 1159160869
      }
    ],
    "wof:id": 1763380085,
    "wof:lastmodified": 1788451094,
    "wof:name": "children's souvenir wings: Lufthansa",
    "wof:parent_id": 1763287161,
    "wof:placetype": "custom",
    "wof:placetype_alt": [
      "image"
    ],
    "wof:repo": "sfomuseum-data-media-collection",
    "wof:superseded_by": [],
    "wof:supersedes": []
  },
  "bbox": [
    -122.386472,
    37.616105,
    -122.385834,
    37.616611
  ],
  "geometry": {"type":"Polygon","coordinates":[[[-122.386472,37.616318],[-122.386435,37.616233],[-122.386376,37.616178],[-122.386301,37.616131],[-122.386161,37.616105],[-122.386022,37.616131],[-122.385914,37.616186],[-122.385855,37.616267],[-122.385834,37.616369],[-122.385871,37.616467],[-122.385941,37.616543],[-122.386054,37.616603],[-122.386183,37.616611],[-122.386306,37.616573],[-122.386419,37.616509],[-122.386467,37.616411],[-122.386472,37.616318]]]}
}
