{
  "id": 1527842341,
  "type": "Feature",
  "properties": {
    "date:cessation_lower": "1982-01-01",
    "date:cessation_upper": "1982-12-31",
    "date:inception_lower": "1982-01-01",
    "date:inception_upper": "1982-12-31",
    "edtf:cessation": "1982",
    "edtf:date": "1982",
    "edtf:inception": "1982",
    "geom:area": 0,
    "geom:bbox": "-122.386155,37.616358,-122.386155,37.616358",
    "geom:latitude": 37.616358,
    "geom:longitude": -122.386155,
    "iso:country": "XX",
    "media:fingerprint": "f6b18e99c5f69ed6e5e0e52594556167cc32be7c",
    "media:imagehash_avg": "a:ff81999cc18180ff",
    "media:imagehash_diff": "d:497371711f43430d",
    "media:imagetext": "PAN AM.\nSchedules\nEffective June 28, 1982\nPan Am.\nYou Cant Beat\nthe\nExperience™\nPANAM\nN50TPA",
    "media:imagetext_created": 1787951267,
    "media:imagetext_source": "com.apple.visionkit.VNImageRequestHandler#Version 26.6.2 (Build 25G83)",
    "media:medium": "image",
    "media:mimetype": "image/tiff",
    "media:properties": {
      "sizes": {
        "b": {
          "extension": "jpg",
          "height": 768,
          "mimetype": "image/jpeg",
          "secret": "VXg5cPZSVoVuShxNM4RQ9zH81gmdWY1d",
          "width": 359
        },
        "c": {
          "extension": "jpg",
          "height": 600,
          "mimetype": "image/jpeg",
          "secret": "VXg5cPZSVoVuShxNM4RQ9zH81gmdWY1d",
          "width": 281
        },
        "dc": {
          "extension": "jpg",
          "height": 600,
          "mimetype": "image/jpeg",
          "secret": "VXg5cPZSVoVuShxNM4RQ9zH81gmdWY1d",
          "width": 281
        },
        "ds": {
          "extension": "jpg",
          "height": 320,
          "mimetype": "image/jpeg",
          "secret": "VXg5cPZSVoVuShxNM4RQ9zH81gmdWY1d",
          "width": 320
        },
        "k": {
          "extension": "jpg",
          "height": 1536,
          "mimetype": "image/jpeg",
          "secret": "VXg5cPZSVoVuShxNM4RQ9zH81gmdWY1d",
          "width": 719
        },
        "n": {
          "extension": "jpg",
          "height": 240,
          "mimetype": "image/jpeg",
          "secret": "VXg5cPZSVoVuShxNM4RQ9zH81gmdWY1d",
          "width": 112
        },
        "o": {
          "extension": "jpg",
          "height": 2719,
          "mimetype": "image/jpeg",
          "secret": "pFiuwTSIJSHTRePcNHejJqRPRM3YECRx",
          "width": 1274
        },
        "s": {
          "extension": "jpg",
          "height": 320,
          "mimetype": "image/jpeg",
          "secret": "VXg5cPZSVoVuShxNM4RQ9zH81gmdWY1d",
          "width": 320
        },
        "z": {
          "extension": "jpg",
          "height": 480,
          "mimetype": "image/jpeg",
          "secret": "VXg5cPZSVoVuShxNM4RQ9zH81gmdWY1d",
          "width": 224
        }
      }
    },
    "media:source": "sfomuseum",
    "media:status_id": 1,
    "media:uri_template": "https://static.sfomuseum.org/media/152/784/234/1/1527842341_{secret}_{label}.{extension}",
    "millsfield:airline_id": [
      1159284989
    ],
    "millsfield:category_id": 1511214223,
    "millsfield:collection_id": 1511214207,
    "millsfield:company_id": [
      1159286839
    ],
    "millsfield:images_colors": [
      {
        "hex": "#121f50",
        "name": "#121f50",
        "reference": "marekm4"
      },
      {
        "hex": "#191970",
        "name": "midnightblue",
        "reference": "css4"
      },
      {
        "hex": "#1a4876",
        "name": "Midnight Blue",
        "reference": "crayola"
      },
      {
        "hex": "#1f408b",
        "name": "#1f408b",
        "reference": "marekm4"
      },
      {
        "hex": "#483d8b",
        "name": "darkslateblue",
        "reference": "css4"
      },
      {
        "hex": "#d8d4c8",
        "name": "#d8d4c8",
        "reference": "marekm4"
      },
      {
        "hex": "#d3d3d3",
        "name": "lightgrey",
        "reference": "css4"
      },
      {
        "hex": "#dbd7d2",
        "name": "Timberwolf",
        "reference": "crayola"
      },
      {
        "hex": "#8d5346",
        "name": "#8d5346",
        "reference": "marekm4"
      },
      {
        "hex": "#a0522d",
        "name": "sienna",
        "reference": "css4"
      },
      {
        "hex": "#a5694f",
        "name": "Sepia",
        "reference": "crayola"
      }
    ],
    "millsfield:images_texts": [
      "PAN AM.\nSchedules\nEffective June 28, 1982\nPan Am.\nYou Cant Beat\nthe\nExperience™\nPANAM\nN50TPA",
      "Inter.Continental Hotels\nU.S. \u0026 Canada\nBelgrade\nFt. Lauderdale\nBucharest\nSan Antonio\nBudapest o\nSan Francisco\nMontreal\nColden\nEurope\nAmsterdam\nJusseidon\nFrankun\nGAnAVA\nHamburg\nHanover\nLisbon\nLondon\nMadrid\nMunich\nrague\nZagreb\nAfrica\nAbidjan\nLibreville\nLivinestone\nNairobi\nNanyuki\nMiddle East\nAbu Dhabi\nALAIR\nAmmar\nBahrain\nDubai\nJerusalem\nMakkah\nRiyadh\nAsia\nBangkok\nBombay\nNatacill\nLanore\nNew Delhi\nPeshawa\nRawalpindi\nPacific\nAuckland\nBali\nCalatagan\nDavao\nHong Kong\nsineapore\nTokyo\nLatin America\nBogota\nSuenos Aires\nCaracas\nCiudad Guayana\nKingston\nForum Hotels\nAbidian\nBelfast\nrussels\nfontego Bay\nQuito\nRio de Janeiro\nvalencia\nEdinburgh\nMunic\"\nParis\nSingapore\nWarsaw\nBeijing (Peking) •\nShanghai •\nHong Kong •\nBangkok\nTokyo\nSeattle / Tacoma\nSan Francisco\nLos Angeles:\nSan Diego\nManila\nGuam\nChicago Detroit\nKansas\nLas Oklahoma\nCity\nCity\n- Piteburgh\nSarasotal,\nMexico City\nGuatemala City\nYork/Newari\nOrlando\n•West Palm Beac\nFf. Lauderdale/Hollywood\n• San Juan\n• Port of Spain\nPanama City\nStuttgart d\nZurich •\nDakar\nPago Pago.\nSydney e\nMelbourne\n• Honolulu\nOPAN AM\nWorldwide Route System\nPassenger and Cargo Routes\n- - - All-Cargo Routes\nMonrovia\n• Lagos\nSantiago\n• Rio de Janeiro\nSão Paulo:\n• Montevideo\nBerlin\nankfurt\n\u0026Noremberg\nMunich\nIstanbul\nDhahran\nAbu Dhabi\nNairobi •\nJohannesburg\nDelhi\nBombay"
    ],
    "millsfield:images_texts_ids": [
      1527842341,
      1527850419
    ],
    "millsfield:similar": {
      "apple/mobileclip_s0": [
        {
          "distance": 0.5678956,
          "id": 1527842339
        },
        {
          "distance": 0.60485303,
          "id": 1931122609
        },
        {
          "distance": 0.61974925,
          "id": 1931095857
        },
        {
          "distance": 0.6378723,
          "id": 1527842351
        },
        {
          "distance": 0.6388379,
          "id": 1763503993
        },
        {
          "distance": 0.6477431,
          "id": 1762700353
        },
        {
          "distance": 0.64831567,
          "id": 1762715123
        },
        {
          "distance": 0.6537031,
          "id": 2014812993
        },
        {
          "distance": 0.65494895,
          "id": 2014812987
        },
        {
          "distance": 0.65709436,
          "id": 1779736601
        }
      ],
      "apple/mobileclip_s1": [
        {
          "distance": 0.3790387,
          "id": 1527842339
        },
        {
          "distance": 0.46353298,
          "id": 1527842343
        },
        {
          "distance": 0.47874263,
          "id": 1914580049
        },
        {
          "distance": 0.49864352,
          "id": 1931122609
        },
        {
          "distance": 0.50139743,
          "id": 2014812993
        },
        {
          "distance": 0.50489014,
          "id": 1931109323
        },
        {
          "distance": 0.51068693,
          "id": 1763588909
        },
        {
          "distance": 0.5110891,
          "id": 1931109321
        },
        {
          "distance": 0.51166904,
          "id": 2014812987
        },
        {
          "distance": 0.5137938,
          "id": 1763456115
        }
      ],
      "apple/mobileclip_s2": [
        {
          "distance": 0.54095,
          "id": 1527842339
        },
        {
          "distance": 0.6049896,
          "id": 1931122609
        },
        {
          "distance": 0.6103563,
          "id": 1931109323
        },
        {
          "distance": 0.61463344,
          "id": 1931109721
        },
        {
          "distance": 0.6149442,
          "id": 1914580049
        },
        {
          "distance": 0.64725196,
          "id": 1931095857
        },
        {
          "distance": 0.64862597,
          "id": 1914580043
        },
        {
          "distance": 0.6526649,
          "id": 1762700353
        },
        {
          "distance": 0.6546879,
          "id": 2014812987
        },
        {
          "distance": 0.65575594,
          "id": 1762894681
        }
      ]
    },
    "millsfield:subcategory_id": 1511213425,
    "mz:hierarchy_label": 1,
    "mz:is_current": -1,
    "sfomuseum:filename": "2011.126.025.023.tif",
    "sfomuseum:image_id": 67540,
    "sfomuseum:image_index": 5,
    "sfomuseum:image_type": "studio",
    "sfomuseum:object_id": 121500,
    "sfomuseum:placetype": "image",
    "sfomuseum:primary_image": 1,
    "src:geom": "sfomuseum",
    "wof:belongsto": [
      1511214223,
      1511950667,
      102527513,
      102191575,
      85633793,
      1511213425,
      85922583,
      102087579,
      1511214277,
      1511214203,
      85688637
    ],
    "wof:breaches": [],
    "wof:country": "XX",
    "wof:created": 1578952853,
    "wof:depicts": [
      1159286839,
      1511950667,
      1159284989
    ],
    "wof:geomhash": "bd906905ce4be6c0651c90b0fc24804c",
    "wof:hierarchy": [
      {
        "arcade_id": 1511213425,
        "building_id": 1511214277,
        "campus_id": 102527513,
        "concourse_id": 1511214223,
        "continent_id": 102191575,
        "country_id": 85633793,
        "county_id": 102087579,
        "custom_id": 1527842341,
        "image_id": 1527842341,
        "locality_id": 85922583,
        "media_id": 1527842341,
        "neighbourhood_id": -1,
        "region_id": 85688637,
        "venue_id": 1511950667,
        "wing_id": 1511214203
      }
    ],
    "wof:id": 1527842341,
    "wof:lastmodified": 1788450050,
    "wof:name": "timetable: Pan American World Airways",
    "wof:parent_id": 1511950667,
    "wof:placetype": "custom",
    "wof:placetype_alt": [
      "image"
    ],
    "wof:repo": "sfomuseum-data-media-collection",
    "wof:superseded_by": [],
    "wof:supersedes": [],
    "wof:tags": []
  },
  "bbox": [
    -122.386155,
    37.616358,
    -122.386155,
    37.616358
  ],
  "geometry": {"type":"Point","coordinates":[-122.386155,37.616358]}
}
