{
  "id": 1729565639,
  "type": "Feature",
  "properties": {
    "date:cessation_lower": "1970-12-01",
    "date:cessation_upper": "1970-12-31",
    "date:inception_lower": "1970-09-01",
    "date:inception_upper": "1970-09-30",
    "edtf:cessation": "1970-12",
    "edtf:date": "1970-01/1970-04~",
    "edtf:inception": "1970-09",
    "geom:area": 0,
    "geom:bbox": "-122.386155,37.616357,-122.386155,37.616357",
    "geom:latitude": 37.616357,
    "geom:longitude": -122.386155,
    "iso:country": "XX",
    "media:fingerprint": "446c6f05fa7b9a2d9b96773a07d41e13cf1e9d80",
    "media:imagehash_avg": "a:000426767e7e38ff",
    "media:imagehash_diff": "d:69ecece8c8e8e8f1",
    "media:imagetext": "Boeing 707 TWA/USA\nFoto und Verlag Werner Friedli - Brüttisellen\n709\n200/.106.215",
    "media:imagetext_created": 1787954456,
    "media:imagetext_source": "com.apple.visionkit.VNImageRequestHandler#Version 26.6.2 (Build 25G83)",
    "media:medium": "image",
    "media:mimetype": "image/tiff",
    "media:properties": {
      "sizes": {
        "b": {
          "extension": "jpg",
          "height": 715,
          "mimetype": "image/jpeg",
          "secret": "4zgNzqZfISsAJVEYMbfGerFjpQgcINd6",
          "width": 1024
        },
        "c": {
          "extension": "jpg",
          "height": 559,
          "mimetype": "image/jpeg",
          "secret": "4zgNzqZfISsAJVEYMbfGerFjpQgcINd6",
          "width": 800
        },
        "dc": {
          "extension": "jpg",
          "height": 559,
          "mimetype": "image/jpeg",
          "secret": "4zgNzqZfISsAJVEYMbfGerFjpQgcINd6",
          "width": 800
        },
        "ds": {
          "extension": "jpg",
          "height": 320,
          "mimetype": "image/jpeg",
          "secret": "4zgNzqZfISsAJVEYMbfGerFjpQgcINd6",
          "width": 320
        },
        "k": {
          "extension": "jpg",
          "height": 1431,
          "mimetype": "image/jpeg",
          "secret": "4zgNzqZfISsAJVEYMbfGerFjpQgcINd6",
          "width": 2048
        },
        "n": {
          "extension": "jpg",
          "height": 223,
          "mimetype": "image/jpeg",
          "secret": "4zgNzqZfISsAJVEYMbfGerFjpQgcINd6",
          "width": 320
        },
        "o": {
          "extension": "jpg",
          "height": 1230,
          "mimetype": "image/jpeg",
          "secret": "azOKS0xOka15VafeyUyDK8PfXlWVbz9X",
          "width": 1760
        },
        "s": {
          "extension": "jpg",
          "height": 320,
          "mimetype": "image/jpeg",
          "secret": "4zgNzqZfISsAJVEYMbfGerFjpQgcINd6",
          "width": 320
        },
        "z": {
          "extension": "jpg",
          "height": 447,
          "mimetype": "image/jpeg",
          "secret": "4zgNzqZfISsAJVEYMbfGerFjpQgcINd6",
          "width": 640
        }
      }
    },
    "media:source": "sfomuseum",
    "media:status_id": 1,
    "media:uri_template": "https://static.sfomuseum.org/media/172/956/563/9/1729565639_{secret}_{label}.{extension}",
    "millsfield:aircraft_id": [
      1159289653
    ],
    "millsfield:airline_id": [
      1159285393
    ],
    "millsfield:category_id": 1511214215,
    "millsfield:collection_id": 1511214207,
    "millsfield:company_id": [
      1159293593
    ],
    "millsfield:images_colors": [
      {
        "hex": "#e7d5b4",
        "name": "#e7d5b4",
        "reference": "marekm4"
      },
      {
        "hex": "#f5deb3",
        "name": "wheat",
        "reference": "css4"
      },
      {
        "hex": "#efcdb8",
        "name": "Desert Sand",
        "reference": "crayola"
      }
    ],
    "millsfield:images_texts": [
      "M108/N\nTWA",
      "Boeing 707 TWA/USA\nFoto und Verlag Werner Friedli - Brüttisellen\n709\n200/.106.215"
    ],
    "millsfield:images_texts_ids": [
      1729565637,
      1729565639
    ],
    "millsfield:similar": {
      "apple/mobileclip_s0": [
        {
          "distance": 0.4267751,
          "id": 1762703273
        },
        {
          "distance": 0.43069956,
          "id": 1762713349
        },
        {
          "distance": 0.43328986,
          "id": 1762711355
        },
        {
          "distance": 0.43529192,
          "id": 1762711327
        },
        {
          "distance": 0.43583974,
          "id": 1762703267
        },
        {
          "distance": 0.43634123,
          "id": 1762711323
        },
        {
          "distance": 0.43776813,
          "id": 1762713013
        },
        {
          "distance": 0.4388244,
          "id": 1762707165
        },
        {
          "distance": 0.44899735,
          "id": 1762710257
        },
        {
          "distance": 0.45213652,
          "id": 1762706233
        }
      ],
      "apple/mobileclip_s1": [
        {
          "distance": 0.33534497,
          "id": 1762708631
        },
        {
          "distance": 0.3360468,
          "id": 1762708649
        },
        {
          "distance": 0.34557766,
          "id": 1762708645
        },
        {
          "distance": 0.35202953,
          "id": 1762713007
        },
        {
          "distance": 0.3529307,
          "id": 1762708641
        },
        {
          "distance": 0.35443103,
          "id": 1762712259
        },
        {
          "distance": 0.3548721,
          "id": 1762895307
        },
        {
          "distance": 0.35524622,
          "id": 1762709925
        },
        {
          "distance": 0.35543942,
          "id": 1931109389
        },
        {
          "distance": 0.357414,
          "id": 1762702831
        }
      ],
      "apple/mobileclip_s2": [
        {
          "distance": 0.4724442,
          "id": 1762708667
        },
        {
          "distance": 0.4764667,
          "id": 1762708645
        },
        {
          "distance": 0.48438695,
          "id": 1762708649
        },
        {
          "distance": 0.50086474,
          "id": 1762707599
        },
        {
          "distance": 0.5039345,
          "id": 1762707779
        },
        {
          "distance": 0.5044981,
          "id": 1762710257
        },
        {
          "distance": 0.508583,
          "id": 1762708641
        },
        {
          "distance": 0.5118631,
          "id": 1762706261
        },
        {
          "distance": 0.5131372,
          "id": 1762708631
        },
        {
          "distance": 0.5131988,
          "id": 1931109389
        }
      ]
    },
    "millsfield:subcategory_id": 1511213363,
    "mz:hierarchy_label": 1,
    "mz:is_current": -1,
    "sfomuseum:filename": "2001.106.215_verso.tif",
    "sfomuseum:image_id": 73231,
    "sfomuseum:image_index": 5,
    "sfomuseum:image_type": "studio",
    "sfomuseum:object_id": 64717,
    "sfomuseum:placetype": "image",
    "sfomuseum:primary_image": 0,
    "src:geom": "sfomuseum",
    "wof:belongsto": [
      1511214215,
      85922583,
      1511213363,
      85633793,
      102087579,
      1511214207,
      1729564039,
      1511214277,
      85688637,
      102527513,
      102191575
    ],
    "wof:breaches": [],
    "wof:country": "XX",
    "wof:created": 1607040724,
    "wof:depicts": [
      1159289653,
      1159293593,
      1159287531,
      1729564039,
      1159285393
    ],
    "wof:geomhash": "30c8a918561c84bb2daa2b97fc7c5353",
    "wof:hierarchy": [
      {
        "arcade_id": 1511213363,
        "building_id": 1511214277,
        "campus_id": 102527513,
        "concourse_id": 1511214215,
        "continent_id": 102191575,
        "country_id": 85633793,
        "county_id": 102087579,
        "custom_id": 1729565639,
        "image_id": 1729565639,
        "locality_id": 85922583,
        "media_id": 1729565639,
        "neighbourhood_id": -1,
        "region_id": 85688637,
        "venue_id": 1729564039,
        "wing_id": 1511214207
      }
    ],
    "wof:id": 1729565639,
    "wof:lastmodified": 1788450292,
    "wof:name": "postcard: TWA (Trans World Airlines), Boeing 707",
    "wof:parent_id": 1729564039,
    "wof:placetype": "custom",
    "wof:placetype_alt": [
      "image"
    ],
    "wof:repo": "sfomuseum-data-media-collection",
    "wof:superseded_by": [],
    "wof:supersedes": [],
    "wof:tags": []
  },
  "bbox": [
    -122.386155,
    37.616357,
    -122.386155,
    37.616357
  ],
  "geometry": {"type":"Point","coordinates":[-122.386155,37.616357]}
}
