{
  "id": 1527829157,
  "type": "Feature",
  "properties": {
    "date:cessation_lower": "1947-02-23",
    "date:cessation_upper": "1947-02-23",
    "date:inception_lower": "1947-02-23",
    "date:inception_upper": "1947-02-23",
    "edtf:cessation": "1947-02-23",
    "edtf:date": "1947-02-23",
    "edtf:inception": "1947-02-23",
    "geom:area": 0,
    "geom:bbox": "-122.386155,37.616358,-122.386155,37.616358",
    "geom:latitude": 37.616358,
    "geom:longitude": -122.386155,
    "iso:country": "US",
    "media:fingerprint": "be548a701d0292f6eced338ba14eac1875ce29b7",
    "media:imagehash_avg": "a:c3bf39b8fe7fbe00",
    "media:imagehash_diff": "d:8e4a7b7070a64e75",
    "media:imagetext": "20%1811661\nASYDRỆT\n.P.\n530P2 F. 7\nDN.S W-TY",
    "media:imagetext_created": 1787949074,
    "media:imagetext_source": "com.apple.visionkit.VNImageRequestHandler#Version 26.6.2 (Build 25G83)",
    "media:medium": "image",
    "media:mimetype": "image/tiff",
    "media:properties": {
      "sizes": {
        "b": {
          "extension": "jpg",
          "height": 586,
          "mimetype": "image/jpeg",
          "secret": "5KhUIvn4vQ0ZwQGorsOr8QKhBm3AdLiH",
          "width": 1024
        },
        "c": {
          "extension": "jpg",
          "height": 458,
          "mimetype": "image/jpeg",
          "secret": "5KhUIvn4vQ0ZwQGorsOr8QKhBm3AdLiH",
          "width": 800
        },
        "dc": {
          "extension": "jpg",
          "height": 458,
          "mimetype": "image/jpeg",
          "secret": "5KhUIvn4vQ0ZwQGorsOr8QKhBm3AdLiH",
          "width": 800
        },
        "ds": {
          "extension": "jpg",
          "height": 320,
          "mimetype": "image/jpeg",
          "secret": "5KhUIvn4vQ0ZwQGorsOr8QKhBm3AdLiH",
          "width": 320
        },
        "k": {
          "extension": "jpg",
          "height": 1173,
          "mimetype": "image/jpeg",
          "secret": "5KhUIvn4vQ0ZwQGorsOr8QKhBm3AdLiH",
          "width": 2048
        },
        "n": {
          "extension": "jpg",
          "height": 183,
          "mimetype": "image/jpeg",
          "secret": "5KhUIvn4vQ0ZwQGorsOr8QKhBm3AdLiH",
          "width": 320
        },
        "o": {
          "extension": "jpg",
          "height": 1182,
          "mimetype": "image/jpeg",
          "secret": "hYSVXq5m2Skr95iAxbULqXUTye2W9aDO",
          "width": 2063
        },
        "s": {
          "extension": "jpg",
          "height": 320,
          "mimetype": "image/jpeg",
          "secret": "5KhUIvn4vQ0ZwQGorsOr8QKhBm3AdLiH",
          "width": 320
        },
        "z": {
          "extension": "jpg",
          "height": 366,
          "mimetype": "image/jpeg",
          "secret": "5KhUIvn4vQ0ZwQGorsOr8QKhBm3AdLiH",
          "width": 640
        }
      }
    },
    "media:source": "sfomuseum",
    "media:status_id": 1,
    "media:uri_template": "https://static.sfomuseum.org/media/152/782/915/7/1527829157_{secret}_{label}.{extension}",
    "millsfield:airline_id": [
      1159284989
    ],
    "millsfield:category_id": 1511214215,
    "millsfield:collection_id": 1511214207,
    "millsfield:company_id": [
      1159286839
    ],
    "millsfield:images_colors": [
      {
        "hex": "#e3dccc",
        "name": "#e3dccc",
        "reference": "marekm4"
      },
      {
        "hex": "#dcdcdc",
        "name": "gainsboro",
        "reference": "css4"
      },
      {
        "hex": "#dbd7d2",
        "name": "Timberwolf",
        "reference": "crayola"
      },
      {
        "hex": "#252940",
        "name": "#252940",
        "reference": "marekm4"
      },
      {
        "hex": "#2f4f4f",
        "name": "darkslategrey",
        "reference": "css4"
      },
      {
        "hex": "#414a4c",
        "name": "Outer Space",
        "reference": "crayola"
      },
      {
        "hex": "#d53d24",
        "name": "#d53d24",
        "reference": "marekm4"
      },
      {
        "hex": "#b22222",
        "name": "firebrick",
        "reference": "css4"
      },
      {
        "hex": "#cd4a4c",
        "name": "Mahogany",
        "reference": "crayola"
      }
    ],
    "millsfield:images_texts": [
      "PAN AMERICAN WORLD AIRWAYS\nFirst Clipper Flight\nHonolulu, T. H.\nto\nSydney, Australia.\nHONOLUKE\nUNITED\nSTATES\nFEB\n23\n1947\n8AM\nLO CENIS 20\nHAWAY AIR MAIL\nCANTON ISLAND\n% Pan American Airways,\nBox 3755, G.P.O.\nSydney,\nAustralia.\nFIRST FLIGHT • F.A.M. I9\nHONGLULU. HAWAII\nTO AUSTRALIA",
      "Another First Flight Cover\nCarried by\nThe Sustem of the Hlying Clippers\nWhen You Think of Air Travel Think of\nPAN AMERICAN WORLD AIRWAYS",
      "20%1811661\nASYDRỆT\n.P.\n530P2 F. 7\nDN.S W-TY"
    ],
    "millsfield:images_texts_ids": [
      1527829151,
      1527829153,
      1527829157
    ],
    "millsfield:similar": {
      "apple/mobileclip_s0": [
        {
          "distance": 0.29177064,
          "id": 1527829793
        },
        {
          "distance": 0.3305994,
          "id": 1527829799
        },
        {
          "distance": 0.33979824,
          "id": 1527829807
        },
        {
          "distance": 0.35772485,
          "id": 1527833305
        },
        {
          "distance": 0.3602213,
          "id": 1527829909
        },
        {
          "distance": 0.37161303,
          "id": 1527828985
        },
        {
          "distance": 0.37280667,
          "id": 1527829401
        },
        {
          "distance": 0.37607583,
          "id": 1527829819
        },
        {
          "distance": 0.3791799,
          "id": 1527820575
        },
        {
          "distance": 0.38362414,
          "id": 1527829813
        }
      ],
      "apple/mobileclip_s1": [
        {
          "distance": 0.15362942,
          "id": 1527829793
        },
        {
          "distance": 0.20367193,
          "id": 1527829807
        },
        {
          "distance": 0.20858744,
          "id": 1527829799
        },
        {
          "distance": 0.21255329,
          "id": 1527820575
        },
        {
          "distance": 0.22365816,
          "id": 1527830195
        },
        {
          "distance": 0.2292704,
          "id": 1527819725
        },
        {
          "distance": 0.22968116,
          "id": 1527829813
        },
        {
          "distance": 0.23204568,
          "id": 1527833929
        },
        {
          "distance": 0.23279828,
          "id": 1527819899
        },
        {
          "distance": 0.23330863,
          "id": 1527828985
        }
      ],
      "apple/mobileclip_s2": [
        {
          "distance": 0.26443088,
          "id": 1527829819
        },
        {
          "distance": 0.2836806,
          "id": 1527829793
        },
        {
          "distance": 0.2910072,
          "id": 1527829395
        },
        {
          "distance": 0.29192194,
          "id": 1527829807
        },
        {
          "distance": 0.2923269,
          "id": 1527829909
        },
        {
          "distance": 0.30130082,
          "id": 1527829813
        },
        {
          "distance": 0.30770522,
          "id": 1527833579
        },
        {
          "distance": 0.3141503,
          "id": 1527832703
        },
        {
          "distance": 0.31774336,
          "id": 1527829599
        },
        {
          "distance": 0.31815884,
          "id": 1527829303
        }
      ]
    },
    "millsfield:subcategory_id": 1511213159,
    "mz:hierarchy_label": 1,
    "mz:is_current": -1,
    "sfomuseum:filename": "47542.tif",
    "sfomuseum:image_id": 47542,
    "sfomuseum:image_index": 5,
    "sfomuseum:image_type": "studio",
    "sfomuseum:object_id": 43730,
    "sfomuseum:placetype": "image",
    "sfomuseum:primary_image": 0,
    "src:geom": "sfomuseum",
    "wof:belongsto": [
      1511214215,
      1511907379,
      102527513,
      102191575,
      85633793,
      1511213159,
      85922583,
      102087579,
      1511214277,
      1511214203,
      85688637,
      136253057
    ],
    "wof:breaches": [],
    "wof:country": "US",
    "wof:created": 1578950797,
    "wof:depicts": [
      1159286839,
      1511907379,
      1159284989
    ],
    "wof:geomhash": "bd906905ce4be6c0651c90b0fc24804c",
    "wof:hierarchy": [
      {
        "arcade_id": 1511213159,
        "building_id": 1511214277,
        "campus_id": 102527513,
        "concourse_id": 1511214215,
        "continent_id": 102191575,
        "country_id": 85633793,
        "county_id": 102087579,
        "custom_id": 1527829157,
        "image_id": 1527829157,
        "locality_id": 85922583,
        "media_id": 1527829157,
        "neighbourhood_id": -1,
        "region_id": 85688637,
        "venue_id": 1511907379,
        "wing_id": 1511214203
      },
      {
        "continent_id": 102191575,
        "country_id": 85633793,
        "custom_id": 1527829157,
        "empire_id": 136253057,
        "image_id": 1527829157,
        "media_id": 1527829157,
        "venue_id": 1511907379
      }
    ],
    "wof:id": 1527829157,
    "wof:lastmodified": 1788449856,
    "wof:name": "airmail flight cover: Pan American World Airways, FAM-19, Honolulu - Sydney route",
    "wof:parent_id": 1511907379,
    "wof:placetype": "custom",
    "wof:placetype_alt": [
      "image"
    ],
    "wof:repo": "sfomuseum-data-media-collection",
    "wof:superseded_by": [],
    "wof:supersedes": [],
    "wof:tags": []
  },
  "bbox": [
    -122.386155,
    37.616358,
    -122.386155,
    37.616358
  ],
  "geometry": {"type":"Point","coordinates":[-122.386155,37.616358]}
}
