{
  "id": 1762713501,
  "type": "Feature",
  "properties": {
    "date:cessation_lower": "1950-01-01",
    "date:cessation_upper": "1959-12-31",
    "date:inception_lower": "1950-01-01",
    "date:inception_upper": "1959-12-31",
    "edtf:cessation": "195X",
    "edtf:inception": "195X",
    "geom:area": 2.477324999997507e-7,
    "geom:bbox": "-122.386472,37.616105,-122.385834,37.616611",
    "geom:latitude": 37.61635756125121,
    "geom:longitude": -122.38615532866096,
    "iso:country": "US",
    "media:fingerprint": "0a9e6e599264c6b7f0009c005cf0a3cdc7c1eba8",
    "media:imagehash_avg": "a:ffff0701000000ff",
    "media:imagehash_diff": "d:6d6d6f7b23736763",
    "media:imagetext": "Los Angeles International Airport",
    "media:imagetext_created": 1787958095,
    "media:imagetext_source": "com.apple.visionkit.VNImageRequestHandler#Version 26.6.2 (Build 25G83)",
    "media:mimetype": "image/tiff",
    "media:properties": {
      "sizes": {
        "b": {
          "extension": "jpg",
          "height": 340,
          "mimetype": "image/jpeg",
          "secret": "dY5rqG7UkJ6amVi1nRzwOo7RQ9t4ZN8S",
          "width": 1024
        },
        "c": {
          "extension": "jpg",
          "height": 265,
          "mimetype": "image/jpeg",
          "secret": "dY5rqG7UkJ6amVi1nRzwOo7RQ9t4ZN8S",
          "width": 800
        },
        "dc": {
          "extension": "jpg",
          "height": 265,
          "mimetype": "image/jpeg",
          "secret": "dY5rqG7UkJ6amVi1nRzwOo7RQ9t4ZN8S",
          "width": 800
        },
        "ds": {
          "extension": "jpg",
          "height": 320,
          "mimetype": "image/jpeg",
          "secret": "dY5rqG7UkJ6amVi1nRzwOo7RQ9t4ZN8S",
          "width": 320
        },
        "k": {
          "extension": "jpg",
          "height": 680,
          "mimetype": "image/jpeg",
          "secret": "dY5rqG7UkJ6amVi1nRzwOo7RQ9t4ZN8S",
          "width": 2048
        },
        "n": {
          "extension": "jpg",
          "height": 106,
          "mimetype": "image/jpeg",
          "secret": "dY5rqG7UkJ6amVi1nRzwOo7RQ9t4ZN8S",
          "width": 320
        },
        "o": {
          "extension": "jpg",
          "height": 1128,
          "mimetype": "image/jpeg",
          "secret": "VOtAJ59aGz5LYwul2sIcuhYBLpDZbzEJ",
          "width": 3393
        },
        "s": {
          "extension": "jpg",
          "height": 320,
          "mimetype": "image/jpeg",
          "secret": "dY5rqG7UkJ6amVi1nRzwOo7RQ9t4ZN8S",
          "width": 320
        },
        "z": {
          "extension": "jpg",
          "height": 212,
          "mimetype": "image/jpeg",
          "secret": "dY5rqG7UkJ6amVi1nRzwOo7RQ9t4ZN8S",
          "width": 640
        }
      }
    },
    "media:source": "sfomuseum",
    "media:status_id": 1,
    "media:uri_template": "https://static.sfomuseum.org/media/176/271/350/1/1762713501_{secret}_{label}.{extension}",
    "millsfield:airport_id": [
      102533795
    ],
    "millsfield:category_id": 1511214215,
    "millsfield:collection_id": 1511214207,
    "millsfield:images_colors": [
      {
        "hex": "#2c3f31",
        "name": "#2c3f31",
        "reference": "marekm4"
      },
      {
        "hex": "#2f4f4f",
        "name": "darkslategrey",
        "reference": "css4"
      },
      {
        "hex": "#414a4c",
        "name": "Outer Space",
        "reference": "crayola"
      },
      {
        "hex": "#bbc4b9",
        "name": "#bbc4b9",
        "reference": "marekm4"
      },
      {
        "hex": "#c0c0c0",
        "name": "silver",
        "reference": "css4"
      },
      {
        "hex": "#cdc5c2",
        "name": "Silver",
        "reference": "crayola"
      },
      {
        "hex": "#728773",
        "name": "#728773",
        "reference": "marekm4"
      },
      {
        "hex": "#808080",
        "name": "grey",
        "reference": "css4"
      },
      {
        "hex": "#757575",
        "name": "Sonic Silver",
        "reference": "crayola"
      },
      {
        "hex": "#71908f",
        "name": "#71908f",
        "reference": "marekm4"
      },
      {
        "hex": "#778899",
        "name": "lightslategrey",
        "reference": "css4"
      },
      {
        "hex": "#6dae81",
        "name": "Forest Green",
        "reference": "crayola"
      },
      {
        "hex": "#95956f",
        "name": "#95956f",
        "reference": "marekm4"
      },
      {
        "hex": "#9f8170",
        "name": "Beaver",
        "reference": "crayola"
      }
    ],
    "millsfield:images_texts": [
      "Los Angeles International Airport",
      "(Plastichteme\nBOSTon\nBY MITOCK PUBLISHERS INC.. 7410 GREENBUSH AVE..\nLOS ANGELES INTERNATIONAL AIRPORT\nSpectacular view of one of the busiest and most beautiful air facilities in the world.\nPhoto by Don Ceppi\nP309464\nLETTER RATE\nADDRESS\n2015.166.2560"
    ],
    "millsfield:images_texts_ids": [
      1762713501,
      1762713503
    ],
    "millsfield:similar": {
      "apple/mobileclip_s0": [
        {
          "distance": 0.6004116,
          "id": 1762710811
        },
        {
          "distance": 0.6122663,
          "id": 1762698661
        },
        {
          "distance": 0.616061,
          "id": 1763444699
        },
        {
          "distance": 0.6169222,
          "id": 1762711033
        },
        {
          "distance": 0.62828535,
          "id": 1762895687
        },
        {
          "distance": 0.6286829,
          "id": 1762711549
        },
        {
          "distance": 0.6331589,
          "id": 1762711779
        },
        {
          "distance": 0.64417297,
          "id": 1762895693
        },
        {
          "distance": 0.6443986,
          "id": 1762898585
        },
        {
          "distance": 0.6525137,
          "id": 1527832429
        }
      ],
      "apple/mobileclip_s1": [
        {
          "distance": 0.40459108,
          "id": 1762711771
        },
        {
          "distance": 0.44031206,
          "id": 1762712503
        },
        {
          "distance": 0.44518816,
          "id": 1762711549
        },
        {
          "distance": 0.4507452,
          "id": 1762711033
        },
        {
          "distance": 0.4521725,
          "id": 1762711541
        },
        {
          "distance": 0.45250213,
          "id": 1762710663
        },
        {
          "distance": 0.46126556,
          "id": 1762712835
        },
        {
          "distance": 0.4620701,
          "id": 1762711019
        },
        {
          "distance": 0.47236094,
          "id": 1762711779
        },
        {
          "distance": 0.4726861,
          "id": 1762898585
        }
      ],
      "apple/mobileclip_s2": [
        {
          "distance": 0.5706828,
          "id": 1762711541
        },
        {
          "distance": 0.5809522,
          "id": 1762711527
        },
        {
          "distance": 0.58210653,
          "id": 1762711771
        },
        {
          "distance": 0.5881468,
          "id": 1762711779
        },
        {
          "distance": 0.58832043,
          "id": 1762712503
        },
        {
          "distance": 0.5927683,
          "id": 1762711033
        },
        {
          "distance": 0.5985814,
          "id": 1762711549
        },
        {
          "distance": 0.60841215,
          "id": 1763444633
        },
        {
          "distance": 0.6090283,
          "id": 1762712161
        },
        {
          "distance": 0.61176586,
          "id": 1762712625
        }
      ]
    },
    "millsfield:subcategory_id": 1511213363,
    "mz:is_current": 1,
    "sfomuseum:filename": "2015.166.2560_ft.tif",
    "sfomuseum:image_id": 159920,
    "sfomuseum:image_index": 5,
    "sfomuseum:image_type": "studio",
    "sfomuseum:object_id": 182321,
    "sfomuseum:placetype": "image",
    "sfomuseum:primary_image": 1,
    "src:geom": "sfomuseum",
    "wof:belongsto": [
      102527513,
      1159162825,
      102191575,
      85633793,
      102087579,
      85922583,
      1762681771,
      85688637,
      1159160869
    ],
    "wof:country": "US",
    "wof:created": 1641351166,
    "wof:depicts": [
      102533795,
      1762681771
    ],
    "wof:geomhash": "ed7c2ab3547fc3916b5edc33488deaa7",
    "wof:hierarchy": [
      {
        "building_id": -1,
        "campus_id": 102527513,
        "collection_id": 1159162825,
        "concourse_id": 1159162825,
        "continent_id": 102191575,
        "country_id": 85633793,
        "county_id": 102087579,
        "custom_id": 1762713501,
        "image_id": 1762713501,
        "locality_id": 85922583,
        "neighbourhood_id": -1,
        "object_id": 1762681771,
        "region_id": 85688637,
        "wing_id": 1159160869
      }
    ],
    "wof:id": 1762713501,
    "wof:lastmodified": 1788450667,
    "wof:name": "postcard: Los Angeles International Airport",
    "wof:parent_id": 1762681771,
    "wof:placetype": "custom",
    "wof:placetype_alt": [
      "image"
    ],
    "wof:repo": "sfomuseum-data-media-collection",
    "wof:superseded_by": [],
    "wof:supersedes": []
  },
  "bbox": [
    -122.386472,
    37.616105,
    -122.385834,
    37.616611
  ],
  "geometry": {"type":"Polygon","coordinates":[[[-122.386472,37.616318],[-122.386435,37.616233],[-122.386376,37.616178],[-122.386301,37.616131],[-122.386161,37.616105],[-122.386022,37.616131],[-122.385914,37.616186],[-122.385855,37.616267],[-122.385834,37.616369],[-122.385871,37.616467],[-122.385941,37.616543],[-122.386054,37.616603],[-122.386183,37.616611],[-122.386306,37.616573],[-122.386419,37.616509],[-122.386467,37.616411],[-122.386472,37.616318]]]}
}
