{
  "id": 2048167531,
  "type": "Feature",
  "properties": {
    "date:cessation_lower": "1970-04-01",
    "date:cessation_upper": "1970-04-30",
    "date:inception_lower": "1970-01-01",
    "date:inception_upper": "1970-01-31",
    "edtf:cessation": "1970-04",
    "edtf:inception": "1970-01",
    "geom:area": 2.475047457570636e-7,
    "geom:bbox": "-122.386472,37.616105,-122.385834,37.616611",
    "geom:latitude": 37.61635747477365,
    "geom:longitude": -122.38615540108617,
    "media:fingerprint": "1ed329b956866e4a78f5129d92907bd07322d58e",
    "media:imagehash_avg": "a:00382c2c3c3c3c00",
    "media:imagehash_diff": "d:e0e04848e8e8e0f0",
    "media:imagetext": "JICAGO\nUnited.\nPartners in travel with\nWestern International Hotels.",
    "media:imagetext_created": 1787976496,
    "media:imagetext_source": "com.apple.visionkit.VNImageRequestHandler#Version 26.6.2 (Build 25G83)",
    "media:mimetype": "image/jpeg",
    "media:properties": {
      "colours": null,
      "sizes": {
        "b": {
          "extension": "jpg",
          "height": 767,
          "mimetype": "image/jpeg",
          "secret": "m2fPRrjJ9sht9lGk2lRYiydFrI7i0Fk2",
          "width": 959
        },
        "c": {
          "extension": "jpg",
          "height": 600,
          "mimetype": "image/jpeg",
          "secret": "m2fPRrjJ9sht9lGk2lRYiydFrI7i0Fk2",
          "width": 750
        },
        "dc": {
          "extension": "jpg",
          "height": 320,
          "mimetype": "image/jpeg",
          "secret": "m2fPRrjJ9sht9lGk2lRYiydFrI7i0Fk2",
          "width": 320
        },
        "ds": {
          "extension": "jpg",
          "height": 320,
          "mimetype": "image/jpeg",
          "secret": "m2fPRrjJ9sht9lGk2lRYiydFrI7i0Fk2",
          "width": 320
        },
        "k": {
          "extension": "jpg",
          "height": 1535,
          "mimetype": "image/jpeg",
          "secret": "m2fPRrjJ9sht9lGk2lRYiydFrI7i0Fk2",
          "width": 1919
        },
        "n": {
          "extension": "jpg",
          "height": 240,
          "mimetype": "image/jpeg",
          "secret": "m2fPRrjJ9sht9lGk2lRYiydFrI7i0Fk2",
          "width": 300
        },
        "o": {
          "extension": "jpg",
          "height": 2472,
          "mimetype": "image/jpeg",
          "secret": "OaEL1mRbnxzB0GwrycQce4gwRYfpq35a",
          "width": 3090
        },
        "s": {
          "extension": "jpg",
          "height": 320,
          "mimetype": "image/jpeg",
          "secret": "m2fPRrjJ9sht9lGk2lRYiydFrI7i0Fk2",
          "width": 320
        },
        "z": {
          "extension": "jpg",
          "height": 480,
          "mimetype": "image/jpeg",
          "secret": "m2fPRrjJ9sht9lGk2lRYiydFrI7i0Fk2",
          "width": 600
        }
      }
    },
    "media:source": "sfomuseum",
    "media:status_id": 1,
    "media:uri_template": "https://static.sfomuseum.org/media/204/816/753/1/2048167531_{secret}_{label}.{extention}",
    "millsfield:airline_id": [
      1159285415
    ],
    "millsfield:category_id": 1746152533,
    "millsfield:collection_id": 1511214203,
    "millsfield:company_id": [
      1159288779
    ],
    "millsfield:images_colors": [
      {
        "hex": "#c1bfb9",
        "name": "#c1bfb9",
        "reference": "marekm4"
      },
      {
        "hex": "#c0c0c0",
        "name": "silver",
        "reference": "css4"
      },
      {
        "hex": "#cdc5c2",
        "name": "Silver",
        "reference": "crayola"
      },
      {
        "hex": "#141e5a",
        "name": "#141e5a",
        "reference": "marekm4"
      },
      {
        "hex": "#191970",
        "name": "midnightblue",
        "reference": "css4"
      },
      {
        "hex": "#1a4876",
        "name": "Midnight Blue",
        "reference": "crayola"
      }
    ],
    "millsfield:images_texts": [
      "JICAGO\nUnited.\nPartners in travel with\nWestern International Hotels."
    ],
    "millsfield:images_texts_ids": [
      2048167531
    ],
    "millsfield:similar": {
      "apple/mobileclip_s0": [
        {
          "distance": 0.25639287,
          "id": 2048167533
        },
        {
          "distance": 0.26233965,
          "id": 2048167529
        },
        {
          "distance": 0.28916728,
          "id": 2048167535
        },
        {
          "distance": 0.323419,
          "id": 2048167517
        },
        {
          "distance": 0.3262456,
          "id": 2048167525
        },
        {
          "distance": 0.40111157,
          "id": 2048176479
        },
        {
          "distance": 0.40673068,
          "id": 2048167523
        },
        {
          "distance": 0.41948736,
          "id": 2048167547
        },
        {
          "distance": 0.42096645,
          "id": 2048167543
        },
        {
          "distance": 0.43956414,
          "id": 2048176483
        }
      ],
      "apple/mobileclip_s1": [
        {
          "distance": 0.19251963,
          "id": 2048167533
        },
        {
          "distance": 0.19877328,
          "id": 2048167535
        },
        {
          "distance": 0.2211683,
          "id": 2048167529
        },
        {
          "distance": 0.2530464,
          "id": 2048167517
        },
        {
          "distance": 0.26666367,
          "id": 2048167525
        },
        {
          "distance": 0.2775928,
          "id": 2048167523
        },
        {
          "distance": 0.29103348,
          "id": 2048176479
        },
        {
          "distance": 0.29301178,
          "id": 2048167545
        },
        {
          "distance": 0.29910848,
          "id": 2048167547
        },
        {
          "distance": 0.30472896,
          "id": 2048176483
        }
      ],
      "apple/mobileclip_s2": [
        {
          "distance": 0.26321322,
          "id": 2048167535
        },
        {
          "distance": 0.31222546,
          "id": 2048167533
        },
        {
          "distance": 0.3517872,
          "id": 2048176479
        },
        {
          "distance": 0.35376438,
          "id": 2048167529
        },
        {
          "distance": 0.36195433,
          "id": 2048176483
        },
        {
          "distance": 0.38343272,
          "id": 2048167545
        },
        {
          "distance": 0.38790193,
          "id": 2048167517
        },
        {
          "distance": 0.40009832,
          "id": 2048167543
        },
        {
          "distance": 0.40426168,
          "id": 2048167547
        },
        {
          "distance": 0.44570678,
          "id": 2048167523
        }
      ]
    },
    "millsfield:subcategory_id": 1511213839,
    "mz:is_current": 1,
    "sfomuseum:filename": "2024.100.1893.jpg",
    "sfomuseum:image_id": 294011,
    "sfomuseum:image_index": 0,
    "sfomuseum:image_type": "studio",
    "sfomuseum:object_id": 249869,
    "sfomuseum:placetype": "image",
    "sfomuseum:primary_image": 1,
    "src:geom": "sfomuseum",
    "wof:belongsto": [
      102527513,
      1159162825,
      102191575,
      85633793,
      102087579,
      85922583,
      2048161171,
      85688637,
      1159160869
    ],
    "wof:country": "XY",
    "wof:created": 1787815659,
    "wof:depicts": [
      1159285415,
      1159288779,
      2048161171
    ],
    "wof:geomhash": "c281b9d9eefc83b5710e64b9d646067d",
    "wof:hierarchy": [
      {
        "building_id": -1,
        "campus_id": 102527513,
        "collection_id": 1159162825,
        "concourse_id": 1159162825,
        "continent_id": 102191575,
        "country_id": 85633793,
        "county_id": 102087579,
        "custom_id": 2048167531,
        "locality_id": 85922583,
        "neighbourhood_id": -1,
        "object_id": 2048161171,
        "region_id": 85688637,
        "wing_id": 1159160869
      }
    ],
    "wof:id": 2048167531,
    "wof:lastmodified": 1788452768,
    "wof:name": "cocktail napkin: United Air Lines, Chicago",
    "wof:parent_id": 2048161171,
    "wof:placetype": "custom",
    "wof:repo": "sfomuseum-data-media-collection",
    "wof:superseded_by": [],
    "wof:supersedes": []
  },
  "bbox": [
    -122.38647222518921,
    37.6161053594541,
    -122.38583385944366,
    37.61661101879963
  ],
  "geometry": {"type":"Polygon","coordinates":[[[-122.38647222518921,37.61631782178288],[-122.386434674263,37.61623283692423],[-122.38637566566466,37.61617759671399],[-122.38630056381224,37.6161308549656],[-122.38616108894348,37.6161053594541],[-122.38602161407469,37.6161308549656],[-122.38591432571411,37.61618609521055],[-122.38585531711577,37.61626683087935],[-122.38583385944366,37.61636881265146],[-122.38587141036987,37.61646654505181],[-122.38594114780425,37.61654303118856],[-122.38605380058287,37.61660252035167],[-122.38618254661559,37.61661101879963],[-122.3863059282303,37.61657277577607],[-122.3864185810089,37.61650903735973],[-122.3864668607712,37.61641130501523],[-122.38647222518921,37.61631782178288]]]}
}
