{
  "id": 1796454937,
  "type": "Feature",
  "properties": {
    "date:cessation_lower": "1970-01-01",
    "date:cessation_upper": "1979-12-31",
    "date:inception_lower": "1970-01-01",
    "date:inception_upper": "1979-12-31",
    "edtf:cessation": "197X",
    "edtf:inception": "197X",
    "geom:area": 2.477324999997507e-7,
    "geom:bbox": "-122.386472,37.616105,-122.385834,37.616611",
    "geom:latitude": 37.61635756125121,
    "geom:longitude": -122.38615532866096,
    "media:fingerprint": "e74881a43aae77bd28e3f7a45f6d2b7ebd43b773",
    "media:imagehash_avg": "a:ffffefe666200000",
    "media:imagehash_diff": "d:b058dcdcdcccf0f0",
    "media:imagetext": "DEDDER\nPER\nBREAK\nHELE\n• PEPPER",
    "media:imagetext_created": 1787966434,
    "media:imagetext_source": "com.apple.visionkit.VNImageRequestHandler#Version 26.6.2 (Build 25G83)",
    "media:mimetype": "image/tiff",
    "media:properties": {
      "sizes": {
        "b": {
          "extension": "jpg",
          "height": 768,
          "mimetype": "image/jpeg",
          "secret": "WVq1dBGoqSaqkV7J2RvCjdsv9Vo3otO5",
          "width": 965
        },
        "c": {
          "extension": "jpg",
          "height": 600,
          "mimetype": "image/jpeg",
          "secret": "WVq1dBGoqSaqkV7J2RvCjdsv9Vo3otO5",
          "width": 754
        },
        "dc": {
          "extension": "jpg",
          "height": 600,
          "mimetype": "image/jpeg",
          "secret": "WVq1dBGoqSaqkV7J2RvCjdsv9Vo3otO5",
          "width": 754
        },
        "ds": {
          "extension": "jpg",
          "height": 320,
          "mimetype": "image/jpeg",
          "secret": "WVq1dBGoqSaqkV7J2RvCjdsv9Vo3otO5",
          "width": 320
        },
        "k": {
          "extension": "jpg",
          "height": 1536,
          "mimetype": "image/jpeg",
          "secret": "WVq1dBGoqSaqkV7J2RvCjdsv9Vo3otO5",
          "width": 1931
        },
        "n": {
          "extension": "jpg",
          "height": 240,
          "mimetype": "image/jpeg",
          "secret": "WVq1dBGoqSaqkV7J2RvCjdsv9Vo3otO5",
          "width": 301
        },
        "o": {
          "extension": "jpg",
          "height": 1667,
          "mimetype": "image/jpeg",
          "secret": "qw5AxlExDjpBmKelb67qzMIXsFW87tKB",
          "width": 2096
        },
        "s": {
          "extension": "jpg",
          "height": 320,
          "mimetype": "image/jpeg",
          "secret": "WVq1dBGoqSaqkV7J2RvCjdsv9Vo3otO5",
          "width": 320
        },
        "z": {
          "extension": "jpg",
          "height": 480,
          "mimetype": "image/jpeg",
          "secret": "WVq1dBGoqSaqkV7J2RvCjdsv9Vo3otO5",
          "width": 603
        }
      }
    },
    "media:source": "sfomuseum",
    "media:status_id": 1,
    "media:uri_template": "https://static.sfomuseum.org/media/179/645/493/7/1796454937_{secret}_{label}.{extension}",
    "millsfield:airline_id": [
      1159283849
    ],
    "millsfield:category_id": 1746152551,
    "millsfield:collection_id": 1511214203,
    "millsfield:company_id": [
      1360700619
    ],
    "millsfield:images_colors": [
      {
        "hex": "#b3b1af",
        "name": "#b3b1af",
        "reference": "marekm4"
      },
      {
        "hex": "#a9a9a9",
        "name": "darkgrey",
        "reference": "css4"
      },
      {
        "hex": "#b0b7c6",
        "name": "Cadet Blue",
        "reference": "crayola"
      },
      {
        "hex": "#55595b",
        "name": "#55595b",
        "reference": "marekm4"
      },
      {
        "hex": "#696969",
        "name": "dimgrey",
        "reference": "css4"
      },
      {
        "hex": "#4a646c",
        "name": "Deep Space Sparkle",
        "reference": "crayola"
      }
    ],
    "millsfield:images_texts": [
      "PEPPER\nAMERICAN AIRLINES.\nAMERICAS LEADING AIRLINE",
      "DEDDER\nPER\nBREAK\nHELE\n• PEPPER"
    ],
    "millsfield:images_texts_ids": [
      1796454935,
      1796454937
    ],
    "millsfield:similar": {
      "apple/mobileclip_s0": [
        {
          "distance": 0.4902754,
          "id": 1796455045
        },
        {
          "distance": 0.5238216,
          "id": 1796454957
        },
        {
          "distance": 0.53069013,
          "id": 1796455003
        },
        {
          "distance": 0.5401425,
          "id": 1796455315
        },
        {
          "distance": 0.56545466,
          "id": 1796454905
        },
        {
          "distance": 0.57102287,
          "id": 1796455293
        },
        {
          "distance": 0.571326,
          "id": 1863470603
        },
        {
          "distance": 0.57141477,
          "id": 1796455301
        },
        {
          "distance": 0.57183313,
          "id": 1796455371
        },
        {
          "distance": 0.5727261,
          "id": 1796454869
        }
      ],
      "apple/mobileclip_s1": [
        {
          "distance": 0.30211663,
          "id": 1796455045
        },
        {
          "distance": 0.3653611,
          "id": 1796454859
        },
        {
          "distance": 0.3837562,
          "id": 1796455301
        },
        {
          "distance": 0.38814566,
          "id": 1796454943
        },
        {
          "distance": 0.39438856,
          "id": 1796454893
        },
        {
          "distance": 0.39511287,
          "id": 1796455293
        },
        {
          "distance": 0.39939117,
          "id": 1796454957
        },
        {
          "distance": 0.40005443,
          "id": 1796455003
        },
        {
          "distance": 0.40256092,
          "id": 1796455371
        },
        {
          "distance": 0.41068104,
          "id": 1796454901
        }
      ],
      "apple/mobileclip_s2": [
        {
          "distance": 0.4020255,
          "id": 1796455045
        },
        {
          "distance": 0.44571814,
          "id": 1796454859
        },
        {
          "distance": 0.46586186,
          "id": 1796454957
        },
        {
          "distance": 0.5433822,
          "id": 1863470609
        },
        {
          "distance": 0.54429895,
          "id": 1796454943
        },
        {
          "distance": 0.5622523,
          "id": 1796455293
        },
        {
          "distance": 0.56640285,
          "id": 1796455301
        },
        {
          "distance": 0.570389,
          "id": 1796454947
        },
        {
          "distance": 0.5752779,
          "id": 1796455315
        },
        {
          "distance": 0.5760651,
          "id": 1796454929
        }
      ]
    },
    "millsfield:subcategory_id": 1511213731,
    "mz:is_current": 1,
    "sfomuseum:filename": "121346.tif",
    "sfomuseum:image_id": 121346,
    "sfomuseum:image_index": 5,
    "sfomuseum:image_type": "studio",
    "sfomuseum:object_id": 66096,
    "sfomuseum:placetype": "image",
    "sfomuseum:primary_image": 0,
    "src:geom": "sfomuseum",
    "wof:belongsto": [
      102527513,
      1159162825,
      102191575,
      85633793,
      102087579,
      85922583,
      1796454623,
      85688637,
      1159160869
    ],
    "wof:country": "XY",
    "wof:created": 1666079697,
    "wof:depicts": [
      1360700619,
      1796454623,
      1159283849
    ],
    "wof:geomhash": "ed7c2ab3547fc3916b5edc33488deaa7",
    "wof:hierarchy": [
      {
        "building_id": -1,
        "campus_id": 102527513,
        "collection_id": 1159162825,
        "concourse_id": 1159162825,
        "continent_id": 102191575,
        "country_id": 85633793,
        "county_id": 102087579,
        "custom_id": 1796454937,
        "image_id": 1796454937,
        "locality_id": 85922583,
        "neighbourhood_id": -1,
        "object_id": 1796454623,
        "region_id": 85688637,
        "wing_id": 1159160869
      }
    ],
    "wof:id": 1796454937,
    "wof:lastmodified": 1788451513,
    "wof:name": "pepper packet: American Airlines",
    "wof:parent_id": 1796454623,
    "wof:placetype": "custom",
    "wof:placetype_alt": [
      "image"
    ],
    "wof:repo": "sfomuseum-data-media-collection",
    "wof:superseded_by": [],
    "wof:supersedes": []
  },
  "bbox": [
    -122.386472,
    37.616105,
    -122.385834,
    37.616611
  ],
  "geometry": {"type":"Polygon","coordinates":[[[-122.386472,37.616318],[-122.386435,37.616233],[-122.386376,37.616178],[-122.386301,37.616131],[-122.386161,37.616105],[-122.386022,37.616131],[-122.385914,37.616186],[-122.385855,37.616267],[-122.385834,37.616369],[-122.385871,37.616467],[-122.385941,37.616543],[-122.386054,37.616603],[-122.386183,37.616611],[-122.386306,37.616573],[-122.386419,37.616509],[-122.386467,37.616411],[-122.386472,37.616318]]]}
}
