{
  "id": 1527850601,
  "type": "Feature",
  "properties": {
    "date:cessation_lower": "1964-01-01",
    "date:cessation_upper": "1964-12-31",
    "date:inception_lower": "1964-01-01",
    "date:inception_upper": "1964-12-31",
    "edtf:cessation": "1964",
    "edtf:date": "1964",
    "edtf:inception": "1964",
    "geom:area": 0,
    "geom:bbox": "-122.386155,37.616358,-122.386155,37.616358",
    "geom:latitude": 37.616358,
    "geom:longitude": -122.386155,
    "iso:country": "XX",
    "media:fingerprint": "7a254fdf78262e21148285bf3493708468d91daa",
    "media:imagehash_avg": "a:ff818181818181ff",
    "media:imagehash_diff": "d:2b2b6d47671f3f3f",
    "media:imagetext": "PACIFIC\ndaylight\nstandard\nMOUNTAIN\n3\ndaylight standard\nCENTRAL\nEASTERN\n• 3\ndaylight\nstandard\ndaylight\nstandard\nBOSTON\nProvidence\nSAN FRANCISCO/\nOAKLAND\nLAS VEGAS\nLOS ANGELES /\nLONG BEACH\nNEW ORLEANS\nHOUSTON\nSAN DIEGO\nNEW YORK\nNewark\nPHILADELPHIA\nBaltimore\nWASHINGTON\nRichmond\nNewport News / Hampton\nNorfolk\nCharleston\nSavannah\nTallahassee\nPanama City\nPensacola\nMobile\nJACKSONVILLE\nOrlando\nDaytona Beach\nCAPE KENNEDY\nTAMPA/ST. PETERSBURG\nMelbourne\nClearwater\nPalm Beach\nLakeland\nSarasota\nBradenton\nMIAMI/ FT. LAUDERDALE\nKey West\nFt. Myers\nNATIONAL\nNational Airlines, Inc., Certificated Routes\nThru-Plane Service. National, Pan Am, Panagra\nBalboa • Panama City\n• Cali\n• Quito\n• Guayaquil\n• Lima\n• La Paz\n• Antofagasta\nSantiago •\n• Buenos Aires",
    "media:imagetext_created": 1787953035,
    "media:imagetext_source": "com.apple.visionkit.VNImageRequestHandler#Version 26.6.2 (Build 25G83)",
    "media:medium": "image",
    "media:mimetype": "image/tiff",
    "media:properties": {
      "sizes": {
        "b": {
          "extension": "jpg",
          "height": 768,
          "mimetype": "image/jpeg",
          "secret": "Id4uqDTXHzKAOhneRS2tp4Vxw1s4wgvj",
          "width": 680
        },
        "c": {
          "extension": "jpg",
          "height": 600,
          "mimetype": "image/jpeg",
          "secret": "Id4uqDTXHzKAOhneRS2tp4Vxw1s4wgvj",
          "width": 531
        },
        "dc": {
          "extension": "jpg",
          "height": 600,
          "mimetype": "image/jpeg",
          "secret": "Id4uqDTXHzKAOhneRS2tp4Vxw1s4wgvj",
          "width": 531
        },
        "ds": {
          "extension": "jpg",
          "height": 320,
          "mimetype": "image/jpeg",
          "secret": "Id4uqDTXHzKAOhneRS2tp4Vxw1s4wgvj",
          "width": 320
        },
        "k": {
          "extension": "jpg",
          "height": 1536,
          "mimetype": "image/jpeg",
          "secret": "Id4uqDTXHzKAOhneRS2tp4Vxw1s4wgvj",
          "width": 1361
        },
        "n": {
          "extension": "jpg",
          "height": 240,
          "mimetype": "image/jpeg",
          "secret": "Id4uqDTXHzKAOhneRS2tp4Vxw1s4wgvj",
          "width": 212
        },
        "o": {
          "extension": "jpg",
          "height": 2743,
          "mimetype": "image/jpeg",
          "secret": "wcwbKJGlr7ULROfrQzayAl4kRt4z6Iao",
          "width": 2432
        },
        "s": {
          "extension": "jpg",
          "height": 320,
          "mimetype": "image/jpeg",
          "secret": "Id4uqDTXHzKAOhneRS2tp4Vxw1s4wgvj",
          "width": 320
        },
        "z": {
          "extension": "jpg",
          "height": 480,
          "mimetype": "image/jpeg",
          "secret": "Id4uqDTXHzKAOhneRS2tp4Vxw1s4wgvj",
          "width": 425
        }
      }
    },
    "media:source": "sfomuseum",
    "media:status_id": 1,
    "media:uri_template": "https://static.sfomuseum.org/media/152/785/060/1/1527850601_{secret}_{label}.{extension}",
    "millsfield:aircraft_id": [
      1159290443
    ],
    "millsfield:airline_id": [
      1159284841
    ],
    "millsfield:category_id": 1511214223,
    "millsfield:collection_id": 1511214207,
    "millsfield:company_id": [],
    "millsfield:images_colors": [
      {
        "hex": "#4f9eaf",
        "name": "#4f9eaf",
        "reference": "marekm4"
      },
      {
        "hex": "#5f9ea0",
        "name": "cadetblue",
        "reference": "css4"
      },
      {
        "hex": "#6699cc",
        "name": "Blue Gray",
        "reference": "crayola"
      },
      {
        "hex": "#e3e3db",
        "name": "#e3e3db",
        "reference": "marekm4"
      },
      {
        "hex": "#dcdcdc",
        "name": "gainsboro",
        "reference": "css4"
      },
      {
        "hex": "#dbd7d2",
        "name": "Timberwolf",
        "reference": "crayola"
      },
      {
        "hex": "#1b282a",
        "name": "#1b282a",
        "reference": "marekm4"
      },
      {
        "hex": "#2f4f4f",
        "name": "darkslategrey",
        "reference": "css4"
      },
      {
        "hex": "#414a4c",
        "name": "Outer Space",
        "reference": "crayola"
      }
    ],
    "millsfield:images_texts": [
      "EFFECTIVE APRIL 26, 1964\nNATIONAL\nAIRLINES\nSYSTEM TIMETABLE\nCome lo the\nAR\nAND SEE THE WORLD!\nFLORIDA\nNOW OPEN!\nUnisphere@ presented by\nUnited States Steel\n© 1961 New York World's Foir\n1964.1965 Corporation",
      "PACIFIC\ndaylight\nstandard\nMOUNTAIN\n3\ndaylight standard\nCENTRAL\nEASTERN\n• 3\ndaylight\nstandard\ndaylight\nstandard\nBOSTON\nProvidence\nSAN FRANCISCO/\nOAKLAND\nLAS VEGAS\nLOS ANGELES /\nLONG BEACH\nNEW ORLEANS\nHOUSTON\nSAN DIEGO\nNEW YORK\nNewark\nPHILADELPHIA\nBaltimore\nWASHINGTON\nRichmond\nNewport News / Hampton\nNorfolk\nCharleston\nSavannah\nTallahassee\nPanama City\nPensacola\nMobile\nJACKSONVILLE\nOrlando\nDaytona Beach\nCAPE KENNEDY\nTAMPA/ST. PETERSBURG\nMelbourne\nClearwater\nPalm Beach\nLakeland\nSarasota\nBradenton\nMIAMI/ FT. LAUDERDALE\nKey West\nFt. Myers\nNATIONAL\nNational Airlines, Inc., Certificated Routes\nThru-Plane Service. National, Pan Am, Panagra\nBalboa • Panama City\n• Cali\n• Quito\n• Guayaquil\n• Lima\n• La Paz\n• Antofagasta\nSantiago •\n• Buenos Aires"
    ],
    "millsfield:images_texts_ids": [
      1527846765,
      1527850601
    ],
    "millsfield:similar": {
      "apple/mobileclip_s0": [
        {
          "distance": 0.48829845,
          "id": 1527850603
        },
        {
          "distance": 0.50722593,
          "id": 1527850595
        },
        {
          "distance": 0.5240477,
          "id": 1527850597
        },
        {
          "distance": 0.53427607,
          "id": 1527850599
        },
        {
          "distance": 0.5923183,
          "id": 1762698173
        },
        {
          "distance": 0.6172093,
          "id": 1527851119
        },
        {
          "distance": 0.63585913,
          "id": 1527850651
        },
        {
          "distance": 0.6360454,
          "id": 1527846845
        },
        {
          "distance": 0.6374439,
          "id": 1762702283
        },
        {
          "distance": 0.6389171,
          "id": 1527849885
        }
      ],
      "apple/mobileclip_s1": [
        {
          "distance": 0.3108231,
          "id": 1527850603
        },
        {
          "distance": 0.35965803,
          "id": 1527850599
        },
        {
          "distance": 0.37957877,
          "id": 1527850595
        },
        {
          "distance": 0.39072216,
          "id": 1527850597
        },
        {
          "distance": 0.44228846,
          "id": 1527846203
        },
        {
          "distance": 0.4457813,
          "id": 1762698173
        },
        {
          "distance": 0.45891613,
          "id": 1527850739
        },
        {
          "distance": 0.46333003,
          "id": 1527850651
        },
        {
          "distance": 0.47225198,
          "id": 1762715299
        },
        {
          "distance": 0.47411788,
          "id": 1527837227
        }
      ],
      "apple/mobileclip_s2": [
        {
          "distance": 0.44975296,
          "id": 1527850603
        },
        {
          "distance": 0.5535595,
          "id": 1527850599
        },
        {
          "distance": 0.5704195,
          "id": 1527850597
        },
        {
          "distance": 0.58672106,
          "id": 1527850595
        },
        {
          "distance": 0.6122261,
          "id": 1762713967
        },
        {
          "distance": 0.61500245,
          "id": 1762698173
        },
        {
          "distance": 0.65764356,
          "id": 1527851551
        },
        {
          "distance": 0.66375643,
          "id": 1762698175
        },
        {
          "distance": 0.67718947,
          "id": 1527851173
        },
        {
          "distance": 0.6778553,
          "id": 1527851459
        }
      ]
    },
    "millsfield:subcategory_id": 1511213425,
    "mz:hierarchy_label": 1,
    "mz:is_current": -1,
    "sfomuseum:filename": "81982.tif",
    "sfomuseum:image_id": 81982,
    "sfomuseum:image_index": 5,
    "sfomuseum:image_type": "studio",
    "sfomuseum:object_id": 97907,
    "sfomuseum:placetype": "image",
    "sfomuseum:primary_image": 0,
    "src:geom": "sfomuseum",
    "wof:belongsto": [
      1511214223,
      1511936629,
      102527513,
      102191575,
      85633793,
      1511213425,
      85922583,
      102087579,
      1511214277,
      1511214203,
      85688637
    ],
    "wof:breaches": [],
    "wof:country": "XX",
    "wof:created": 1578954215,
    "wof:depicts": [
      1159284841,
      1159288429,
      1511936629,
      1159290443
    ],
    "wof:geomhash": "bd906905ce4be6c0651c90b0fc24804c",
    "wof:hierarchy": [
      {
        "arcade_id": 1511213425,
        "building_id": 1511214277,
        "campus_id": 102527513,
        "concourse_id": 1511214223,
        "continent_id": 102191575,
        "country_id": 85633793,
        "county_id": 102087579,
        "custom_id": 1527850601,
        "image_id": 1527850601,
        "locality_id": 85922583,
        "media_id": 1527850601,
        "neighbourhood_id": -1,
        "region_id": 85688637,
        "venue_id": 1511936629,
        "wing_id": 1511214203
      }
    ],
    "wof:id": 1527850601,
    "wof:lastmodified": 1788450179,
    "wof:name": "timetable: National Airlines",
    "wof:parent_id": 1511936629,
    "wof:placetype": "custom",
    "wof:placetype_alt": [
      "image"
    ],
    "wof:repo": "sfomuseum-data-media-collection",
    "wof:superseded_by": [],
    "wof:supersedes": [],
    "wof:tags": []
  },
  "bbox": [
    -122.386155,
    37.616358,
    -122.386155,
    37.616358
  ],
  "geometry": {"type":"Point","coordinates":[-122.386155,37.616358]}
}
