{
  "id": 1780279529,
  "type": "Feature",
  "properties": {
    "date:cessation_lower": "2008-01-01",
    "date:cessation_upper": "2008-12-31",
    "date:inception_lower": "2008-01-01",
    "date:inception_upper": "2008-12-31",
    "edtf:cessation": "2008",
    "edtf:inception": "2008",
    "geom:area": 2.477324999997507e-7,
    "geom:bbox": "-122.386472,37.616105,-122.385834,37.616611",
    "geom:latitude": 37.61635756125121,
    "geom:longitude": -122.38615532866096,
    "media:fingerprint": "019cdc96dfbe44cf8b7d930222943a1a40e9107b",
    "media:imagehash_avg": "a:0c2e2262f3ffffff",
    "media:imagehash_diff": "d:f8e8ccc4e4c386b8",
    "media:mimetype": "image/tiff",
    "media:properties": {
      "sizes": {
        "b": {
          "extension": "jpg",
          "height": 768,
          "mimetype": "image/jpeg",
          "secret": "Yo7oQjkrdtp8Q1M7CufyDTmvrCDkVJxn",
          "width": 965
        },
        "c": {
          "extension": "jpg",
          "height": 600,
          "mimetype": "image/jpeg",
          "secret": "Yo7oQjkrdtp8Q1M7CufyDTmvrCDkVJxn",
          "width": 754
        },
        "dc": {
          "extension": "jpg",
          "height": 600,
          "mimetype": "image/jpeg",
          "secret": "Yo7oQjkrdtp8Q1M7CufyDTmvrCDkVJxn",
          "width": 754
        },
        "ds": {
          "extension": "jpg",
          "height": 320,
          "mimetype": "image/jpeg",
          "secret": "Yo7oQjkrdtp8Q1M7CufyDTmvrCDkVJxn",
          "width": 320
        },
        "k": {
          "extension": "jpg",
          "height": 1536,
          "mimetype": "image/jpeg",
          "secret": "Yo7oQjkrdtp8Q1M7CufyDTmvrCDkVJxn",
          "width": 1931
        },
        "n": {
          "extension": "jpg",
          "height": 240,
          "mimetype": "image/jpeg",
          "secret": "Yo7oQjkrdtp8Q1M7CufyDTmvrCDkVJxn",
          "width": 301
        },
        "o": {
          "extension": "jpg",
          "height": 1667,
          "mimetype": "image/jpeg",
          "secret": "2v7xvu0zaofmeJeVBUw3UQEKbdq7Cnsj",
          "width": 2096
        },
        "s": {
          "extension": "jpg",
          "height": 320,
          "mimetype": "image/jpeg",
          "secret": "Yo7oQjkrdtp8Q1M7CufyDTmvrCDkVJxn",
          "width": 320
        },
        "z": {
          "extension": "jpg",
          "height": 480,
          "mimetype": "image/jpeg",
          "secret": "Yo7oQjkrdtp8Q1M7CufyDTmvrCDkVJxn",
          "width": 603
        }
      }
    },
    "media:source": "sfomuseum",
    "media:status_id": 1,
    "media:uri_template": "https://static.sfomuseum.org/media/178/027/952/9/1780279529_{secret}_{label}.{extension}",
    "millsfield:airline_id": [
      1159284613
    ],
    "millsfield:category_id": 1746152533,
    "millsfield:collection_id": 1511214203,
    "millsfield:company_id": [
      1159287541
    ],
    "millsfield:images_colors": [
      {
        "hex": "#b7b5b3",
        "name": "#b7b5b3",
        "reference": "marekm4"
      },
      {
        "hex": "#c0c0c0",
        "name": "silver",
        "reference": "css4"
      },
      {
        "hex": "#b0b7c6",
        "name": "Cadet Blue",
        "reference": "crayola"
      },
      {
        "hex": "#2b2a29",
        "name": "#2b2a29",
        "reference": "marekm4"
      },
      {
        "hex": "#2f4f4f",
        "name": "darkslategrey",
        "reference": "css4"
      },
      {
        "hex": "#414a4c",
        "name": "Outer Space",
        "reference": "crayola"
      }
    ],
    "millsfield:images_texts": [
      "89\nBOLS\nAMSTERDAM 1575\nKLM"
    ],
    "millsfield:images_texts_ids": [
      1780279527
    ],
    "millsfield:similar": {
      "apple/mobileclip_s0": [
        {
          "distance": 0.3618749,
          "id": 1780279525
        },
        {
          "distance": 0.42743063,
          "id": 1780279505
        },
        {
          "distance": 0.46396056,
          "id": 1780279501
        },
        {
          "distance": 0.47533864,
          "id": 1780279561
        },
        {
          "distance": 0.48251837,
          "id": 1780279535
        },
        {
          "distance": 0.49394986,
          "id": 1780279565
        },
        {
          "distance": 0.5032468,
          "id": 1780280245
        },
        {
          "distance": 0.50400144,
          "id": 1780279487
        },
        {
          "distance": 0.5138459,
          "id": 1780279483
        },
        {
          "distance": 0.52348745,
          "id": 1780279547
        }
      ],
      "apple/mobileclip_s1": [
        {
          "distance": 0.1670033,
          "id": 1780279525
        },
        {
          "distance": 0.27271986,
          "id": 1780279505
        },
        {
          "distance": 0.31736958,
          "id": 1780279487
        },
        {
          "distance": 0.3219513,
          "id": 1780280201
        },
        {
          "distance": 0.3220918,
          "id": 1780279501
        },
        {
          "distance": 0.32717127,
          "id": 1780279535
        },
        {
          "distance": 0.3350107,
          "id": 1780279483
        },
        {
          "distance": 0.3474921,
          "id": 1780280191
        },
        {
          "distance": 0.34951934,
          "id": 1780279553
        },
        {
          "distance": 0.35691193,
          "id": 1780279543
        }
      ],
      "apple/mobileclip_s2": [
        {
          "distance": 0.25960696,
          "id": 1780279525
        },
        {
          "distance": 0.3931903,
          "id": 1780279487
        },
        {
          "distance": 0.4087631,
          "id": 1780280245
        },
        {
          "distance": 0.41148764,
          "id": 1780279501
        },
        {
          "distance": 0.41189006,
          "id": 1780279547
        },
        {
          "distance": 0.41597974,
          "id": 1780279565
        },
        {
          "distance": 0.43065867,
          "id": 1780280283
        },
        {
          "distance": 0.43388677,
          "id": 1780279579
        },
        {
          "distance": 0.4372678,
          "id": 1780280281
        },
        {
          "distance": 0.4384034,
          "id": 1780280255
        }
      ]
    },
    "millsfield:subcategory_id": 1746152547,
    "mz:is_current": 1,
    "sfomuseum:filename": "2014.073.016_4.tif",
    "sfomuseum:image_id": 184568,
    "sfomuseum:image_index": 5,
    "sfomuseum:image_type": "studio",
    "sfomuseum:object_id": 155049,
    "sfomuseum:placetype": "image",
    "sfomuseum:primary_image": 0,
    "src:geom": "sfomuseum",
    "wof:belongsto": [
      102527513,
      1159162825,
      102191575,
      85633793,
      102087579,
      85922583,
      1780278927,
      85688637,
      1159160869
    ],
    "wof:country": "XY",
    "wof:created": 1660722596,
    "wof:depicts": [
      1159287541,
      1780278927,
      1159284613
    ],
    "wof:geomhash": "ed7c2ab3547fc3916b5edc33488deaa7",
    "wof:hierarchy": [
      {
        "building_id": -1,
        "campus_id": 102527513,
        "collection_id": 1159162825,
        "concourse_id": 1159162825,
        "continent_id": 102191575,
        "country_id": 85633793,
        "county_id": 102087579,
        "custom_id": 1780279529,
        "image_id": 1780279529,
        "locality_id": 85922583,
        "neighbourhood_id": -1,
        "object_id": 1780278927,
        "region_id": 85688637,
        "wing_id": 1159160869
      }
    ],
    "wof:id": 1780279529,
    "wof:lastmodified": 1788451451,
    "wof:name": "liquor container: KLM (Royal Dutch Airlines)",
    "wof:parent_id": 1780278927,
    "wof:placetype": "custom",
    "wof:placetype_alt": [
      "image"
    ],
    "wof:repo": "sfomuseum-data-media-collection",
    "wof:superseded_by": [],
    "wof:supersedes": []
  },
  "bbox": [
    -122.386472,
    37.616105,
    -122.385834,
    37.616611
  ],
  "geometry": {"type":"Polygon","coordinates":[[[-122.386472,37.616318],[-122.386435,37.616233],[-122.386376,37.616178],[-122.386301,37.616131],[-122.386161,37.616105],[-122.386022,37.616131],[-122.385914,37.616186],[-122.385855,37.616267],[-122.385834,37.616369],[-122.385871,37.616467],[-122.385941,37.616543],[-122.386054,37.616603],[-122.386183,37.616611],[-122.386306,37.616573],[-122.386419,37.616509],[-122.386467,37.616411],[-122.386472,37.616318]]]}
}
