{
  "id": 1913800323,
  "type": "Feature",
  "properties": {
    "date:cessation_lower": "1933-03-22",
    "date:cessation_upper": "1933-03-22",
    "date:inception_lower": "1933-03-22",
    "date:inception_upper": "1933-03-22",
    "edtf:cessation": "1933-03-22",
    "edtf:inception": "1933-03-22",
    "geom:area": 2.477324999997507e-7,
    "geom:bbox": "-122.386472,37.616105,-122.385834,37.616611",
    "geom:latitude": 37.61635756125121,
    "geom:longitude": -122.38615532866096,
    "media:fingerprint": "d64aaebdfd8466c26b07174e651f6ba603980be8",
    "media:imagehash_avg": "a:ff818181818181ff",
    "media:imagehash_diff": "d:7333331319194b2d",
    "media:imagetext": "11 On\nJust after writing that your litus 3,39 came\nalso one from thances and i had a grand\ntime reading them. I was so glad ti know\nthat my first lettes had reached\nbut it was n't so good you on\nAll at oner was it! Dets dear plean call up\nMi. Morgan at Dan American anytime\nand ask\nhim where I am for he is always there- is\nvery nich. use to\nbr Mr Deight Morrows\nassistant - and wore be glad to gir you Exact\nlocation of your husband. In fact he promised\nme that he world drop you a line\nto time treeing of my whis akonts, of m time.\nI am distrand that I could not sind\nAny mour lites to you at bang hind Sland\nbut in figuring it out then wored i\nno .\nboat\nwhich could have poose, got them\nthis bfor you left. Im wondering whene\nyou arr\ntonight and hoping a very ver\nmuch that you and the kido are safe\nhappy and we Hair read your lets over\nand over and have had a grand time\nall alone wich\non lettes\nto read a\nour Picture in\nhome happy.\npont of me to makes\n• you\ne night dearest and\nthanks for your\nsurest\nletters - your - stad\n2019.121",
    "media:imagetext_created": 1787972337,
    "media:imagetext_source": "com.apple.visionkit.VNImageRequestHandler#Version 26.6.2 (Build 25G83)",
    "media:mimetype": "image/tiff",
    "media:properties": {
      "sizes": {
        "b": {
          "extension": "jpg",
          "height": 768,
          "mimetype": "image/jpeg",
          "secret": "I2t0fGXhk9D7Xbpstv5OSio46Koec7So",
          "width": 660
        },
        "c": {
          "extension": "jpg",
          "height": 600,
          "mimetype": "image/jpeg",
          "secret": "I2t0fGXhk9D7Xbpstv5OSio46Koec7So",
          "width": 516
        },
        "dc": {
          "extension": "jpg",
          "height": 600,
          "mimetype": "image/jpeg",
          "secret": "I2t0fGXhk9D7Xbpstv5OSio46Koec7So",
          "width": 516
        },
        "ds": {
          "extension": "jpg",
          "height": 320,
          "mimetype": "image/jpeg",
          "secret": "I2t0fGXhk9D7Xbpstv5OSio46Koec7So",
          "width": 320
        },
        "k": {
          "extension": "jpg",
          "height": 1536,
          "mimetype": "image/jpeg",
          "secret": "I2t0fGXhk9D7Xbpstv5OSio46Koec7So",
          "width": 1320
        },
        "n": {
          "extension": "jpg",
          "height": 240,
          "mimetype": "image/jpeg",
          "secret": "I2t0fGXhk9D7Xbpstv5OSio46Koec7So",
          "width": 206
        },
        "o": {
          "extension": "jpg",
          "height": 2000,
          "mimetype": "image/jpeg",
          "secret": "SMtBVn8SOWx8hoWwAhs5CLa3GLBsYuYd",
          "width": 1720
        },
        "s": {
          "extension": "jpg",
          "height": 320,
          "mimetype": "image/jpeg",
          "secret": "I2t0fGXhk9D7Xbpstv5OSio46Koec7So",
          "width": 320
        },
        "z": {
          "extension": "jpg",
          "height": 480,
          "mimetype": "image/jpeg",
          "secret": "I2t0fGXhk9D7Xbpstv5OSio46Koec7So",
          "width": 412
        }
      }
    },
    "media:source": "sfomuseum",
    "media:status_id": 1,
    "media:uri_template": "https://static.sfomuseum.org/media/191/380/032/3/1913800323_{secret}_{label}.{extension}",
    "millsfield:airline_id": [
      1159284991,
      1159285931
    ],
    "millsfield:category_id": 1511214251,
    "millsfield:collection_id": 1511214207,
    "millsfield:company_id": [
      1159286721
    ],
    "millsfield:images_colors": [
      {
        "hex": "#dbceaf",
        "name": "#dbceaf",
        "reference": "marekm4"
      },
      {
        "hex": "#f5deb3",
        "name": "wheat",
        "reference": "css4"
      },
      {
        "hex": "#efcdb8",
        "name": "Desert Sand",
        "reference": "crayola"
      },
      {
        "hex": "#363227",
        "name": "#363227",
        "reference": "marekm4"
      },
      {
        "hex": "#2f4f4f",
        "name": "darkslategrey",
        "reference": "css4"
      },
      {
        "hex": "#414a4c",
        "name": "Outer Space",
        "reference": "crayola"
      }
    ],
    "millsfield:images_texts": [
      "33\nWed. March 22\nDearcat Debs-\nI have just that our to the rationse\nCity Bank for maie which should be in this\na.m. - the\nPresident Taft, which saild from\nStatue march 44 landed here yrateday.\nThe last mail\nI had was sent from my.\non tele. 20t so thans should be some\nlettus and o can hard, wait to gst them\nIts raining hard - a trible dan - fog so\nthick that o can hardh, sir the reir.\nmess Fortis - my strnographer - has juat\nCome in - she no a very propr old maid\nand you need for no sleep over an affair.\nshe has burn\nall over the world and in\nthat respreet is entrating. She sprat for\nana mumans at gene sai\nthe can alway\nget a job which wile more\nthan pay her expruses\n= trails along wherea\ngoing and much prefus that\nworkg\nan office, and punching\na time clock.\nSage the expects to stay\nhere a few months or years and then wants\nto go\nto the shrait s\nelements and Australia\nI really admine hes spunk.",
      "11 On\nJust after writing that your litus 3,39 came\nalso one from thances and i had a grand\ntime reading them. I was so glad ti know\nthat my first lettes had reached\nbut it was n't so good you on\nAll at oner was it! Dets dear plean call up\nMi. Morgan at Dan American anytime\nand ask\nhim where I am for he is always there- is\nvery nich. use to\nbr Mr Deight Morrows\nassistant - and wore be glad to gir you Exact\nlocation of your husband. In fact he promised\nme that he world drop you a line\nto time treeing of my whis akonts, of m time.\nI am distrand that I could not sind\nAny mour lites to you at bang hind Sland\nbut in figuring it out then wored i\nno .\nboat\nwhich could have poose, got them\nthis bfor you left. Im wondering whene\nyou arr\ntonight and hoping a very ver\nmuch that you and the kido are safe\nhappy and we Hair read your lets over\nand over and have had a grand time\nall alone wich\non lettes\nto read a\nour Picture in\nhome happy.\npont of me to makes\n• you\ne night dearest and\nthanks for your\nsurest\nletters - your - stad\n2019.121"
    ],
    "millsfield:images_texts_ids": [
      1913800321,
      1913800323
    ],
    "millsfield:similar": {
      "apple/mobileclip_s0": [
        {
          "distance": 0.2213765,
          "id": 1913801359
        },
        {
          "distance": 0.22202344,
          "id": 1913800343
        },
        {
          "distance": 0.23568511,
          "id": 1913800315
        },
        {
          "distance": 0.2370413,
          "id": 1913802067
        },
        {
          "distance": 0.23993507,
          "id": 1913800297
        },
        {
          "distance": 0.24190357,
          "id": 1913801333
        },
        {
          "distance": 0.24790882,
          "id": 1913800301
        },
        {
          "distance": 0.26211134,
          "id": 1913800373
        },
        {
          "distance": 0.2632227,
          "id": 1913799029
        },
        {
          "distance": 0.26392865,
          "id": 1913801165
        }
      ],
      "apple/mobileclip_s1": [
        {
          "distance": 0.17938437,
          "id": 1913800299
        },
        {
          "distance": 0.18109733,
          "id": 1913801129
        },
        {
          "distance": 0.19003059,
          "id": 1913800303
        },
        {
          "distance": 0.19361515,
          "id": 1913801493
        },
        {
          "distance": 0.19382776,
          "id": 1913801497
        },
        {
          "distance": 0.19505315,
          "id": 1913802439
        },
        {
          "distance": 0.19607817,
          "id": 1913800535
        },
        {
          "distance": 0.19875923,
          "id": 1913802311
        },
        {
          "distance": 0.20032138,
          "id": 1913800639
        },
        {
          "distance": 0.20428714,
          "id": 1913800717
        }
      ],
      "apple/mobileclip_s2": [
        {
          "distance": 0.19431789,
          "id": 1913800305
        },
        {
          "distance": 0.21884586,
          "id": 1913801325
        },
        {
          "distance": 0.23243286,
          "id": 1913801513
        },
        {
          "distance": 0.2355367,
          "id": 1913801497
        },
        {
          "distance": 0.24753062,
          "id": 1913801359
        },
        {
          "distance": 0.25306675,
          "id": 1913801577
        },
        {
          "distance": 0.25751394,
          "id": 1913801717
        },
        {
          "distance": 0.26002216,
          "id": 1913800299
        },
        {
          "distance": 0.26194468,
          "id": 1913801127
        },
        {
          "distance": 0.26385462,
          "id": 1913800571
        }
      ]
    },
    "millsfield:subcategory_id": 1511213489,
    "mz:is_current": 1,
    "sfomuseum:filename": "2019.121.0614_2.tif",
    "sfomuseum:image_id": 224968,
    "sfomuseum:image_index": 5,
    "sfomuseum:image_type": "studio",
    "sfomuseum:object_id": 210889,
    "sfomuseum:placetype": "image",
    "sfomuseum:primary_image": 0,
    "src:geom": "sfomuseum",
    "wof:belongsto": [
      102527513,
      1159162825,
      102191575,
      85633793,
      102087579,
      85922583,
      1913796097,
      85688637,
      1159160869
    ],
    "wof:country": "XY",
    "wof:created": 1714550499,
    "wof:depicts": [
      1159285931,
      1159286721,
      1913796097,
      1159284991
    ],
    "wof:geomhash": "ed7c2ab3547fc3916b5edc33488deaa7",
    "wof:hierarchy": [
      {
        "building_id": -1,
        "campus_id": 102527513,
        "collection_id": 1159162825,
        "concourse_id": 1159162825,
        "continent_id": 102191575,
        "country_id": 85633793,
        "county_id": 102087579,
        "custom_id": 1913800323,
        "image_id": 1913800323,
        "locality_id": 85922583,
        "neighbourhood_id": -1,
        "object_id": 1913796097,
        "region_id": 85688637,
        "wing_id": 1159160869
      }
    ],
    "wof:id": 1913800323,
    "wof:lastmodified": 1788452235,
    "wof:name": "correspondence: Harold M. Bixby to Debby Bixby",
    "wof:parent_id": 1913796097,
    "wof:placetype": "custom",
    "wof:placetype_alt": [
      "image"
    ],
    "wof:repo": "sfomuseum-data-media-collection",
    "wof:superseded_by": [],
    "wof:supersedes": []
  },
  "bbox": [
    -122.386472,
    37.616105,
    -122.385834,
    37.616611
  ],
  "geometry": {"type":"Polygon","coordinates":[[[-122.386472,37.616318],[-122.386435,37.616233],[-122.386376,37.616178],[-122.386301,37.616131],[-122.386161,37.616105],[-122.386022,37.616131],[-122.385914,37.616186],[-122.385855,37.616267],[-122.385834,37.616369],[-122.385871,37.616467],[-122.385941,37.616543],[-122.386054,37.616603],[-122.386183,37.616611],[-122.386306,37.616573],[-122.386419,37.616509],[-122.386467,37.616411],[-122.386472,37.616318]]]}
}
