{
  "id": 1527823407,
  "type": "Feature",
  "properties": {
    "date:cessation_lower": "1980-01-01",
    "date:cessation_upper": "1989-12-31",
    "date:inception_lower": "1980-01-01",
    "date:inception_upper": "1989-12-31",
    "edtf:cessation": "198X",
    "edtf:date": "198x",
    "edtf:inception": "198X",
    "geom:area": 0,
    "geom:bbox": "-122.386155,37.616358,-122.386155,37.616358",
    "geom:latitude": 37.616358,
    "geom:longitude": -122.386155,
    "iso:country": "XX",
    "media:fingerprint": "ba0c7c8434c792283bba8bb031a7ab0b1ae4d945",
    "media:imagehash_avg": "a:c101010101ffffff",
    "media:imagehash_diff": "d:9b9b9b9b9b9b8ec7",
    "media:imagetext": "AIR INTER ,\nRINTER AIRA\nAIR INTER\nRINTER AIRI\nAIR INTER\nRINTER AIRI\n•AIR INTER i\nRINTER AIRI\nAIR INTER\nMORQUIN • MUGUET • NOVOSAC\n60 rue du Rendez-vous\n75012 Paris\nTél. 347-10-73\n1998.157.018",
    "media:imagetext_created": 1787948332,
    "media:imagetext_source": "com.apple.visionkit.VNImageRequestHandler#Version 26.6.2 (Build 25G83)",
    "media:medium": "image",
    "media:mimetype": "image/tiff",
    "media:properties": {
      "sizes": {
        "b": {
          "extension": "jpg",
          "height": 768,
          "mimetype": "image/jpeg",
          "secret": "aCOc45klgOsrJsTATimjw7ygh7e0e0cp",
          "width": 414
        },
        "c": {
          "extension": "jpg",
          "height": 600,
          "mimetype": "image/jpeg",
          "secret": "aCOc45klgOsrJsTATimjw7ygh7e0e0cp",
          "width": 323
        },
        "dc": {
          "extension": "jpg",
          "height": 600,
          "mimetype": "image/jpeg",
          "secret": "aCOc45klgOsrJsTATimjw7ygh7e0e0cp",
          "width": 323
        },
        "ds": {
          "extension": "jpg",
          "height": 320,
          "mimetype": "image/jpeg",
          "secret": "aCOc45klgOsrJsTATimjw7ygh7e0e0cp",
          "width": 320
        },
        "k": {
          "extension": "jpg",
          "height": 1536,
          "mimetype": "image/jpeg",
          "secret": "aCOc45klgOsrJsTATimjw7ygh7e0e0cp",
          "width": 828
        },
        "n": {
          "extension": "jpg",
          "height": 240,
          "mimetype": "image/jpeg",
          "secret": "aCOc45klgOsrJsTATimjw7ygh7e0e0cp",
          "width": 129
        },
        "o": {
          "extension": "jpg",
          "height": 2891,
          "mimetype": "image/jpeg",
          "secret": "A10PNMOAtdtSW6euawhdbjl8FOIbDWq7",
          "width": 1560
        },
        "s": {
          "extension": "jpg",
          "height": 320,
          "mimetype": "image/jpeg",
          "secret": "aCOc45klgOsrJsTATimjw7ygh7e0e0cp",
          "width": 320
        },
        "z": {
          "extension": "jpg",
          "height": 480,
          "mimetype": "image/jpeg",
          "secret": "aCOc45klgOsrJsTATimjw7ygh7e0e0cp",
          "width": 259
        }
      }
    },
    "media:source": "sfomuseum",
    "media:status_id": 1,
    "media:uri_template": "https://static.sfomuseum.org/media/152/782/340/7/1527823407_{secret}_{label}.{extension}",
    "millsfield:airline_id": [
      1159283651
    ],
    "millsfield:category_id": 1762671311,
    "millsfield:collection_id": 1511214207,
    "millsfield:company_id": [
      1159286621
    ],
    "millsfield:images_colors": [
      {
        "hex": "#efe4d7",
        "name": "#efe4d7",
        "reference": "marekm4"
      },
      {
        "hex": "#faebd7",
        "name": "antiquewhite",
        "reference": "css4"
      },
      {
        "hex": "#efdecd",
        "name": "Almond",
        "reference": "crayola"
      },
      {
        "hex": "#e85f37",
        "name": "#e85f37",
        "reference": "marekm4"
      },
      {
        "hex": "#ff6347",
        "name": "tomato",
        "reference": "css4"
      },
      {
        "hex": "#ff5349",
        "name": "Red Orange",
        "reference": "crayola"
      }
    ],
    "millsfield:images_texts": [
      "AIR INTER ,\nRINTER AIRA\nAIR INTER\nRINTER AIRI\nAIR INTER\nRINTER AIRI\n•AIR INTER i\nRINTER AIRI\nAIR INTER\nMORQUIN • MUGUET • NOVOSAC\n60 rue du Rendez-vous\n75012 Paris\nTél. 347-10-73\n1998.157.018",
      "AIR INTER\nRINTER AIRI\nAIR INTER\nRINTER AIRI\nAIRINTER\nRINTER AIRI\nAIRINTER\nRINTER AIRI\nAIR INTER\nBINTER AIRI\nAIR INTER\nRINTER AIRI\nAIR INTER"
    ],
    "millsfield:images_texts_ids": [
      1527823407,
      1527823409
    ],
    "millsfield:similar": {
      "apple/mobileclip_s0": [
        {
          "distance": 0.28960434,
          "id": 1527823439
        },
        {
          "distance": 0.43171683,
          "id": 1527823441
        },
        {
          "distance": 0.45555156,
          "id": 1527823409
        },
        {
          "distance": 0.54651505,
          "id": 1527823405
        },
        {
          "distance": 0.5758353,
          "id": 1527823445
        },
        {
          "distance": 0.725623,
          "id": 1763204845
        },
        {
          "distance": 0.7599312,
          "id": 1779969157
        },
        {
          "distance": 0.7661404,
          "id": 1527856301
        },
        {
          "distance": 0.76880896,
          "id": 2048167631
        },
        {
          "distance": 0.77420515,
          "id": 1763204847
        }
      ],
      "apple/mobileclip_s1": [
        {
          "distance": 0.11839497,
          "id": 1527823439
        },
        {
          "distance": 0.18500224,
          "id": 1527823441
        },
        {
          "distance": 0.2448119,
          "id": 1527823409
        },
        {
          "distance": 0.413092,
          "id": 1527823405
        },
        {
          "distance": 0.4174742,
          "id": 1527823445
        },
        {
          "distance": 0.55463105,
          "id": 1527823481
        },
        {
          "distance": 0.56539506,
          "id": 1527823477
        },
        {
          "distance": 0.5683395,
          "id": 1763204847
        },
        {
          "distance": 0.57152414,
          "id": 1527856235
        },
        {
          "distance": 0.57493186,
          "id": 2015174813
        }
      ],
      "apple/mobileclip_s2": [
        {
          "distance": 0.1480404,
          "id": 1527823439
        },
        {
          "distance": 0.2828514,
          "id": 1527823441
        },
        {
          "distance": 0.36452815,
          "id": 1527823409
        },
        {
          "distance": 0.586264,
          "id": 1527823405
        },
        {
          "distance": 0.6067513,
          "id": 1527823445
        },
        {
          "distance": 0.82717323,
          "id": 2015174813
        },
        {
          "distance": 0.82778555,
          "id": 1527823369
        },
        {
          "distance": 0.82778555,
          "id": 1527823373
        },
        {
          "distance": 0.8282036,
          "id": 1527823477
        },
        {
          "distance": 0.8320707,
          "id": 1779502909
        }
      ]
    },
    "millsfield:subcategory_id": 1511213185,
    "mz:hierarchy_label": 1,
    "mz:is_current": -1,
    "sfomuseum:filename": "41537.tif",
    "sfomuseum:image_id": 41537,
    "sfomuseum:image_index": 5,
    "sfomuseum:image_type": "studio",
    "sfomuseum:object_id": 47681,
    "sfomuseum:placetype": "image",
    "sfomuseum:primary_image": 0,
    "src:geom": "sfomuseum",
    "wof:belongsto": [
      1511908385,
      102527513,
      102191575,
      85633793,
      85922583,
      102087579,
      1511214277,
      85688637
    ],
    "wof:breaches": [],
    "wof:country": "XX",
    "wof:created": 1578949897,
    "wof:depicts": [
      1159283651,
      1159286621,
      1511908385
    ],
    "wof:geomhash": "bd906905ce4be6c0651c90b0fc24804c",
    "wof:hierarchy": [
      {
        "building_id": 1511214277,
        "campus_id": 102527513,
        "continent_id": 102191575,
        "country_id": 85633793,
        "county_id": 102087579,
        "custom_id": 1527823407,
        "image_id": 1527823407,
        "locality_id": 85922583,
        "media_id": 1527823407,
        "neighbourhood_id": -1,
        "region_id": 85688637,
        "venue_id": 1511908385
      }
    ],
    "wof:id": 1527823407,
    "wof:lastmodified": 1788449775,
    "wof:name": "airsickness bag: Air Inter",
    "wof:parent_id": 1511908385,
    "wof:placetype": "custom",
    "wof:placetype_alt": [
      "image"
    ],
    "wof:repo": "sfomuseum-data-media-collection",
    "wof:superseded_by": [],
    "wof:supersedes": [],
    "wof:tags": []
  },
  "bbox": [
    -122.386155,
    37.616358,
    -122.386155,
    37.616358
  ],
  "geometry": {"type":"Point","coordinates":[-122.386155,37.616358]}
}
