{
  "id": 2048176333,
  "type": "Feature",
  "properties": {
    "date:cessation_lower": "1961-01-01",
    "date:cessation_upper": "1961-12-31",
    "date:inception_lower": "1961-01-01",
    "date:inception_upper": "1961-12-31",
    "edtf:cessation": "1961",
    "edtf:inception": "1961",
    "geom:area": 2.475047457570636e-7,
    "geom:bbox": "-122.386472,37.616105,-122.385834,37.616611",
    "geom:latitude": 37.61635747477365,
    "geom:longitude": -122.38615540108617,
    "media:fingerprint": "070222f4be20823ef57d43f98db8ec62b4a5868f",
    "media:imagehash_avg": "a:ffff7e7e080e3e00",
    "media:imagehash_diff": "d:e0f0b8c89238f093",
    "media:imagetext": "SAS",
    "media:imagetext_created": 1787976536,
    "media:imagetext_source": "com.apple.visionkit.VNImageRequestHandler#Version 26.6.2 (Build 25G83)",
    "media:mimetype": "image/jpeg",
    "media:properties": {
      "colours": null,
      "sizes": {
        "b": {
          "extension": "jpg",
          "height": 639,
          "mimetype": "image/jpeg",
          "secret": "qOu0BPfU4tD4qWnYlek2prUTbNbvPywl",
          "width": 1024
        },
        "c": {
          "extension": "jpg",
          "height": 499,
          "mimetype": "image/jpeg",
          "secret": "qOu0BPfU4tD4qWnYlek2prUTbNbvPywl",
          "width": 800
        },
        "dc": {
          "extension": "jpg",
          "height": 320,
          "mimetype": "image/jpeg",
          "secret": "qOu0BPfU4tD4qWnYlek2prUTbNbvPywl",
          "width": 320
        },
        "ds": {
          "extension": "jpg",
          "height": 320,
          "mimetype": "image/jpeg",
          "secret": "qOu0BPfU4tD4qWnYlek2prUTbNbvPywl",
          "width": 320
        },
        "k": {
          "extension": "jpg",
          "height": 1279,
          "mimetype": "image/jpeg",
          "secret": "qOu0BPfU4tD4qWnYlek2prUTbNbvPywl",
          "width": 2048
        },
        "n": {
          "extension": "jpg",
          "height": 199,
          "mimetype": "image/jpeg",
          "secret": "qOu0BPfU4tD4qWnYlek2prUTbNbvPywl",
          "width": 320
        },
        "o": {
          "extension": "jpg",
          "height": 932,
          "mimetype": "image/jpeg",
          "secret": "t5LSzESCN4jCzfr0dsi8wIJQu4z4nzwG",
          "width": 1492
        },
        "s": {
          "extension": "jpg",
          "height": 320,
          "mimetype": "image/jpeg",
          "secret": "qOu0BPfU4tD4qWnYlek2prUTbNbvPywl",
          "width": 320
        },
        "z": {
          "extension": "jpg",
          "height": 399,
          "mimetype": "image/jpeg",
          "secret": "qOu0BPfU4tD4qWnYlek2prUTbNbvPywl",
          "width": 640
        }
      }
    },
    "media:source": "sfomuseum",
    "media:status_id": 1,
    "media:uri_template": "https://static.sfomuseum.org/media/204/817/633/3/2048176333_{secret}_{label}.{extention}",
    "millsfield:aircraft_id": [
      1159290443
    ],
    "millsfield:airline_id": [
      1159285129
    ],
    "millsfield:category_id": 1511214215,
    "millsfield:collection_id": 1511214207,
    "millsfield:company_id": [],
    "millsfield:images_colors": [
      {
        "hex": "#b9ba96",
        "name": "#b9ba96",
        "reference": "marekm4"
      },
      {
        "hex": "#d2b48c",
        "name": "tan",
        "reference": "css4"
      },
      {
        "hex": "#bab86c",
        "name": "Olive Green",
        "reference": "crayola"
      },
      {
        "hex": "#bca06d",
        "name": "#bca06d",
        "reference": "marekm4"
      },
      {
        "hex": "#bdb76b",
        "name": "darkkhaki",
        "reference": "css4"
      },
      {
        "hex": "#cd9575",
        "name": "Antique Brass",
        "reference": "crayola"
      },
      {
        "hex": "#59564a",
        "name": "#59564a",
        "reference": "marekm4"
      },
      {
        "hex": "#556b2f",
        "name": "darkolivegreen",
        "reference": "css4"
      },
      {
        "hex": "#414a4c",
        "name": "Outer Space",
        "reference": "crayola"
      },
      {
        "hex": "#6d8676",
        "name": "#6d8676",
        "reference": "marekm4"
      },
      {
        "hex": "#808080",
        "name": "grey",
        "reference": "css4"
      },
      {
        "hex": "#757575",
        "name": "Sonic Silver",
        "reference": "crayola"
      },
      {
        "hex": "#937050",
        "name": "#937050",
        "reference": "marekm4"
      },
      {
        "hex": "#a0522d",
        "name": "sienna",
        "reference": "css4"
      },
      {
        "hex": "#85754e",
        "name": "Gold Fusion",
        "reference": "crayola"
      },
      {
        "hex": "#e7e1ae",
        "name": "#e7e1ae",
        "reference": "marekm4"
      },
      {
        "hex": "#eee8aa",
        "name": "palegoldenrod",
        "reference": "css4"
      },
      {
        "hex": "#eceabe",
        "name": "Spring Green",
        "reference": "crayola"
      },
      {
        "hex": "#4c2d21",
        "name": "#4c2d21",
        "reference": "marekm4"
      },
      {
        "hex": "#2f4f4f",
        "name": "darkslategrey",
        "reference": "css4"
      },
      {
        "hex": "#714b23",
        "name": "Raw Umber",
        "reference": "crayola"
      },
      {
        "hex": "#af9570",
        "name": "#af9570",
        "reference": "marekm4"
      },
      {
        "hex": "#bc8f8f",
        "name": "rosybrown",
        "reference": "css4"
      },
      {
        "hex": "#9f8170",
        "name": "Beaver",
        "reference": "crayola"
      },
      {
        "hex": "#956c56",
        "name": "#956c56",
        "reference": "marekm4"
      },
      {
        "hex": "#696969",
        "name": "dimgrey",
        "reference": "css4"
      },
      {
        "hex": "#a5694f",
        "name": "Sepia",
        "reference": "crayola"
      }
    ],
    "millsfield:images_texts": [],
    "millsfield:images_texts_ids": [],
    "millsfield:similar": {},
    "millsfield:subcategory_id": 1511213363,
    "mz:is_current": 1,
    "sfomuseum:filename": "image00008.jpg",
    "sfomuseum:image_id": 281499,
    "sfomuseum:image_index": 0,
    "sfomuseum:image_type": "studio",
    "sfomuseum:object_id": 245324,
    "sfomuseum:placetype": "image",
    "sfomuseum:primary_image": 1,
    "src:geom": "sfomuseum",
    "wof:belongsto": [
      102527513,
      1159162825,
      102191575,
      85633793,
      102087579,
      85922583,
      2048162383,
      85688637,
      1159160869
    ],
    "wof:country": "XY",
    "wof:created": 1787901588,
    "wof:depicts": [
      1159285129,
      1159290443,
      2048162383
    ],
    "wof:geomhash": "c281b9d9eefc83b5710e64b9d646067d",
    "wof:hierarchy": [
      {
        "building_id": -1,
        "campus_id": 102527513,
        "collection_id": 1159162825,
        "concourse_id": 1159162825,
        "continent_id": 102191575,
        "country_id": 85633793,
        "county_id": 102087579,
        "custom_id": 2048176333,
        "locality_id": 85922583,
        "neighbourhood_id": -1,
        "object_id": 2048162383,
        "region_id": 85688637,
        "wing_id": 1159160869
      }
    ],
    "wof:id": 2048176333,
    "wof:lastmodified": 1787976589,
    "wof:name": "postcard: Scandinavian Airlines System (SAS), Douglas DC-8C",
    "wof:parent_id": 2048162383,
    "wof:placetype": "custom",
    "wof:repo": "sfomuseum-data-media-collection",
    "wof:superseded_by": [],
    "wof:supersedes": []
  },
  "bbox": [
    -122.38647222518921,
    37.6161053594541,
    -122.38583385944366,
    37.61661101879963
  ],
  "geometry": {"type":"Polygon","coordinates":[[[-122.38647222518921,37.61631782178288],[-122.386434674263,37.61623283692423],[-122.38637566566466,37.61617759671399],[-122.38630056381224,37.6161308549656],[-122.38616108894348,37.6161053594541],[-122.38602161407469,37.6161308549656],[-122.38591432571411,37.61618609521055],[-122.38585531711577,37.61626683087935],[-122.38583385944366,37.61636881265146],[-122.38587141036987,37.61646654505181],[-122.38594114780425,37.61654303118856],[-122.38605380058287,37.61660252035167],[-122.38618254661559,37.61661101879963],[-122.3863059282303,37.61657277577607],[-122.3864185810089,37.61650903735973],[-122.3864668607712,37.61641130501523],[-122.38647222518921,37.61631782178288]]]}
}
