{
  "id": 1880508349,
  "type": "Feature",
  "properties": {
    "date:cessation_lower": "1976-01-01",
    "date:cessation_upper": "1976-12-31",
    "date:inception_lower": "1976-01-01",
    "date:inception_upper": "1976-12-31",
    "edtf:cessation": "1976",
    "edtf:inception": "1976",
    "geom:area": 2.477324999997507e-7,
    "geom:bbox": "-122.386472,37.616105,-122.385834,37.616611",
    "geom:latitude": 37.61635756125121,
    "geom:longitude": -122.38615532866096,
    "media:fingerprint": "fba2e06c7a69e4fdb1de287002db61dfe5691d1d",
    "media:imagehash_avg": "a:ffff3c3c3c3cfcfe",
    "media:imagehash_diff": "d:e0e061e1e161e0e0",
    "media:imagetext": "U W",
    "media:imagetext_created": 1787969862,
    "media:imagetext_source": "com.apple.visionkit.VNImageRequestHandler#Version 26.6.2 (Build 25G83)",
    "media:mimetype": "image/tiff",
    "media:properties": {
      "sizes": {
        "b": {
          "extension": "jpg",
          "height": 768,
          "mimetype": "image/jpeg",
          "secret": "pqrxuSmZ8VujCU7IbmKn3Oe6tXpLClpc",
          "width": 964
        },
        "c": {
          "extension": "jpg",
          "height": 600,
          "mimetype": "image/jpeg",
          "secret": "pqrxuSmZ8VujCU7IbmKn3Oe6tXpLClpc",
          "width": 753
        },
        "dc": {
          "extension": "jpg",
          "height": 600,
          "mimetype": "image/jpeg",
          "secret": "pqrxuSmZ8VujCU7IbmKn3Oe6tXpLClpc",
          "width": 753
        },
        "ds": {
          "extension": "jpg",
          "height": 320,
          "mimetype": "image/jpeg",
          "secret": "pqrxuSmZ8VujCU7IbmKn3Oe6tXpLClpc",
          "width": 320
        },
        "k": {
          "extension": "jpg",
          "height": 1536,
          "mimetype": "image/jpeg",
          "secret": "pqrxuSmZ8VujCU7IbmKn3Oe6tXpLClpc",
          "width": 1929
        },
        "n": {
          "extension": "jpg",
          "height": 240,
          "mimetype": "image/jpeg",
          "secret": "pqrxuSmZ8VujCU7IbmKn3Oe6tXpLClpc",
          "width": 301
        },
        "o": {
          "extension": "jpg",
          "height": 1327,
          "mimetype": "image/jpeg",
          "secret": "dIXiNAkX2IM1FpO1ITd8INbtdV354Z3x",
          "width": 1667
        },
        "s": {
          "extension": "jpg",
          "height": 320,
          "mimetype": "image/jpeg",
          "secret": "pqrxuSmZ8VujCU7IbmKn3Oe6tXpLClpc",
          "width": 320
        },
        "z": {
          "extension": "jpg",
          "height": 480,
          "mimetype": "image/jpeg",
          "secret": "pqrxuSmZ8VujCU7IbmKn3Oe6tXpLClpc",
          "width": 602
        }
      }
    },
    "media:source": "sfomuseum",
    "media:status_id": 1,
    "media:uri_template": "https://static.sfomuseum.org/media/188/050/834/9/1880508349_{secret}_{label}.{extension}",
    "millsfield:airline_id": [
      1159285413
    ],
    "millsfield:category_id": 1763416381,
    "millsfield:collection_id": 1511214203,
    "millsfield:company_id": [
      1159288779
    ],
    "millsfield:has_coloring_book": 1,
    "millsfield:images_colors": [
      {
        "hex": "#b6b5b4",
        "name": "#b6b5b4",
        "reference": "marekm4"
      },
      {
        "hex": "#c0c0c0",
        "name": "silver",
        "reference": "css4"
      },
      {
        "hex": "#b0b7c6",
        "name": "Cadet Blue",
        "reference": "crayola"
      },
      {
        "hex": "#ad211e",
        "name": "#ad211e",
        "reference": "marekm4"
      },
      {
        "hex": "#b22222",
        "name": "firebrick",
        "reference": "css4"
      },
      {
        "hex": "#9c2542",
        "name": "Big Dip O' Ruby",
        "reference": "crayola"
      },
      {
        "hex": "#345695",
        "name": "#345695",
        "reference": "marekm4"
      },
      {
        "hex": "#483d8b",
        "name": "darkslateblue",
        "reference": "css4"
      },
      {
        "hex": "#2e5894",
        "name": "B'dazzled Blue",
        "reference": "crayola"
      }
    ],
    "millsfield:images_texts": [
      "U W"
    ],
    "millsfield:images_texts_ids": [
      1880508349
    ],
    "millsfield:similar": {
      "apple/mobileclip_s0": [
        {
          "distance": 0.432597,
          "id": 1762896489
        },
        {
          "distance": 0.44605923,
          "id": 1763446991
        },
        {
          "distance": 0.4916342,
          "id": 1762896487
        },
        {
          "distance": 0.50778174,
          "id": 1880508351
        },
        {
          "distance": 0.563261,
          "id": 1880498635
        },
        {
          "distance": 0.5824047,
          "id": 1880516483
        },
        {
          "distance": 0.58754414,
          "id": 1880498173
        },
        {
          "distance": 0.59710693,
          "id": 1880370161
        },
        {
          "distance": 0.60083324,
          "id": 1880498175
        },
        {
          "distance": 0.6077554,
          "id": 1880332315
        }
      ],
      "apple/mobileclip_s1": [
        {
          "distance": 0.31029284,
          "id": 1762896489
        },
        {
          "distance": 0.35980493,
          "id": 1762896487
        },
        {
          "distance": 0.36317244,
          "id": 1763446991
        },
        {
          "distance": 0.36461985,
          "id": 1880508351
        },
        {
          "distance": 0.4288289,
          "id": 1880516483
        },
        {
          "distance": 0.4290766,
          "id": 1880498175
        },
        {
          "distance": 0.43390107,
          "id": 1880370161
        },
        {
          "distance": 0.43860912,
          "id": 1880498173
        },
        {
          "distance": 0.45037007,
          "id": 1763446849
        },
        {
          "distance": 0.45610803,
          "id": 1763446989
        }
      ],
      "apple/mobileclip_s2": [
        {
          "distance": 0.39926586,
          "id": 1762896489
        },
        {
          "distance": 0.41705307,
          "id": 1762896487
        },
        {
          "distance": 0.46939167,
          "id": 1880508351
        },
        {
          "distance": 0.4862283,
          "id": 1763446991
        },
        {
          "distance": 0.5679518,
          "id": 1880498175
        },
        {
          "distance": 0.5876445,
          "id": 1880498173
        },
        {
          "distance": 0.6024216,
          "id": 1880498635
        },
        {
          "distance": 0.6072287,
          "id": 1880516483
        },
        {
          "distance": 0.60761786,
          "id": 1880370161
        },
        {
          "distance": 0.61641556,
          "id": 1880369745
        }
      ]
    },
    "millsfield:subcategory_id": 1511213449,
    "mz:is_current": 1,
    "sfomuseum:filename": "2015.088.032_ft.tif",
    "sfomuseum:image_id": 148173,
    "sfomuseum:image_index": 5,
    "sfomuseum:image_type": "studio",
    "sfomuseum:object_id": 169572,
    "sfomuseum:placetype": "image",
    "sfomuseum:primary_image": 1,
    "src:geom": "sfomuseum",
    "wof:belongsto": [
      102527513,
      1159162825,
      102191575,
      85633793,
      102087579,
      85922583,
      1880507503,
      85688637,
      1159160869
    ],
    "wof:country": "XY",
    "wof:created": 1695802937,
    "wof:depicts": [
      1159288779,
      1880507503,
      1159285413
    ],
    "wof:geomhash": "ed7c2ab3547fc3916b5edc33488deaa7",
    "wof:hierarchy": [
      {
        "building_id": -1,
        "campus_id": 102527513,
        "collection_id": 1159162825,
        "concourse_id": 1159162825,
        "continent_id": 102191575,
        "country_id": 85633793,
        "county_id": 102087579,
        "custom_id": 1880508349,
        "image_id": 1880508349,
        "locality_id": 85922583,
        "neighbourhood_id": -1,
        "object_id": 1880507503,
        "region_id": 85688637,
        "wing_id": 1159160869
      }
    ],
    "wof:id": 1880508349,
    "wof:lastmodified": 1788451921,
    "wof:name": "flight attendant scarf: United Airlines",
    "wof:parent_id": 1880507503,
    "wof:placetype": "custom",
    "wof:placetype_alt": [
      "image"
    ],
    "wof:repo": "sfomuseum-data-media-collection",
    "wof:superseded_by": [],
    "wof:supersedes": []
  },
  "bbox": [
    -122.386472,
    37.616105,
    -122.385834,
    37.616611
  ],
  "geometry": {"type":"Polygon","coordinates":[[[-122.386472,37.616318],[-122.386435,37.616233],[-122.386376,37.616178],[-122.386301,37.616131],[-122.386161,37.616105],[-122.386022,37.616131],[-122.385914,37.616186],[-122.385855,37.616267],[-122.385834,37.616369],[-122.385871,37.616467],[-122.385941,37.616543],[-122.386054,37.616603],[-122.386183,37.616611],[-122.386306,37.616573],[-122.386419,37.616509],[-122.386467,37.616411],[-122.386472,37.616318]]]}
}
