{
  "id": 1913890953,
  "type": "Feature",
  "properties": {
    "date:cessation_lower": "1970-01-01",
    "date:cessation_upper": "1979-12-31",
    "date:inception_lower": "1970-01-01",
    "date:inception_upper": "1979-12-31",
    "edtf:cessation": "197X",
    "edtf:inception": "197X",
    "geom:area": 2.477324999997507e-7,
    "geom:bbox": "-122.386472,37.616105,-122.385834,37.616611",
    "geom:latitude": 37.61635756125121,
    "geom:longitude": -122.38615532866096,
    "media:fingerprint": "757d7702367256291899340ae9105331a5b815ba",
    "media:imagehash_avg": "a:3d007c7ffcfc3019",
    "media:imagehash_diff": "d:61e8e8e0c0e0e1f1",
    "media:imagetext": "BOEING 107-3298\nImpresso em Portugal por Lito of. Artistas Reunidos\nTAP\nPortuguese Airways\nTransportes Aéreos Portugueses\n2008.055.648",
    "media:imagetext_created": 1787973192,
    "media:imagetext_source": "com.apple.visionkit.VNImageRequestHandler#Version 26.6.2 (Build 25G83)",
    "media:mimetype": "image/tiff",
    "media:properties": {
      "sizes": {
        "b": {
          "extension": "jpg",
          "height": 728,
          "mimetype": "image/jpeg",
          "secret": "wCofFjkKjHoJgEqHMbuV50L31CxVEag2",
          "width": 1024
        },
        "c": {
          "extension": "jpg",
          "height": 569,
          "mimetype": "image/jpeg",
          "secret": "wCofFjkKjHoJgEqHMbuV50L31CxVEag2",
          "width": 800
        },
        "dc": {
          "extension": "jpg",
          "height": 569,
          "mimetype": "image/jpeg",
          "secret": "wCofFjkKjHoJgEqHMbuV50L31CxVEag2",
          "width": 800
        },
        "ds": {
          "extension": "jpg",
          "height": 320,
          "mimetype": "image/jpeg",
          "secret": "wCofFjkKjHoJgEqHMbuV50L31CxVEag2",
          "width": 320
        },
        "k": {
          "extension": "jpg",
          "height": 1457,
          "mimetype": "image/jpeg",
          "secret": "wCofFjkKjHoJgEqHMbuV50L31CxVEag2",
          "width": 2048
        },
        "n": {
          "extension": "jpg",
          "height": 227,
          "mimetype": "image/jpeg",
          "secret": "wCofFjkKjHoJgEqHMbuV50L31CxVEag2",
          "width": 320
        },
        "o": {
          "extension": "jpg",
          "height": 1172,
          "mimetype": "image/jpeg",
          "secret": "GyFfxP0dc7pzBveioXWJBzd1oJXYZbGU",
          "width": 1647
        },
        "s": {
          "extension": "jpg",
          "height": 320,
          "mimetype": "image/jpeg",
          "secret": "wCofFjkKjHoJgEqHMbuV50L31CxVEag2",
          "width": 320
        },
        "z": {
          "extension": "jpg",
          "height": 455,
          "mimetype": "image/jpeg",
          "secret": "wCofFjkKjHoJgEqHMbuV50L31CxVEag2",
          "width": 640
        }
      }
    },
    "media:source": "sfomuseum",
    "media:status_id": 1,
    "media:uri_template": "https://static.sfomuseum.org/media/191/389/095/3/1913890953_{secret}_{label}.{extention}",
    "millsfield:aircraft_id": [
      1159289689
    ],
    "millsfield:airline_id": [
      1159285277
    ],
    "millsfield:category_id": 1511214215,
    "millsfield:collection_id": 1511214207,
    "millsfield:company_id": [
      1159293593,
      1159289653
    ],
    "millsfield:images_colors": [
      {
        "hex": "#cca06b",
        "name": "#cca06b",
        "reference": "marekm4"
      },
      {
        "hex": "#bdb76b",
        "name": "darkkhaki",
        "reference": "css4"
      },
      {
        "hex": "#cd9575",
        "name": "Antique Brass",
        "reference": "crayola"
      },
      {
        "hex": "#dec09b",
        "name": "#dec09b",
        "reference": "marekm4"
      },
      {
        "hex": "#deb887",
        "name": "burlywood",
        "reference": "css4"
      },
      {
        "hex": "#e7c697",
        "name": "Gold",
        "reference": "crayola"
      },
      {
        "hex": "#2e281b",
        "name": "#2e281b",
        "reference": "marekm4"
      },
      {
        "hex": "#2f4f4f",
        "name": "darkslategrey",
        "reference": "css4"
      },
      {
        "hex": "#414a4c",
        "name": "Outer Space",
        "reference": "crayola"
      },
      {
        "hex": "#a5733e",
        "name": "#a5733e",
        "reference": "marekm4"
      },
      {
        "hex": "#a0522d",
        "name": "sienna",
        "reference": "css4"
      },
      {
        "hex": "#9c7c38",
        "name": "Metallic Sunburst",
        "reference": "crayola"
      }
    ],
    "millsfield:images_texts": [
      "BOEING 107-3298\nImpresso em Portugal por Lito of. Artistas Reunidos\nTAP\nPortuguese Airways\nTransportes Aéreos Portugueses\n2008.055.648",
      "....\nTRANSPORTES AÉREOS\nTAP\nCS - 15A"
    ],
    "millsfield:images_texts_ids": [
      1913890953,
      1913890955
    ],
    "millsfield:similar": {
      "apple/mobileclip_s0": [
        {
          "distance": 0.25177565,
          "id": 1762709325
        },
        {
          "distance": 0.34060746,
          "id": 1762709315
        },
        {
          "distance": 0.38752112,
          "id": 1762707725
        },
        {
          "distance": 0.4212683,
          "id": 1762711355
        },
        {
          "distance": 0.42578796,
          "id": 1762707437
        },
        {
          "distance": 0.42594346,
          "id": 1762709311
        },
        {
          "distance": 0.42660207,
          "id": 1762713349
        },
        {
          "distance": 0.43526462,
          "id": 1762713013
        },
        {
          "distance": 0.4409476,
          "id": 1762713507
        },
        {
          "distance": 0.44306237,
          "id": 1762710261
        }
      ],
      "apple/mobileclip_s1": [
        {
          "distance": 0.27195755,
          "id": 1762709315
        },
        {
          "distance": 0.2966498,
          "id": 1762709325
        },
        {
          "distance": 0.33644912,
          "id": 1762713187
        },
        {
          "distance": 0.3388823,
          "id": 1762711323
        },
        {
          "distance": 0.3483901,
          "id": 1762713183
        },
        {
          "distance": 0.34945574,
          "id": 1762711355
        },
        {
          "distance": 0.3503922,
          "id": 1762703259
        },
        {
          "distance": 0.3505103,
          "id": 1762702831
        },
        {
          "distance": 0.3537826,
          "id": 1762712263
        },
        {
          "distance": 0.35558325,
          "id": 1762713007
        }
      ],
      "apple/mobileclip_s2": [
        {
          "distance": 0.33159736,
          "id": 1762709325
        },
        {
          "distance": 0.36893567,
          "id": 1762709315
        },
        {
          "distance": 0.47328466,
          "id": 1762710895
        },
        {
          "distance": 0.4777253,
          "id": 1762709321
        },
        {
          "distance": 0.4889484,
          "id": 1762707779
        },
        {
          "distance": 0.49204147,
          "id": 1762711327
        },
        {
          "distance": 0.49442127,
          "id": 1762709307
        },
        {
          "distance": 0.49718058,
          "id": 1762703273
        },
        {
          "distance": 0.50699735,
          "id": 1762703277
        },
        {
          "distance": 0.5117605,
          "id": 1762711331
        }
      ]
    },
    "millsfield:subcategory_id": 1511213363,
    "mz:is_current": 1,
    "sfomuseum:filename": "2008.055.648_verso.tif",
    "sfomuseum:image_id": 74457,
    "sfomuseum:image_index": 0,
    "sfomuseum:image_type": "studio",
    "sfomuseum:object_id": 91126,
    "sfomuseum:placetype": "image",
    "sfomuseum:primary_image": 0,
    "src:geom": "sfomuseum",
    "wof:belongsto": [
      102527513,
      1159162825,
      102191575,
      85633793,
      102087579,
      85922583,
      1913890843,
      85688637,
      1159160869
    ],
    "wof:country": "XY",
    "wof:created": 1715326526,
    "wof:depicts": [
      1159289689,
      1159293593,
      1159289653,
      1913890843,
      1159285277
    ],
    "wof:geomhash": "ed7c2ab3547fc3916b5edc33488deaa7",
    "wof:hierarchy": [
      {
        "building_id": -1,
        "campus_id": 102527513,
        "collection_id": 1159162825,
        "concourse_id": 1159162825,
        "continent_id": 102191575,
        "country_id": 85633793,
        "county_id": 102087579,
        "custom_id": 1913890953,
        "image_id": 1913890953,
        "locality_id": 85922583,
        "neighbourhood_id": -1,
        "object_id": 1913890843,
        "region_id": 85688637,
        "wing_id": 1159160869
      }
    ],
    "wof:id": 1913890953,
    "wof:lastmodified": 1788452325,
    "wof:name": "postcard: TAP (Transportes Aereos Portugueses), Boeing 707-320",
    "wof:parent_id": 1913890843,
    "wof:placetype": "custom",
    "wof:placetype_alt": [
      "image"
    ],
    "wof:repo": "sfomuseum-data-media-collection",
    "wof:superseded_by": [],
    "wof:supersedes": []
  },
  "bbox": [
    -122.386472,
    37.616105,
    -122.385834,
    37.616611
  ],
  "geometry": {"type":"Polygon","coordinates":[[[-122.386472,37.616318],[-122.386435,37.616233],[-122.386376,37.616178],[-122.386301,37.616131],[-122.386161,37.616105],[-122.386022,37.616131],[-122.385914,37.616186],[-122.385855,37.616267],[-122.385834,37.616369],[-122.385871,37.616467],[-122.385941,37.616543],[-122.386054,37.616603],[-122.386183,37.616611],[-122.386306,37.616573],[-122.386419,37.616509],[-122.386467,37.616411],[-122.386472,37.616318]]]}
}
