{
  "id": 1527839251,
  "type": "Feature",
  "properties": {
    "date:cessation_lower": "1979-01-01",
    "date:cessation_upper": "1979-12-31",
    "date:inception_lower": "1979-01-01",
    "date:inception_upper": "1979-12-31",
    "edtf:cessation": "1979",
    "edtf:date": "1979",
    "edtf:inception": "1979",
    "geom:area": 0,
    "geom:bbox": "-122.386155,37.616358,-122.386155,37.616358",
    "geom:latitude": 37.616358,
    "geom:longitude": -122.386155,
    "iso:country": "XX",
    "media:fingerprint": "a57516efd2e65caa2474d05f6a8c57bfc3d4c8aa",
    "media:imagehash_avg": "a:fbffffcfc6800087",
    "media:imagehash_diff": "d:2307af3c3c352d1f",
    "media:imagetext": "OZARK\nAIRLINES\nSystem Timetable\nEffective January 7, 1979\nNew Destinations\nTo Serve You Better\nFlorida\nI CONGRESS Joy L Fre\nShe matimens Cafandie\nStates of merica\nAtlanta\nPhiladelphia",
    "media:imagetext_created": 1787950662,
    "media:imagetext_source": "com.apple.visionkit.VNImageRequestHandler#Version 26.6.2 (Build 25G83)",
    "media:medium": "image",
    "media:mimetype": "image/tiff",
    "media:properties": {
      "sizes": {
        "b": {
          "extension": "jpg",
          "height": 768,
          "mimetype": "image/jpeg",
          "secret": "3NDxmC4PEI7YwIh1imWcMXMrW6xkfj8R",
          "width": 359
        },
        "c": {
          "extension": "jpg",
          "height": 600,
          "mimetype": "image/jpeg",
          "secret": "3NDxmC4PEI7YwIh1imWcMXMrW6xkfj8R",
          "width": 281
        },
        "dc": {
          "extension": "jpg",
          "height": 600,
          "mimetype": "image/jpeg",
          "secret": "3NDxmC4PEI7YwIh1imWcMXMrW6xkfj8R",
          "width": 281
        },
        "ds": {
          "extension": "jpg",
          "height": 320,
          "mimetype": "image/jpeg",
          "secret": "3NDxmC4PEI7YwIh1imWcMXMrW6xkfj8R",
          "width": 320
        },
        "k": {
          "extension": "jpg",
          "height": 1536,
          "mimetype": "image/jpeg",
          "secret": "3NDxmC4PEI7YwIh1imWcMXMrW6xkfj8R",
          "width": 719
        },
        "n": {
          "extension": "jpg",
          "height": 240,
          "mimetype": "image/jpeg",
          "secret": "3NDxmC4PEI7YwIh1imWcMXMrW6xkfj8R",
          "width": 112
        },
        "o": {
          "extension": "jpg",
          "height": 2716,
          "mimetype": "image/jpeg",
          "secret": "bS2pZrKTdZjyOxcfjTAHw820Huwr97kh",
          "width": 1272
        },
        "s": {
          "extension": "jpg",
          "height": 320,
          "mimetype": "image/jpeg",
          "secret": "3NDxmC4PEI7YwIh1imWcMXMrW6xkfj8R",
          "width": 320
        },
        "z": {
          "extension": "jpg",
          "height": 480,
          "mimetype": "image/jpeg",
          "secret": "3NDxmC4PEI7YwIh1imWcMXMrW6xkfj8R",
          "width": 224
        }
      }
    },
    "media:source": "sfomuseum",
    "media:status_id": 1,
    "media:uri_template": "https://static.sfomuseum.org/media/152/783/925/1/1527839251_{secret}_{label}.{extension}",
    "millsfield:airline_id": [
      1159284941
    ],
    "millsfield:category_id": 1511214223,
    "millsfield:collection_id": 1511214207,
    "millsfield:company_id": [
      1159288545
    ],
    "millsfield:images_colors": [
      {
        "hex": "#e0dddb",
        "name": "#e0dddb",
        "reference": "marekm4"
      },
      {
        "hex": "#dcdcdc",
        "name": "gainsboro",
        "reference": "css4"
      },
      {
        "hex": "#dbd7d2",
        "name": "Timberwolf",
        "reference": "crayola"
      },
      {
        "hex": "#242524",
        "name": "#242524",
        "reference": "marekm4"
      },
      {
        "hex": "#2f4f4f",
        "name": "darkslategrey",
        "reference": "css4"
      },
      {
        "hex": "#414a4c",
        "name": "Outer Space",
        "reference": "crayola"
      },
      {
        "hex": "#b0401b",
        "name": "#b0401b",
        "reference": "marekm4"
      },
      {
        "hex": "#a52a2a",
        "name": "brown",
        "reference": "css4"
      },
      {
        "hex": "#c46210",
        "name": "Alloy Orange",
        "reference": "crayola"
      },
      {
        "hex": "#436092",
        "name": "#436092",
        "reference": "marekm4"
      },
      {
        "hex": "#483d8b",
        "name": "darkslateblue",
        "reference": "css4"
      },
      {
        "hex": "#2e5894",
        "name": "B'dazzled Blue",
        "reference": "crayola"
      }
    ],
    "millsfield:images_texts": [
      "OZARK\nAIRLINES\nSystem Timetable\nEffective January 7, 1979\nNew Destinations\nTo Serve You Better\nFlorida\nI CONGRESS Joy L Fre\nShe matimens Cafandie\nStates of merica\nAtlanta\nPhiladelphia"
    ],
    "millsfield:images_texts_ids": [
      1527839251
    ],
    "millsfield:similar": {
      "apple/mobileclip_s0": [
        {
          "distance": 0.6660115,
          "id": 1527842287
        },
        {
          "distance": 0.66931385,
          "id": 1527849411
        },
        {
          "distance": 0.6739565,
          "id": 1527843203
        },
        {
          "distance": 0.67454803,
          "id": 1762714781
        },
        {
          "distance": 0.6813453,
          "id": 1527836475
        },
        {
          "distance": 0.6841229,
          "id": 1527843217
        },
        {
          "distance": 0.6919302,
          "id": 1527838341
        },
        {
          "distance": 0.69497293,
          "id": 1527835843
        },
        {
          "distance": 0.69719076,
          "id": 1527843211
        },
        {
          "distance": 0.6982672,
          "id": 1527843205
        }
      ],
      "apple/mobileclip_s1": [
        {
          "distance": 0.48555082,
          "id": 1527836237
        },
        {
          "distance": 0.49085248,
          "id": 1527836465
        },
        {
          "distance": 0.49316704,
          "id": 1527855167
        },
        {
          "distance": 0.49449062,
          "id": 2048176403
        },
        {
          "distance": 0.49453026,
          "id": 1527843227
        },
        {
          "distance": 0.49473694,
          "id": 1527847705
        },
        {
          "distance": 0.50074303,
          "id": 1527840025
        },
        {
          "distance": 0.5038363,
          "id": 1762697029
        },
        {
          "distance": 0.50387585,
          "id": 1762700457
        },
        {
          "distance": 0.5060384,
          "id": 1527847687
        }
      ],
      "apple/mobileclip_s2": [
        {
          "distance": 0.6422754,
          "id": 1746512107
        },
        {
          "distance": 0.6793776,
          "id": 1527843155
        },
        {
          "distance": 0.6864451,
          "id": 1527842287
        },
        {
          "distance": 0.69113296,
          "id": 1527840695
        },
        {
          "distance": 0.6939625,
          "id": 1527843203
        },
        {
          "distance": 0.6951295,
          "id": 1762699231
        },
        {
          "distance": 0.69689214,
          "id": 1527839027
        },
        {
          "distance": 0.6971092,
          "id": 1527846803
        },
        {
          "distance": 0.7011055,
          "id": 1527849013
        },
        {
          "distance": 0.7013636,
          "id": 1527855167
        }
      ]
    },
    "millsfield:subcategory_id": 1511213425,
    "mz:hierarchy_label": 1,
    "mz:is_current": -1,
    "sfomuseum:filename": "2008.108.564.tif",
    "sfomuseum:image_id": 65815,
    "sfomuseum:image_index": 5,
    "sfomuseum:image_type": "studio",
    "sfomuseum:object_id": 93948,
    "sfomuseum:placetype": "image",
    "sfomuseum:primary_image": 1,
    "src:geom": "sfomuseum",
    "wof:belongsto": [
      1511214223,
      1511934051,
      102527513,
      102191575,
      85633793,
      1511213425,
      85922583,
      102087579,
      1511214277,
      1511214203,
      85688637
    ],
    "wof:breaches": [],
    "wof:country": "XX",
    "wof:created": 1578952372,
    "wof:depicts": [
      1159288545,
      1159284941,
      1511934051
    ],
    "wof:geomhash": "bd906905ce4be6c0651c90b0fc24804c",
    "wof:hierarchy": [
      {
        "arcade_id": 1511213425,
        "building_id": 1511214277,
        "campus_id": 102527513,
        "concourse_id": 1511214223,
        "continent_id": 102191575,
        "country_id": 85633793,
        "county_id": 102087579,
        "custom_id": 1527839251,
        "image_id": 1527839251,
        "locality_id": 85922583,
        "media_id": 1527839251,
        "neighbourhood_id": -1,
        "region_id": 85688637,
        "venue_id": 1511934051,
        "wing_id": 1511214203
      }
    ],
    "wof:id": 1527839251,
    "wof:lastmodified": 1788449999,
    "wof:name": "timetable: Ozark Airlines",
    "wof:parent_id": 1511934051,
    "wof:placetype": "custom",
    "wof:placetype_alt": [
      "image"
    ],
    "wof:repo": "sfomuseum-data-media-collection",
    "wof:superseded_by": [],
    "wof:supersedes": [],
    "wof:tags": []
  },
  "bbox": [
    -122.386155,
    37.616358,
    -122.386155,
    37.616358
  ],
  "geometry": {"type":"Point","coordinates":[-122.386155,37.616358]}
}
