{
  "id": 1527842411,
  "type": "Feature",
  "properties": {
    "date:cessation_lower": "2000-01-01",
    "date:cessation_upper": "2009-12-31",
    "date:inception_lower": "2000-01-01",
    "date:inception_upper": "2009-12-31",
    "edtf:cessation": "200X",
    "edtf:date": "200x",
    "edtf:inception": "200X",
    "geom:area": 0,
    "geom:bbox": "-122.386155,37.616358,-122.386155,37.616358",
    "geom:latitude": 37.616358,
    "geom:longitude": -122.386155,
    "iso:country": "XX",
    "media:fingerprint": "8aba126e9a28afe2a3d796fa44943881263ca92a",
    "media:imagehash_avg": "a:e7e7db81c1e3e7ff",
    "media:imagehash_diff": "d:17173b130f0f979b",
    "media:imagetext": "ОССЛЫЕІ\nASIENTO\nOCUPADO\nMEXICANA A",
    "media:imagetext_created": 1787951280,
    "media:imagetext_source": "com.apple.visionkit.VNImageRequestHandler#Version 26.6.2 (Build 25G83)",
    "media:medium": "image",
    "media:mimetype": "image/tiff",
    "media:properties": {
      "sizes": {
        "b": {
          "extension": "jpg",
          "height": 768,
          "mimetype": "image/jpeg",
          "secret": "1IbKilIuKh2Tdwu7GlrNDex4j463J7X9",
          "width": 340
        },
        "c": {
          "extension": "jpg",
          "height": 600,
          "mimetype": "image/jpeg",
          "secret": "1IbKilIuKh2Tdwu7GlrNDex4j463J7X9",
          "width": 266
        },
        "dc": {
          "extension": "jpg",
          "height": 600,
          "mimetype": "image/jpeg",
          "secret": "1IbKilIuKh2Tdwu7GlrNDex4j463J7X9",
          "width": 266
        },
        "ds": {
          "extension": "jpg",
          "height": 320,
          "mimetype": "image/jpeg",
          "secret": "1IbKilIuKh2Tdwu7GlrNDex4j463J7X9",
          "width": 320
        },
        "k": {
          "extension": "jpg",
          "height": 1536,
          "mimetype": "image/jpeg",
          "secret": "1IbKilIuKh2Tdwu7GlrNDex4j463J7X9",
          "width": 681
        },
        "n": {
          "extension": "jpg",
          "height": 240,
          "mimetype": "image/jpeg",
          "secret": "1IbKilIuKh2Tdwu7GlrNDex4j463J7X9",
          "width": 106
        },
        "o": {
          "extension": "jpg",
          "height": 3324,
          "mimetype": "image/jpeg",
          "secret": "A9jHdWjMAbg8jIrdEsGTeG8ZbMKBngeT",
          "width": 1475
        },
        "s": {
          "extension": "jpg",
          "height": 320,
          "mimetype": "image/jpeg",
          "secret": "1IbKilIuKh2Tdwu7GlrNDex4j463J7X9",
          "width": 320
        },
        "z": {
          "extension": "jpg",
          "height": 480,
          "mimetype": "image/jpeg",
          "secret": "1IbKilIuKh2Tdwu7GlrNDex4j463J7X9",
          "width": 212
        }
      }
    },
    "media:source": "sfomuseum",
    "media:status_id": 1,
    "media:uri_template": "https://static.sfomuseum.org/media/152/784/241/1/1527842411_{secret}_{label}.{extension}",
    "millsfield:airline_id": [
      1159284781
    ],
    "millsfield:category_id": 1762671311,
    "millsfield:collection_id": 1511214207,
    "millsfield:company_id": [
      1159287451
    ],
    "millsfield:images_colors": [
      {
        "hex": "#e8eae0",
        "name": "#e8eae0",
        "reference": "marekm4"
      },
      {
        "hex": "#f5f5dc",
        "name": "beige",
        "reference": "css4"
      },
      {
        "hex": "#efdecd",
        "name": "Almond",
        "reference": "crayola"
      },
      {
        "hex": "#0a1345",
        "name": "#0a1345",
        "reference": "marekm4"
      },
      {
        "hex": "#191970",
        "name": "midnightblue",
        "reference": "css4"
      },
      {
        "hex": "#000000",
        "name": "Black",
        "reference": "crayola"
      }
    ],
    "millsfield:images_texts": [
      "BOLSA DE MAREO\nAIRSICKNESS BAG\nSAC POUR LE MAL DE L'AIR\nSEAT\nOCCUPIED\nMEXICANA A",
      "ОССЛЫЕІ\nASIENTO\nOCUPADO\nMEXICANA A"
    ],
    "millsfield:images_texts_ids": [
      1527842409,
      1527842411
    ],
    "millsfield:similar": {
      "apple/mobileclip_s0": [
        {
          "distance": 0.42651725,
          "id": 1527852877
        },
        {
          "distance": 0.5199838,
          "id": 1527842409
        },
        {
          "distance": 0.52494496,
          "id": 1527852875
        },
        {
          "distance": 0.57479495,
          "id": 1763205215
        },
        {
          "distance": 0.6195878,
          "id": 2048165603
        },
        {
          "distance": 0.63651055,
          "id": 1863469147
        },
        {
          "distance": 0.63832295,
          "id": 2048176423
        },
        {
          "distance": 0.6396326,
          "id": 1863469139
        },
        {
          "distance": 0.6554858,
          "id": 1863469141
        },
        {
          "distance": 0.6601648,
          "id": 1796455159
        }
      ],
      "apple/mobileclip_s1": [
        {
          "distance": 0.32403332,
          "id": 1527852877
        },
        {
          "distance": 0.40527883,
          "id": 1527842409
        },
        {
          "distance": 0.4082018,
          "id": 1527852875
        },
        {
          "distance": 0.42653185,
          "id": 1763205215
        },
        {
          "distance": 0.52003276,
          "id": 1863469139
        },
        {
          "distance": 0.52100205,
          "id": 1863469145
        },
        {
          "distance": 0.5250759,
          "id": 1796455159
        },
        {
          "distance": 0.5312966,
          "id": 1863469147
        },
        {
          "distance": 0.5373858,
          "id": 1964167567
        },
        {
          "distance": 0.53806573,
          "id": 1863469141
        }
      ],
      "apple/mobileclip_s2": [
        {
          "distance": 0.3735822,
          "id": 1527852877
        },
        {
          "distance": 0.587801,
          "id": 1527842409
        },
        {
          "distance": 0.62320787,
          "id": 1527852875
        },
        {
          "distance": 0.62794834,
          "id": 1763205215
        },
        {
          "distance": 0.66134936,
          "id": 1863469145
        },
        {
          "distance": 0.6722894,
          "id": 1863469139
        },
        {
          "distance": 0.6739672,
          "id": 2048167319
        },
        {
          "distance": 0.68258196,
          "id": 1863469147
        },
        {
          "distance": 0.68846697,
          "id": 1863469141
        },
        {
          "distance": 0.69635624,
          "id": 1964167567
        }
      ]
    },
    "millsfield:subcategory_id": 1511213185,
    "mz:hierarchy_label": 1,
    "mz:is_current": -1,
    "sfomuseum:filename": "67577.tif",
    "sfomuseum:image_id": 67577,
    "sfomuseum:image_index": 5,
    "sfomuseum:image_type": "studio",
    "sfomuseum:object_id": 80172,
    "sfomuseum:placetype": "image",
    "sfomuseum:primary_image": 0,
    "src:geom": "sfomuseum",
    "wof:belongsto": [
      1511927471,
      102527513,
      102191575,
      85633793,
      85922583,
      102087579,
      1511214277,
      85688637
    ],
    "wof:breaches": [],
    "wof:country": "XX",
    "wof:created": 1578952864,
    "wof:depicts": [
      1159287451,
      1511927471,
      1159284781
    ],
    "wof:geomhash": "bd906905ce4be6c0651c90b0fc24804c",
    "wof:hierarchy": [
      {
        "building_id": 1511214277,
        "campus_id": 102527513,
        "continent_id": 102191575,
        "country_id": 85633793,
        "county_id": 102087579,
        "custom_id": 1527842411,
        "image_id": 1527842411,
        "locality_id": 85922583,
        "media_id": 1527842411,
        "neighbourhood_id": -1,
        "region_id": 85688637,
        "venue_id": 1511927471
      }
    ],
    "wof:id": 1527842411,
    "wof:lastmodified": 1788450050,
    "wof:name": "airsickness bag: Mexicana Airlines",
    "wof:parent_id": 1511927471,
    "wof:placetype": "custom",
    "wof:placetype_alt": [
      "image"
    ],
    "wof:repo": "sfomuseum-data-media-collection",
    "wof:superseded_by": [],
    "wof:supersedes": [],
    "wof:tags": []
  },
  "bbox": [
    -122.386155,
    37.616358,
    -122.386155,
    37.616358
  ],
  "geometry": {"type":"Point","coordinates":[-122.386155,37.616358]}
}
