{
  "id": 1779566213,
  "type": "Feature",
  "properties": {
    "date:cessation_lower": "2000-01-01",
    "date:cessation_upper": "2000-12-31",
    "date:inception_lower": "2000-01-01",
    "date:inception_upper": "2000-12-31",
    "edtf:cessation": "2000",
    "edtf:inception": "2000",
    "geom:area": 2.477324999997507e-7,
    "geom:bbox": "-122.386472,37.616105,-122.385834,37.616611",
    "geom:latitude": 37.61635756125121,
    "geom:longitude": -122.38615532866096,
    "media:fingerprint": "76c2c8e63f4ef2482d5765e3a88afc12983699e3",
    "media:imagehash_avg": "a:00027efce0ebffff",
    "media:imagehash_diff": "d:cf9ef8c1999aaaae",
    "media:imagetext": "TWA®\nWORLDWIDE\nTIME T\nA\nOCTOBER 29, 2000\nIncluding Trans World Express® Service\nand Trans World Connection™ Service\nTWA OFFERS MORE NONSTOP\nTRANSCONTINENTAL SERVICE.\n5 Daily Flights Between Los Angeles And JFK\n3 Daily Flights Between San Francisco And JFK\n1 Daily Flight Between Orange County And JFK\n•\nPlus, 1 Exclusive Daily Flight Between Los Angeles\nAnd Washington's Reagan National Airport.\nRESERVATIONS\nDomestic 1.800.221.2000 ~ International 1.800.892.4141 - www.twa.com",
    "media:imagetext_created": 1787964461,
    "media:imagetext_source": "com.apple.visionkit.VNImageRequestHandler#Version 26.6.2 (Build 25G83)",
    "media:mimetype": "image/jpeg",
    "media:properties": {
      "sizes": {
        "b": {
          "extension": "jpg",
          "height": 768,
          "mimetype": "image/jpeg",
          "secret": "Ao5fkDWgB5Laxgfhof8hH2nluXxbMvo7",
          "width": 341
        },
        "c": {
          "extension": "jpg",
          "height": 600,
          "mimetype": "image/jpeg",
          "secret": "Ao5fkDWgB5Laxgfhof8hH2nluXxbMvo7",
          "width": 266
        },
        "dc": {
          "extension": "jpg",
          "height": 600,
          "mimetype": "image/jpeg",
          "secret": "Ao5fkDWgB5Laxgfhof8hH2nluXxbMvo7",
          "width": 266
        },
        "ds": {
          "extension": "jpg",
          "height": 320,
          "mimetype": "image/jpeg",
          "secret": "Ao5fkDWgB5Laxgfhof8hH2nluXxbMvo7",
          "width": 320
        },
        "k": {
          "extension": "jpg",
          "height": 1536,
          "mimetype": "image/jpeg",
          "secret": "Ao5fkDWgB5Laxgfhof8hH2nluXxbMvo7",
          "width": 682
        },
        "n": {
          "extension": "jpg",
          "height": 240,
          "mimetype": "image/jpeg",
          "secret": "Ao5fkDWgB5Laxgfhof8hH2nluXxbMvo7",
          "width": 106
        },
        "o": {
          "extension": "jpg",
          "height": 2306,
          "mimetype": "image/jpeg",
          "secret": "JHiHnachOl2vklXA20BOw4tRLDgP5ahM",
          "width": 1024
        },
        "s": {
          "extension": "jpg",
          "height": 320,
          "mimetype": "image/jpeg",
          "secret": "Ao5fkDWgB5Laxgfhof8hH2nluXxbMvo7",
          "width": 320
        },
        "z": {
          "extension": "jpg",
          "height": 480,
          "mimetype": "image/jpeg",
          "secret": "Ao5fkDWgB5Laxgfhof8hH2nluXxbMvo7",
          "width": 213
        }
      }
    },
    "media:source": "sfomuseum",
    "media:status_id": 1,
    "media:uri_template": "https://static.sfomuseum.org/media/177/956/621/3/1779566213_{secret}_{label}.{extension}",
    "millsfield:airline_id": [
      1159285393
    ],
    "millsfield:category_id": 1511214223,
    "millsfield:collection_id": 1511214207,
    "millsfield:company_id": [
      1159287531
    ],
    "millsfield:images_colors": [
      {
        "hex": "#dcdad5",
        "name": "#dcdad5",
        "reference": "marekm4"
      },
      {
        "hex": "#dcdcdc",
        "name": "gainsboro",
        "reference": "css4"
      },
      {
        "hex": "#dbd7d2",
        "name": "Timberwolf",
        "reference": "crayola"
      },
      {
        "hex": "#131330",
        "name": "#131330",
        "reference": "marekm4"
      },
      {
        "hex": "#000000",
        "name": "black",
        "reference": "css4"
      },
      {
        "hex": "#000000",
        "name": "Black",
        "reference": "crayola"
      },
      {
        "hex": "#a91426",
        "name": "#a91426",
        "reference": "marekm4"
      },
      {
        "hex": "#b22222",
        "name": "firebrick",
        "reference": "css4"
      },
      {
        "hex": "#9c2542",
        "name": "Big Dip O' Ruby",
        "reference": "crayola"
      }
    ],
    "millsfield:images_texts": [
      "TWA®\nWORLDWIDE\nTIME T\nA\nOCTOBER 29, 2000\nIncluding Trans World Express® Service\nand Trans World Connection™ Service\nTWA OFFERS MORE NONSTOP\nTRANSCONTINENTAL SERVICE.\n5 Daily Flights Between Los Angeles And JFK\n3 Daily Flights Between San Francisco And JFK\n1 Daily Flight Between Orange County And JFK\n•\nPlus, 1 Exclusive Daily Flight Between Los Angeles\nAnd Washington's Reagan National Airport.\nRESERVATIONS\nDomestic 1.800.221.2000 ~ International 1.800.892.4141 - www.twa.com"
    ],
    "millsfield:images_texts_ids": [
      1779566213
    ],
    "millsfield:similar": {
      "apple/mobileclip_s0": [
        {
          "distance": 0.6298368,
          "id": 1729566599
        },
        {
          "distance": 0.65033656,
          "id": 1762698115
        },
        {
          "distance": 0.6564524,
          "id": 1762699957
        },
        {
          "distance": 0.66108596,
          "id": 1762715353
        },
        {
          "distance": 0.6659412,
          "id": 1763196193
        },
        {
          "distance": 0.6737981,
          "id": 1527835237
        },
        {
          "distance": 0.6787049,
          "id": 1746680659
        },
        {
          "distance": 0.6896835,
          "id": 1897196899
        },
        {
          "distance": 0.6912603,
          "id": 1779489373
        },
        {
          "distance": 0.6912711,
          "id": 1763257795
        }
      ],
      "apple/mobileclip_s1": [
        {
          "distance": 0.46557063,
          "id": 1527835237
        },
        {
          "distance": 0.4698852,
          "id": 1779489895
        },
        {
          "distance": 0.4833362,
          "id": 1527844479
        },
        {
          "distance": 0.4833362,
          "id": 1527844481
        },
        {
          "distance": 0.4833362,
          "id": 1527844487
        },
        {
          "distance": 0.48512873,
          "id": 1746680659
        },
        {
          "distance": 0.48558983,
          "id": 1762699957
        },
        {
          "distance": 0.4865084,
          "id": 1527841101
        },
        {
          "distance": 0.4882438,
          "id": 1746680505
        },
        {
          "distance": 0.48854697,
          "id": 1762698947
        }
      ],
      "apple/mobileclip_s2": [
        {
          "distance": 0.61243,
          "id": 1527835237
        },
        {
          "distance": 0.6462636,
          "id": 1746680659
        },
        {
          "distance": 0.64995736,
          "id": 1527838373
        },
        {
          "distance": 0.6566765,
          "id": 1762715357
        },
        {
          "distance": 0.6656589,
          "id": 1527844479
        },
        {
          "distance": 0.6656589,
          "id": 1527844481
        },
        {
          "distance": 0.6656589,
          "id": 1527844487
        },
        {
          "distance": 0.6663422,
          "id": 1763196773
        },
        {
          "distance": 0.6698129,
          "id": 1762893827
        },
        {
          "distance": 0.6751124,
          "id": 1931096155
        }
      ]
    },
    "millsfield:subcategory_id": 1511213425,
    "mz:is_current": 1,
    "sfomuseum:filename": "image00231.jpg",
    "sfomuseum:image_id": 259492,
    "sfomuseum:image_index": 0,
    "sfomuseum:image_type": "studio",
    "sfomuseum:object_id": 228505,
    "sfomuseum:placetype": "image",
    "sfomuseum:primary_image": 1,
    "src:geom": "sfomuseum",
    "wof:belongsto": [
      102527513,
      1159162825,
      102191575,
      85633793,
      102087579,
      85922583,
      1779565895,
      85688637,
      1159160869
    ],
    "wof:country": "XY",
    "wof:created": 1654017175,
    "wof:depicts": [
      1159287531,
      1779565895,
      1159285393
    ],
    "wof:geomhash": "ed7c2ab3547fc3916b5edc33488deaa7",
    "wof:hierarchy": [
      {
        "building_id": -1,
        "campus_id": 102527513,
        "collection_id": 1159162825,
        "concourse_id": 1159162825,
        "continent_id": 102191575,
        "country_id": 85633793,
        "county_id": 102087579,
        "custom_id": 1779566213,
        "image_id": 1779566213,
        "locality_id": 85922583,
        "neighbourhood_id": -1,
        "object_id": 1779565895,
        "region_id": 85688637,
        "wing_id": 1159160869
      }
    ],
    "wof:id": 1779566213,
    "wof:lastmodified": 1788451322,
    "wof:name": "timetable: TWA (Trans World Airlines)",
    "wof:parent_id": 1779565895,
    "wof:placetype": "custom",
    "wof:placetype_alt": [
      "image"
    ],
    "wof:repo": "sfomuseum-data-media-collection",
    "wof:superseded_by": [],
    "wof:supersedes": []
  },
  "bbox": [
    -122.386472,
    37.616105,
    -122.385834,
    37.616611
  ],
  "geometry": {"type":"Polygon","coordinates":[[[-122.386472,37.616318],[-122.386435,37.616233],[-122.386376,37.616178],[-122.386301,37.616131],[-122.386161,37.616105],[-122.386022,37.616131],[-122.385914,37.616186],[-122.385855,37.616267],[-122.385834,37.616369],[-122.385871,37.616467],[-122.385941,37.616543],[-122.386054,37.616603],[-122.386183,37.616611],[-122.386306,37.616573],[-122.386419,37.616509],[-122.386467,37.616411],[-122.386472,37.616318]]]}
}
