{
  "id": 1897367473,
  "type": "Feature",
  "properties": {
    "date:cessation_lower": "1960-01-01",
    "date:cessation_upper": "1969-12-31",
    "date:inception_lower": "1960-01-01",
    "date:inception_upper": "1969-12-31",
    "edtf:cessation": "196X",
    "edtf:inception": "196X",
    "geom:area": 2.477324999997507e-7,
    "geom:bbox": "-122.386472,37.616105,-122.385834,37.616611",
    "geom:latitude": 37.61635756125121,
    "geom:longitude": -122.38615532866096,
    "media:fingerprint": "675be4111dafaba1f20c6b8695f394c83471c5ae",
    "media:imagehash_avg": "a:18181c3c3c3c3800",
    "media:imagehash_diff": "d:f0f0f0f8e8f8f0f2",
    "media:imagetext": "TWA\n\"Royal Ambassador\nBeverage Selections\nCOCKTAILS\nWATCHTS\nScotch, Canadian, Bourbon\nHIGHBALLS\nBeer\nSoft Drinks\nJuice\nSELECTED FRENCH VINTAGE WINES and CHAMPAGNES\nLIQUEURS\nMenu\nFRESH MALOSSOL CAVIAR\nASSORTEOT DOES OEUVRE\nPHEASANT CONSOMME WITH SHERRY\nCREAM OF LOBSTER SOUP\nCHOICE OF ENTREES\nLes Entrées\nPACIFIC HOSTER CARDINAL.\nROAST POSTOPE BEBE\nBROLLED NY. CUT SIRLOIN STEAK SQUAB CHICKENIN WINE SAUCE\nROAST DUCKLING TO ORANGE SAUCE\nGRILLED DOUBTED AN AM CHOPS\nFILLET OF SOLE WITH MUSHROOMS AND TOMATOES\nSAUTEED PISSOLE POTATOES\nASSORTMENT OF GARDEN VEGETABLES\nISH SALAD IN SEA\nELECTION OF CHEESE\nASSORTED FRUIT BASKET\nChine deBate\nCAFFEIN FREE COFFEE\nCaf\u0026 Décaffine\nRENCH PASTRIE\nCOFFEE\nCaft Américain\nSUGGESTED LOW CALORIE COMBINATION\n(Anprozimateln 250 Calories\nBROILED NY. CUT SIRLOIN STEAK\nCondon V\nFresh Fruit Selection\nA la Carte\nHAM \u0026 CHEESE\nCORNED BEEF ON RYE\nTA MDTPARD\nHOT DON\nMALTED MILKS\nCalnd in Conens",
    "media:imagetext_created": 1787971028,
    "media:imagetext_source": "com.apple.visionkit.VNImageRequestHandler#Version 26.6.2 (Build 25G83)",
    "media:mimetype": "image/tiff",
    "media:properties": {
      "sizes": {
        "b": {
          "extension": "jpg",
          "height": 768,
          "mimetype": "image/jpeg",
          "secret": "TZjCBg232B93dZuUBr2v6osX5xXt4egd",
          "width": 960
        },
        "c": {
          "extension": "jpg",
          "height": 600,
          "mimetype": "image/jpeg",
          "secret": "TZjCBg232B93dZuUBr2v6osX5xXt4egd",
          "width": 750
        },
        "dc": {
          "extension": "jpg",
          "height": 600,
          "mimetype": "image/jpeg",
          "secret": "TZjCBg232B93dZuUBr2v6osX5xXt4egd",
          "width": 750
        },
        "ds": {
          "extension": "jpg",
          "height": 320,
          "mimetype": "image/jpeg",
          "secret": "TZjCBg232B93dZuUBr2v6osX5xXt4egd",
          "width": 320
        },
        "k": {
          "extension": "jpg",
          "height": 1536,
          "mimetype": "image/jpeg",
          "secret": "TZjCBg232B93dZuUBr2v6osX5xXt4egd",
          "width": 1920
        },
        "n": {
          "extension": "jpg",
          "height": 240,
          "mimetype": "image/jpeg",
          "secret": "TZjCBg232B93dZuUBr2v6osX5xXt4egd",
          "width": 300
        },
        "o": {
          "extension": "jpg",
          "height": 1680,
          "mimetype": "image/jpeg",
          "secret": "1vMP1NiXlQXTvfsZ5ZhnzyS2lTv46vtR",
          "width": 2100
        },
        "s": {
          "extension": "jpg",
          "height": 320,
          "mimetype": "image/jpeg",
          "secret": "TZjCBg232B93dZuUBr2v6osX5xXt4egd",
          "width": 320
        },
        "z": {
          "extension": "jpg",
          "height": 480,
          "mimetype": "image/jpeg",
          "secret": "TZjCBg232B93dZuUBr2v6osX5xXt4egd",
          "width": 600
        }
      }
    },
    "media:source": "sfomuseum",
    "media:status_id": 1,
    "media:uri_template": "https://static.sfomuseum.org/media/189/736/747/3/1897367473_{secret}_{label}.{extension}",
    "millsfield:airline_id": [
      1159285393
    ],
    "millsfield:category_id": 1762671311,
    "millsfield:collection_id": 1511214207,
    "millsfield:company_id": [
      1159287531
    ],
    "millsfield:images_colors": [
      {
        "hex": "#aeaca5",
        "name": "#aeaca5",
        "reference": "marekm4"
      },
      {
        "hex": "#a9a9a9",
        "name": "darkgrey",
        "reference": "css4"
      },
      {
        "hex": "#979aaa",
        "name": "Manatee",
        "reference": "crayola"
      },
      {
        "hex": "#ae9956",
        "name": "#ae9956",
        "reference": "marekm4"
      },
      {
        "hex": "#bdb76b",
        "name": "darkkhaki",
        "reference": "css4"
      },
      {
        "hex": "#9f8170",
        "name": "Beaver",
        "reference": "crayola"
      }
    ],
    "millsfield:images_texts": [
      "TWA\nRoyal Ambassador\nBeverage Selections\nCOCKTAILS\nWHISKIES\nHIGHBALLS\nScotch, Canadian, Bourbon\nBeer\nSoft Drinks\nJuice\nSELECTED FRENCH VINTAGE WINES and CHAMPAGNES\nLIQUEURS\nMenu\nFRESH MALOSSOL CAVIAR\nnn mancon.\nPHASMA W RR V\nmé de Farsan au Sherry\nASSORTED HORS D'OUVRE\n* CREAM OF LOSTER SOUP\nCHOICE OF ENTREES\nLes Entrées\nACIFIC LOBSTER CARDINA\nChâteaubrian\nBROILED N.Y.CT SHILOIN STEAK SQUAB CHICKE NUN WINE SAUCE\nROAST DUCKLING WITH ORANGE SAUCE\nCanard à l'Orange\nble Cpt D'A amenu Crille\nFILLET OF SOLE WITH MUSHROOMS AND TOMATOES\n¡lets de Sole \"Dualéré\nSAUTE RISSOL EOTATOES ASSORTMENT OF GA EDEN VEGETABLES\nASSORTED FRUIT BASKET\nCorbeille de Fruits\nCAFFEIN FREE COFFEE\nCate Decaterné\nSELECTION OF CHEESES\nPlateau de Fromages\nCHOICE OF ICE CREAMS\nParfaits Glacés\nCOFFEE\nCafé Américain\nUGGESTED LOW CALORIE COMBINATIOI\nBROILED N.Y. CUT SIRLOIN STEAK\nSalad in Season\nFRESI SATE AD SASSEASON\nFRENCH PASTRIES\nOnthegomoo k'amo\nORANGE PEKOE TEA\nAANMAAOAann\nA laCarte\nHAM \u0026 CHEESE\nCORNED BEEF ON RYE\nHAMBURGER\nHOT DOG\nMALTED MILKS",
      "TWA\n\"Royal Ambassador\nBeverage Selections\nCOCKTAILS\nWATCHTS\nScotch, Canadian, Bourbon\nHIGHBALLS\nBeer\nSoft Drinks\nJuice\nSELECTED FRENCH VINTAGE WINES and CHAMPAGNES\nLIQUEURS\nMenu\nFRESH MALOSSOL CAVIAR\nASSORTEOT DOES OEUVRE\nPHEASANT CONSOMME WITH SHERRY\nCREAM OF LOBSTER SOUP\nCHOICE OF ENTREES\nLes Entrées\nPACIFIC HOSTER CARDINAL.\nROAST POSTOPE BEBE\nBROLLED NY. CUT SIRLOIN STEAK SQUAB CHICKENIN WINE SAUCE\nROAST DUCKLING TO ORANGE SAUCE\nGRILLED DOUBTED AN AM CHOPS\nFILLET OF SOLE WITH MUSHROOMS AND TOMATOES\nSAUTEED PISSOLE POTATOES\nASSORTMENT OF GARDEN VEGETABLES\nISH SALAD IN SEA\nELECTION OF CHEESE\nASSORTED FRUIT BASKET\nChine deBate\nCAFFEIN FREE COFFEE\nCaf\u0026 Décaffine\nRENCH PASTRIE\nCOFFEE\nCaft Américain\nSUGGESTED LOW CALORIE COMBINATION\n(Anprozimateln 250 Calories\nBROILED NY. CUT SIRLOIN STEAK\nCondon V\nFresh Fruit Selection\nA la Carte\nHAM \u0026 CHEESE\nCORNED BEEF ON RYE\nTA MDTPARD\nHOT DON\nMALTED MILKS\nCalnd in Conens"
    ],
    "millsfield:images_texts_ids": [
      1779992875,
      1897367473
    ],
    "millsfield:similar": {
      "apple/mobileclip_s0": [
        {
          "distance": 0.29379743,
          "id": 1897367475
        },
        {
          "distance": 0.31221157,
          "id": 1881093259
        },
        {
          "distance": 0.3259807,
          "id": 1897367479
        },
        {
          "distance": 0.32758385,
          "id": 1897367477
        },
        {
          "distance": 0.33289176,
          "id": 1779992875
        },
        {
          "distance": 0.40410528,
          "id": 1779992879
        },
        {
          "distance": 0.4194339,
          "id": 1779992881
        },
        {
          "distance": 0.423442,
          "id": 1779992877
        },
        {
          "distance": 0.62664086,
          "id": 1527855231
        },
        {
          "distance": 0.63863105,
          "id": 1779668367
        }
      ],
      "apple/mobileclip_s1": [
        {
          "distance": 0.22052632,
          "id": 1897367479
        },
        {
          "distance": 0.23826218,
          "id": 1897367475
        },
        {
          "distance": 0.24131924,
          "id": 1779992875
        },
        {
          "distance": 0.2486325,
          "id": 1897367477
        },
        {
          "distance": 0.26097056,
          "id": 1779992877
        },
        {
          "distance": 0.27248502,
          "id": 1779992879
        },
        {
          "distance": 0.28320825,
          "id": 1779992881
        },
        {
          "distance": 0.30271372,
          "id": 1881093259
        },
        {
          "distance": 0.45321074,
          "id": 1763513071
        },
        {
          "distance": 0.4832383,
          "id": 1779668321
        }
      ],
      "apple/mobileclip_s2": [
        {
          "distance": 0.34789902,
          "id": 1897367479
        },
        {
          "distance": 0.37058023,
          "id": 1881093259
        },
        {
          "distance": 0.39259538,
          "id": 1897367475
        },
        {
          "distance": 0.39288643,
          "id": 1779992877
        },
        {
          "distance": 0.40613326,
          "id": 1897367477
        },
        {
          "distance": 0.41016436,
          "id": 1779992881
        },
        {
          "distance": 0.41768292,
          "id": 1779992879
        },
        {
          "distance": 0.4668353,
          "id": 1779992875
        },
        {
          "distance": 0.59198976,
          "id": 1763513071
        },
        {
          "distance": 0.6329409,
          "id": 1863469905
        }
      ]
    },
    "millsfield:subcategory_id": 1511213567,
    "mz:is_current": 1,
    "sfomuseum:filename": "2022.060.068_1.tif",
    "sfomuseum:image_id": 276983,
    "sfomuseum:image_index": 0,
    "sfomuseum:image_type": "studio",
    "sfomuseum:object_id": 230587,
    "sfomuseum:placetype": "image",
    "sfomuseum:primary_image": 1,
    "src:geom": "sfomuseum",
    "wof:belongsto": [
      102527513,
      1159162825,
      102191575,
      85633793,
      102087579,
      85922583,
      1779436337,
      85688637,
      1159160869
    ],
    "wof:country": "XY",
    "wof:created": 1707986253,
    "wof:depicts": [
      1159285393,
      1159287531,
      1779436337
    ],
    "wof:geomhash": "ed7c2ab3547fc3916b5edc33488deaa7",
    "wof:hierarchy": [
      {
        "building_id": -1,
        "campus_id": 102527513,
        "collection_id": 1159162825,
        "concourse_id": 1159162825,
        "continent_id": 102191575,
        "country_id": 85633793,
        "county_id": 102087579,
        "custom_id": 1897367473,
        "image_id": 1897367473,
        "locality_id": 85922583,
        "neighbourhood_id": -1,
        "object_id": 1779436337,
        "region_id": 85688637,
        "wing_id": 1159160869
      }
    ],
    "wof:id": 1897367473,
    "wof:lastmodified": 1788160886,
    "wof:name": "menu: TWA (Trans World Airlines), Royal Ambassador",
    "wof:parent_id": 1779436337,
    "wof:placetype": "custom",
    "wof:placetype_alt": [
      "image"
    ],
    "wof:repo": "sfomuseum-data-media-collection",
    "wof:superseded_by": [],
    "wof:supersedes": []
  },
  "bbox": [
    -122.386472,
    37.616105,
    -122.385834,
    37.616611
  ],
  "geometry": {"type":"Polygon","coordinates":[[[-122.386472,37.616318],[-122.386435,37.616233],[-122.386376,37.616178],[-122.386301,37.616131],[-122.386161,37.616105],[-122.386022,37.616131],[-122.385914,37.616186],[-122.385855,37.616267],[-122.385834,37.616369],[-122.385871,37.616467],[-122.385941,37.616543],[-122.386054,37.616603],[-122.386183,37.616611],[-122.386306,37.616573],[-122.386419,37.616509],[-122.386467,37.616411],[-122.386472,37.616318]]]}
}
