{
  "id": 1746680241,
  "type": "Feature",
  "properties": {
    "date:cessation_lower": "1930-01-01",
    "date:cessation_upper": "1939-12-31",
    "date:inception_lower": "1930-01-01",
    "date:inception_upper": "1939-12-31",
    "edtf:cessation": "193X",
    "edtf:date": "",
    "edtf:inception": "193X",
    "geom:area": 0,
    "geom:bbox": "-122.386155,37.616357,-122.386155,37.616357",
    "geom:latitude": 37.616357,
    "geom:longitude": -122.386155,
    "iso:country": "US",
    "media:fingerprint": "67ebb832937bef95cbf1c3734c7b9e3d1bef9040",
    "media:imagehash_avg": "a:ffffdbc3c1c3e7ff",
    "media:imagehash_diff": "d:f8f032879f0f8ccc",
    "media:imagetext": "XB043\nLUCKY BOL",
    "media:imagetext_created": 1787954908,
    "media:imagetext_source": "com.apple.visionkit.VNImageRequestHandler#Version 26.6.2 (Build 25G83)",
    "media:mimetype": "image/tiff",
    "media:properties": {
      "sizes": {
        "b": {
          "extension": "jpg",
          "height": 682,
          "mimetype": "image/jpeg",
          "secret": "4QjuaKOkeQ6tAXvK1WdDhrd08tdw3pKN",
          "width": 1024
        },
        "c": {
          "extension": "jpg",
          "height": 533,
          "mimetype": "image/jpeg",
          "secret": "4QjuaKOkeQ6tAXvK1WdDhrd08tdw3pKN",
          "width": 800
        },
        "dc": {
          "extension": "jpg",
          "height": 533,
          "mimetype": "image/jpeg",
          "secret": "4QjuaKOkeQ6tAXvK1WdDhrd08tdw3pKN",
          "width": 800
        },
        "ds": {
          "extension": "jpg",
          "height": 320,
          "mimetype": "image/jpeg",
          "secret": "4QjuaKOkeQ6tAXvK1WdDhrd08tdw3pKN",
          "width": 320
        },
        "k": {
          "extension": "jpg",
          "height": 1365,
          "mimetype": "image/jpeg",
          "secret": "4QjuaKOkeQ6tAXvK1WdDhrd08tdw3pKN",
          "width": 2048
        },
        "n": {
          "extension": "jpg",
          "height": 213,
          "mimetype": "image/jpeg",
          "secret": "4QjuaKOkeQ6tAXvK1WdDhrd08tdw3pKN",
          "width": 320
        },
        "o": {
          "extension": "jpg",
          "height": 2400,
          "mimetype": "image/jpeg",
          "secret": "FoDEnjhbKbuTwQPDRP3DVSGMAHGQDc7z",
          "width": 3600
        },
        "s": {
          "extension": "jpg",
          "height": 320,
          "mimetype": "image/jpeg",
          "secret": "4QjuaKOkeQ6tAXvK1WdDhrd08tdw3pKN",
          "width": 320
        },
        "z": {
          "extension": "jpg",
          "height": 426,
          "mimetype": "image/jpeg",
          "secret": "4QjuaKOkeQ6tAXvK1WdDhrd08tdw3pKN",
          "width": 640
        }
      }
    },
    "media:source": "sfomuseum",
    "media:status_id": 1,
    "media:uri_template": "https://static.sfomuseum.org/media/174/668/024/1/1746680241_{secret}_{label}.{extension}",
    "millsfield:category_id": 1511214213,
    "millsfield:collection_id": 1511214203,
    "millsfield:images_colors": [
      {
        "hex": "#f1f2f3",
        "name": "#f1f2f3",
        "reference": "marekm4"
      },
      {
        "hex": "#f5f5f5",
        "name": "whitesmoke",
        "reference": "css4"
      },
      {
        "hex": "#ffffff",
        "name": "White",
        "reference": "crayola"
      },
      {
        "hex": "#383334",
        "name": "#383334",
        "reference": "marekm4"
      },
      {
        "hex": "#2f4f4f",
        "name": "darkslategrey",
        "reference": "css4"
      },
      {
        "hex": "#414a4c",
        "name": "Outer Space",
        "reference": "crayola"
      }
    ],
    "millsfield:images_texts": [
      "XB043\nLUCKY BOL",
      "X6043",
      "X6043",
      "X6043"
    ],
    "millsfield:images_texts_ids": [
      1746680241,
      1897761963,
      1930714285,
      1930714287
    ],
    "millsfield:similar": {
      "apple/mobileclip_s0": [
        {
          "distance": 0.3977613,
          "id": 1930714287
        },
        {
          "distance": 0.473641,
          "id": 1881138625
        },
        {
          "distance": 0.47867656,
          "id": 1880320133
        },
        {
          "distance": 0.49123332,
          "id": 1880321273
        },
        {
          "distance": 0.4913119,
          "id": 1880321453
        },
        {
          "distance": 0.49209782,
          "id": 1880321241
        },
        {
          "distance": 0.49878925,
          "id": 1881138623
        },
        {
          "distance": 0.5025483,
          "id": 1880321063
        },
        {
          "distance": 0.5030152,
          "id": 1880321461
        },
        {
          "distance": 0.5095943,
          "id": 1881138621
        }
      ],
      "apple/mobileclip_s1": [
        {
          "distance": 0.2319292,
          "id": 1930714287
        },
        {
          "distance": 0.30762827,
          "id": 1746680253
        },
        {
          "distance": 0.32152125,
          "id": 1880320799
        },
        {
          "distance": 0.32523116,
          "id": 1930714311
        },
        {
          "distance": 0.3272563,
          "id": 1880321065
        },
        {
          "distance": 0.3321953,
          "id": 1880320513
        },
        {
          "distance": 0.33404663,
          "id": 1880319853
        },
        {
          "distance": 0.33421722,
          "id": 1880320795
        },
        {
          "distance": 0.33528873,
          "id": 1881138621
        },
        {
          "distance": 0.33695692,
          "id": 1880320847
        }
      ],
      "apple/mobileclip_s2": [
        {
          "distance": 0.33248177,
          "id": 1930714287
        },
        {
          "distance": 0.4357738,
          "id": 1880320805
        },
        {
          "distance": 0.45456466,
          "id": 1880320719
        },
        {
          "distance": 0.454842,
          "id": 1880321443
        },
        {
          "distance": 0.45697555,
          "id": 1880321245
        },
        {
          "distance": 0.46378773,
          "id": 1880320133
        },
        {
          "distance": 0.47138345,
          "id": 1880321065
        },
        {
          "distance": 0.47153828,
          "id": 1880320777
        },
        {
          "distance": 0.47243744,
          "id": 1880321063
        },
        {
          "distance": 0.47346163,
          "id": 1881138621
        }
      ]
    },
    "millsfield:subcategory_id": 1511213163,
    "mz:is_current": 1,
    "sfomuseum:filename": "22167.tif",
    "sfomuseum:image_id": 22167,
    "sfomuseum:image_index": 1,
    "sfomuseum:image_type": "studio",
    "sfomuseum:object_id": 42547,
    "sfomuseum:placetype": "image",
    "sfomuseum:primary_image": 0,
    "src:geom": "sfomuseum",
    "wof:belongsto": [
      102191575,
      85633793,
      136253057,
      1511906723,
      1511213163,
      1511214277,
      102527513,
      1511214213,
      102087579,
      85922583,
      85688637,
      1511214203
    ],
    "wof:country": "US",
    "wof:created": 1637706229,
    "wof:depicts": [
      1511906723
    ],
    "wof:geomhash": "30c8a918561c84bb2daa2b97fc7c5353",
    "wof:hierarchy": [
      {
        "continent_id": 102191575,
        "country_id": 85633793,
        "custom_id": 1746680241,
        "empire_id": 136253057,
        "image_id": 1746680241,
        "venue_id": 1511906723
      },
      {
        "arcade_id": 1511213163,
        "building_id": 1511214277,
        "campus_id": 102527513,
        "concourse_id": 1511214213,
        "continent_id": 102191575,
        "country_id": 85633793,
        "county_id": 102087579,
        "custom_id": 1746680241,
        "image_id": 1746680241,
        "locality_id": 85922583,
        "neighbourhood_id": -1,
        "region_id": 85688637,
        "venue_id": 1511906723,
        "wing_id": 1511214203
      }
    ],
    "wof:id": 1746680241,
    "wof:lastmodified": 1788450336,
    "wof:name": "toy airplane: Lucky Boy",
    "wof:parent_id": 1511906723,
    "wof:placetype": "custom",
    "wof:placetype_alt": [
      "image"
    ],
    "wof:repo": "sfomuseum-data-media-collection",
    "wof:superseded_by": [],
    "wof:supersedes": []
  },
  "bbox": [
    -122.386155,
    37.616357,
    -122.386155,
    37.616357
  ],
  "geometry": {"type":"Point","coordinates":[-122.386155,37.616357]}
}
