{
  "id": 1762895793,
  "type": "Feature",
  "properties": {
    "date:cessation_lower": "1963-01-01",
    "date:cessation_upper": "1963-12-31",
    "date:inception_lower": "1963-01-01",
    "date:inception_upper": "1963-12-31",
    "edtf:cessation": "1963~",
    "edtf:inception": "1963~",
    "geom:area": 2.477324999997507e-7,
    "geom:bbox": "-122.386472,37.616105,-122.385834,37.616611",
    "geom:latitude": 37.61635756125121,
    "geom:longitude": -122.38615532866096,
    "iso:country": "US",
    "media:fingerprint": "f88663aee12d9bbc8cd64fd01d6263a5b46f4f7f",
    "media:imagehash_avg": "a:ff0100010080ffff",
    "media:imagehash_diff": "d:7d676173737978f0",
    "media:mimetype": "image/tiff",
    "media:properties": {
      "sizes": {
        "b": {
          "extension": "jpg",
          "height": 768,
          "mimetype": "image/jpeg",
          "secret": "q03IKDUviOFjCm9Jnu0PC9SrJmDMAqc6",
          "width": 955
        },
        "c": {
          "extension": "jpg",
          "height": 600,
          "mimetype": "image/jpeg",
          "secret": "q03IKDUviOFjCm9Jnu0PC9SrJmDMAqc6",
          "width": 746
        },
        "dc": {
          "extension": "jpg",
          "height": 600,
          "mimetype": "image/jpeg",
          "secret": "q03IKDUviOFjCm9Jnu0PC9SrJmDMAqc6",
          "width": 746
        },
        "ds": {
          "extension": "jpg",
          "height": 320,
          "mimetype": "image/jpeg",
          "secret": "q03IKDUviOFjCm9Jnu0PC9SrJmDMAqc6",
          "width": 320
        },
        "k": {
          "extension": "jpg",
          "height": 1536,
          "mimetype": "image/jpeg",
          "secret": "q03IKDUviOFjCm9Jnu0PC9SrJmDMAqc6",
          "width": 1911
        },
        "n": {
          "extension": "jpg",
          "height": 240,
          "mimetype": "image/jpeg",
          "secret": "q03IKDUviOFjCm9Jnu0PC9SrJmDMAqc6",
          "width": 298
        },
        "o": {
          "extension": "jpg",
          "height": 1607,
          "mimetype": "image/jpeg",
          "secret": "pT2dGZjpdgAqCYXKfLm0iadx70BR6JPB",
          "width": 2000
        },
        "s": {
          "extension": "jpg",
          "height": 320,
          "mimetype": "image/jpeg",
          "secret": "q03IKDUviOFjCm9Jnu0PC9SrJmDMAqc6",
          "width": 320
        },
        "z": {
          "extension": "jpg",
          "height": 480,
          "mimetype": "image/jpeg",
          "secret": "q03IKDUviOFjCm9Jnu0PC9SrJmDMAqc6",
          "width": 597
        }
      }
    },
    "media:source": "sfomuseum",
    "media:status_id": 1,
    "media:uri_template": "https://static.sfomuseum.org/media/176/289/579/3/1762895793_{secret}_{label}.{extension}",
    "millsfield:airline_id": [
      1159285393
    ],
    "millsfield:airport_id": [
      102534365
    ],
    "millsfield:category_id": 1511214209,
    "millsfield:collection_id": 1511214207,
    "millsfield:company_id": [
      1159287531
    ],
    "millsfield:images_colors": [
      {
        "hex": "#393934",
        "name": "#393934",
        "reference": "marekm4"
      },
      {
        "hex": "#2f4f4f",
        "name": "darkslategrey",
        "reference": "css4"
      },
      {
        "hex": "#414a4c",
        "name": "Outer Space",
        "reference": "crayola"
      },
      {
        "hex": "#c9c8c6",
        "name": "#c9c8c6",
        "reference": "marekm4"
      },
      {
        "hex": "#c0c0c0",
        "name": "silver",
        "reference": "css4"
      },
      {
        "hex": "#cdc5c2",
        "name": "Silver",
        "reference": "crayola"
      },
      {
        "hex": "#83827d",
        "name": "#83827d",
        "reference": "marekm4"
      },
      {
        "hex": "#808080",
        "name": "grey",
        "reference": "css4"
      },
      {
        "hex": "#757575",
        "name": "Sonic Silver",
        "reference": "crayola"
      }
    ],
    "millsfield:similar": {
      "apple/mobileclip_s0": [
        {
          "distance": 0.6104553,
          "id": 1527823245
        },
        {
          "distance": 0.6201574,
          "id": 1913663357
        },
        {
          "distance": 0.6349717,
          "id": 1763388523
        },
        {
          "distance": 0.6352756,
          "id": 1913679637
        },
        {
          "distance": 0.63651276,
          "id": 1527821603
        },
        {
          "distance": 0.64342237,
          "id": 1847553563
        },
        {
          "distance": 0.64542055,
          "id": 1527828503
        },
        {
          "distance": 0.64608103,
          "id": 1998537161
        },
        {
          "distance": 0.65044856,
          "id": 2014997939
        },
        {
          "distance": 0.6559913,
          "id": 1527823247
        }
      ],
      "apple/mobileclip_s1": [
        {
          "distance": 0.43194237,
          "id": 1913663357
        },
        {
          "distance": 0.43430188,
          "id": 1763388533
        },
        {
          "distance": 0.43993515,
          "id": 1527823247
        },
        {
          "distance": 0.44750458,
          "id": 1527821929
        },
        {
          "distance": 0.45211825,
          "id": 1763388529
        },
        {
          "distance": 0.45382106,
          "id": 1527821895
        },
        {
          "distance": 0.45448977,
          "id": 1763388527
        },
        {
          "distance": 0.45943502,
          "id": 1527821885
        },
        {
          "distance": 0.46546736,
          "id": 1527823245
        },
        {
          "distance": 0.46686363,
          "id": 1763388519
        }
      ],
      "apple/mobileclip_s2": [
        {
          "distance": 0.5506661,
          "id": 1763388519
        },
        {
          "distance": 0.55378705,
          "id": 1913663357
        },
        {
          "distance": 0.55984235,
          "id": 1763388517
        },
        {
          "distance": 0.58583874,
          "id": 1763388527
        },
        {
          "distance": 0.58591616,
          "id": 1763388533
        },
        {
          "distance": 0.5878974,
          "id": 1763388525
        },
        {
          "distance": 0.5881703,
          "id": 1763388521
        },
        {
          "distance": 0.59583354,
          "id": 1763388529
        },
        {
          "distance": 0.596777,
          "id": 1763388523
        },
        {
          "distance": 0.61295635,
          "id": 1763388537
        }
      ]
    },
    "millsfield:subcategory_id": 1511213367,
    "mz:is_current": 1,
    "sfomuseum:filename": "88999.tif",
    "sfomuseum:image_id": 88999,
    "sfomuseum:image_index": 5,
    "sfomuseum:image_type": "studio",
    "sfomuseum:object_id": 141274,
    "sfomuseum:placetype": "image",
    "sfomuseum:primary_image": 1,
    "src:geom": "sfomuseum",
    "wof:belongsto": [
      102527513,
      1159162825,
      102191575,
      85633793,
      102087579,
      85922583,
      1762829961,
      85688637,
      1159160869
    ],
    "wof:country": "US",
    "wof:created": 1643414594,
    "wof:depicts": [
      1159287531,
      1762829961,
      1159285393,
      102534365
    ],
    "wof:geomhash": "ed7c2ab3547fc3916b5edc33488deaa7",
    "wof:hierarchy": [
      {
        "building_id": -1,
        "campus_id": 102527513,
        "collection_id": 1159162825,
        "concourse_id": 1159162825,
        "continent_id": 102191575,
        "country_id": 85633793,
        "county_id": 102087579,
        "custom_id": 1762895793,
        "image_id": 1762895793,
        "locality_id": 85922583,
        "neighbourhood_id": -1,
        "object_id": 1762829961,
        "region_id": 85688637,
        "wing_id": 1159160869
      }
    ],
    "wof:id": 1762895793,
    "wof:lastmodified": 1788450789,
    "wof:name": "photograph: John F. Kennedy (JFK) International Airport, TWA Terminal",
    "wof:parent_id": 1762829961,
    "wof:placetype": "custom",
    "wof:placetype_alt": [
      "image"
    ],
    "wof:repo": "sfomuseum-data-media-collection",
    "wof:superseded_by": [],
    "wof:supersedes": []
  },
  "bbox": [
    -122.386472,
    37.616105,
    -122.385834,
    37.616611
  ],
  "geometry": {"type":"Polygon","coordinates":[[[-122.386472,37.616318],[-122.386435,37.616233],[-122.386376,37.616178],[-122.386301,37.616131],[-122.386161,37.616105],[-122.386022,37.616131],[-122.385914,37.616186],[-122.385855,37.616267],[-122.385834,37.616369],[-122.385871,37.616467],[-122.385941,37.616543],[-122.386054,37.616603],[-122.386183,37.616611],[-122.386306,37.616573],[-122.386419,37.616509],[-122.386467,37.616411],[-122.386472,37.616318]]]}
}
