{
  "id": 1779984663,
  "type": "Feature",
  "properties": {
    "date:cessation_lower": "2019-01-01",
    "date:cessation_upper": "2019-12-31",
    "date:inception_lower": "2019-01-01",
    "date:inception_upper": "2019-12-31",
    "edtf:cessation": "2019",
    "edtf:inception": "2019",
    "geom:area": 2.477324999997507e-7,
    "geom:bbox": "-122.386472,37.616105,-122.385834,37.616611",
    "geom:latitude": 37.61635756125121,
    "geom:longitude": -122.38615532866096,
    "media:fingerprint": "2fa6f136fa7ef05fd457c19ee52a4b85729c9096",
    "media:imagehash_avg": "a:ffff8383838181c1",
    "media:imagehash_diff": "d:63673f371f37270f",
    "media:imagetext": "flyalaska\nKona\nNonstope from the West Coast Alaska.\nto 115 destinations.",
    "media:imagetext_created": 1787965608,
    "media:imagetext_source": "com.apple.visionkit.VNImageRequestHandler#Version 26.6.2 (Build 25G83)",
    "media:mimetype": "image/jpeg",
    "media:properties": {
      "sizes": {
        "b": {
          "extension": "jpg",
          "height": 768,
          "mimetype": "image/jpeg",
          "secret": "mxl0IEOsYLDuBRIjoWughw92dCMTVRVh",
          "width": 720
        },
        "c": {
          "extension": "jpg",
          "height": 600,
          "mimetype": "image/jpeg",
          "secret": "mxl0IEOsYLDuBRIjoWughw92dCMTVRVh",
          "width": 563
        },
        "dc": {
          "extension": "jpg",
          "height": 600,
          "mimetype": "image/jpeg",
          "secret": "mxl0IEOsYLDuBRIjoWughw92dCMTVRVh",
          "width": 563
        },
        "ds": {
          "extension": "jpg",
          "height": 320,
          "mimetype": "image/jpeg",
          "secret": "mxl0IEOsYLDuBRIjoWughw92dCMTVRVh",
          "width": 320
        },
        "k": {
          "extension": "jpg",
          "height": 1536,
          "mimetype": "image/jpeg",
          "secret": "mxl0IEOsYLDuBRIjoWughw92dCMTVRVh",
          "width": 1441
        },
        "n": {
          "extension": "jpg",
          "height": 240,
          "mimetype": "image/jpeg",
          "secret": "mxl0IEOsYLDuBRIjoWughw92dCMTVRVh",
          "width": 225
        },
        "o": {
          "extension": "jpg",
          "height": 1024,
          "mimetype": "image/jpeg",
          "secret": "SCtLq1etfhmCOwcU0DQ1ajKnsQwGIjPw",
          "width": 961
        },
        "s": {
          "extension": "jpg",
          "height": 320,
          "mimetype": "image/jpeg",
          "secret": "mxl0IEOsYLDuBRIjoWughw92dCMTVRVh",
          "width": 320
        },
        "z": {
          "extension": "jpg",
          "height": 480,
          "mimetype": "image/jpeg",
          "secret": "mxl0IEOsYLDuBRIjoWughw92dCMTVRVh",
          "width": 450
        }
      }
    },
    "media:source": "sfomuseum",
    "media:status_id": 1,
    "media:uri_template": "https://static.sfomuseum.org/media/177/998/466/3/1779984663_{secret}_{label}.{extension}",
    "millsfield:airline_id": [
      1159283813
    ],
    "millsfield:category_id": 1746152533,
    "millsfield:collection_id": 1511214203,
    "millsfield:company_id": [
      1159288915
    ],
    "millsfield:images_colors": [
      {
        "hex": "#d9c5a9",
        "name": "#d9c5a9",
        "reference": "marekm4"
      },
      {
        "hex": "#c0c0c0",
        "name": "silver",
        "reference": "css4"
      },
      {
        "hex": "#e7c697",
        "name": "Gold",
        "reference": "crayola"
      },
      {
        "hex": "#c4a377",
        "name": "#c4a377",
        "reference": "marekm4"
      },
      {
        "hex": "#bdb76b",
        "name": "darkkhaki",
        "reference": "css4"
      },
      {
        "hex": "#cd9575",
        "name": "Antique Brass",
        "reference": "crayola"
      },
      {
        "hex": "#303e55",
        "name": "#303e55",
        "reference": "marekm4"
      },
      {
        "hex": "#2f4f4f",
        "name": "darkslategrey",
        "reference": "css4"
      },
      {
        "hex": "#414a4c",
        "name": "Outer Space",
        "reference": "crayola"
      }
    ],
    "millsfield:images_texts": [
      "flyalaska\nKona\nNonstope from the West Coast Alaska.\nto 115 destinations."
    ],
    "millsfield:images_texts_ids": [
      1779984663
    ],
    "millsfield:similar": {
      "apple/mobileclip_s0": [
        {
          "distance": 0.26571134,
          "id": 1779984665
        },
        {
          "distance": 0.5301958,
          "id": 1779984803
        },
        {
          "distance": 0.5603283,
          "id": 1779984751
        },
        {
          "distance": 0.59246224,
          "id": 1779984755
        },
        {
          "distance": 0.59627646,
          "id": 1779984757
        },
        {
          "distance": 0.59916055,
          "id": 1779984667
        },
        {
          "distance": 0.6035369,
          "id": 1779984669
        },
        {
          "distance": 0.6063585,
          "id": 1779984563
        },
        {
          "distance": 0.6136688,
          "id": 1779946031
        },
        {
          "distance": 0.62041914,
          "id": 1779984561
        }
      ],
      "apple/mobileclip_s1": [
        {
          "distance": 0.19792482,
          "id": 1779984665
        },
        {
          "distance": 0.4335108,
          "id": 1779984653
        },
        {
          "distance": 0.43508416,
          "id": 1779984655
        },
        {
          "distance": 0.43866888,
          "id": 1779984561
        },
        {
          "distance": 0.44139993,
          "id": 1779984717
        },
        {
          "distance": 0.4439883,
          "id": 1779984757
        },
        {
          "distance": 0.44798985,
          "id": 1779984669
        },
        {
          "distance": 0.45012632,
          "id": 1779984659
        },
        {
          "distance": 0.4501918,
          "id": 1779984715
        },
        {
          "distance": 0.450391,
          "id": 1779984755
        }
      ],
      "apple/mobileclip_s2": [
        {
          "distance": 0.2817259,
          "id": 1779984665
        },
        {
          "distance": 0.5801035,
          "id": 1779984655
        },
        {
          "distance": 0.598527,
          "id": 1779984653
        },
        {
          "distance": 0.6003164,
          "id": 1779984667
        },
        {
          "distance": 0.60985315,
          "id": 1779984563
        },
        {
          "distance": 0.6103458,
          "id": 1779984661
        },
        {
          "distance": 0.6271967,
          "id": 1779984561
        },
        {
          "distance": 0.6316399,
          "id": 1779984659
        },
        {
          "distance": 0.6327054,
          "id": 1779984723
        },
        {
          "distance": 0.6327354,
          "id": 1779984669
        }
      ]
    },
    "millsfield:subcategory_id": 1511213839,
    "mz:is_current": 1,
    "sfomuseum:filename": "UNADJUSTEDNONRAW_thumb_135.jpg",
    "sfomuseum:image_id": 204902,
    "sfomuseum:image_index": 1,
    "sfomuseum:image_type": "curator",
    "sfomuseum:object_id": 206271,
    "sfomuseum:placetype": "image",
    "sfomuseum:primary_image": 1,
    "src:geom": "sfomuseum",
    "wof:belongsto": [
      102527513,
      1159162825,
      102191575,
      85633793,
      102087579,
      85922583,
      1779984085,
      85688637,
      1159160869
    ],
    "wof:country": "XY",
    "wof:created": 1658994827,
    "wof:depicts": [
      1779984085,
      1159283813,
      1159288915
    ],
    "wof:geomhash": "ed7c2ab3547fc3916b5edc33488deaa7",
    "wof:hierarchy": [
      {
        "building_id": -1,
        "campus_id": 102527513,
        "collection_id": 1159162825,
        "concourse_id": 1159162825,
        "continent_id": 102191575,
        "country_id": 85633793,
        "county_id": 102087579,
        "custom_id": 1779984663,
        "image_id": 1779984663,
        "locality_id": 85922583,
        "neighbourhood_id": -1,
        "object_id": 1779984085,
        "region_id": 85688637,
        "wing_id": 1159160869
      }
    ],
    "wof:id": 1779984663,
    "wof:lastmodified": 1788451429,
    "wof:name": "cocktail napkin: Alaska Airlines, Kona",
    "wof:parent_id": 1779984085,
    "wof:placetype": "custom",
    "wof:placetype_alt": [
      "image"
    ],
    "wof:repo": "sfomuseum-data-media-collection",
    "wof:superseded_by": [],
    "wof:supersedes": []
  },
  "bbox": [
    -122.386472,
    37.616105,
    -122.385834,
    37.616611
  ],
  "geometry": {"type":"Polygon","coordinates":[[[-122.386472,37.616318],[-122.386435,37.616233],[-122.386376,37.616178],[-122.386301,37.616131],[-122.386161,37.616105],[-122.386022,37.616131],[-122.385914,37.616186],[-122.385855,37.616267],[-122.385834,37.616369],[-122.385871,37.616467],[-122.385941,37.616543],[-122.386054,37.616603],[-122.386183,37.616611],[-122.386306,37.616573],[-122.386419,37.616509],[-122.386467,37.616411],[-122.386472,37.616318]]]}
}
