{
  "id": 1762711539,
  "type": "Feature",
  "properties": {
    "date:cessation_lower": "1966-01-01",
    "date:cessation_upper": "1966-12-31",
    "date:inception_lower": "1966-01-01",
    "date:inception_upper": "1966-12-31",
    "edtf:cessation": "1966",
    "edtf:inception": "1966",
    "geom:area": 2.477324999997507e-7,
    "geom:bbox": "-122.386472,37.616105,-122.385834,37.616611",
    "geom:latitude": 37.61635756125121,
    "geom:longitude": -122.38615532866096,
    "iso:country": "US",
    "media:fingerprint": "73597829e429fa5cbc5a5cc2b76bd4a2c03f5c24",
    "media:imagehash_avg": "a:8f84e1e1e7a785ed",
    "media:imagehash_diff": "d:5979636f6f6d6d4d",
    "media:imagetext": "Miami International Airport - one of the largest\nand busiest in the world — International Airport\nHotel and Tower from airfield parking pad.\nPLACE\nSTAMP\nHERE\nPub. by Nelson Jenes, 13898 Clifton Blvd., Lakewood, Ohio\nPost Card\n© I966 DEXTER PRESS, INC. ALL RIGHTS RESERVED\nDT-14540-C\nMADE BY\ndp DEXTER PRESS, INC.\nWEST NYACK, NEW YORK\n1630\n205.166.2085",
    "media:imagetext_created": 1787957812,
    "media:imagetext_source": "com.apple.visionkit.VNImageRequestHandler#Version 26.6.2 (Build 25G83)",
    "media:mimetype": "image/tiff",
    "media:properties": {
      "sizes": {
        "b": {
          "extension": "jpg",
          "height": 665,
          "mimetype": "image/jpeg",
          "secret": "D6vXfD3bY4wlFLyHf3L5D8vH4WAPnZBJ",
          "width": 1023
        },
        "c": {
          "extension": "jpg",
          "height": 519,
          "mimetype": "image/jpeg",
          "secret": "D6vXfD3bY4wlFLyHf3L5D8vH4WAPnZBJ",
          "width": 800
        },
        "dc": {
          "extension": "jpg",
          "height": 519,
          "mimetype": "image/jpeg",
          "secret": "D6vXfD3bY4wlFLyHf3L5D8vH4WAPnZBJ",
          "width": 800
        },
        "ds": {
          "extension": "jpg",
          "height": 320,
          "mimetype": "image/jpeg",
          "secret": "D6vXfD3bY4wlFLyHf3L5D8vH4WAPnZBJ",
          "width": 320
        },
        "k": {
          "extension": "jpg",
          "height": 1330,
          "mimetype": "image/jpeg",
          "secret": "D6vXfD3bY4wlFLyHf3L5D8vH4WAPnZBJ",
          "width": 2047
        },
        "n": {
          "extension": "jpg",
          "height": 207,
          "mimetype": "image/jpeg",
          "secret": "D6vXfD3bY4wlFLyHf3L5D8vH4WAPnZBJ",
          "width": 320
        },
        "o": {
          "extension": "jpg",
          "height": 1122,
          "mimetype": "image/jpeg",
          "secret": "NjyjnmWxUDhc9fcW8gXFmhL7OJxEK0C6",
          "width": 1727
        },
        "s": {
          "extension": "jpg",
          "height": 320,
          "mimetype": "image/jpeg",
          "secret": "D6vXfD3bY4wlFLyHf3L5D8vH4WAPnZBJ",
          "width": 320
        },
        "z": {
          "extension": "jpg",
          "height": 415,
          "mimetype": "image/jpeg",
          "secret": "D6vXfD3bY4wlFLyHf3L5D8vH4WAPnZBJ",
          "width": 640
        }
      }
    },
    "media:source": "sfomuseum",
    "media:status_id": 1,
    "media:uri_template": "https://static.sfomuseum.org/media/176/271/153/9/1762711539_{secret}_{label}.{extension}",
    "millsfield:aircraft_id": [
      1159292195
    ],
    "millsfield:airline_id": [
      1159284989
    ],
    "millsfield:airport_id": [
      102531023
    ],
    "millsfield:category_id": 1511214215,
    "millsfield:collection_id": 1511214207,
    "millsfield:company_id": [
      1159293593,
      1159289745
    ],
    "millsfield:images_colors": [
      {
        "hex": "#ebe0c2",
        "name": "#ebe0c2",
        "reference": "marekm4"
      },
      {
        "hex": "#f5deb3",
        "name": "wheat",
        "reference": "css4"
      },
      {
        "hex": "#eceabe",
        "name": "Spring Green",
        "reference": "crayola"
      }
    ],
    "millsfield:images_texts": [
      "N 783 0 1",
      "Miami International Airport - one of the largest\nand busiest in the world — International Airport\nHotel and Tower from airfield parking pad.\nPLACE\nSTAMP\nHERE\nPub. by Nelson Jenes, 13898 Clifton Blvd., Lakewood, Ohio\nPost Card\n© I966 DEXTER PRESS, INC. ALL RIGHTS RESERVED\nDT-14540-C\nMADE BY\ndp DEXTER PRESS, INC.\nWEST NYACK, NEW YORK\n1630\n205.166.2085"
    ],
    "millsfield:images_texts_ids": [
      1762711537,
      1762711539
    ],
    "millsfield:similar": {
      "apple/mobileclip_s0": [
        {
          "distance": 0.27707496,
          "id": 1762708327
        },
        {
          "distance": 0.30238223,
          "id": 1762711139
        },
        {
          "distance": 0.31793168,
          "id": 1762710877
        },
        {
          "distance": 0.3242706,
          "id": 1762708009
        },
        {
          "distance": 0.32857138,
          "id": 1762704791
        },
        {
          "distance": 0.33053592,
          "id": 1762710395
        },
        {
          "distance": 0.33076182,
          "id": 1762711205
        },
        {
          "distance": 0.33155373,
          "id": 1762704845
        },
        {
          "distance": 0.3340253,
          "id": 1762704199
        },
        {
          "distance": 0.33529633,
          "id": 1762711247
        }
      ],
      "apple/mobileclip_s1": [
        {
          "distance": 0.2129822,
          "id": 1762710589
        },
        {
          "distance": 0.22093411,
          "id": 1762710395
        },
        {
          "distance": 0.23066746,
          "id": 1762710401
        },
        {
          "distance": 0.23457056,
          "id": 1762712237
        },
        {
          "distance": 0.24153626,
          "id": 1762708451
        },
        {
          "distance": 0.2435591,
          "id": 1762710625
        },
        {
          "distance": 0.24426495,
          "id": 1762712093
        },
        {
          "distance": 0.24626207,
          "id": 1762710437
        },
        {
          "distance": 0.2495715,
          "id": 1762712105
        },
        {
          "distance": 0.25000316,
          "id": 1762711575
        }
      ],
      "apple/mobileclip_s2": [
        {
          "distance": 0.32030234,
          "id": 1762710395
        },
        {
          "distance": 0.32897675,
          "id": 1762710401
        },
        {
          "distance": 0.33576128,
          "id": 1762711543
        },
        {
          "distance": 0.3382889,
          "id": 1762712123
        },
        {
          "distance": 0.34001088,
          "id": 1762711025
        },
        {
          "distance": 0.3480242,
          "id": 1762711525
        },
        {
          "distance": 0.3510506,
          "id": 1762711575
        },
        {
          "distance": 0.3530716,
          "id": 1762711769
        },
        {
          "distance": 0.35678172,
          "id": 1762707847
        },
        {
          "distance": 0.3610688,
          "id": 1762710625
        }
      ]
    },
    "millsfield:subcategory_id": 1511213363,
    "mz:is_current": 1,
    "sfomuseum:filename": "2015.166.2085_bk.tif",
    "sfomuseum:image_id": 158963,
    "sfomuseum:image_index": 5,
    "sfomuseum:image_type": "studio",
    "sfomuseum:object_id": 181846,
    "sfomuseum:placetype": "image",
    "sfomuseum:primary_image": 0,
    "src:geom": "sfomuseum",
    "wof:belongsto": [
      102527513,
      1159162825,
      102191575,
      85633793,
      102087579,
      85922583,
      1762681885,
      85688637,
      1159160869
    ],
    "wof:country": "US",
    "wof:created": 1641350481,
    "wof:depicts": [
      1159292195,
      1159293593,
      1159289745,
      1159286839,
      1762681885,
      1159284989,
      102531023
    ],
    "wof:geomhash": "ed7c2ab3547fc3916b5edc33488deaa7",
    "wof:hierarchy": [
      {
        "building_id": -1,
        "campus_id": 102527513,
        "collection_id": 1159162825,
        "concourse_id": 1159162825,
        "continent_id": 102191575,
        "country_id": 85633793,
        "county_id": 102087579,
        "custom_id": 1762711539,
        "image_id": 1762711539,
        "locality_id": 85922583,
        "neighbourhood_id": -1,
        "object_id": 1762681885,
        "region_id": 85688637,
        "wing_id": 1159160869
      }
    ],
    "wof:id": 1762711539,
    "wof:lastmodified": 1788450634,
    "wof:name": "postcard: Pan American World Airways, Boeing 707, Miami International Airport",
    "wof:parent_id": 1762681885,
    "wof:placetype": "custom",
    "wof:placetype_alt": [
      "image"
    ],
    "wof:repo": "sfomuseum-data-media-collection",
    "wof:superseded_by": [],
    "wof:supersedes": []
  },
  "bbox": [
    -122.386472,
    37.616105,
    -122.385834,
    37.616611
  ],
  "geometry": {"type":"Polygon","coordinates":[[[-122.386472,37.616318],[-122.386435,37.616233],[-122.386376,37.616178],[-122.386301,37.616131],[-122.386161,37.616105],[-122.386022,37.616131],[-122.385914,37.616186],[-122.385855,37.616267],[-122.385834,37.616369],[-122.385871,37.616467],[-122.385941,37.616543],[-122.386054,37.616603],[-122.386183,37.616611],[-122.386306,37.616573],[-122.386419,37.616509],[-122.386467,37.616411],[-122.386472,37.616318]]]}
}
