{
  "id": 1527852521,
  "type": "Feature",
  "properties": {
    "date:cessation_lower": "1941-05-02",
    "date:cessation_upper": "1941-05-02",
    "date:inception_lower": "1941-05-02",
    "date:inception_upper": "1941-05-02",
    "edtf:cessation": "1941-05-02",
    "edtf:date": "1941-05-02",
    "edtf:inception": "1941-05-02",
    "geom:area": 0,
    "geom:bbox": "-122.386155,37.616358,-122.386155,37.616358",
    "geom:latitude": 37.616358,
    "geom:longitude": -122.386155,
    "iso:country": "XX",
    "media:fingerprint": "8c77ad9768877c7f5e34b26c44898d82bfead531",
    "media:imagehash_avg": "a:b0b0b19e8f8fbf01",
    "media:imagehash_diff": "d:6161636c2d2d787b",
    "media:imagetext": "PAN AMERICAN AIRWAYS SYSTEM\nTREASURE ISLAND\nSAN FRANCISCO, CALIFORNIA\nSAN FRANCISCO\nSINGAPORE\nFIRST FLIGHT AIR MAIL\nFIRST FLIGHT COVER\nSAN FRANCISCO - SINGAPORE\nFRANCIS\nSAN\nMAY\n2\nP.M.\n1941\nCALIF:\nPAN AMERICAN AIRWAYS, INC.\nSINGAPORE,\nSTRAITS SETTLEMENTS\n30\n30\nVIA AIR MAIL\nPASSED\n93\nFOR",
    "media:imagetext_created": 1787953420,
    "media:imagetext_source": "com.apple.visionkit.VNImageRequestHandler#Version 26.6.2 (Build 25G83)",
    "media:medium": "image",
    "media:mimetype": "image/tiff",
    "media:properties": {
      "sizes": {
        "b": {
          "extension": "jpg",
          "height": 446,
          "mimetype": "image/jpeg",
          "secret": "YzUZmZoGVZtuKY1wmkZAPJ8dJjsH2FUP",
          "width": 1024
        },
        "c": {
          "extension": "jpg",
          "height": 349,
          "mimetype": "image/jpeg",
          "secret": "YzUZmZoGVZtuKY1wmkZAPJ8dJjsH2FUP",
          "width": 800
        },
        "dc": {
          "extension": "jpg",
          "height": 349,
          "mimetype": "image/jpeg",
          "secret": "YzUZmZoGVZtuKY1wmkZAPJ8dJjsH2FUP",
          "width": 800
        },
        "ds": {
          "extension": "jpg",
          "height": 320,
          "mimetype": "image/jpeg",
          "secret": "YzUZmZoGVZtuKY1wmkZAPJ8dJjsH2FUP",
          "width": 320
        },
        "k": {
          "extension": "jpg",
          "height": 893,
          "mimetype": "image/jpeg",
          "secret": "YzUZmZoGVZtuKY1wmkZAPJ8dJjsH2FUP",
          "width": 2048
        },
        "n": {
          "extension": "jpg",
          "height": 139,
          "mimetype": "image/jpeg",
          "secret": "YzUZmZoGVZtuKY1wmkZAPJ8dJjsH2FUP",
          "width": 320
        },
        "o": {
          "extension": "jpg",
          "height": 1255,
          "mimetype": "image/jpeg",
          "secret": "VxCmVmPL6EDoizcnYmnIv0pBhd5QW0b8",
          "width": 2875
        },
        "s": {
          "extension": "jpg",
          "height": 320,
          "mimetype": "image/jpeg",
          "secret": "YzUZmZoGVZtuKY1wmkZAPJ8dJjsH2FUP",
          "width": 320
        },
        "z": {
          "extension": "jpg",
          "height": 279,
          "mimetype": "image/jpeg",
          "secret": "YzUZmZoGVZtuKY1wmkZAPJ8dJjsH2FUP",
          "width": 640
        }
      }
    },
    "media:source": "sfomuseum",
    "media:status_id": 1,
    "media:uri_template": "https://static.sfomuseum.org/media/152/785/252/1/1527852521_{secret}_{label}.{extension}",
    "millsfield:aircraft_id": [
      1159289619
    ],
    "millsfield:airline_id": [
      1159284991
    ],
    "millsfield:category_id": 1511214215,
    "millsfield:collection_id": 1511214207,
    "millsfield:company_id": [
      1159293593
    ],
    "millsfield:images_colors": [
      {
        "hex": "#cbc6b9",
        "name": "#cbc6b9",
        "reference": "marekm4"
      },
      {
        "hex": "#c0c0c0",
        "name": "silver",
        "reference": "css4"
      },
      {
        "hex": "#cdc5c2",
        "name": "Silver",
        "reference": "crayola"
      },
      {
        "hex": "#1c223a",
        "name": "#1c223a",
        "reference": "marekm4"
      },
      {
        "hex": "#2f4f4f",
        "name": "darkslategrey",
        "reference": "css4"
      },
      {
        "hex": "#414a4c",
        "name": "Outer Space",
        "reference": "crayola"
      },
      {
        "hex": "#67a5a9",
        "name": "#67a5a9",
        "reference": "marekm4"
      },
      {
        "hex": "#5f9ea0",
        "name": "cadetblue",
        "reference": "css4"
      },
      {
        "hex": "#6699cc",
        "name": "Blue Gray",
        "reference": "crayola"
      },
      {
        "hex": "#c92721",
        "name": "#c92721",
        "reference": "marekm4"
      },
      {
        "hex": "#b22222",
        "name": "firebrick",
        "reference": "css4"
      },
      {
        "hex": "#ff2b2b",
        "name": "Orange Red",
        "reference": "crayola"
      },
      {
        "hex": "#a79872",
        "name": "#a79872",
        "reference": "marekm4"
      },
      {
        "hex": "#bc8f8f",
        "name": "rosybrown",
        "reference": "css4"
      },
      {
        "hex": "#9f8170",
        "name": "Beaver",
        "reference": "crayola"
      }
    ],
    "millsfield:images_texts": [
      "PAN AMERICAN AIRWAYS SYSTEM\nTREASURE ISLAND\nSAN FRANCISCO, CALIFORNIA\nSAN FRANCISCO\nSINGAPORE\nFIRST FLIGHT AIR MAIL\nFIRST FLIGHT COVER\nSAN FRANCISCO - SINGAPORE\nFRANCIS\nSAN\nMAY\n2\nP.M.\n1941\nCALIF:\nPAN AMERICAN AIRWAYS, INC.\nSINGAPORE,\nSTRAITS SETTLEMENTS\n30\n30\nVIA AIR MAIL\nPASSED\n93\nFOR",
      "KGAPORA\n5. - PM\n10\nMY\n1S41\nF 14-20"
    ],
    "millsfield:images_texts_ids": [
      1527852521,
      1527852523
    ],
    "millsfield:similar": {
      "apple/mobileclip_s0": [
        {
          "distance": 0.39883608,
          "id": 1527828979
        },
        {
          "distance": 0.4365523,
          "id": 1527828973
        },
        {
          "distance": 0.46474358,
          "id": 1527828987
        },
        {
          "distance": 0.46871638,
          "id": 1527852525
        },
        {
          "distance": 0.49298647,
          "id": 1527828983
        },
        {
          "distance": 0.5006474,
          "id": 1527829019
        },
        {
          "distance": 0.5263476,
          "id": 1527832609
        },
        {
          "distance": 0.52721745,
          "id": 1527852533
        },
        {
          "distance": 0.53116596,
          "id": 1527829187
        },
        {
          "distance": 0.53465086,
          "id": 1527832615
        }
      ],
      "apple/mobileclip_s1": [
        {
          "distance": 0.21665543,
          "id": 1527828979
        },
        {
          "distance": 0.2183106,
          "id": 1527828973
        },
        {
          "distance": 0.28771704,
          "id": 1527828987
        },
        {
          "distance": 0.29098427,
          "id": 1527852525
        },
        {
          "distance": 0.29362425,
          "id": 1527828983
        },
        {
          "distance": 0.3053797,
          "id": 1527851973
        },
        {
          "distance": 0.31525546,
          "id": 1527829187
        },
        {
          "distance": 0.3183743,
          "id": 1527829023
        },
        {
          "distance": 0.33317167,
          "id": 1527829067
        },
        {
          "distance": 0.34267583,
          "id": 1527832609
        }
      ],
      "apple/mobileclip_s2": [
        {
          "distance": 0.2514461,
          "id": 1527828973
        },
        {
          "distance": 0.25951087,
          "id": 1527828979
        },
        {
          "distance": 0.34439775,
          "id": 1527828987
        },
        {
          "distance": 0.34973198,
          "id": 1527852525
        },
        {
          "distance": 0.38308594,
          "id": 1527828983
        },
        {
          "distance": 0.4472878,
          "id": 1527832609
        },
        {
          "distance": 0.46222138,
          "id": 1527829183
        },
        {
          "distance": 0.4807517,
          "id": 1527851973
        },
        {
          "distance": 0.50364953,
          "id": 1527829187
        },
        {
          "distance": 0.5301953,
          "id": 1527829855
        }
      ]
    },
    "millsfield:subcategory_id": 1511213159,
    "mz:hierarchy_label": 1,
    "mz:is_current": -1,
    "sfomuseum:filename": "2012.149.2329a.tif",
    "sfomuseum:image_id": 86513,
    "sfomuseum:image_index": 5,
    "sfomuseum:image_type": "studio",
    "sfomuseum:object_id": 139755,
    "sfomuseum:placetype": "image",
    "sfomuseum:primary_image": 1,
    "src:geom": "sfomuseum",
    "wof:belongsto": [
      1511214215,
      1511954483,
      102527513,
      102191575,
      85633793,
      1511213159,
      85922583,
      102087579,
      1511214277,
      1511214203,
      85688637
    ],
    "wof:breaches": [],
    "wof:country": "XX",
    "wof:created": 1578954522,
    "wof:depicts": [
      1159293593,
      1511954483,
      1159284991,
      1159289619
    ],
    "wof:geomhash": "bd906905ce4be6c0651c90b0fc24804c",
    "wof:hierarchy": [
      {
        "arcade_id": 1511213159,
        "building_id": 1511214277,
        "campus_id": 102527513,
        "concourse_id": 1511214215,
        "continent_id": 102191575,
        "country_id": 85633793,
        "county_id": 102087579,
        "custom_id": 1527852521,
        "image_id": 1527852521,
        "locality_id": 85922583,
        "media_id": 1527852521,
        "neighbourhood_id": -1,
        "region_id": 85688637,
        "venue_id": 1511954483,
        "wing_id": 1511214203
      }
    ],
    "wof:id": 1527852521,
    "wof:lastmodified": 1788450204,
    "wof:name": "airmail flight cover: Pan American Airways, first airmail flight, San Francisco - Singapore route",
    "wof:parent_id": 1511954483,
    "wof:placetype": "custom",
    "wof:placetype_alt": [
      "image"
    ],
    "wof:repo": "sfomuseum-data-media-collection",
    "wof:superseded_by": [],
    "wof:supersedes": [],
    "wof:tags": []
  },
  "bbox": [
    -122.386155,
    37.616358,
    -122.386155,
    37.616358
  ],
  "geometry": {"type":"Point","coordinates":[-122.386155,37.616358]}
}
