{
  "id": 1729565605,
  "type": "Feature",
  "properties": {
    "date:cessation_lower": "1975-01-01",
    "date:cessation_upper": "1975-12-31",
    "date:inception_lower": "1975-01-01",
    "date:inception_upper": "1975-12-31",
    "edtf:cessation": "1975",
    "edtf:date": "1975",
    "edtf:inception": "1975",
    "geom:area": 0,
    "geom:bbox": "-122.386155,37.616357,-122.386155,37.616357",
    "geom:latitude": 37.616357,
    "geom:longitude": -122.386155,
    "iso:country": "XX",
    "media:fingerprint": "4c47aa414020a6e6f6fc8cdab3b896c4f1501d40",
    "media:imagehash_avg": "a:bf818180c3c3fdff",
    "media:imagehash_diff": "d:696b1f1f07275357",
    "media:imagetext": "TWA\nTRANS WORLD\naRR яR20ях\nTWAR\nSolo Club Member\nFLT. NO.\nDESTINATION\nPAS-96 (9-75)\nPRINTED IN U.S.A.",
    "media:imagetext_created": 1787954451,
    "media:imagetext_source": "com.apple.visionkit.VNImageRequestHandler#Version 26.6.2 (Build 25G83)",
    "media:medium": "image",
    "media:mimetype": "image/tiff",
    "media:properties": {
      "sizes": {
        "b": {
          "extension": "jpg",
          "height": 768,
          "mimetype": "image/jpeg",
          "secret": "GkdpD5u2pfHA5VCf1KBd6IHzWsJWhSXP",
          "width": 957
        },
        "c": {
          "extension": "jpg",
          "height": 600,
          "mimetype": "image/jpeg",
          "secret": "GkdpD5u2pfHA5VCf1KBd6IHzWsJWhSXP",
          "width": 748
        },
        "dc": {
          "extension": "jpg",
          "height": 600,
          "mimetype": "image/jpeg",
          "secret": "GkdpD5u2pfHA5VCf1KBd6IHzWsJWhSXP",
          "width": 748
        },
        "ds": {
          "extension": "jpg",
          "height": 320,
          "mimetype": "image/jpeg",
          "secret": "GkdpD5u2pfHA5VCf1KBd6IHzWsJWhSXP",
          "width": 320
        },
        "k": {
          "extension": "jpg",
          "height": 1536,
          "mimetype": "image/jpeg",
          "secret": "GkdpD5u2pfHA5VCf1KBd6IHzWsJWhSXP",
          "width": 1915
        },
        "n": {
          "extension": "jpg",
          "height": 240,
          "mimetype": "image/jpeg",
          "secret": "GkdpD5u2pfHA5VCf1KBd6IHzWsJWhSXP",
          "width": 299
        },
        "o": {
          "extension": "jpg",
          "height": 1045,
          "mimetype": "image/jpeg",
          "secret": "OdLVQ3EuBRvyanjO6JqRre8JzeKETMUP",
          "width": 1303
        },
        "s": {
          "extension": "jpg",
          "height": 320,
          "mimetype": "image/jpeg",
          "secret": "GkdpD5u2pfHA5VCf1KBd6IHzWsJWhSXP",
          "width": 320
        },
        "z": {
          "extension": "jpg",
          "height": 480,
          "mimetype": "image/jpeg",
          "secret": "GkdpD5u2pfHA5VCf1KBd6IHzWsJWhSXP",
          "width": 598
        }
      }
    },
    "media:source": "sfomuseum",
    "media:status_id": 1,
    "media:uri_template": "https://static.sfomuseum.org/media/172/956/560/5/1729565605_{secret}_{label}.{extension}",
    "millsfield:airline_id": [
      1159285393
    ],
    "millsfield:category_id": 1762671311,
    "millsfield:collection_id": 1511214207,
    "millsfield:company_id": [
      1159287531
    ],
    "millsfield:images_colors": [
      {
        "hex": "#e6d7b3",
        "name": "#e6d7b3",
        "reference": "marekm4"
      },
      {
        "hex": "#f5deb3",
        "name": "wheat",
        "reference": "css4"
      },
      {
        "hex": "#efcdb8",
        "name": "Desert Sand",
        "reference": "crayola"
      },
      {
        "hex": "#c50f0f",
        "name": "#c50f0f",
        "reference": "marekm4"
      },
      {
        "hex": "#b22222",
        "name": "firebrick",
        "reference": "css4"
      },
      {
        "hex": "#9c2542",
        "name": "Big Dip O' Ruby",
        "reference": "crayola"
      },
      {
        "hex": "#373e2f",
        "name": "#373e2f",
        "reference": "marekm4"
      },
      {
        "hex": "#2f4f4f",
        "name": "darkslategrey",
        "reference": "css4"
      },
      {
        "hex": "#414a4c",
        "name": "Outer Space",
        "reference": "crayola"
      }
    ],
    "millsfield:images_texts": [
      "TWA\nTRANS WORLD\naRR яR20ях\nTWAR\nSolo Club Member\nFLT. NO.\nDESTINATION\nPAS-96 (9-75)\nPRINTED IN U.S.A."
    ],
    "millsfield:images_texts_ids": [
      1729565605
    ],
    "millsfield:similar": {
      "apple/mobileclip_s0": [
        {
          "distance": 0.8078084,
          "id": 1762898407
        },
        {
          "distance": 0.8125243,
          "id": 1762891823
        },
        {
          "distance": 0.8172816,
          "id": 1762712125
        },
        {
          "distance": 0.81844115,
          "id": 1729565803
        },
        {
          "distance": 0.82227206,
          "id": 1930979719
        },
        {
          "distance": 0.8270002,
          "id": 1762898523
        },
        {
          "distance": 0.82711816,
          "id": 1762709631
        },
        {
          "distance": 0.8318098,
          "id": 1762894027
        },
        {
          "distance": 0.833535,
          "id": 1762709531
        },
        {
          "distance": 0.8347688,
          "id": 1762894023
        }
      ],
      "apple/mobileclip_s1": [
        {
          "distance": 0.5517656,
          "id": 1527850285
        },
        {
          "distance": 0.5545406,
          "id": 1762709635
        },
        {
          "distance": 0.55743784,
          "id": 1729565669
        },
        {
          "distance": 0.55882084,
          "id": 1762898407
        },
        {
          "distance": 0.56100637,
          "id": 1729565803
        },
        {
          "distance": 0.56236684,
          "id": 1527854761
        },
        {
          "distance": 0.56514543,
          "id": 1931095931
        },
        {
          "distance": 0.56694585,
          "id": 1762891823
        },
        {
          "distance": 0.567194,
          "id": 1762709671
        },
        {
          "distance": 0.5685361,
          "id": 1729565169
        }
      ],
      "apple/mobileclip_s2": [
        {
          "distance": 0.73167944,
          "id": 1762709635
        },
        {
          "distance": 0.7352752,
          "id": 1762704533
        },
        {
          "distance": 0.73739755,
          "id": 1527850285
        },
        {
          "distance": 0.7452848,
          "id": 1762891823
        },
        {
          "distance": 0.7483992,
          "id": 1762704527
        },
        {
          "distance": 0.74916106,
          "id": 1846756387
        },
        {
          "distance": 0.7518028,
          "id": 1762702179
        },
        {
          "distance": 0.7527795,
          "id": 1762706149
        },
        {
          "distance": 0.7532252,
          "id": 1762712125
        },
        {
          "distance": 0.75401455,
          "id": 1729565641
        }
      ]
    },
    "millsfield:subcategory_id": 1511213565,
    "mz:hierarchy_label": 1,
    "mz:is_current": -1,
    "sfomuseum:filename": "2002.113.521.tif",
    "sfomuseum:image_id": 72858,
    "sfomuseum:image_index": 5,
    "sfomuseum:image_type": "studio",
    "sfomuseum:object_id": 73931,
    "sfomuseum:placetype": "image",
    "sfomuseum:primary_image": 1,
    "src:geom": "sfomuseum",
    "wof:belongsto": [
      85688637,
      102527513,
      102191575,
      1511213565,
      1511214277,
      85633793,
      102087579,
      1511214203,
      85922583,
      1729564467,
      1511214243
    ],
    "wof:breaches": [],
    "wof:country": "XX",
    "wof:created": 1607040582,
    "wof:depicts": [
      1159285393,
      1159287531,
      1729564467
    ],
    "wof:geomhash": "30c8a918561c84bb2daa2b97fc7c5353",
    "wof:hierarchy": [
      {
        "arcade_id": 1511213565,
        "building_id": 1511214277,
        "campus_id": 102527513,
        "concourse_id": 1511214243,
        "continent_id": 102191575,
        "country_id": 85633793,
        "county_id": 102087579,
        "custom_id": 1729565605,
        "image_id": 1729565605,
        "locality_id": 85922583,
        "media_id": 1729565605,
        "neighbourhood_id": -1,
        "region_id": 85688637,
        "venue_id": 1729564467,
        "wing_id": 1511214203
      }
    ],
    "wof:id": 1729565605,
    "wof:lastmodified": 1788450291,
    "wof:name": "membership card: TWA (Trans World Airlines), Solo Club",
    "wof:parent_id": 1729564467,
    "wof:placetype": "custom",
    "wof:placetype_alt": [
      "image"
    ],
    "wof:repo": "sfomuseum-data-media-collection",
    "wof:superseded_by": [],
    "wof:supersedes": [],
    "wof:tags": []
  },
  "bbox": [
    -122.386155,
    37.616357,
    -122.386155,
    37.616357
  ],
  "geometry": {"type":"Point","coordinates":[-122.386155,37.616357]}
}
