{
  "id": 1762700959,
  "type": "Feature",
  "properties": {
    "date:cessation_lower": "1972-03-01",
    "date:cessation_upper": "1972-03-01",
    "date:inception_lower": "1972-03-01",
    "date:inception_upper": "1972-03-01",
    "edtf:cessation": "1972-03-01",
    "edtf:inception": "1972-03-01",
    "geom:area": 2.477324999997507e-7,
    "geom:bbox": "-122.386472,37.616105,-122.385834,37.616611",
    "geom:latitude": 37.61635756125121,
    "geom:longitude": -122.38615532866096,
    "media:fingerprint": "1ed202d15b06d4e502c9e4baee6249d5348be056",
    "media:imagehash_avg": "a:ffffffff00000081",
    "media:imagehash_diff": "d:67275b7561434353",
    "media:imagetext": "Western\nMarch 1 through April 29, 1972",
    "media:imagetext_created": 1787956193,
    "media:imagetext_source": "com.apple.visionkit.VNImageRequestHandler#Version 26.6.2 (Build 25G83)",
    "media:mimetype": "image/tiff",
    "media:properties": {
      "sizes": {
        "b": {
          "extension": "jpg",
          "height": 768,
          "mimetype": "image/jpeg",
          "secret": "6kjxYsIxXoQxcw4bGEyjxRm7pxMIhXVS",
          "width": 371
        },
        "c": {
          "extension": "jpg",
          "height": 600,
          "mimetype": "image/jpeg",
          "secret": "6kjxYsIxXoQxcw4bGEyjxRm7pxMIhXVS",
          "width": 289
        },
        "dc": {
          "extension": "jpg",
          "height": 600,
          "mimetype": "image/jpeg",
          "secret": "6kjxYsIxXoQxcw4bGEyjxRm7pxMIhXVS",
          "width": 289
        },
        "ds": {
          "extension": "jpg",
          "height": 320,
          "mimetype": "image/jpeg",
          "secret": "6kjxYsIxXoQxcw4bGEyjxRm7pxMIhXVS",
          "width": 320
        },
        "k": {
          "extension": "jpg",
          "height": 1536,
          "mimetype": "image/jpeg",
          "secret": "6kjxYsIxXoQxcw4bGEyjxRm7pxMIhXVS",
          "width": 742
        },
        "n": {
          "extension": "jpg",
          "height": 240,
          "mimetype": "image/jpeg",
          "secret": "6kjxYsIxXoQxcw4bGEyjxRm7pxMIhXVS",
          "width": 115
        },
        "o": {
          "extension": "jpg",
          "height": 2695,
          "mimetype": "image/jpeg",
          "secret": "4bISXqwQNhEdX5Hzt3cY7XUCd0HaHm0w",
          "width": 1302
        },
        "s": {
          "extension": "jpg",
          "height": 320,
          "mimetype": "image/jpeg",
          "secret": "6kjxYsIxXoQxcw4bGEyjxRm7pxMIhXVS",
          "width": 320
        },
        "z": {
          "extension": "jpg",
          "height": 480,
          "mimetype": "image/jpeg",
          "secret": "6kjxYsIxXoQxcw4bGEyjxRm7pxMIhXVS",
          "width": 231
        }
      }
    },
    "media:source": "sfomuseum",
    "media:status_id": 1,
    "media:uri_template": "https://static.sfomuseum.org/media/176/270/095/9/1762700959_{secret}_{label}.{extension}",
    "millsfield:airline_id": [
      1159294431
    ],
    "millsfield:category_id": 1511214223,
    "millsfield:collection_id": 1511214207,
    "millsfield:company_id": [
      1159287595
    ],
    "millsfield:images_colors": [
      {
        "hex": "#d9ceb7",
        "name": "#d9ceb7",
        "reference": "marekm4"
      },
      {
        "hex": "#d3d3d3",
        "name": "lightgrey",
        "reference": "css4"
      },
      {
        "hex": "#cdc5c2",
        "name": "Silver",
        "reference": "crayola"
      },
      {
        "hex": "#d50902",
        "name": "#d50902",
        "reference": "marekm4"
      },
      {
        "hex": "#ff0000",
        "name": "red",
        "reference": "css4"
      },
      {
        "hex": "#ff2b2b",
        "name": "Orange Red",
        "reference": "crayola"
      },
      {
        "hex": "#292414",
        "name": "#292414",
        "reference": "marekm4"
      },
      {
        "hex": "#000000",
        "name": "black",
        "reference": "css4"
      },
      {
        "hex": "#000000",
        "name": "Black",
        "reference": "crayola"
      },
      {
        "hex": "#978e75",
        "name": "#978e75",
        "reference": "marekm4"
      },
      {
        "hex": "#808080",
        "name": "grey",
        "reference": "css4"
      },
      {
        "hex": "#9f8170",
        "name": "Beaver",
        "reference": "crayola"
      }
    ],
    "millsfield:images_texts": [
      "Western\nMarch 1 through April 29, 1972"
    ],
    "millsfield:images_texts_ids": [
      1762700959
    ],
    "millsfield:similar": {
      "apple/mobileclip_s0": [
        {
          "distance": 0.2593975,
          "id": 1762715397
        },
        {
          "distance": 0.32085383,
          "id": 1527836939
        },
        {
          "distance": 0.32166946,
          "id": 1527837209
        },
        {
          "distance": 0.32198942,
          "id": 1527837247
        },
        {
          "distance": 0.3335578,
          "id": 1527837257
        },
        {
          "distance": 0.34211788,
          "id": 1527837229
        },
        {
          "distance": 0.3423294,
          "id": 1527837231
        },
        {
          "distance": 0.34265435,
          "id": 1762700647
        },
        {
          "distance": 0.34827125,
          "id": 1527836961
        },
        {
          "distance": 0.3499342,
          "id": 1527837259
        }
      ],
      "apple/mobileclip_s1": [
        {
          "distance": 0.21183588,
          "id": 1527836939
        },
        {
          "distance": 0.21794493,
          "id": 1527837229
        },
        {
          "distance": 0.22634107,
          "id": 1762715397
        },
        {
          "distance": 0.27950585,
          "id": 1527837217
        },
        {
          "distance": 0.28656137,
          "id": 1527837211
        },
        {
          "distance": 0.2974596,
          "id": 1527836953
        },
        {
          "distance": 0.3020629,
          "id": 1527836969
        },
        {
          "distance": 0.30213785,
          "id": 1527837259
        },
        {
          "distance": 0.3042315,
          "id": 1527837249
        },
        {
          "distance": 0.30565545,
          "id": 1527837233
        }
      ],
      "apple/mobileclip_s2": [
        {
          "distance": 0.21569046,
          "id": 1762715397
        },
        {
          "distance": 0.2835634,
          "id": 1527836939
        },
        {
          "distance": 0.2854996,
          "id": 1527837229
        },
        {
          "distance": 0.35113275,
          "id": 1527836953
        },
        {
          "distance": 0.3640519,
          "id": 1527836969
        },
        {
          "distance": 0.36534065,
          "id": 1527837213
        },
        {
          "distance": 0.36721656,
          "id": 1527837243
        },
        {
          "distance": 0.38302952,
          "id": 1527837221
        },
        {
          "distance": 0.38643593,
          "id": 1527836961
        },
        {
          "distance": 0.39395204,
          "id": 1527837217
        }
      ]
    },
    "millsfield:subcategory_id": 1511213425,
    "mz:is_current": 1,
    "sfomuseum:filename": "2015.167.937.tif",
    "sfomuseum:image_id": 148867,
    "sfomuseum:image_index": 5,
    "sfomuseum:image_type": "studio",
    "sfomuseum:object_id": 175129,
    "sfomuseum:placetype": "image",
    "sfomuseum:primary_image": 1,
    "src:geom": "sfomuseum",
    "wof:belongsto": [
      102527513,
      1159162825,
      102191575,
      85633793,
      102087579,
      85922583,
      1762684159,
      85688637,
      1159160869
    ],
    "wof:country": "XY",
    "wof:created": 1641346631,
    "wof:depicts": [
      1159287595,
      1762684159,
      1159294431
    ],
    "wof:geomhash": "ed7c2ab3547fc3916b5edc33488deaa7",
    "wof:hierarchy": [
      {
        "building_id": -1,
        "campus_id": 102527513,
        "collection_id": 1159162825,
        "concourse_id": 1159162825,
        "continent_id": 102191575,
        "country_id": 85633793,
        "county_id": 102087579,
        "custom_id": 1762700959,
        "image_id": 1762700959,
        "locality_id": 85922583,
        "neighbourhood_id": -1,
        "object_id": 1762684159,
        "region_id": 85688637,
        "wing_id": 1159160869
      }
    ],
    "wof:id": 1762700959,
    "wof:lastmodified": 1788450460,
    "wof:name": "timetable: Western Airlines",
    "wof:parent_id": 1762684159,
    "wof:placetype": "custom",
    "wof:placetype_alt": [
      "image"
    ],
    "wof:repo": "sfomuseum-data-media-collection",
    "wof:superseded_by": [],
    "wof:supersedes": []
  },
  "bbox": [
    -122.386472,
    37.616105,
    -122.385834,
    37.616611
  ],
  "geometry": {"type":"Polygon","coordinates":[[[-122.386472,37.616318],[-122.386435,37.616233],[-122.386376,37.616178],[-122.386301,37.616131],[-122.386161,37.616105],[-122.386022,37.616131],[-122.385914,37.616186],[-122.385855,37.616267],[-122.385834,37.616369],[-122.385871,37.616467],[-122.385941,37.616543],[-122.386054,37.616603],[-122.386183,37.616611],[-122.386306,37.616573],[-122.386419,37.616509],[-122.386467,37.616411],[-122.386472,37.616318]]]}
}
