{
  "id": 1527843943,
  "type": "Feature",
  "properties": {
    "date:cessation_lower": "1994-01-01",
    "date:cessation_upper": "1994-12-31",
    "date:inception_lower": "1994-01-01",
    "date:inception_upper": "1994-12-31",
    "edtf:cessation": "1994",
    "edtf:date": "1994",
    "edtf:inception": "1994",
    "geom:area": 0,
    "geom:bbox": "-122.386155,37.616358,-122.386155,37.616358",
    "geom:latitude": 37.616358,
    "geom:longitude": -122.386155,
    "iso:country": "XX",
    "media:fingerprint": "578ffd9055c886cc633cbd1b9497f6921a7eefdc",
    "media:imagehash_avg": "a:8ef99999f9ff9999",
    "media:imagehash_diff": "d:3a233333232b2b2b",
    "media:imagetext": "TO START\nRoasted Almonds\nto accompany your preferred Cocktail or Beverage\nAPPETIZER SALAD\nENTREES\nFILET OF BEEF\nGrilled Beef Filet on Ranchero Sauce\nprepared with roasted Tomatoes, Green Bell Peppers and fresh Cilantro,\noffered with Green Beans and mashed Sweet Potatoes with roasted Garlic\nRASPBERRY BARBECUE CHICKEN\nGrilled Breast of Chicken\npresented with a Raspberry-flavored Barbecue Sauce,\nZucchini slices and Congris Rice with Black Beans\nProsciutto Ham with Melon Salsa\nThinly sliced Prosciutto Ham accompanied by\na Salsa of fresh Melon with diced Red Pepper\nDESSERT\nAssorted Breads and Butter\nFresh Fruit and fine Cheese served with selected Crackers\nDULCE DE LECHE FUDGE\nA rich and creamy Dessert presented with\nMacaroon Cookies and drizzled with Chocolate\n2 2961-2\nC-ASU-GRU-LD-2-2/94\nPORTUGUÊS\nESPAÑOL",
    "media:imagetext_created": 1787951577,
    "media:imagetext_source": "com.apple.visionkit.VNImageRequestHandler#Version 26.6.2 (Build 25G83)",
    "media:medium": "image",
    "media:mimetype": "image/tiff",
    "media:properties": {
      "sizes": {
        "b": {
          "extension": "jpg",
          "height": 750,
          "mimetype": "image/jpeg",
          "secret": "b17p2y0aLNAZN72pEUshHvqyutKEgBkd",
          "width": 1024
        },
        "c": {
          "extension": "jpg",
          "height": 586,
          "mimetype": "image/jpeg",
          "secret": "b17p2y0aLNAZN72pEUshHvqyutKEgBkd",
          "width": 800
        },
        "dc": {
          "extension": "jpg",
          "height": 586,
          "mimetype": "image/jpeg",
          "secret": "b17p2y0aLNAZN72pEUshHvqyutKEgBkd",
          "width": 800
        },
        "ds": {
          "extension": "jpg",
          "height": 320,
          "mimetype": "image/jpeg",
          "secret": "b17p2y0aLNAZN72pEUshHvqyutKEgBkd",
          "width": 320
        },
        "k": {
          "extension": "jpg",
          "height": 1500,
          "mimetype": "image/jpeg",
          "secret": "b17p2y0aLNAZN72pEUshHvqyutKEgBkd",
          "width": 2048
        },
        "n": {
          "extension": "jpg",
          "height": 234,
          "mimetype": "image/jpeg",
          "secret": "b17p2y0aLNAZN72pEUshHvqyutKEgBkd",
          "width": 320
        },
        "o": {
          "extension": "jpg",
          "height": 1758,
          "mimetype": "image/jpeg",
          "secret": "FPhiEPAGYJQxXeEieopZ0YDXV2LIoK6S",
          "width": 2400
        },
        "s": {
          "extension": "jpg",
          "height": 320,
          "mimetype": "image/jpeg",
          "secret": "b17p2y0aLNAZN72pEUshHvqyutKEgBkd",
          "width": 320
        },
        "z": {
          "extension": "jpg",
          "height": 468,
          "mimetype": "image/jpeg",
          "secret": "b17p2y0aLNAZN72pEUshHvqyutKEgBkd",
          "width": 640
        }
      }
    },
    "media:source": "sfomuseum",
    "media:status_id": 1,
    "media:uri_template": "https://static.sfomuseum.org/media/152/784/394/3/1527843943_{secret}_{label}.{extension}",
    "millsfield:airline_id": [
      1159283849
    ],
    "millsfield:category_id": 1762671311,
    "millsfield:collection_id": 1511214207,
    "millsfield:company_id": [
      1360700619
    ],
    "millsfield:images_colors": [
      {
        "hex": "#f5f5f6",
        "name": "#f5f5f6",
        "reference": "marekm4"
      },
      {
        "hex": "#f5f5f5",
        "name": "whitesmoke",
        "reference": "css4"
      },
      {
        "hex": "#ffffff",
        "name": "White",
        "reference": "crayola"
      },
      {
        "hex": "#19244d",
        "name": "#19244d",
        "reference": "marekm4"
      },
      {
        "hex": "#191970",
        "name": "midnightblue",
        "reference": "css4"
      },
      {
        "hex": "#1a4876",
        "name": "Midnight Blue",
        "reference": "crayola"
      }
    ],
    "millsfield:images_texts": [
      "TO START\nRoasted Almonds\nto accompany your preferred Cocktail or Beverage\nAPPETIZER SALAD\nENTREES\nFILET OF BEEF\nGrilled Beef Filet on Ranchero Sauce\nprepared with roasted Tomatoes, Green Bell Peppers and fresh Cilantro,\noffered with Green Beans and mashed Sweet Potatoes with roasted Garlic\nRASPBERRY BARBECUE CHICKEN\nGrilled Breast of Chicken\npresented with a Raspberry-flavored Barbecue Sauce,\nZucchini slices and Congris Rice with Black Beans\nProsciutto Ham with Melon Salsa\nThinly sliced Prosciutto Ham accompanied by\na Salsa of fresh Melon with diced Red Pepper\nDESSERT\nAssorted Breads and Butter\nFresh Fruit and fine Cheese served with selected Crackers\nDULCE DE LECHE FUDGE\nA rich and creamy Dessert presented with\nMacaroon Cookies and drizzled with Chocolate\n2 2961-2\nC-ASU-GRU-LD-2-2/94\nPORTUGUÊS\nESPAÑOL",
      "BUSINES\nL\nS\nS\nM\nIN U\nAMERICAN\nAIRLINES"
    ],
    "millsfield:images_texts_ids": [
      1527843943,
      1527844345
    ],
    "millsfield:similar": {
      "apple/mobileclip_s0": [
        {
          "distance": 0.49699542,
          "id": 1527844611
        },
        {
          "distance": 0.50131875,
          "id": 1527843589
        },
        {
          "distance": 0.5096154,
          "id": 1527843601
        },
        {
          "distance": 0.5145633,
          "id": 1527844123
        },
        {
          "distance": 0.5304472,
          "id": 1527845237
        },
        {
          "distance": 0.5305613,
          "id": 1527843779
        },
        {
          "distance": 0.53083295,
          "id": 1527844883
        },
        {
          "distance": 0.5363008,
          "id": 1527843999
        },
        {
          "distance": 0.53694165,
          "id": 1527844625
        },
        {
          "distance": 0.53709054,
          "id": 1527846181
        }
      ],
      "apple/mobileclip_s1": [
        {
          "distance": 0.39030746,
          "id": 1527845251
        },
        {
          "distance": 0.41162363,
          "id": 1527846187
        },
        {
          "distance": 0.4149204,
          "id": 1527848179
        },
        {
          "distance": 0.42449176,
          "id": 1527843611
        },
        {
          "distance": 0.4279822,
          "id": 1527844115
        },
        {
          "distance": 0.42977273,
          "id": 1527844123
        },
        {
          "distance": 0.42982277,
          "id": 1527844775
        },
        {
          "distance": 0.43026713,
          "id": 1527848203
        },
        {
          "distance": 0.43156224,
          "id": 1527848007
        },
        {
          "distance": 0.43249825,
          "id": 1527846211
        }
      ],
      "apple/mobileclip_s2": [
        {
          "distance": 0.5854086,
          "id": 1527846211
        },
        {
          "distance": 0.59438825,
          "id": 1527846227
        },
        {
          "distance": 0.5992372,
          "id": 1527848027
        },
        {
          "distance": 0.60139376,
          "id": 1527845233
        },
        {
          "distance": 0.6014404,
          "id": 1527846635
        },
        {
          "distance": 0.60184515,
          "id": 1527844115
        },
        {
          "distance": 0.6034301,
          "id": 1527848149
        },
        {
          "distance": 0.6042136,
          "id": 1527845177
        },
        {
          "distance": 0.61318314,
          "id": 1527846251
        },
        {
          "distance": 0.6138247,
          "id": 1527844775
        }
      ]
    },
    "millsfield:subcategory_id": 1511213567,
    "mz:hierarchy_label": 1,
    "mz:is_current": -1,
    "sfomuseum:filename": "68749.tif",
    "sfomuseum:image_id": 68749,
    "sfomuseum:image_index": 5,
    "sfomuseum:image_type": "studio",
    "sfomuseum:object_id": 87429,
    "sfomuseum:placetype": "image",
    "sfomuseum:primary_image": 0,
    "src:geom": "sfomuseum",
    "wof:belongsto": [
      1511930553,
      102527513,
      102191575,
      85633793,
      85922583,
      102087579,
      1511214277,
      85688637
    ],
    "wof:breaches": [],
    "wof:country": "XX",
    "wof:created": 1578953122,
    "wof:depicts": [
      1511930553,
      1360700619,
      1159283849
    ],
    "wof:geomhash": "bd906905ce4be6c0651c90b0fc24804c",
    "wof:hierarchy": [
      {
        "building_id": 1511214277,
        "campus_id": 102527513,
        "continent_id": 102191575,
        "country_id": 85633793,
        "county_id": 102087579,
        "custom_id": 1527843943,
        "image_id": 1527843943,
        "locality_id": 85922583,
        "media_id": 1527843943,
        "neighbourhood_id": -1,
        "region_id": 85688637,
        "venue_id": 1511930553
      }
    ],
    "wof:id": 1527843943,
    "wof:lastmodified": 1788450075,
    "wof:name": "menu: American Airlines, Business Class",
    "wof:parent_id": 1511930553,
    "wof:placetype": "custom",
    "wof:placetype_alt": [
      "image"
    ],
    "wof:repo": "sfomuseum-data-media-collection",
    "wof:superseded_by": [],
    "wof:supersedes": [],
    "wof:tags": []
  },
  "bbox": [
    -122.386155,
    37.616358,
    -122.386155,
    37.616358
  ],
  "geometry": {"type":"Point","coordinates":[-122.386155,37.616358]}
}
