{
  "id": 1527846765,
  "type": "Feature",
  "properties": {
    "date:cessation_lower": "1964-01-01",
    "date:cessation_upper": "1964-12-31",
    "date:inception_lower": "1964-01-01",
    "date:inception_upper": "1964-12-31",
    "edtf:cessation": "1964",
    "edtf:date": "1964",
    "edtf:inception": "1964",
    "geom:area": 0,
    "geom:bbox": "-122.386155,37.616358,-122.386155,37.616358",
    "geom:latitude": 37.616358,
    "geom:longitude": -122.386155,
    "iso:country": "XX",
    "media:fingerprint": "4d4164eb83886889b8b816002b58d7dd14a72288",
    "media:imagehash_avg": "a:8181ffff83c1e101",
    "media:imagehash_diff": "d:373f2d2e17d7cf9b",
    "media:imagetext": "EFFECTIVE APRIL 26, 1964\nNATIONAL\nAIRLINES\nSYSTEM TIMETABLE\nCome lo the\nAR\nAND SEE THE WORLD!\nFLORIDA\nNOW OPEN!\nUnisphere@ presented by\nUnited States Steel\n© 1961 New York World's Foir\n1964.1965 Corporation",
    "media:imagetext_created": 1787952192,
    "media:imagetext_source": "com.apple.visionkit.VNImageRequestHandler#Version 26.6.2 (Build 25G83)",
    "media:medium": "image",
    "media:mimetype": "image/tiff",
    "media:properties": {
      "sizes": {
        "b": {
          "extension": "jpg",
          "height": 768,
          "mimetype": "image/jpeg",
          "secret": "sdkKgEJwgV1Y7IASydgsM3NQtg5pmArL",
          "width": 351
        },
        "c": {
          "extension": "jpg",
          "height": 600,
          "mimetype": "image/jpeg",
          "secret": "sdkKgEJwgV1Y7IASydgsM3NQtg5pmArL",
          "width": 274
        },
        "dc": {
          "extension": "jpg",
          "height": 600,
          "mimetype": "image/jpeg",
          "secret": "sdkKgEJwgV1Y7IASydgsM3NQtg5pmArL",
          "width": 274
        },
        "ds": {
          "extension": "jpg",
          "height": 320,
          "mimetype": "image/jpeg",
          "secret": "sdkKgEJwgV1Y7IASydgsM3NQtg5pmArL",
          "width": 320
        },
        "k": {
          "extension": "jpg",
          "height": 1536,
          "mimetype": "image/jpeg",
          "secret": "sdkKgEJwgV1Y7IASydgsM3NQtg5pmArL",
          "width": 702
        },
        "n": {
          "extension": "jpg",
          "height": 240,
          "mimetype": "image/jpeg",
          "secret": "sdkKgEJwgV1Y7IASydgsM3NQtg5pmArL",
          "width": 109
        },
        "o": {
          "extension": "jpg",
          "height": 2716,
          "mimetype": "image/jpeg",
          "secret": "TQWYsl5WELfY9AqgTuCkW5GbKEhPJbIR",
          "width": 1243
        },
        "s": {
          "extension": "jpg",
          "height": 320,
          "mimetype": "image/jpeg",
          "secret": "sdkKgEJwgV1Y7IASydgsM3NQtg5pmArL",
          "width": 320
        },
        "z": {
          "extension": "jpg",
          "height": 480,
          "mimetype": "image/jpeg",
          "secret": "sdkKgEJwgV1Y7IASydgsM3NQtg5pmArL",
          "width": 219
        }
      }
    },
    "media:source": "sfomuseum",
    "media:status_id": 1,
    "media:uri_template": "https://static.sfomuseum.org/media/152/784/676/5/1527846765_{secret}_{label}.{extension}",
    "millsfield:aircraft_id": [
      1159290443
    ],
    "millsfield:airline_id": [
      1159284841
    ],
    "millsfield:category_id": 1511214223,
    "millsfield:collection_id": 1511214207,
    "millsfield:company_id": [],
    "millsfield:images_colors": [
      {
        "hex": "#68a4b1",
        "name": "#68a4b1",
        "reference": "marekm4"
      },
      {
        "hex": "#5f9ea0",
        "name": "cadetblue",
        "reference": "css4"
      },
      {
        "hex": "#6699cc",
        "name": "Blue Gray",
        "reference": "crayola"
      },
      {
        "hex": "#c9d0c8",
        "name": "#c9d0c8",
        "reference": "marekm4"
      },
      {
        "hex": "#d3d3d3",
        "name": "lightgrey",
        "reference": "css4"
      },
      {
        "hex": "#cdc5c2",
        "name": "Silver",
        "reference": "crayola"
      },
      {
        "hex": "#191b1c",
        "name": "#191b1c",
        "reference": "marekm4"
      },
      {
        "hex": "#000000",
        "name": "black",
        "reference": "css4"
      },
      {
        "hex": "#000000",
        "name": "Black",
        "reference": "crayola"
      }
    ],
    "millsfield:images_texts": [
      "EFFECTIVE APRIL 26, 1964\nNATIONAL\nAIRLINES\nSYSTEM TIMETABLE\nCome lo the\nAR\nAND SEE THE WORLD!\nFLORIDA\nNOW OPEN!\nUnisphere@ presented by\nUnited States Steel\n© 1961 New York World's Foir\n1964.1965 Corporation",
      "PACIFIC\ndaylight\nstandard\nMOUNTAIN\n3\ndaylight standard\nCENTRAL\nEASTERN\n• 3\ndaylight\nstandard\ndaylight\nstandard\nBOSTON\nProvidence\nSAN FRANCISCO/\nOAKLAND\nLAS VEGAS\nLOS ANGELES /\nLONG BEACH\nNEW ORLEANS\nHOUSTON\nSAN DIEGO\nNEW YORK\nNewark\nPHILADELPHIA\nBaltimore\nWASHINGTON\nRichmond\nNewport News / Hampton\nNorfolk\nCharleston\nSavannah\nTallahassee\nPanama City\nPensacola\nMobile\nJACKSONVILLE\nOrlando\nDaytona Beach\nCAPE KENNEDY\nTAMPA/ST. PETERSBURG\nMelbourne\nClearwater\nPalm Beach\nLakeland\nSarasota\nBradenton\nMIAMI/ FT. LAUDERDALE\nKey West\nFt. Myers\nNATIONAL\nNational Airlines, Inc., Certificated Routes\nThru-Plane Service. National, Pan Am, Panagra\nBalboa • Panama City\n• Cali\n• Quito\n• Guayaquil\n• Lima\n• La Paz\n• Antofagasta\nSantiago •\n• Buenos Aires"
    ],
    "millsfield:images_texts_ids": [
      1527846765,
      1527850601
    ],
    "millsfield:similar": {
      "apple/mobileclip_s0": [
        {
          "distance": 0.65252143,
          "id": 1527844039
        },
        {
          "distance": 0.6709409,
          "id": 1527818123
        },
        {
          "distance": 0.67869,
          "id": 1729565597
        },
        {
          "distance": 0.6839554,
          "id": 1762698181
        },
        {
          "distance": 0.6902053,
          "id": 1527844417
        },
        {
          "distance": 0.6959719,
          "id": 1729566651
        },
        {
          "distance": 0.70268124,
          "id": 1897196885
        },
        {
          "distance": 0.70730126,
          "id": 1762895373
        },
        {
          "distance": 0.70738995,
          "id": 1527819191
        },
        {
          "distance": 0.70768505,
          "id": 1762714325
        }
      ],
      "apple/mobileclip_s1": [
        {
          "distance": 0.5324234,
          "id": 1527848707
        },
        {
          "distance": 0.5363402,
          "id": 1527838163
        },
        {
          "distance": 0.5403967,
          "id": 1763249109
        },
        {
          "distance": 0.5438193,
          "id": 1527838157
        },
        {
          "distance": 0.54488,
          "id": 1527838153
        },
        {
          "distance": 0.55411154,
          "id": 1897196885
        },
        {
          "distance": 0.55420697,
          "id": 1527818123
        },
        {
          "distance": 0.5603033,
          "id": 1527829205
        },
        {
          "distance": 0.57378757,
          "id": 1897196831
        },
        {
          "distance": 0.57639045,
          "id": 1762714475
        }
      ],
      "apple/mobileclip_s2": [
        {
          "distance": 0.66782266,
          "id": 1527838163
        },
        {
          "distance": 0.6881324,
          "id": 1527838153
        },
        {
          "distance": 0.69165653,
          "id": 1527838157
        },
        {
          "distance": 0.72287637,
          "id": 1527848707
        },
        {
          "distance": 0.7241195,
          "id": 1527838275
        },
        {
          "distance": 0.78676033,
          "id": 1527819715
        },
        {
          "distance": 0.79716635,
          "id": 1897196885
        },
        {
          "distance": 0.8004978,
          "id": 1762698515
        },
        {
          "distance": 0.80158293,
          "id": 1527829205
        },
        {
          "distance": 0.80987084,
          "id": 1527818123
        }
      ]
    },
    "millsfield:subcategory_id": 1511213425,
    "mz:hierarchy_label": 1,
    "mz:is_current": -1,
    "sfomuseum:filename": "2005.132.030.015.tif",
    "sfomuseum:image_id": 71096,
    "sfomuseum:image_index": 5,
    "sfomuseum:image_type": "studio",
    "sfomuseum:object_id": 97907,
    "sfomuseum:placetype": "image",
    "sfomuseum:primary_image": 1,
    "src:geom": "sfomuseum",
    "wof:belongsto": [
      1511214223,
      1511936629,
      102527513,
      102191575,
      85633793,
      1511213425,
      85922583,
      102087579,
      1511214277,
      1511214203,
      85688637
    ],
    "wof:breaches": [],
    "wof:country": "XX",
    "wof:created": 1578953562,
    "wof:depicts": [
      1511936629,
      1159290443,
      1159284841,
      1159288429
    ],
    "wof:geomhash": "bd906905ce4be6c0651c90b0fc24804c",
    "wof:hierarchy": [
      {
        "arcade_id": 1511213425,
        "building_id": 1511214277,
        "campus_id": 102527513,
        "concourse_id": 1511214223,
        "continent_id": 102191575,
        "country_id": 85633793,
        "county_id": 102087579,
        "custom_id": 1527846765,
        "image_id": 1527846765,
        "locality_id": 85922583,
        "media_id": 1527846765,
        "neighbourhood_id": -1,
        "region_id": 85688637,
        "venue_id": 1511936629,
        "wing_id": 1511214203
      }
    ],
    "wof:id": 1527846765,
    "wof:lastmodified": 1788450119,
    "wof:name": "timetable: National Airlines",
    "wof:parent_id": 1511936629,
    "wof:placetype": "custom",
    "wof:placetype_alt": [
      "image"
    ],
    "wof:repo": "sfomuseum-data-media-collection",
    "wof:superseded_by": [],
    "wof:supersedes": [],
    "wof:tags": []
  },
  "bbox": [
    -122.386155,
    37.616358,
    -122.386155,
    37.616358
  ],
  "geometry": {"type":"Point","coordinates":[-122.386155,37.616358]}
}
