{
  "id": 1964047795,
  "type": "Feature",
  "properties": {
    "date:cessation_lower": "1970-01-01",
    "date:cessation_upper": "1979-12-31",
    "date:inception_lower": "1970-01-01",
    "date:inception_upper": "1979-12-31",
    "edtf:cessation": "197X",
    "edtf:inception": "197X",
    "geom:area": 2.477324999997507e-7,
    "geom:bbox": "-122.386472,37.616105,-122.385834,37.616611",
    "geom:latitude": 37.61635756125121,
    "geom:longitude": -122.38615532866096,
    "media:fingerprint": "86eb85810fb49e04e3f1840fee9487c8b670cae4",
    "media:imagehash_avg": "a:7efff79580c1ffff",
    "media:imagehash_diff": "d:f0f0e425070fe6e0",
    "media:imagetext": "1000000\n0000000000",
    "media:imagetext_created": 1787974979,
    "media:imagetext_source": "com.apple.visionkit.VNImageRequestHandler#Version 26.6.2 (Build 25G83)",
    "media:mimetype": "image/tiff",
    "media:properties": {
      "sizes": {
        "b": {
          "extension": "jpg",
          "height": 768,
          "mimetype": "image/jpeg",
          "secret": "CjmBcPhmBEQxw3H2hFgpgDLUwuVA3MLt",
          "width": 960
        },
        "c": {
          "extension": "jpg",
          "height": 600,
          "mimetype": "image/jpeg",
          "secret": "CjmBcPhmBEQxw3H2hFgpgDLUwuVA3MLt",
          "width": 750
        },
        "dc": {
          "extension": "jpg",
          "height": 600,
          "mimetype": "image/jpeg",
          "secret": "CjmBcPhmBEQxw3H2hFgpgDLUwuVA3MLt",
          "width": 750
        },
        "ds": {
          "extension": "jpg",
          "height": 320,
          "mimetype": "image/jpeg",
          "secret": "CjmBcPhmBEQxw3H2hFgpgDLUwuVA3MLt",
          "width": 320
        },
        "k": {
          "extension": "jpg",
          "height": 1536,
          "mimetype": "image/jpeg",
          "secret": "CjmBcPhmBEQxw3H2hFgpgDLUwuVA3MLt",
          "width": 1920
        },
        "n": {
          "extension": "jpg",
          "height": 239,
          "mimetype": "image/jpeg",
          "secret": "CjmBcPhmBEQxw3H2hFgpgDLUwuVA3MLt",
          "width": 300
        },
        "o": {
          "extension": "jpg",
          "height": 1664,
          "mimetype": "image/jpeg",
          "secret": "kz5D3d2pl7wM4nTsSIfecMsNFNLwjAMm",
          "width": 2080
        },
        "s": {
          "extension": "jpg",
          "height": 320,
          "mimetype": "image/jpeg",
          "secret": "CjmBcPhmBEQxw3H2hFgpgDLUwuVA3MLt",
          "width": 320
        },
        "z": {
          "extension": "jpg",
          "height": 479,
          "mimetype": "image/jpeg",
          "secret": "CjmBcPhmBEQxw3H2hFgpgDLUwuVA3MLt",
          "width": 600
        }
      }
    },
    "media:source": "sfomuseum",
    "media:status_id": 1,
    "media:uri_template": "https://static.sfomuseum.org/media/196/404/779/5/1964047795_{secret}_{label}.{extention}",
    "millsfield:aircraft_id": [
      1159289873
    ],
    "millsfield:airline_id": [
      1159284989
    ],
    "millsfield:category_id": 1511214235,
    "millsfield:collection_id": 1511214203,
    "millsfield:company_id": [
      1159293593
    ],
    "millsfield:images_colors": [
      {
        "hex": "#b2b1af",
        "name": "#b2b1af",
        "reference": "marekm4"
      },
      {
        "hex": "#a9a9a9",
        "name": "darkgrey",
        "reference": "css4"
      },
      {
        "hex": "#b0b7c6",
        "name": "Cadet Blue",
        "reference": "crayola"
      },
      {
        "hex": "#535353",
        "name": "#535353",
        "reference": "marekm4"
      },
      {
        "hex": "#2f4f4f",
        "name": "darkslategrey",
        "reference": "css4"
      },
      {
        "hex": "#414a4c",
        "name": "Outer Space",
        "reference": "crayola"
      }
    ],
    "millsfield:images_texts": [
      "BATTERY OPERATED\nPANA\nWITH FLASHING LIGHT\nREAL ENGINE SOUND\nOR AGES 5 AND OVER\nNO 773BL\nN388SP\nPAN AM\n00000000DD\nPAN AM\n0000000000 D",
      "0000000000\nPAN AM\n10/000000000 01\nм3885Р",
      "PAN A\n1000000000\n0000000000\nN 388SP",
      "UND\nFLYING JET PLANE\nПО88000 G\nINSERT THE TAIL\nINSERT THE WINGS\nCHANGE RUNNING COURSE BY\nSHIFTING NOB TO RIGHT OR LEFT\nPULL TO OPEN BATTERY CASE,\nINSERT TWO \"C\"SIZE BATTERIES\n(NOT INCLUDED)",
      "WITH\nFLASHING\nLIGHT\nMADE IN CHINA\nINSERT THE TAIL\nFLYING JET PLANE\nINSERT THE WINGS\nCHANGE RUNNING COURSE BY\nSHIFTING NOB TO RIGHT OR LEFT\nPULL TO OPEN BATTERY CASE,\nINSERT TWO \"C\"SIZE BATTERIES\n(NOT INCLUDED/",
      "1000000\n0000000000"
    ],
    "millsfield:images_texts_ids": [
      1964039485,
      1964039489,
      1964039491,
      1964039493,
      1964039495,
      1964047795
    ],
    "millsfield:similar": {
      "apple/mobileclip_s0": [
        {
          "distance": 0.37602484,
          "id": 1964039489
        },
        {
          "distance": 0.4221892,
          "id": 1880319167
        },
        {
          "distance": 0.42593667,
          "id": 1880440381
        },
        {
          "distance": 0.43175825,
          "id": 1763144565
        },
        {
          "distance": 0.4333684,
          "id": 1763144567
        },
        {
          "distance": 0.4494994,
          "id": 1880440379
        },
        {
          "distance": 0.4504982,
          "id": 1897196993
        },
        {
          "distance": 0.4573352,
          "id": 1897197031
        },
        {
          "distance": 0.4580107,
          "id": 1880319223
        },
        {
          "distance": 0.45893842,
          "id": 1964047791
        }
      ],
      "apple/mobileclip_s1": [
        {
          "distance": 0.2782639,
          "id": 1964039489
        },
        {
          "distance": 0.30598575,
          "id": 1763144465
        },
        {
          "distance": 0.31760606,
          "id": 1763110085
        },
        {
          "distance": 0.3187809,
          "id": 1763109977
        },
        {
          "distance": 0.32232755,
          "id": 1763137443
        },
        {
          "distance": 0.33063915,
          "id": 1897358865
        },
        {
          "distance": 0.33577156,
          "id": 1763144475
        },
        {
          "distance": 0.3365046,
          "id": 1763137445
        },
        {
          "distance": 0.33830634,
          "id": 1763144473
        },
        {
          "distance": 0.33940396,
          "id": 1763144565
        }
      ],
      "apple/mobileclip_s2": [
        {
          "distance": 0.29770294,
          "id": 1964039489
        },
        {
          "distance": 0.4027476,
          "id": 1881138471
        },
        {
          "distance": 0.40897247,
          "id": 1763144567
        },
        {
          "distance": 0.41343734,
          "id": 1763144565
        },
        {
          "distance": 0.41583294,
          "id": 1897358865
        },
        {
          "distance": 0.42186627,
          "id": 1763144573
        },
        {
          "distance": 0.42531207,
          "id": 1763144571
        },
        {
          "distance": 0.4288208,
          "id": 1881138467
        },
        {
          "distance": 0.42964837,
          "id": 1881138469
        },
        {
          "distance": 0.43441308,
          "id": 1897358867
        }
      ]
    },
    "millsfield:subcategory_id": 1511213161,
    "mz:is_current": 1,
    "sfomuseum:filename": "1997.58.02_2.tif",
    "sfomuseum:image_id": 288323,
    "sfomuseum:image_index": 0,
    "sfomuseum:image_type": "studio",
    "sfomuseum:object_id": 46652,
    "sfomuseum:placetype": "image",
    "sfomuseum:primary_image": 0,
    "src:geom": "sfomuseum",
    "wof:belongsto": [
      102527513,
      1159162825,
      102191575,
      85633793,
      102087579,
      85922583,
      1964039135,
      85688637,
      1159160869
    ],
    "wof:country": "XY",
    "wof:created": 1742369512,
    "wof:depicts": [
      1964039135,
      1159284989,
      1159289873,
      1159293593
    ],
    "wof:geomhash": "ed7c2ab3547fc3916b5edc33488deaa7",
    "wof:hierarchy": [
      {
        "building_id": -1,
        "campus_id": 102527513,
        "collection_id": 1159162825,
        "concourse_id": 1159162825,
        "continent_id": 102191575,
        "country_id": 85633793,
        "county_id": 102087579,
        "custom_id": 1964047795,
        "locality_id": 85922583,
        "neighbourhood_id": -1,
        "object_id": 1964039135,
        "region_id": 85688637,
        "wing_id": 1159160869
      }
    ],
    "wof:id": 1964047795,
    "wof:lastmodified": 1788452532,
    "wof:name": "model airplane: Pan American World Airways, Boeing 747",
    "wof:parent_id": 1964039135,
    "wof:placetype": "custom",
    "wof:repo": "sfomuseum-data-media-collection",
    "wof:superseded_by": [],
    "wof:supersedes": []
  },
  "bbox": [
    -122.386472,
    37.616105,
    -122.385834,
    37.616611
  ],
  "geometry": {"type":"Polygon","coordinates":[[[-122.386472,37.616318],[-122.386435,37.616233],[-122.386376,37.616178],[-122.386301,37.616131],[-122.386161,37.616105],[-122.386022,37.616131],[-122.385914,37.616186],[-122.385855,37.616267],[-122.385834,37.616369],[-122.385871,37.616467],[-122.385941,37.616543],[-122.386054,37.616603],[-122.386183,37.616611],[-122.386306,37.616573],[-122.386419,37.616509],[-122.386467,37.616411],[-122.386472,37.616318]]]}
}
