{
  "id": 1763445675,
  "type": "Feature",
  "properties": {
    "date:cessation_lower": "1960-01-01",
    "date:cessation_upper": "1969-12-31",
    "date:inception_lower": "1960-01-01",
    "date:inception_upper": "1969-12-31",
    "edtf:cessation": "196X",
    "edtf:inception": "196X",
    "geom:area": 2.477324999997507e-7,
    "geom:bbox": "-122.386472,37.616105,-122.385834,37.616611",
    "geom:latitude": 37.61635756125121,
    "geom:longitude": -122.38615532866096,
    "media:fingerprint": "0717418a5045ee14cee750b2e850141814e99ed5",
    "media:imagehash_avg": "a:ff8181818181ffff",
    "media:imagehash_diff": "d:3f57672303677313",
    "media:imagetext": "LISBON\nFLY CANADIAN PACIFIC",
    "media:imagetext_created": 1787963338,
    "media:imagetext_source": "com.apple.visionkit.VNImageRequestHandler#Version 26.6.2 (Build 25G83)",
    "media:mimetype": "image/tiff",
    "media:properties": {
      "sizes": {
        "b": {
          "extension": "jpg",
          "height": 768,
          "mimetype": "image/jpeg",
          "secret": "mcirJj9y5ckFbgq0IkYyuQ8KqIZbhAMS",
          "width": 524
        },
        "c": {
          "extension": "jpg",
          "height": 600,
          "mimetype": "image/jpeg",
          "secret": "mcirJj9y5ckFbgq0IkYyuQ8KqIZbhAMS",
          "width": 409
        },
        "dc": {
          "extension": "jpg",
          "height": 600,
          "mimetype": "image/jpeg",
          "secret": "mcirJj9y5ckFbgq0IkYyuQ8KqIZbhAMS",
          "width": 409
        },
        "ds": {
          "extension": "jpg",
          "height": 320,
          "mimetype": "image/jpeg",
          "secret": "mcirJj9y5ckFbgq0IkYyuQ8KqIZbhAMS",
          "width": 320
        },
        "k": {
          "extension": "jpg",
          "height": 1536,
          "mimetype": "image/jpeg",
          "secret": "mcirJj9y5ckFbgq0IkYyuQ8KqIZbhAMS",
          "width": 1048
        },
        "n": {
          "extension": "jpg",
          "height": 240,
          "mimetype": "image/jpeg",
          "secret": "mcirJj9y5ckFbgq0IkYyuQ8KqIZbhAMS",
          "width": 163
        },
        "o": {
          "extension": "jpg",
          "height": 1667,
          "mimetype": "image/jpeg",
          "secret": "CIMk9gXSgn5bszrkhayf9VUwSOcvSVNB",
          "width": 1138
        },
        "s": {
          "extension": "jpg",
          "height": 320,
          "mimetype": "image/jpeg",
          "secret": "mcirJj9y5ckFbgq0IkYyuQ8KqIZbhAMS",
          "width": 320
        },
        "z": {
          "extension": "jpg",
          "height": 480,
          "mimetype": "image/jpeg",
          "secret": "mcirJj9y5ckFbgq0IkYyuQ8KqIZbhAMS",
          "width": 327
        }
      }
    },
    "media:source": "sfomuseum",
    "media:status_id": 1,
    "media:uri_template": "https://static.sfomuseum.org/media/176/344/567/5/1763445675_{secret}_{label}.{extension}",
    "millsfield:airline_id": [
      1159284217
    ],
    "millsfield:category_id": 1763416373,
    "millsfield:collection_id": 1511214203,
    "millsfield:company_id": [
      1159288301
    ],
    "millsfield:images_colors": [
      {
        "hex": "#d7d5ca",
        "name": "#d7d5ca",
        "reference": "marekm4"
      },
      {
        "hex": "#d3d3d3",
        "name": "lightgrey",
        "reference": "css4"
      },
      {
        "hex": "#dbd7d2",
        "name": "Timberwolf",
        "reference": "crayola"
      },
      {
        "hex": "#6a9cad",
        "name": "#6a9cad",
        "reference": "marekm4"
      },
      {
        "hex": "#5f9ea0",
        "name": "cadetblue",
        "reference": "css4"
      },
      {
        "hex": "#6699cc",
        "name": "Blue Gray",
        "reference": "crayola"
      },
      {
        "hex": "#3f3432",
        "name": "#3f3432",
        "reference": "marekm4"
      },
      {
        "hex": "#2f4f4f",
        "name": "darkslategrey",
        "reference": "css4"
      },
      {
        "hex": "#414a4c",
        "name": "Outer Space",
        "reference": "crayola"
      },
      {
        "hex": "#913b3c",
        "name": "#913b3c",
        "reference": "marekm4"
      },
      {
        "hex": "#a0522d",
        "name": "sienna",
        "reference": "css4"
      },
      {
        "hex": "#9c2542",
        "name": "Big Dip O' Ruby",
        "reference": "crayola"
      },
      {
        "hex": "#9e8b72",
        "name": "#9e8b72",
        "reference": "marekm4"
      },
      {
        "hex": "#808080",
        "name": "grey",
        "reference": "css4"
      },
      {
        "hex": "#9f8170",
        "name": "Beaver",
        "reference": "crayola"
      }
    ],
    "millsfield:images_texts": [
      "LISBON\nFLY CANADIAN PACIFIC"
    ],
    "millsfield:images_texts_ids": [
      1763445675
    ],
    "millsfield:similar": {
      "apple/mobileclip_s0": [
        {
          "distance": 0.7459859,
          "id": 1763445671
        },
        {
          "distance": 0.77538604,
          "id": 1763445639
        },
        {
          "distance": 0.7824387,
          "id": 1762897551
        },
        {
          "distance": 0.7838463,
          "id": 1527848071
        },
        {
          "distance": 0.78425735,
          "id": 1763388397
        },
        {
          "distance": 0.78750974,
          "id": 1762891665
        },
        {
          "distance": 0.7905099,
          "id": 1779490171
        },
        {
          "distance": 0.79924285,
          "id": 1527819395
        },
        {
          "distance": 0.8029991,
          "id": 1762897493
        },
        {
          "distance": 0.80342144,
          "id": 1762893389
        }
      ],
      "apple/mobileclip_s1": [
        {
          "distance": 0.44400758,
          "id": 1763445671
        },
        {
          "distance": 0.52276415,
          "id": 1897196901
        },
        {
          "distance": 0.5344042,
          "id": 1527848071
        },
        {
          "distance": 0.56979096,
          "id": 1527821753
        },
        {
          "distance": 0.57364535,
          "id": 1762898655
        },
        {
          "distance": 0.5801299,
          "id": 1779437675
        },
        {
          "distance": 0.5862677,
          "id": 1881041473
        },
        {
          "distance": 0.5871766,
          "id": 1762895333
        },
        {
          "distance": 0.5901213,
          "id": 1762898977
        },
        {
          "distance": 0.59234,
          "id": 1527853301
        }
      ],
      "apple/mobileclip_s2": [
        {
          "distance": 0.6962623,
          "id": 1763445671
        },
        {
          "distance": 0.7870344,
          "id": 1527821753
        },
        {
          "distance": 0.7970247,
          "id": 1527848071
        },
        {
          "distance": 0.80779743,
          "id": 1763445673
        },
        {
          "distance": 0.8134822,
          "id": 1762898655
        },
        {
          "distance": 0.8225044,
          "id": 1527834961
        },
        {
          "distance": 0.8278041,
          "id": 1762714987
        },
        {
          "distance": 0.8350495,
          "id": 1746838205
        },
        {
          "distance": 0.8388519,
          "id": 1763388375
        },
        {
          "distance": 0.84188294,
          "id": 1762898977
        }
      ]
    },
    "millsfield:subcategory_id": 1511213365,
    "mz:is_current": 1,
    "sfomuseum:filename": "2015.109.032.tif",
    "sfomuseum:image_id": 138390,
    "sfomuseum:image_index": 5,
    "sfomuseum:image_type": "studio",
    "sfomuseum:object_id": 170993,
    "sfomuseum:placetype": "image",
    "sfomuseum:primary_image": 1,
    "src:geom": "sfomuseum",
    "wof:belongsto": [
      102527513,
      1159162825,
      102191575,
      85633793,
      102087579,
      85922583,
      1746836175,
      85688637,
      1159160869
    ],
    "wof:country": "XY",
    "wof:created": 1649405085,
    "wof:depicts": [
      1159288301,
      1746836175,
      1159284217
    ],
    "wof:geomhash": "ed7c2ab3547fc3916b5edc33488deaa7",
    "wof:hierarchy": [
      {
        "building_id": -1,
        "campus_id": 102527513,
        "collection_id": 1159162825,
        "concourse_id": 1159162825,
        "continent_id": 102191575,
        "country_id": 85633793,
        "county_id": 102087579,
        "custom_id": 1763445675,
        "image_id": 1763445675,
        "locality_id": 85922583,
        "neighbourhood_id": -1,
        "object_id": 1746836175,
        "region_id": 85688637,
        "wing_id": 1159160869
      }
    ],
    "wof:id": 1763445675,
    "wof:lastmodified": 1788451212,
    "wof:name": "poster: Canadian Pacific Airlines, Lisbon",
    "wof:parent_id": 1746836175,
    "wof:placetype": "custom",
    "wof:placetype_alt": [
      "image"
    ],
    "wof:repo": "sfomuseum-data-media-collection",
    "wof:superseded_by": [],
    "wof:supersedes": []
  },
  "bbox": [
    -122.386472,
    37.616105,
    -122.385834,
    37.616611
  ],
  "geometry": {"type":"Polygon","coordinates":[[[-122.386472,37.616318],[-122.386435,37.616233],[-122.386376,37.616178],[-122.386301,37.616131],[-122.386161,37.616105],[-122.386022,37.616131],[-122.385914,37.616186],[-122.385855,37.616267],[-122.385834,37.616369],[-122.385871,37.616467],[-122.385941,37.616543],[-122.386054,37.616603],[-122.386183,37.616611],[-122.386306,37.616573],[-122.386419,37.616509],[-122.386467,37.616411],[-122.386472,37.616318]]]}
}
