{
  "id": 1763441257,
  "type": "Feature",
  "properties": {
    "date:cessation_lower": "2009-01-01",
    "date:cessation_upper": "2009-12-31",
    "date:inception_lower": "2009-01-01",
    "date:inception_upper": "2009-12-31",
    "edtf:cessation": "2009",
    "edtf:inception": "2009",
    "geom:area": 2.477324999997507e-7,
    "geom:bbox": "-122.386472,37.616105,-122.385834,37.616611",
    "geom:latitude": 37.61635756125121,
    "geom:longitude": -122.38615532866096,
    "media:fingerprint": "f9a3340a78ade33feb0f5de24a7bdbba75c766cc",
    "media:imagehash_avg": "a:ffffffff18000000",
    "media:imagehash_diff": "d:e8f0e0b0b2968cf0",
    "media:imagetext": "JAL",
    "media:imagetext_created": 1701954131,
    "media:imagetext_source": "com.apple.visionkit.VNImageRequestHandler#Version 14.1.2 (Build 23B92)",
    "media:mimetype": "image/jpeg",
    "media:properties": {
      "sizes": {
        "b": {
          "extension": "jpg",
          "height": 768,
          "mimetype": "image/jpeg",
          "secret": "6kFKXBDElLC5sv9QHQu0xvPpYpONcoL9",
          "width": 965
        },
        "c": {
          "extension": "jpg",
          "height": 600,
          "mimetype": "image/jpeg",
          "secret": "6kFKXBDElLC5sv9QHQu0xvPpYpONcoL9",
          "width": 754
        },
        "dc": {
          "extension": "jpg",
          "height": 600,
          "mimetype": "image/jpeg",
          "secret": "6kFKXBDElLC5sv9QHQu0xvPpYpONcoL9",
          "width": 754
        },
        "ds": {
          "extension": "jpg",
          "height": 320,
          "mimetype": "image/jpeg",
          "secret": "6kFKXBDElLC5sv9QHQu0xvPpYpONcoL9",
          "width": 320
        },
        "k": {
          "extension": "jpg",
          "height": 1536,
          "mimetype": "image/jpeg",
          "secret": "6kFKXBDElLC5sv9QHQu0xvPpYpONcoL9",
          "width": 1931
        },
        "n": {
          "extension": "jpg",
          "height": 240,
          "mimetype": "image/jpeg",
          "secret": "6kFKXBDElLC5sv9QHQu0xvPpYpONcoL9",
          "width": 301
        },
        "o": {
          "extension": "jpg",
          "height": 1670,
          "mimetype": "image/jpeg",
          "secret": "D7XyTh3mJuA4aSeVcL9zP7cBnMGcUJYH",
          "width": 2100
        },
        "s": {
          "extension": "jpg",
          "height": 320,
          "mimetype": "image/jpeg",
          "secret": "6kFKXBDElLC5sv9QHQu0xvPpYpONcoL9",
          "width": 320
        },
        "z": {
          "extension": "jpg",
          "height": 480,
          "mimetype": "image/jpeg",
          "secret": "6kFKXBDElLC5sv9QHQu0xvPpYpONcoL9",
          "width": 603
        }
      }
    },
    "media:source": "sfomuseum",
    "media:status_id": 1,
    "media:uri_template": "https://static.sfomuseum.org/media/176/344/125/7/1763441257_{secret}_{label}.{extension}",
    "millsfield:airline_id": [
      1159284563
    ],
    "millsfield:category_id": 1762679663,
    "millsfield:collection_id": 1511214203,
    "millsfield:company_id": [
      1159288585
    ],
    "millsfield:images_colors": [
      {
        "hex": "#a6a3a1",
        "name": "#a6a3a1",
        "reference": "marekm4"
      },
      {
        "hex": "#a9a9a9",
        "name": "darkgrey",
        "reference": "css4"
      },
      {
        "hex": "#979aaa",
        "name": "Manatee",
        "reference": "crayola"
      },
      {
        "hex": "#68635f",
        "name": "#68635f",
        "reference": "marekm4"
      },
      {
        "hex": "#696969",
        "name": "dimgrey",
        "reference": "css4"
      },
      {
        "hex": "#6e5160",
        "name": "Eggplant",
        "reference": "crayola"
      }
    ],
    "millsfield:images_texts": [
      "JAL"
    ],
    "millsfield:images_texts_ids": [
      1763441257
    ],
    "millsfield:similar": {
      "apple/mobileclip_s0": [
        {
          "distance": 0.2800586,
          "id": 1763441255
        },
        {
          "distance": 0.57145476,
          "id": 1763379947
        },
        {
          "distance": 0.59496653,
          "id": 1763379949
        },
        {
          "distance": 0.59845275,
          "id": 1897762785
        },
        {
          "distance": 0.60478425,
          "id": 1763381067
        },
        {
          "distance": 0.6149161,
          "id": 1763381063
        },
        {
          "distance": 0.6150183,
          "id": 2048163541
        },
        {
          "distance": 0.6178862,
          "id": 1763380979
        },
        {
          "distance": 0.6255455,
          "id": 2048163535
        },
        {
          "distance": 0.63309944,
          "id": 2048163533
        }
      ],
      "apple/mobileclip_s1": [
        {
          "distance": 0.1762189,
          "id": 1763441255
        },
        {
          "distance": 0.39014813,
          "id": 1763380979
        },
        {
          "distance": 0.3973351,
          "id": 1763379947
        },
        {
          "distance": 0.41407245,
          "id": 1763379949
        },
        {
          "distance": 0.4222568,
          "id": 1763381063
        },
        {
          "distance": 0.42800266,
          "id": 1763381067
        },
        {
          "distance": 0.44469443,
          "id": 2048163535
        },
        {
          "distance": 0.46176037,
          "id": 2048163541
        },
        {
          "distance": 0.46215495,
          "id": 2048163539
        },
        {
          "distance": 0.46714485,
          "id": 2048163537
        }
      ],
      "apple/mobileclip_s2": [
        {
          "distance": 0.30481496,
          "id": 1763441255
        },
        {
          "distance": 0.55946416,
          "id": 1763379947
        },
        {
          "distance": 0.57477266,
          "id": 1763379949
        },
        {
          "distance": 0.5974043,
          "id": 1763381067
        },
        {
          "distance": 0.6015622,
          "id": 1763380979
        },
        {
          "distance": 0.61131203,
          "id": 1763381063
        },
        {
          "distance": 0.66285866,
          "id": 1897762809
        },
        {
          "distance": 0.6750904,
          "id": 2048163535
        },
        {
          "distance": 0.6765196,
          "id": 1897762785
        },
        {
          "distance": 0.68558496,
          "id": 2048163541
        }
      ]
    },
    "millsfield:subcategory_id": 1511213429,
    "mz:is_current": 1,
    "sfomuseum:filename": "118320.jpg",
    "sfomuseum:image_id": 118320,
    "sfomuseum:image_index": 5,
    "sfomuseum:image_type": "studio",
    "sfomuseum:object_id": 102221,
    "sfomuseum:placetype": "image",
    "sfomuseum:primary_image": 0,
    "src:geom": "sfomuseum",
    "wof:belongsto": [
      102527513,
      1159162825,
      102191575,
      85633793,
      102087579,
      85922583,
      1763300173,
      85688637,
      1159160869
    ],
    "wof:country": "XY",
    "wof:created": 1649404061,
    "wof:depicts": [
      1763300173,
      1159284563,
      1159288585
    ],
    "wof:geomhash": "ed7c2ab3547fc3916b5edc33488deaa7",
    "wof:hierarchy": [
      {
        "building_id": -1,
        "campus_id": 102527513,
        "collection_id": 1159162825,
        "concourse_id": 1159162825,
        "continent_id": 102191575,
        "country_id": 85633793,
        "county_id": 102087579,
        "custom_id": 1763441257,
        "image_id": 1763441257,
        "locality_id": 85922583,
        "neighbourhood_id": -1,
        "object_id": 1763300173,
        "region_id": 85688637,
        "wing_id": 1159160869
      }
    ],
    "wof:id": 1763441257,
    "wof:lastmodified": 1788451138,
    "wof:name": "lint remover: Japan Airlines",
    "wof:parent_id": 1763300173,
    "wof:placetype": "custom",
    "wof:placetype_alt": [
      "image"
    ],
    "wof:repo": "sfomuseum-data-media-collection",
    "wof:superseded_by": [],
    "wof:supersedes": []
  },
  "bbox": [
    -122.386472,
    37.616105,
    -122.385834,
    37.616611
  ],
  "geometry": {"type":"Polygon","coordinates":[[[-122.386472,37.616318],[-122.386435,37.616233],[-122.386376,37.616178],[-122.386301,37.616131],[-122.386161,37.616105],[-122.386022,37.616131],[-122.385914,37.616186],[-122.385855,37.616267],[-122.385834,37.616369],[-122.385871,37.616467],[-122.385941,37.616543],[-122.386054,37.616603],[-122.386183,37.616611],[-122.386306,37.616573],[-122.386419,37.616509],[-122.386467,37.616411],[-122.386472,37.616318]]]}
}
