{
  "id": 1527832469,
  "type": "Feature",
  "properties": {
    "date:cessation_lower": "1935-04-16",
    "date:cessation_upper": "1935-04-16",
    "date:inception_lower": "1935-04-16",
    "date:inception_upper": "1935-04-16",
    "edtf:cessation": "1935-04-16",
    "edtf:date": "1935-04-16",
    "edtf:inception": "1935-04-16",
    "geom:area": 0,
    "geom:bbox": "-122.386155,37.616358,-122.386155,37.616358",
    "geom:latitude": 37.616358,
    "geom:longitude": -122.386155,
    "iso:country": "XX",
    "media:fingerprint": "c6d36de1eff1644718b3d82ff0e5053fd82213d3",
    "media:imagehash_avg": "a:9f81e8f8f898989f",
    "media:imagehash_diff": "d:2d2d519331713171",
    "media:imagetext": "VIA AIR MAIL\nAPRIT\n9AM\nHAWP\n6\nGRAVES\n1935\nAPR 16\n2 PM\nFERRY ANNE\nPAN ANTERICAN CLIPPER\nMR. J. W. SMITH\n728 - 17th AVENUE\nHONOLULU, HAWAII\nFIRST\nFLIGHT\nCALIFORNIA HAWAN\nPRINTED BY THE\nBUREAU OF ENGRAVING\nDEPARTMENT,\nAND PRINTING\nUNDER AUTHORITY OF\nJAMES A. FARLEY, POSTMASTER GENERAL\nBYRD ANTARCTIC\nEXPEDITION HI\nBYRD ANTARCTIC\nEXPEDITION I\nBYRD ANTARCTIC\nEXPEDITION II\nUS POSTAGE\nCENTS\nBYRD ANTARCTIC\nEXPEDITION II\nSU.S.POSTAGE\nCENTS\n2 DA\nBYRD ANTARCTIC\nEXPEDITION HI\nU.S POSTAGE/\nCENTS\nBYRD ANTARCTIC\nEXPEDITION II:\nU.S.POSTAGE\nCENTS\nU.S.POSTAGE\nCENTS\nU.S.POSTAGE\nCENTS\nNEW YORK, N.Y., FEBRUARY 10-18, 1934\nPLATE NUMBER 21184\nIN COMPLIMENT TO THE\nNATIONAL STAMP EXHIBITION OF 1934",
    "media:imagetext_created": 1787949444,
    "media:imagetext_source": "com.apple.visionkit.VNImageRequestHandler#Version 26.6.2 (Build 25G83)",
    "media:medium": "image",
    "media:mimetype": "image/tiff",
    "media:properties": {
      "sizes": {
        "b": {
          "extension": "jpg",
          "height": 448,
          "mimetype": "image/jpeg",
          "secret": "896jmduQcsjEaNsg1vt58SW7XnKsOV9y",
          "width": 1024
        },
        "c": {
          "extension": "jpg",
          "height": 350,
          "mimetype": "image/jpeg",
          "secret": "896jmduQcsjEaNsg1vt58SW7XnKsOV9y",
          "width": 800
        },
        "dc": {
          "extension": "jpg",
          "height": 350,
          "mimetype": "image/jpeg",
          "secret": "896jmduQcsjEaNsg1vt58SW7XnKsOV9y",
          "width": 800
        },
        "ds": {
          "extension": "jpg",
          "height": 320,
          "mimetype": "image/jpeg",
          "secret": "896jmduQcsjEaNsg1vt58SW7XnKsOV9y",
          "width": 320
        },
        "k": {
          "extension": "jpg",
          "height": 896,
          "mimetype": "image/jpeg",
          "secret": "896jmduQcsjEaNsg1vt58SW7XnKsOV9y",
          "width": 2048
        },
        "n": {
          "extension": "jpg",
          "height": 140,
          "mimetype": "image/jpeg",
          "secret": "896jmduQcsjEaNsg1vt58SW7XnKsOV9y",
          "width": 320
        },
        "o": {
          "extension": "jpg",
          "height": 1248,
          "mimetype": "image/jpeg",
          "secret": "trsdIqL3ZqcWtlTH2qcEdjiwlg7vqg63",
          "width": 2852
        },
        "s": {
          "extension": "jpg",
          "height": 320,
          "mimetype": "image/jpeg",
          "secret": "896jmduQcsjEaNsg1vt58SW7XnKsOV9y",
          "width": 320
        },
        "z": {
          "extension": "jpg",
          "height": 280,
          "mimetype": "image/jpeg",
          "secret": "896jmduQcsjEaNsg1vt58SW7XnKsOV9y",
          "width": 640
        }
      }
    },
    "media:source": "sfomuseum",
    "media:status_id": 1,
    "media:uri_template": "https://static.sfomuseum.org/media/152/783/246/9/1527832469_{secret}_{label}.{extension}",
    "millsfield:aircraft_id": [
      1159291669
    ],
    "millsfield:airline_id": [
      1159284991
    ],
    "millsfield:category_id": 1511214215,
    "millsfield:collection_id": 1511214207,
    "millsfield:company_id": [
      1159293917
    ],
    "millsfield:images_colors": [
      {
        "hex": "#cab78d",
        "name": "#cab78d",
        "reference": "marekm4"
      },
      {
        "hex": "#d2b48c",
        "name": "tan",
        "reference": "css4"
      },
      {
        "hex": "#deaa88",
        "name": "Tumbleweed",
        "reference": "crayola"
      },
      {
        "hex": "#c4a773",
        "name": "#c4a773",
        "reference": "marekm4"
      },
      {
        "hex": "#bdb76b",
        "name": "darkkhaki",
        "reference": "css4"
      },
      {
        "hex": "#cd9575",
        "name": "Antique Brass",
        "reference": "crayola"
      },
      {
        "hex": "#373943",
        "name": "#373943",
        "reference": "marekm4"
      },
      {
        "hex": "#2f4f4f",
        "name": "darkslategrey",
        "reference": "css4"
      },
      {
        "hex": "#414a4c",
        "name": "Outer Space",
        "reference": "crayola"
      },
      {
        "hex": "#a05347",
        "name": "#a05347",
        "reference": "marekm4"
      },
      {
        "hex": "#a0522d",
        "name": "sienna",
        "reference": "css4"
      },
      {
        "hex": "#a5694f",
        "name": "Sepia",
        "reference": "crayola"
      }
    ],
    "millsfield:images_texts": [
      "VIA AIR MAIL\nAPRIT\n9AM\nHAWP\n6\nGRAVES\n1935\nAPR 16\n2 PM\nFERRY ANNE\nPAN ANTERICAN CLIPPER\nMR. J. W. SMITH\n728 - 17th AVENUE\nHONOLULU, HAWAII\nFIRST\nFLIGHT\nCALIFORNIA HAWAN\nPRINTED BY THE\nBUREAU OF ENGRAVING\nDEPARTMENT,\nAND PRINTING\nUNDER AUTHORITY OF\nJAMES A. FARLEY, POSTMASTER GENERAL\nBYRD ANTARCTIC\nEXPEDITION HI\nBYRD ANTARCTIC\nEXPEDITION I\nBYRD ANTARCTIC\nEXPEDITION II\nUS POSTAGE\nCENTS\nBYRD ANTARCTIC\nEXPEDITION II\nSU.S.POSTAGE\nCENTS\n2 DA\nBYRD ANTARCTIC\nEXPEDITION HI\nU.S POSTAGE/\nCENTS\nBYRD ANTARCTIC\nEXPEDITION II:\nU.S.POSTAGE\nCENTS\nU.S.POSTAGE\nCENTS\nU.S.POSTAGE\nCENTS\nNEW YORK, N.Y., FEBRUARY 10-18, 1934\nPLATE NUMBER 21184\nIN COMPLIMENT TO THE\nNATIONAL STAMP EXHIBITION OF 1934",
      "2601\nTO 1230A\n87.50/$35-\nAMED\nAPR 16\n3\nPM\n1935\nCALIE\n2. 146+754"
    ],
    "millsfield:images_texts_ids": [
      1527832469,
      1527832471
    ],
    "millsfield:similar": {
      "apple/mobileclip_s0": [
        {
          "distance": 0.5020596,
          "id": 1527852619
        },
        {
          "distance": 0.52823067,
          "id": 1527820409
        },
        {
          "distance": 0.53492504,
          "id": 1527856543
        },
        {
          "distance": 0.5360341,
          "id": 1527829337
        },
        {
          "distance": 0.54802936,
          "id": 1527830103
        },
        {
          "distance": 0.55969626,
          "id": 1527853033
        },
        {
          "distance": 0.56085217,
          "id": 1527820017
        },
        {
          "distance": 0.5628626,
          "id": 1527833715
        },
        {
          "distance": 0.57078654,
          "id": 1527830077
        },
        {
          "distance": 0.5725783,
          "id": 1527833815
        }
      ],
      "apple/mobileclip_s1": [
        {
          "distance": 0.29453537,
          "id": 1527833715
        },
        {
          "distance": 0.30447474,
          "id": 1527829445
        },
        {
          "distance": 0.32261288,
          "id": 1527829437
        },
        {
          "distance": 0.3285531,
          "id": 1527834183
        },
        {
          "distance": 0.3367359,
          "id": 1527834945
        },
        {
          "distance": 0.35291052,
          "id": 1527852619
        },
        {
          "distance": 0.36197656,
          "id": 1527833847
        },
        {
          "distance": 0.36317047,
          "id": 1527829489
        },
        {
          "distance": 0.3641242,
          "id": 1527829481
        },
        {
          "distance": 0.36420843,
          "id": 1527829355
        }
      ],
      "apple/mobileclip_s2": [
        {
          "distance": 0.48770696,
          "id": 1527853807
        },
        {
          "distance": 0.4935978,
          "id": 1527829673
        },
        {
          "distance": 0.5018597,
          "id": 1527829437
        },
        {
          "distance": 0.50811577,
          "id": 1527834121
        },
        {
          "distance": 0.5132327,
          "id": 1527832477
        },
        {
          "distance": 0.5147371,
          "id": 1527829445
        },
        {
          "distance": 0.5162018,
          "id": 1527833815
        },
        {
          "distance": 0.524649,
          "id": 1527831453
        },
        {
          "distance": 0.52626497,
          "id": 1527829669
        },
        {
          "distance": 0.53390217,
          "id": 1527830139
        }
      ]
    },
    "millsfield:subcategory_id": 1511213159,
    "mz:hierarchy_label": 1,
    "mz:is_current": -1,
    "sfomuseum:filename": "62052.tif",
    "sfomuseum:image_id": 62052,
    "sfomuseum:image_index": 5,
    "sfomuseum:image_type": "studio",
    "sfomuseum:object_id": 139118,
    "sfomuseum:placetype": "image",
    "sfomuseum:primary_image": 1,
    "src:geom": "sfomuseum",
    "wof:belongsto": [
      1511214215,
      1511953503,
      102527513,
      102191575,
      85633793,
      1511213159,
      85922583,
      102087579,
      1511214277,
      1511214203,
      85688637
    ],
    "wof:breaches": [],
    "wof:country": "XX",
    "wof:created": 1578951311,
    "wof:depicts": [
      1159284991,
      1159291669,
      1159293917,
      1511953503,
      1159286839
    ],
    "wof:geomhash": "bd906905ce4be6c0651c90b0fc24804c",
    "wof:hierarchy": [
      {
        "arcade_id": 1511213159,
        "building_id": 1511214277,
        "campus_id": 102527513,
        "concourse_id": 1511214215,
        "continent_id": 102191575,
        "country_id": 85633793,
        "county_id": 102087579,
        "custom_id": 1527832469,
        "image_id": 1527832469,
        "locality_id": 85922583,
        "media_id": 1527832469,
        "neighbourhood_id": -1,
        "region_id": 85688637,
        "venue_id": 1511953503,
        "wing_id": 1511214203
      }
    ],
    "wof:id": 1527832469,
    "wof:lastmodified": 1788449892,
    "wof:name": "airmail flight cover: Pan American Airways, first Pacific survey flight, California - Hawaii route",
    "wof:parent_id": 1511953503,
    "wof:placetype": "custom",
    "wof:placetype_alt": [
      "image"
    ],
    "wof:repo": "sfomuseum-data-media-collection",
    "wof:superseded_by": [],
    "wof:supersedes": [],
    "wof:tags": []
  },
  "bbox": [
    -122.386155,
    37.616358,
    -122.386155,
    37.616358
  ],
  "geometry": {"type":"Point","coordinates":[-122.386155,37.616358]}
}
