{
  "id": 1527821887,
  "type": "Feature",
  "properties": {
    "date:cessation_lower": "1951-01-01",
    "date:cessation_upper": "1951-12-31",
    "date:inception_lower": "1951-01-01",
    "date:inception_upper": "1951-12-31",
    "edtf:cessation": "1951",
    "edtf:date": "1951",
    "edtf:inception": "1951",
    "geom:area": 0,
    "geom:bbox": "-122.386155,37.616358,-122.386155,37.616358",
    "geom:latitude": 37.616358,
    "geom:longitude": -122.386155,
    "iso:country": "US",
    "media:fingerprint": "12dd834e73742858489c153b0cf5a6c0e8ead633",
    "media:imagehash_avg": "a:ffff7f7f01000000",
    "media:imagehash_diff": "d:f0f8e7e737363537",
    "media:medium": "image",
    "media:mimetype": "image/tiff",
    "media:properties": {
      "sizes": {
        "b": {
          "extension": "jpg",
          "height": 768,
          "mimetype": "image/jpeg",
          "secret": "5QkPm6nhNK4zCOGwn0WEYfiURuroEKHe",
          "width": 981
        },
        "c": {
          "extension": "jpg",
          "height": 600,
          "mimetype": "image/jpeg",
          "secret": "5QkPm6nhNK4zCOGwn0WEYfiURuroEKHe",
          "width": 767
        },
        "dc": {
          "extension": "jpg",
          "height": 600,
          "mimetype": "image/jpeg",
          "secret": "5QkPm6nhNK4zCOGwn0WEYfiURuroEKHe",
          "width": 767
        },
        "ds": {
          "extension": "jpg",
          "height": 320,
          "mimetype": "image/jpeg",
          "secret": "5QkPm6nhNK4zCOGwn0WEYfiURuroEKHe",
          "width": 320
        },
        "k": {
          "extension": "jpg",
          "height": 1536,
          "mimetype": "image/jpeg",
          "secret": "5QkPm6nhNK4zCOGwn0WEYfiURuroEKHe",
          "width": 1963
        },
        "n": {
          "extension": "jpg",
          "height": 240,
          "mimetype": "image/jpeg",
          "secret": "5QkPm6nhNK4zCOGwn0WEYfiURuroEKHe",
          "width": 306
        },
        "o": {
          "extension": "jpg",
          "height": 2154,
          "mimetype": "image/jpeg",
          "secret": "WEsLuD20q5uvnkwkLR1QAVo6EZHfNZ8X",
          "width": 2754
        },
        "s": {
          "extension": "jpg",
          "height": 320,
          "mimetype": "image/jpeg",
          "secret": "5QkPm6nhNK4zCOGwn0WEYfiURuroEKHe",
          "width": 320
        },
        "z": {
          "extension": "jpg",
          "height": 480,
          "mimetype": "image/jpeg",
          "secret": "5QkPm6nhNK4zCOGwn0WEYfiURuroEKHe",
          "width": 613
        }
      }
    },
    "media:source": "sfomuseum",
    "media:status_id": 1,
    "media:uri_template": "https://static.sfomuseum.org/media/152/782/188/7/1527821887_{secret}_{label}.{extension}",
    "millsfield:airport_id": [
      102527513,
      1360695655
    ],
    "millsfield:category_id": 1511214209,
    "millsfield:collection_id": 1511214207,
    "millsfield:images_colors": [
      {
        "hex": "#b8b8b8",
        "name": "#b8b8b8",
        "reference": "marekm4"
      },
      {
        "hex": "#c0c0c0",
        "name": "silver",
        "reference": "css4"
      },
      {
        "hex": "#b0b7c6",
        "name": "Cadet Blue",
        "reference": "crayola"
      },
      {
        "hex": "#444444",
        "name": "#444444",
        "reference": "marekm4"
      },
      {
        "hex": "#2f4f4f",
        "name": "darkslategrey",
        "reference": "css4"
      },
      {
        "hex": "#414a4c",
        "name": "Outer Space",
        "reference": "crayola"
      }
    ],
    "millsfield:similar": {
      "apple/mobileclip_s0": [
        {
          "distance": 0.55173135,
          "id": 1527821873
        },
        {
          "distance": 0.5680355,
          "id": 1527825289
        },
        {
          "distance": 0.5730252,
          "id": 1527827233
        },
        {
          "distance": 0.57559043,
          "id": 1527825291
        },
        {
          "distance": 0.58278185,
          "id": 1527825305
        },
        {
          "distance": 0.59435534,
          "id": 1527827227
        },
        {
          "distance": 0.5944798,
          "id": 1527828023
        },
        {
          "distance": 0.60080385,
          "id": 1527824243
        },
        {
          "distance": 0.601853,
          "id": 1527827997
        },
        {
          "distance": 0.60586697,
          "id": 1527821905
        }
      ],
      "apple/mobileclip_s1": [
        {
          "distance": 0.44207513,
          "id": 1527850977
        },
        {
          "distance": 0.45935473,
          "id": 1527831651
        },
        {
          "distance": 0.4646631,
          "id": 1527831649
        },
        {
          "distance": 0.4695067,
          "id": 1527827411
        },
        {
          "distance": 0.47506845,
          "id": 1527821635
        },
        {
          "distance": 0.482957,
          "id": 1527822571
        },
        {
          "distance": 0.48547196,
          "id": 1527850995
        },
        {
          "distance": 0.49351427,
          "id": 1527827999
        },
        {
          "distance": 0.49638155,
          "id": 1527827105
        },
        {
          "distance": 0.49684006,
          "id": 1527828029
        }
      ],
      "apple/mobileclip_s2": [
        {
          "distance": 0.5943276,
          "id": 1527827999
        },
        {
          "distance": 0.6048555,
          "id": 1527821895
        },
        {
          "distance": 0.61652637,
          "id": 1527827411
        },
        {
          "distance": 0.6168465,
          "id": 1527821637
        },
        {
          "distance": 0.6182611,
          "id": 1527825291
        },
        {
          "distance": 0.62008834,
          "id": 1527828041
        },
        {
          "distance": 0.62031525,
          "id": 1527825305
        },
        {
          "distance": 0.62713087,
          "id": 1527821635
        },
        {
          "distance": 0.6302166,
          "id": 1527827143
        },
        {
          "distance": 0.6303786,
          "id": 1527825309
        }
      ]
    },
    "millsfield:subcategory_id": 1511213801,
    "mz:hierarchy_label": 1,
    "mz:is_current": -1,
    "sfomuseum:filename": "39977.tif",
    "sfomuseum:image_id": 39977,
    "sfomuseum:image_index": 5,
    "sfomuseum:image_type": "studio",
    "sfomuseum:object_id": 114246,
    "sfomuseum:placetype": "image",
    "sfomuseum:primary_image": 1,
    "src:geom": "sfomuseum",
    "wof:belongsto": [
      1511214209,
      1511943807,
      102527513,
      102191575,
      85633793,
      1511213801,
      85922583,
      102087579,
      1511214277,
      1511214203,
      85688637
    ],
    "wof:breaches": [],
    "wof:country": "US",
    "wof:created": 1578949649,
    "wof:depicts": [
      1511943807,
      102527513,
      1360695655
    ],
    "wof:geomhash": "bd906905ce4be6c0651c90b0fc24804c",
    "wof:hierarchy": [
      {
        "arcade_id": 1511213801,
        "building_id": 1511214277,
        "campus_id": 102527513,
        "concourse_id": 1511214209,
        "continent_id": 102191575,
        "country_id": 85633793,
        "county_id": 102087579,
        "custom_id": 1527821887,
        "image_id": 1527821887,
        "locality_id": 85922583,
        "media_id": 1527821887,
        "neighbourhood_id": -1,
        "region_id": 85688637,
        "venue_id": 1511943807,
        "wing_id": 1511214203
      }
    ],
    "wof:id": 1527821887,
    "wof:lastmodified": 1788449752,
    "wof:name": "negative: San Francisco Airport, Terminal Building, groundbreaking ceremony",
    "wof:parent_id": 1511943807,
    "wof:placetype": "custom",
    "wof:placetype_alt": [
      "image"
    ],
    "wof:repo": "sfomuseum-data-media-collection",
    "wof:superseded_by": [],
    "wof:supersedes": [],
    "wof:tags": []
  },
  "bbox": [
    -122.386155,
    37.616358,
    -122.386155,
    37.616358
  ],
  "geometry": {"type":"Point","coordinates":[-122.386155,37.616358]}
}
