{
  "id": 1527835459,
  "type": "Feature",
  "properties": {
    "date:cessation_lower": "1972-01-01",
    "date:cessation_upper": "1972-12-31",
    "date:inception_lower": "1972-01-01",
    "date:inception_upper": "1972-12-31",
    "edtf:cessation": "1972",
    "edtf:date": "1972",
    "edtf:inception": "1972",
    "geom:area": 0,
    "geom:bbox": "-122.386155,37.616358,-122.386155,37.616358",
    "geom:latitude": 37.616358,
    "geom:longitude": -122.386155,
    "iso:country": "XX",
    "media:fingerprint": "7c2dd5797113c4335989c4997f0704d3c2ef4caa",
    "media:imagehash_avg": "a:ffffa0000e602000",
    "media:imagehash_diff": "d:0e0e45617ecacb01",
    "media:imagetext": "TWA\nSYSTEM TIMETABLE\nEFFECTIVE OCTOBER 29, 1972\nONLY ON TWA.\nCARRY-ON\nLUGGAGE\nCOMPARTMENTS.\nWe put new luggage compartments\non our 727s, L-1011s and nearly every one\nof our Ambassador Express* flights.\n*Service mark owned exclusively by TWA",
    "media:imagetext_created": 1787949884,
    "media:imagetext_source": "com.apple.visionkit.VNImageRequestHandler#Version 26.6.2 (Build 25G83)",
    "media:medium": "image",
    "media:mimetype": "image/tiff",
    "media:properties": {
      "sizes": {
        "b": {
          "extension": "jpg",
          "height": 768,
          "mimetype": "image/jpeg",
          "secret": "5uVAWa3AtGmufEu3lDKtuyhOB01O47KP",
          "width": 350
        },
        "c": {
          "extension": "jpg",
          "height": 600,
          "mimetype": "image/jpeg",
          "secret": "5uVAWa3AtGmufEu3lDKtuyhOB01O47KP",
          "width": 273
        },
        "dc": {
          "extension": "jpg",
          "height": 600,
          "mimetype": "image/jpeg",
          "secret": "5uVAWa3AtGmufEu3lDKtuyhOB01O47KP",
          "width": 273
        },
        "ds": {
          "extension": "jpg",
          "height": 320,
          "mimetype": "image/jpeg",
          "secret": "5uVAWa3AtGmufEu3lDKtuyhOB01O47KP",
          "width": 320
        },
        "k": {
          "extension": "jpg",
          "height": 1536,
          "mimetype": "image/jpeg",
          "secret": "5uVAWa3AtGmufEu3lDKtuyhOB01O47KP",
          "width": 700
        },
        "n": {
          "extension": "jpg",
          "height": 240,
          "mimetype": "image/jpeg",
          "secret": "5uVAWa3AtGmufEu3lDKtuyhOB01O47KP",
          "width": 109
        },
        "o": {
          "extension": "jpg",
          "height": 2727,
          "mimetype": "image/jpeg",
          "secret": "uyjeGTwSOdSrSle0ZuE5ywliUH5zASD5",
          "width": 1243
        },
        "s": {
          "extension": "jpg",
          "height": 320,
          "mimetype": "image/jpeg",
          "secret": "5uVAWa3AtGmufEu3lDKtuyhOB01O47KP",
          "width": 320
        },
        "z": {
          "extension": "jpg",
          "height": 480,
          "mimetype": "image/jpeg",
          "secret": "5uVAWa3AtGmufEu3lDKtuyhOB01O47KP",
          "width": 218
        }
      }
    },
    "media:source": "sfomuseum",
    "media:status_id": 1,
    "media:uri_template": "https://static.sfomuseum.org/media/152/783/545/9/1527835459_{secret}_{label}.{extension}",
    "millsfield:airline_id": [
      1159285393
    ],
    "millsfield:category_id": 1511214223,
    "millsfield:collection_id": 1511214207,
    "millsfield:company_id": [
      1159287531
    ],
    "millsfield:images_colors": [
      {
        "hex": "#e1ddcc",
        "name": "#e1ddcc",
        "reference": "marekm4"
      },
      {
        "hex": "#dcdcdc",
        "name": "gainsboro",
        "reference": "css4"
      },
      {
        "hex": "#dbd7d2",
        "name": "Timberwolf",
        "reference": "crayola"
      },
      {
        "hex": "#bb1f17",
        "name": "#bb1f17",
        "reference": "marekm4"
      },
      {
        "hex": "#b22222",
        "name": "firebrick",
        "reference": "css4"
      },
      {
        "hex": "#9c2542",
        "name": "Big Dip O' Ruby",
        "reference": "crayola"
      },
      {
        "hex": "#3f332a",
        "name": "#3f332a",
        "reference": "marekm4"
      },
      {
        "hex": "#2f4f4f",
        "name": "darkslategrey",
        "reference": "css4"
      },
      {
        "hex": "#414a4c",
        "name": "Outer Space",
        "reference": "crayola"
      },
      {
        "hex": "#bba059",
        "name": "#bba059",
        "reference": "marekm4"
      },
      {
        "hex": "#bdb76b",
        "name": "darkkhaki",
        "reference": "css4"
      },
      {
        "hex": "#bab86c",
        "name": "Olive Green",
        "reference": "crayola"
      }
    ],
    "millsfield:images_texts": [
      "TWA\nSYSTEM TIMETABLE\nEFFECTIVE OCTOBER 29, 1972\nONLY ON TWA.\nCARRY-ON\nLUGGAGE\nCOMPARTMENTS.\nWe put new luggage compartments\non our 727s, L-1011s and nearly every one\nof our Ambassador Express* flights.\n*Service mark owned exclusively by TWA"
    ],
    "millsfield:images_texts_ids": [
      1527835459
    ],
    "millsfield:similar": {
      "apple/mobileclip_s0": [
        {
          "distance": 0.5238208,
          "id": 1746680653
        },
        {
          "distance": 0.66094,
          "id": 1746680673
        },
        {
          "distance": 0.6831698,
          "id": 1762714225
        },
        {
          "distance": 0.6856755,
          "id": 1746680595
        },
        {
          "distance": 0.6873725,
          "id": 1746680485
        },
        {
          "distance": 0.6891144,
          "id": 1527838359
        },
        {
          "distance": 0.6917283,
          "id": 1762714955
        },
        {
          "distance": 0.6951242,
          "id": 1763205323
        },
        {
          "distance": 0.69703746,
          "id": 1527838451
        },
        {
          "distance": 0.6986904,
          "id": 1527836729
        }
      ],
      "apple/mobileclip_s1": [
        {
          "distance": 0.33769745,
          "id": 1746680653
        },
        {
          "distance": 0.45987627,
          "id": 1746680673
        },
        {
          "distance": 0.50055915,
          "id": 1527835463
        },
        {
          "distance": 0.50535786,
          "id": 1729566535
        },
        {
          "distance": 0.5087985,
          "id": 1746680593
        },
        {
          "distance": 0.51849675,
          "id": 1746680595
        },
        {
          "distance": 0.519049,
          "id": 1746680587
        },
        {
          "distance": 0.52154917,
          "id": 1746680579
        },
        {
          "distance": 0.5302892,
          "id": 1527838167
        },
        {
          "distance": 0.53230554,
          "id": 1762714951
        }
      ],
      "apple/mobileclip_s2": [
        {
          "distance": 0.427908,
          "id": 1746680653
        },
        {
          "distance": 0.5616014,
          "id": 1746680673
        },
        {
          "distance": 0.67748547,
          "id": 1527835463
        },
        {
          "distance": 0.67908627,
          "id": 1527838167
        },
        {
          "distance": 0.69855,
          "id": 1762895359
        },
        {
          "distance": 0.70432353,
          "id": 1527835403
        },
        {
          "distance": 0.7095969,
          "id": 1746680487
        },
        {
          "distance": 0.71273667,
          "id": 1729566535
        },
        {
          "distance": 0.71834385,
          "id": 1527836729
        },
        {
          "distance": 0.71966326,
          "id": 1746680567
        }
      ]
    },
    "millsfield:subcategory_id": 1511213425,
    "mz:hierarchy_label": 1,
    "mz:is_current": -1,
    "sfomuseum:filename": "63739.tif",
    "sfomuseum:image_id": 63739,
    "sfomuseum:image_index": 5,
    "sfomuseum:image_type": "studio",
    "sfomuseum:object_id": 121418,
    "sfomuseum:placetype": "image",
    "sfomuseum:primary_image": 1,
    "src:geom": "sfomuseum",
    "wof:belongsto": [
      85688637,
      102527513,
      1511214223,
      102191575,
      85922583,
      1511214277,
      1511950499,
      1511214203,
      85633793,
      1511213425,
      102087579
    ],
    "wof:breaches": [],
    "wof:country": "XX",
    "wof:created": 1578951777,
    "wof:depicts": [
      1511950499,
      1159287531,
      1159285393
    ],
    "wof:geomhash": "bd906905ce4be6c0651c90b0fc24804c",
    "wof:hierarchy": [
      {
        "arcade_id": 1511213425,
        "building_id": 1511214277,
        "campus_id": 102527513,
        "concourse_id": 1511214223,
        "continent_id": 102191575,
        "country_id": 85633793,
        "county_id": 102087579,
        "custom_id": 1527835459,
        "image_id": 1527835459,
        "locality_id": 85922583,
        "media_id": 1527835459,
        "neighbourhood_id": -1,
        "region_id": 85688637,
        "venue_id": 1511950499,
        "wing_id": 1511214203
      }
    ],
    "wof:id": 1527835459,
    "wof:lastmodified": 1788449936,
    "wof:name": "timetable: TWA (Trans World Airlines)",
    "wof:parent_id": 1511950499,
    "wof:placetype": "custom",
    "wof:placetype_alt": [
      "image"
    ],
    "wof:repo": "sfomuseum-data-media-collection",
    "wof:superseded_by": [],
    "wof:supersedes": [],
    "wof:tags": []
  },
  "bbox": [
    -122.386155,
    37.616358,
    -122.386155,
    37.616358
  ],
  "geometry": {"type":"Point","coordinates":[-122.386155,37.616358]}
}
