{
  "id": 1762898707,
  "type": "Feature",
  "properties": {
    "date:cessation_lower": "1950-01-01",
    "date:cessation_upper": "1959-12-31",
    "date:inception_lower": "1950-01-01",
    "date:inception_upper": "1959-12-31",
    "edtf:cessation": "195X",
    "edtf:inception": "195X",
    "geom:area": 2.477324999997507e-7,
    "geom:bbox": "-122.386472,37.616105,-122.385834,37.616611",
    "geom:latitude": 37.61635756125121,
    "geom:longitude": -122.38615532866096,
    "media:fingerprint": "55b417db970018b8de440e06c737ed3bda4eb60f",
    "media:imagehash_avg": "a:e7818100248181e7",
    "media:imagehash_diff": "d:0f337154cc4f170f",
    "media:imagetext": "AERLINTS EIREANN\nIRISH\nAIR LINES",
    "media:imagetext_created": 1787959727,
    "media:imagetext_source": "com.apple.visionkit.VNImageRequestHandler#Version 26.6.2 (Build 25G83)",
    "media:mimetype": "image/tiff",
    "media:properties": {
      "sizes": {
        "b": {
          "extension": "jpg",
          "height": 768,
          "mimetype": "image/jpeg",
          "secret": "yzYpDwY8ajc0YqIM9YJfSBJY1mxiV9W5",
          "width": 763
        },
        "c": {
          "extension": "jpg",
          "height": 600,
          "mimetype": "image/jpeg",
          "secret": "yzYpDwY8ajc0YqIM9YJfSBJY1mxiV9W5",
          "width": 596
        },
        "dc": {
          "extension": "jpg",
          "height": 600,
          "mimetype": "image/jpeg",
          "secret": "yzYpDwY8ajc0YqIM9YJfSBJY1mxiV9W5",
          "width": 596
        },
        "ds": {
          "extension": "jpg",
          "height": 320,
          "mimetype": "image/jpeg",
          "secret": "yzYpDwY8ajc0YqIM9YJfSBJY1mxiV9W5",
          "width": 320
        },
        "k": {
          "extension": "jpg",
          "height": 1536,
          "mimetype": "image/jpeg",
          "secret": "yzYpDwY8ajc0YqIM9YJfSBJY1mxiV9W5",
          "width": 1526
        },
        "n": {
          "extension": "jpg",
          "height": 240,
          "mimetype": "image/jpeg",
          "secret": "yzYpDwY8ajc0YqIM9YJfSBJY1mxiV9W5",
          "width": 238
        },
        "o": {
          "extension": "jpg",
          "height": 1105,
          "mimetype": "image/jpeg",
          "secret": "2GE8VX6ijIDJ1aKj35NQab4rfG0WXVS4",
          "width": 1098
        },
        "s": {
          "extension": "jpg",
          "height": 320,
          "mimetype": "image/jpeg",
          "secret": "yzYpDwY8ajc0YqIM9YJfSBJY1mxiV9W5",
          "width": 320
        },
        "z": {
          "extension": "jpg",
          "height": 480,
          "mimetype": "image/jpeg",
          "secret": "yzYpDwY8ajc0YqIM9YJfSBJY1mxiV9W5",
          "width": 476
        }
      }
    },
    "media:source": "sfomuseum",
    "media:status_id": 1,
    "media:uri_template": "https://static.sfomuseum.org/media/176/289/870/7/1762898707_{secret}_{label}.{extension}",
    "millsfield:airline_id": [
      1159283495
    ],
    "millsfield:category_id": 1763416397,
    "millsfield:collection_id": 1511214207,
    "millsfield:company_id": [
      1159288269
    ],
    "millsfield:images_colors": [
      {
        "hex": "#2f3f1b",
        "name": "#2f3f1b",
        "reference": "marekm4"
      },
      {
        "hex": "#2f4f4f",
        "name": "darkslategrey",
        "reference": "css4"
      },
      {
        "hex": "#414a4c",
        "name": "Outer Space",
        "reference": "crayola"
      },
      {
        "hex": "#eeefed",
        "name": "#eeefed",
        "reference": "marekm4"
      },
      {
        "hex": "#f5f5f5",
        "name": "whitesmoke",
        "reference": "css4"
      },
      {
        "hex": "#fddde6",
        "name": "Piggy Pink",
        "reference": "crayola"
      },
      {
        "hex": "#648332",
        "name": "#648332",
        "reference": "marekm4"
      },
      {
        "hex": "#6b8e23",
        "name": "olivedrab",
        "reference": "css4"
      },
      {
        "hex": "#85754e",
        "name": "Gold Fusion",
        "reference": "crayola"
      },
      {
        "hex": "#bba461",
        "name": "#bba461",
        "reference": "marekm4"
      },
      {
        "hex": "#bdb76b",
        "name": "darkkhaki",
        "reference": "css4"
      },
      {
        "hex": "#bab86c",
        "name": "Olive Green",
        "reference": "crayola"
      }
    ],
    "millsfield:images_texts": [
      "AERLINTS EIREANN\nIRISH\nAIR LINES"
    ],
    "millsfield:images_texts_ids": [
      1762898707
    ],
    "millsfield:similar": {
      "apple/mobileclip_s0": [
        {
          "distance": 0.49997002,
          "id": 1762898709
        },
        {
          "distance": 0.6352228,
          "id": 1762891457
        },
        {
          "distance": 0.6800018,
          "id": 1527854061
        },
        {
          "distance": 0.6878704,
          "id": 1762898717
        },
        {
          "distance": 0.69818354,
          "id": 1762893561
        },
        {
          "distance": 0.71264094,
          "id": 1762898719
        },
        {
          "distance": 0.7302345,
          "id": 1762898711
        },
        {
          "distance": 0.7802956,
          "id": 1762898725
        },
        {
          "distance": 0.82732224,
          "id": 1762702917
        },
        {
          "distance": 0.8662707,
          "id": 1779914815
        }
      ],
      "apple/mobileclip_s1": [
        {
          "distance": 0.3589497,
          "id": 1762898709
        },
        {
          "distance": 0.4148672,
          "id": 1527854061
        },
        {
          "distance": 0.42699403,
          "id": 1762898711
        },
        {
          "distance": 0.44492662,
          "id": 1762891457
        },
        {
          "distance": 0.4682131,
          "id": 1762898719
        },
        {
          "distance": 0.48365825,
          "id": 1762898717
        },
        {
          "distance": 0.48852393,
          "id": 1762893561
        },
        {
          "distance": 0.52791744,
          "id": 1779914815
        },
        {
          "distance": 0.53271085,
          "id": 1779914821
        },
        {
          "distance": 0.5503766,
          "id": 1931110239
        }
      ],
      "apple/mobileclip_s2": [
        {
          "distance": 0.4693648,
          "id": 1762898709
        },
        {
          "distance": 0.6089755,
          "id": 1527854061
        },
        {
          "distance": 0.62363374,
          "id": 1762898719
        },
        {
          "distance": 0.6251713,
          "id": 1762898711
        },
        {
          "distance": 0.62704813,
          "id": 1762898717
        },
        {
          "distance": 0.6683036,
          "id": 1762891457
        },
        {
          "distance": 0.69064194,
          "id": 1762893561
        },
        {
          "distance": 0.7525512,
          "id": 1762898725
        },
        {
          "distance": 0.85357314,
          "id": 1762702925
        },
        {
          "distance": 0.85778636,
          "id": 1763249251
        }
      ]
    },
    "millsfield:subcategory_id": 1511213315,
    "mz:is_current": 1,
    "sfomuseum:filename": "2015.168.009.tif",
    "sfomuseum:image_id": 194099,
    "sfomuseum:image_index": 5,
    "sfomuseum:image_type": "studio",
    "sfomuseum:object_id": 175569,
    "sfomuseum:placetype": "image",
    "sfomuseum:primary_image": 1,
    "src:geom": "sfomuseum",
    "wof:belongsto": [
      102527513,
      1159162825,
      102191575,
      85633793,
      102087579,
      85922583,
      1762887405,
      85688637,
      1159160869
    ],
    "wof:country": "XY",
    "wof:created": 1643415609,
    "wof:depicts": [
      1762887405,
      1159283495,
      1159288269
    ],
    "wof:geomhash": "ed7c2ab3547fc3916b5edc33488deaa7",
    "wof:hierarchy": [
      {
        "building_id": -1,
        "campus_id": 102527513,
        "collection_id": 1159162825,
        "concourse_id": 1159162825,
        "continent_id": 102191575,
        "country_id": 85633793,
        "county_id": 102087579,
        "custom_id": 1762898707,
        "image_id": 1762898707,
        "locality_id": 85922583,
        "neighbourhood_id": -1,
        "object_id": 1762887405,
        "region_id": 85688637,
        "wing_id": 1159160869
      }
    ],
    "wof:id": 1762898707,
    "wof:lastmodified": 1788450836,
    "wof:name": "luggage label: Aer Lingus",
    "wof:parent_id": 1762887405,
    "wof:placetype": "custom",
    "wof:placetype_alt": [
      "image"
    ],
    "wof:repo": "sfomuseum-data-media-collection",
    "wof:superseded_by": [],
    "wof:supersedes": []
  },
  "bbox": [
    -122.386472,
    37.616105,
    -122.385834,
    37.616611
  ],
  "geometry": {"type":"Polygon","coordinates":[[[-122.386472,37.616318],[-122.386435,37.616233],[-122.386376,37.616178],[-122.386301,37.616131],[-122.386161,37.616105],[-122.386022,37.616131],[-122.385914,37.616186],[-122.385855,37.616267],[-122.385834,37.616369],[-122.385871,37.616467],[-122.385941,37.616543],[-122.386054,37.616603],[-122.386183,37.616611],[-122.386306,37.616573],[-122.386419,37.616509],[-122.386467,37.616411],[-122.386472,37.616318]]]}
}
