{
  "id": 1746682491,
  "type": "Feature",
  "properties": {
    "date:cessation_lower": "2000-01-01",
    "date:cessation_upper": "2000-12-31",
    "date:inception_lower": "2000-01-01",
    "date:inception_upper": "2000-12-31",
    "edtf:cessation": "2000~",
    "edtf:inception": "2000~",
    "geom:area": 2.477324999997507e-7,
    "geom:bbox": "-122.386472,37.616105,-122.385834,37.616611",
    "geom:latitude": 37.61635756125121,
    "geom:longitude": -122.38615532866096,
    "media:fingerprint": "b32382ef2fd41e1ad8429940d9a9352579e7a4d0",
    "media:imagehash_avg": "a:ffc381c3c3c3e7ff",
    "media:imagehash_diff": "d:ce0f0f170f0f0f0f",
    "media:mimetype": "image/jpeg",
    "media:properties": {
      "sizes": {
        "b": {
          "extension": "jpg",
          "height": 768,
          "mimetype": "image/jpeg",
          "secret": "S2Tn0P042Xt6kAfD6CELZwx73mW3zIYN",
          "width": 847
        },
        "c": {
          "extension": "jpg",
          "height": 600,
          "mimetype": "image/jpeg",
          "secret": "S2Tn0P042Xt6kAfD6CELZwx73mW3zIYN",
          "width": 661
        },
        "dc": {
          "extension": "jpg",
          "height": 600,
          "mimetype": "image/jpeg",
          "secret": "S2Tn0P042Xt6kAfD6CELZwx73mW3zIYN",
          "width": 661
        },
        "ds": {
          "extension": "jpg",
          "height": 320,
          "mimetype": "image/jpeg",
          "secret": "S2Tn0P042Xt6kAfD6CELZwx73mW3zIYN",
          "width": 320
        },
        "k": {
          "extension": "jpg",
          "height": 1536,
          "mimetype": "image/jpeg",
          "secret": "S2Tn0P042Xt6kAfD6CELZwx73mW3zIYN",
          "width": 1694
        },
        "n": {
          "extension": "jpg",
          "height": 240,
          "mimetype": "image/jpeg",
          "secret": "S2Tn0P042Xt6kAfD6CELZwx73mW3zIYN",
          "width": 264
        },
        "o": {
          "extension": "jpg",
          "height": 844,
          "mimetype": "image/jpeg",
          "secret": "VeTECqsAb34X2gNdfchAOpqOMaRQaQtD",
          "width": 931
        },
        "s": {
          "extension": "jpg",
          "height": 320,
          "mimetype": "image/jpeg",
          "secret": "S2Tn0P042Xt6kAfD6CELZwx73mW3zIYN",
          "width": 320
        },
        "z": {
          "extension": "jpg",
          "height": 480,
          "mimetype": "image/jpeg",
          "secret": "S2Tn0P042Xt6kAfD6CELZwx73mW3zIYN",
          "width": 529
        }
      }
    },
    "media:source": "sfomuseum",
    "media:status_id": 1,
    "media:uri_template": "https://static.sfomuseum.org/media/174/668/249/1/1746682491_{secret}_{label}.{extension}",
    "millsfield:airline_id": [
      1159285413
    ],
    "millsfield:category_id": 1746152551,
    "millsfield:collection_id": 1511214203,
    "millsfield:company_id": [
      1159288779
    ],
    "millsfield:images_colors": [
      {
        "hex": "#b6b8b7",
        "name": "#b6b8b7",
        "reference": "marekm4"
      },
      {
        "hex": "#c0c0c0",
        "name": "silver",
        "reference": "css4"
      },
      {
        "hex": "#b0b7c6",
        "name": "Cadet Blue",
        "reference": "crayola"
      },
      {
        "hex": "#312f2e",
        "name": "#312f2e",
        "reference": "marekm4"
      },
      {
        "hex": "#2f4f4f",
        "name": "darkslategrey",
        "reference": "css4"
      },
      {
        "hex": "#414a4c",
        "name": "Outer Space",
        "reference": "crayola"
      }
    ],
    "millsfield:similar": {
      "apple/mobileclip_s0": [
        {
          "distance": 0.25898433,
          "id": 1746682465
        },
        {
          "distance": 0.3217157,
          "id": 1931132003
        },
        {
          "distance": 0.3815584,
          "id": 1779984499
        },
        {
          "distance": 0.42617288,
          "id": 2015174399
        },
        {
          "distance": 0.4299014,
          "id": 1796805245
        },
        {
          "distance": 0.46493793,
          "id": 1779984345
        },
        {
          "distance": 0.4781599,
          "id": 1780047917
        },
        {
          "distance": 0.48207855,
          "id": 1780047919
        },
        {
          "distance": 0.48412988,
          "id": 1763110663
        },
        {
          "distance": 0.48561332,
          "id": 1964167465
        }
      ],
      "apple/mobileclip_s1": [
        {
          "distance": 0.21750434,
          "id": 1746682465
        },
        {
          "distance": 0.29459634,
          "id": 1779984499
        },
        {
          "distance": 0.33371595,
          "id": 1931132003
        },
        {
          "distance": 0.35584307,
          "id": 1796805245
        },
        {
          "distance": 0.39368778,
          "id": 1964167465
        },
        {
          "distance": 0.40546584,
          "id": 2015174399
        },
        {
          "distance": 0.4276648,
          "id": 1780047917
        },
        {
          "distance": 0.44088274,
          "id": 1780047919
        },
        {
          "distance": 0.44694015,
          "id": 1779984345
        },
        {
          "distance": 0.45277703,
          "id": 1913872361
        }
      ],
      "apple/mobileclip_s2": [
        {
          "distance": 0.19342373,
          "id": 1746682465
        },
        {
          "distance": 0.4184084,
          "id": 1779984499
        },
        {
          "distance": 0.42762175,
          "id": 1931132003
        },
        {
          "distance": 0.48669213,
          "id": 1964167465
        },
        {
          "distance": 0.51143396,
          "id": 1796805245
        },
        {
          "distance": 0.53617007,
          "id": 2015174399
        },
        {
          "distance": 0.55147684,
          "id": 1913872361
        },
        {
          "distance": 0.55660105,
          "id": 1780279711
        },
        {
          "distance": 0.5595209,
          "id": 1931123325
        },
        {
          "distance": 0.5595494,
          "id": 2015352399
        }
      ]
    },
    "millsfield:subcategory_id": 1746152563,
    "mz:is_current": 1,
    "sfomuseum:filename": "94C8F35E-32B4-453D-9975-9D5C8C512386_1_105_c.jpeg",
    "sfomuseum:image_id": 228441,
    "sfomuseum:image_index": 0,
    "sfomuseum:image_type": "studio",
    "sfomuseum:object_id": 220484,
    "sfomuseum:placetype": "image",
    "sfomuseum:primary_image": 1,
    "src:geom": "sfomuseum",
    "wof:belongsto": [
      102527513,
      1159162825,
      102191575,
      85633793,
      102087579,
      85922583,
      1746271357,
      85688637,
      1159160869
    ],
    "wof:country": "XY",
    "wof:created": 1637706797,
    "wof:depicts": [
      1159285413,
      1746271357,
      1159288779
    ],
    "wof:geomhash": "ed7c2ab3547fc3916b5edc33488deaa7",
    "wof:hierarchy": [
      {
        "building_id": -1,
        "campus_id": 102527513,
        "collection_id": 1159162825,
        "concourse_id": 1159162825,
        "continent_id": 102191575,
        "country_id": 85633793,
        "county_id": 102087579,
        "custom_id": 1746682491,
        "image_id": 1746682491,
        "locality_id": 85922583,
        "neighbourhood_id": -1,
        "object_id": 1746271357,
        "region_id": 85688637,
        "wing_id": 1159160869
      }
    ],
    "wof:id": 1746682491,
    "wof:lastmodified": 1788450362,
    "wof:name": "condiment bowl: United Airlines",
    "wof:parent_id": 1746271357,
    "wof:placetype": "custom",
    "wof:placetype_alt": [
      "image"
    ],
    "wof:repo": "sfomuseum-data-media-collection",
    "wof:superseded_by": [],
    "wof:supersedes": []
  },
  "bbox": [
    -122.386472,
    37.616105,
    -122.385834,
    37.616611
  ],
  "geometry": {"type":"Polygon","coordinates":[[[-122.386472,37.616318],[-122.386435,37.616233],[-122.386376,37.616178],[-122.386301,37.616131],[-122.386161,37.616105],[-122.386022,37.616131],[-122.385914,37.616186],[-122.385855,37.616267],[-122.385834,37.616369],[-122.385871,37.616467],[-122.385941,37.616543],[-122.386054,37.616603],[-122.386183,37.616611],[-122.386306,37.616573],[-122.386419,37.616509],[-122.386467,37.616411],[-122.386472,37.616318]]]}
}
