{
  "id": 1527851091,
  "type": "Feature",
  "properties": {
    "date:cessation_lower": "1936-01-01",
    "date:cessation_upper": "1936-12-31",
    "date:inception_lower": "1936-01-01",
    "date:inception_upper": "1936-12-31",
    "edtf:cessation": "1936",
    "edtf:date": "1936",
    "edtf:inception": "1936",
    "geom:area": 0,
    "geom:bbox": "-122.386155,37.616358,-122.386155,37.616358",
    "geom:latitude": 37.616358,
    "geom:longitude": -122.386155,
    "iso:country": "US",
    "media:fingerprint": "f581f3e10468d181c0a2dcb7175262a82dc616ee",
    "media:imagehash_avg": "a:003a3c1c1c1bffc1",
    "media:imagehash_diff": "d:65727070f9eb4919",
    "media:imagetext": "TO ALASKA\nVANCOUVER\nCANADA\nTO THE\nORIENT\nTO THE\nGRIENT\nUNITED AIR LINES\nCoast-to-Coast Overnight via Uniteds Main Line Mid-Continent Airway\nSEATTLE\nTACOMA\nPORTLAND\nSPOKANE\nRainier\nGREAT FALLS\n•PASCO\n• PENDLETON\nOGRAND FORKS\nPORTLANG\nlowstone\nMEDFORD\nCrater Lake\nHOWSTONE\nBOISE\nST. PAUL\nMINNEAPOLIS\nBOSTON\n• TO EUROPE\nSACRAMENTO\nVALS\nCATELLO\nSALT LAKE\nGrand\nTeton\nDude\nRanches\nCASTER\nCHEYENNE\n1O HAWAII\nTHE GRIENT\nSAN\nFRANCISCO\nFRESNO •\nYosemite\nELKO\nRocky\n•DENVER\nGen. Grant\nMountain\n•Sequoia\nZion /B\nCOLORADOSPRINGS\nBryce\nVELAS VEGAS\nBoulder Dam\nTO HAWAII\nBAK ERSFIED •\nGrand\nTHE ORIENT\nCanyon\nSANTA PEC\nLOS ANGELES\nWINSLOW ALBUQUERQUE\nSAN DIEGO\n\u003e PHOENIX\nBlack\nHills\nHURON O\nSIOUX FALLS\nSIOUX CITY\nOMAHA\nST. JOSEPH\nKANSAS CITY O\nMILWAUKEE\nMADISON\nDES\nMOINES CITY\nMOLIN-\nPEORI\nST. LOUIS\nCHL\nCAGO\nCARO\nELAND\nTOLEDO\nCOLUMBUS\nPITTSBURGH\nHUNTINGTON\nINCINNATI\nBALTIMOR\nNEW YORK\nPHILADELPHIA\nCAMDEN\nWASHINGTON\nWICHITA FALLS C\nMEXICO\nBIGSPRING\nWICHITA\nPONCA CITYS\nWORTH\nCORT\nMACOU\nSPRINGFIELD\n20\nEVANSVILLE\nNASHVILLE\nCHATTANOU\nGREENSBOROI\nCHARLOTTE C\nLORENCE\nJOKLAHOMA CITY\nLITTLE ROC\nTEXARKA\nCOKEENWOOE\nBIRMINGHAM U\nMACON\nOMERIDIAN\nIACKSON\nMONTGOMERY\nCHARLESTON\nTo Mexico Cay 1\nBEAUMONTO\nLAKE CHARLES O\nBATON ROUGEO\nHOUSTON\nNEW OKLEANS\nGALVESTON\nTo Merico City, Central and South Ame\nUNITED AIR LINES\nConnecting Air Lines\n* Rail Lines •..... Highways\n• National Parks\nST. PETERSBURG\nNASSAT\nTo Cuba, Central and South America\n• See how United's Mid-Continent airway goes arrow-straight from the East to Salt Lake City where lines radiate to every Pacific\nCoast city of 100,000 population. If you fly United you can visit Pacific Coast cities with a minimum of time and fare because of\nUnited's \"Optional\" and \"Circle\" Routings. Easterners can visit both SAN FRANCISCO and LOS ANGELES at no extra fare.\nINITED'S Main Line\nMID CONTINENT AIRWAY",
    "media:imagetext_created": 1787953134,
    "media:imagetext_source": "com.apple.visionkit.VNImageRequestHandler#Version 26.6.2 (Build 25G83)",
    "media:medium": "image",
    "media:mimetype": "image/tiff",
    "media:properties": {
      "sizes": {
        "b": {
          "extension": "jpg",
          "height": 768,
          "mimetype": "image/jpeg",
          "secret": "li0Aa3Jft6MpTXsid8m5r2VYXvpEALIt",
          "width": 689
        },
        "c": {
          "extension": "jpg",
          "height": 600,
          "mimetype": "image/jpeg",
          "secret": "li0Aa3Jft6MpTXsid8m5r2VYXvpEALIt",
          "width": 538
        },
        "dc": {
          "extension": "jpg",
          "height": 600,
          "mimetype": "image/jpeg",
          "secret": "li0Aa3Jft6MpTXsid8m5r2VYXvpEALIt",
          "width": 538
        },
        "ds": {
          "extension": "jpg",
          "height": 320,
          "mimetype": "image/jpeg",
          "secret": "li0Aa3Jft6MpTXsid8m5r2VYXvpEALIt",
          "width": 320
        },
        "k": {
          "extension": "jpg",
          "height": 1536,
          "mimetype": "image/jpeg",
          "secret": "li0Aa3Jft6MpTXsid8m5r2VYXvpEALIt",
          "width": 1378
        },
        "n": {
          "extension": "jpg",
          "height": 240,
          "mimetype": "image/jpeg",
          "secret": "li0Aa3Jft6MpTXsid8m5r2VYXvpEALIt",
          "width": 215
        },
        "o": {
          "extension": "jpg",
          "height": 2706,
          "mimetype": "image/jpeg",
          "secret": "kmhAelbE7ZePHb48dlkTbDtV0FChGTDL",
          "width": 2428
        },
        "s": {
          "extension": "jpg",
          "height": 320,
          "mimetype": "image/jpeg",
          "secret": "li0Aa3Jft6MpTXsid8m5r2VYXvpEALIt",
          "width": 320
        },
        "z": {
          "extension": "jpg",
          "height": 480,
          "mimetype": "image/jpeg",
          "secret": "li0Aa3Jft6MpTXsid8m5r2VYXvpEALIt",
          "width": 430
        }
      }
    },
    "media:source": "sfomuseum",
    "media:status_id": 1,
    "media:uri_template": "https://static.sfomuseum.org/media/152/785/109/1/1527851091_{secret}_{label}.{extension}",
    "millsfield:aircraft_id": [
      1159289611
    ],
    "millsfield:airline_id": [
      1159285415
    ],
    "millsfield:category_id": 1511214223,
    "millsfield:collection_id": 1511214207,
    "millsfield:company_id": [
      1159293593
    ],
    "millsfield:images_colors": [
      {
        "hex": "#d8d1c7",
        "name": "#d8d1c7",
        "reference": "marekm4"
      },
      {
        "hex": "#d3d3d3",
        "name": "lightgrey",
        "reference": "css4"
      },
      {
        "hex": "#dbd7d2",
        "name": "Timberwolf",
        "reference": "crayola"
      },
      {
        "hex": "#1c2da1",
        "name": "#1c2da1",
        "reference": "marekm4"
      },
      {
        "hex": "#483d8b",
        "name": "darkslateblue",
        "reference": "css4"
      },
      {
        "hex": "#324ab2",
        "name": "Violet Blue",
        "reference": "crayola"
      },
      {
        "hex": "#c61e0a",
        "name": "#c61e0a",
        "reference": "marekm4"
      },
      {
        "hex": "#b22222",
        "name": "firebrick",
        "reference": "css4"
      },
      {
        "hex": "#ff2b2b",
        "name": "Orange Red",
        "reference": "crayola"
      }
    ],
    "millsfield:images_texts": [
      "*OVERNIGHT Coast-to-Coast*\nUNITED\nAIR LINES\nFASTEST\nSHORTEST\nbetween the East\nand most Pacific\nCoast cities\nSchedules in effect June 1, 1936",
      "TO ALASKA\nVANCOUVER\nCANADA\nTO THE\nORIENT\nTO THE\nGRIENT\nUNITED AIR LINES\nCoast-to-Coast Overnight via Uniteds Main Line Mid-Continent Airway\nSEATTLE\nTACOMA\nPORTLAND\nSPOKANE\nRainier\nGREAT FALLS\n•PASCO\n• PENDLETON\nOGRAND FORKS\nPORTLANG\nlowstone\nMEDFORD\nCrater Lake\nHOWSTONE\nBOISE\nST. PAUL\nMINNEAPOLIS\nBOSTON\n• TO EUROPE\nSACRAMENTO\nVALS\nCATELLO\nSALT LAKE\nGrand\nTeton\nDude\nRanches\nCASTER\nCHEYENNE\n1O HAWAII\nTHE GRIENT\nSAN\nFRANCISCO\nFRESNO •\nYosemite\nELKO\nRocky\n•DENVER\nGen. Grant\nMountain\n•Sequoia\nZion /B\nCOLORADOSPRINGS\nBryce\nVELAS VEGAS\nBoulder Dam\nTO HAWAII\nBAK ERSFIED •\nGrand\nTHE ORIENT\nCanyon\nSANTA PEC\nLOS ANGELES\nWINSLOW ALBUQUERQUE\nSAN DIEGO\n\u003e PHOENIX\nBlack\nHills\nHURON O\nSIOUX FALLS\nSIOUX CITY\nOMAHA\nST. JOSEPH\nKANSAS CITY O\nMILWAUKEE\nMADISON\nDES\nMOINES CITY\nMOLIN-\nPEORI\nST. LOUIS\nCHL\nCAGO\nCARO\nELAND\nTOLEDO\nCOLUMBUS\nPITTSBURGH\nHUNTINGTON\nINCINNATI\nBALTIMOR\nNEW YORK\nPHILADELPHIA\nCAMDEN\nWASHINGTON\nWICHITA FALLS C\nMEXICO\nBIGSPRING\nWICHITA\nPONCA CITYS\nWORTH\nCORT\nMACOU\nSPRINGFIELD\n20\nEVANSVILLE\nNASHVILLE\nCHATTANOU\nGREENSBOROI\nCHARLOTTE C\nLORENCE\nJOKLAHOMA CITY\nLITTLE ROC\nTEXARKA\nCOKEENWOOE\nBIRMINGHAM U\nMACON\nOMERIDIAN\nIACKSON\nMONTGOMERY\nCHARLESTON\nTo Mexico Cay 1\nBEAUMONTO\nLAKE CHARLES O\nBATON ROUGEO\nHOUSTON\nNEW OKLEANS\nGALVESTON\nTo Merico City, Central and South Ame\nUNITED AIR LINES\nConnecting Air Lines\n* Rail Lines •..... Highways\n• National Parks\nST. PETERSBURG\nNASSAT\nTo Cuba, Central and South America\n• See how United's Mid-Continent airway goes arrow-straight from the East to Salt Lake City where lines radiate to every Pacific\nCoast city of 100,000 population. If you fly United you can visit Pacific Coast cities with a minimum of time and fare because of\nUnited's \"Optional\" and \"Circle\" Routings. Easterners can visit both SAN FRANCISCO and LOS ANGELES at no extra fare.\nINITED'S Main Line\nMID CONTINENT AIRWAY",
      "*OVERNIGHT Coast-to-Coast+\nUNITED\nALR LINES\n*OVERNIGHT Coast-to-Coast*\nUNITED\nAIR LINES\nFASTEST\nSHORTEST\nbetween the East\nand most Pacific\nCoast cities\nFASTEST\nSHORTEST\nbetween the East\nand most Pacilic\nCoast cities\n* RESERVATIONS- INFORMATION *\nOr write General Traffic Office, UNITED AIR LINES,\n221 N. LaSalle, Chicago, Illinois\nSchedules in effect June 1, 1936"
    ],
    "millsfield:images_texts_ids": [
      1527837987,
      1527851091,
      1527858281
    ],
    "millsfield:similar": {
      "apple/mobileclip_s0": [
        {
          "distance": 0.5043909,
          "id": 1527851093
        },
        {
          "distance": 0.51473534,
          "id": 1527851121
        },
        {
          "distance": 0.5205332,
          "id": 1762698511
        },
        {
          "distance": 0.5300516,
          "id": 1527851503
        },
        {
          "distance": 0.54900163,
          "id": 1527851125
        },
        {
          "distance": 0.55137783,
          "id": 1527851499
        },
        {
          "distance": 0.5523367,
          "id": 1527851523
        },
        {
          "distance": 0.5597977,
          "id": 1527851117
        },
        {
          "distance": 0.56447256,
          "id": 1762698507
        },
        {
          "distance": 0.56532735,
          "id": 1746838219
        }
      ],
      "apple/mobileclip_s1": [
        {
          "distance": 0.34639987,
          "id": 1746838219
        },
        {
          "distance": 0.356088,
          "id": 1527851125
        },
        {
          "distance": 0.35833934,
          "id": 1527851525
        },
        {
          "distance": 0.36074504,
          "id": 1762698511
        },
        {
          "distance": 0.3688956,
          "id": 1762698503
        },
        {
          "distance": 0.37159395,
          "id": 1527851503
        },
        {
          "distance": 0.37406522,
          "id": 1762698497
        },
        {
          "distance": 0.37713712,
          "id": 1527851499
        },
        {
          "distance": 0.38712066,
          "id": 1897196897
        },
        {
          "distance": 0.39007518,
          "id": 1527851095
        }
      ],
      "apple/mobileclip_s2": [
        {
          "distance": 0.44895434,
          "id": 1746838219
        },
        {
          "distance": 0.48269463,
          "id": 1897196897
        },
        {
          "distance": 0.4908129,
          "id": 1527851503
        },
        {
          "distance": 0.5003108,
          "id": 1762698511
        },
        {
          "distance": 0.50467175,
          "id": 1527851125
        },
        {
          "distance": 0.5089155,
          "id": 1527851093
        },
        {
          "distance": 0.51694435,
          "id": 1527851527
        },
        {
          "distance": 0.5170419,
          "id": 1527851499
        },
        {
          "distance": 0.5188606,
          "id": 1527851525
        },
        {
          "distance": 0.5298778,
          "id": 1762698497
        }
      ]
    },
    "millsfield:subcategory_id": 1511213425,
    "mz:hierarchy_label": 1,
    "mz:is_current": -1,
    "sfomuseum:filename": "82884.tif",
    "sfomuseum:image_id": 82884,
    "sfomuseum:image_index": 5,
    "sfomuseum:image_type": "studio",
    "sfomuseum:object_id": 51569,
    "sfomuseum:placetype": "image",
    "sfomuseum:primary_image": 0,
    "src:geom": "sfomuseum",
    "wof:belongsto": [
      1511214223,
      1511910335,
      102527513,
      102191575,
      85633793,
      1511213425,
      85922583,
      102087579,
      1511214277,
      1511214203,
      85688637,
      136253057
    ],
    "wof:breaches": [],
    "wof:country": "US",
    "wof:created": 1578954300,
    "wof:depicts": [
      1511910335,
      1159289611,
      1159293593,
      1159288779,
      1159285415
    ],
    "wof:geomhash": "bd906905ce4be6c0651c90b0fc24804c",
    "wof:hierarchy": [
      {
        "arcade_id": 1511213425,
        "building_id": 1511214277,
        "campus_id": 102527513,
        "concourse_id": 1511214223,
        "continent_id": 102191575,
        "country_id": 85633793,
        "county_id": 102087579,
        "custom_id": 1527851091,
        "image_id": 1527851091,
        "locality_id": 85922583,
        "media_id": 1527851091,
        "neighbourhood_id": -1,
        "region_id": 85688637,
        "venue_id": 1511910335,
        "wing_id": 1511214203
      },
      {
        "continent_id": 102191575,
        "country_id": 85633793,
        "custom_id": 1527851091,
        "empire_id": 136253057,
        "image_id": 1527851091,
        "media_id": 1527851091,
        "venue_id": 1511910335
      }
    ],
    "wof:id": 1527851091,
    "wof:lastmodified": 1788450184,
    "wof:name": "timetable: United Air Lines",
    "wof:parent_id": 1511910335,
    "wof:placetype": "custom",
    "wof:placetype_alt": [
      "image"
    ],
    "wof:repo": "sfomuseum-data-media-collection",
    "wof:superseded_by": [],
    "wof:supersedes": [],
    "wof:tags": []
  },
  "bbox": [
    -122.386155,
    37.616358,
    -122.386155,
    37.616358
  ],
  "geometry": {"type":"Point","coordinates":[-122.386155,37.616358]}
}
