{
  "id": 1527832709,
  "type": "Feature",
  "properties": {
    "date:cessation_lower": "1950-11-22",
    "date:cessation_upper": "1950-11-22",
    "date:inception_lower": "1950-11-22",
    "date:inception_upper": "1950-11-22",
    "edtf:cessation": "1950-11-22",
    "edtf:date": "1950-11-22",
    "edtf:inception": "1950-11-22",
    "geom:area": 0,
    "geom:bbox": "-122.386155,37.616358,-122.386155,37.616358",
    "geom:latitude": 37.616358,
    "geom:longitude": -122.386155,
    "iso:country": "XX",
    "media:fingerprint": "b7f68434432533284917d13e35508b7231fb7496",
    "media:imagehash_avg": "a:00ffffffffbf1e00",
    "media:imagehash_diff": "d:6d94b62a6878f819",
    "media:imagetext": "90812h1 2102\n› NOV 22\n730PM\n502\nANIVIV.",
    "media:imagetext_created": 1787949488,
    "media:imagetext_source": "com.apple.visionkit.VNImageRequestHandler#Version 26.6.2 (Build 25G83)",
    "media:medium": "image",
    "media:mimetype": "image/tiff",
    "media:properties": {
      "sizes": {
        "b": {
          "extension": "jpg",
          "height": 446,
          "mimetype": "image/jpeg",
          "secret": "Pi527sLYlHo4JE4dIg6jqTGm2XZG3vhj",
          "width": 1024
        },
        "c": {
          "extension": "jpg",
          "height": 348,
          "mimetype": "image/jpeg",
          "secret": "Pi527sLYlHo4JE4dIg6jqTGm2XZG3vhj",
          "width": 800
        },
        "dc": {
          "extension": "jpg",
          "height": 348,
          "mimetype": "image/jpeg",
          "secret": "Pi527sLYlHo4JE4dIg6jqTGm2XZG3vhj",
          "width": 800
        },
        "ds": {
          "extension": "jpg",
          "height": 320,
          "mimetype": "image/jpeg",
          "secret": "Pi527sLYlHo4JE4dIg6jqTGm2XZG3vhj",
          "width": 320
        },
        "k": {
          "extension": "jpg",
          "height": 892,
          "mimetype": "image/jpeg",
          "secret": "Pi527sLYlHo4JE4dIg6jqTGm2XZG3vhj",
          "width": 2048
        },
        "n": {
          "extension": "jpg",
          "height": 139,
          "mimetype": "image/jpeg",
          "secret": "Pi527sLYlHo4JE4dIg6jqTGm2XZG3vhj",
          "width": 320
        },
        "o": {
          "extension": "jpg",
          "height": 1248,
          "mimetype": "image/jpeg",
          "secret": "erb9aYgC8Ebe1HJGYao6nNB2c1i4m65D",
          "width": 2864
        },
        "s": {
          "extension": "jpg",
          "height": 320,
          "mimetype": "image/jpeg",
          "secret": "Pi527sLYlHo4JE4dIg6jqTGm2XZG3vhj",
          "width": 320
        },
        "z": {
          "extension": "jpg",
          "height": 278,
          "mimetype": "image/jpeg",
          "secret": "Pi527sLYlHo4JE4dIg6jqTGm2XZG3vhj",
          "width": 640
        }
      }
    },
    "media:source": "sfomuseum",
    "media:status_id": 1,
    "media:uri_template": "https://static.sfomuseum.org/media/152/783/270/9/1527832709_{secret}_{label}.{extension}",
    "millsfield:aircraft_id": [
      1159289651,
      1159291191
    ],
    "millsfield:airline_id": [
      1159284989
    ],
    "millsfield:category_id": 1511214215,
    "millsfield:collection_id": 1511214207,
    "millsfield:company_id": [],
    "millsfield:images_colors": [
      {
        "hex": "#e0cea9",
        "name": "#e0cea9",
        "reference": "marekm4"
      },
      {
        "hex": "#f5deb3",
        "name": "wheat",
        "reference": "css4"
      },
      {
        "hex": "#edd19c",
        "name": "Maize",
        "reference": "crayola"
      },
      {
        "hex": "#111a45",
        "name": "#111a45",
        "reference": "marekm4"
      },
      {
        "hex": "#191970",
        "name": "midnightblue",
        "reference": "css4"
      },
      {
        "hex": "#1a4876",
        "name": "Midnight Blue",
        "reference": "crayola"
      },
      {
        "hex": "#b6230d",
        "name": "#b6230d",
        "reference": "marekm4"
      },
      {
        "hex": "#b22222",
        "name": "firebrick",
        "reference": "css4"
      },
      {
        "hex": "#9c2542",
        "name": "Big Dip O' Ruby",
        "reference": "crayola"
      },
      {
        "hex": "#bfa474",
        "name": "#bfa474",
        "reference": "marekm4"
      },
      {
        "hex": "#bdb76b",
        "name": "darkkhaki",
        "reference": "css4"
      },
      {
        "hex": "#cd9575",
        "name": "Antique Brass",
        "reference": "crayola"
      }
    ],
    "millsfield:images_texts": [
      "PAN AMERICAN WORLD AIRWAYS SYSTEM\nSAN FRANCISCO MUNICIPAL AIRPORT\nP. O. BOX 15I, SOUTH SAN FRANCISCO, CALIFORNIA\nPAR AVION • VIA AIR MAIL • CORREO AEREO\nPAA\n3,00\nPAN AMERICAN WORLD AIRWAYS\n15th Anniversary\nFIRST ARMAIL FLIGHT\nSan Francisco to Honolulu\n1935\n1950\nM-130 MARTIN\nB-377 BOEING\nCLIPPER\n\"STRATO\"- CLIPPER\n21 HOURS\n9¼ HOURS\nNovember 22, 1935-1950\nCLIPPER, TRADE MARK\nPA AMERICAN WORLD AIRWAYS\nAIR MAIL\n22\nA:\n1950\nCALIF•\nU.S.POSTAGE\nPaul H. Anderson, Vice Pres.\nHawaiian Electric Co., Ltd.\nKing \u0026 Richards Sts.\nPO Box 2750\nHonolulu, T.H.",
      "90812h1 2102\n› NOV 22\n730PM\n502\nANIVIV."
    ],
    "millsfield:images_texts_ids": [
      1527832705,
      1527832709
    ],
    "millsfield:similar": {
      "apple/mobileclip_s0": [
        {
          "distance": 0.422846,
          "id": 1527832695
        },
        {
          "distance": 0.44827968,
          "id": 1527834091
        },
        {
          "distance": 0.45098093,
          "id": 1527832757
        },
        {
          "distance": 0.4618806,
          "id": 1527829977
        },
        {
          "distance": 0.46755278,
          "id": 1527854401
        },
        {
          "distance": 0.47021922,
          "id": 1527832587
        },
        {
          "distance": 0.47444612,
          "id": 1527833613
        },
        {
          "distance": 0.47711366,
          "id": 1527854343
        },
        {
          "distance": 0.4787208,
          "id": 1527856631
        },
        {
          "distance": 0.48777342,
          "id": 1527833611
        }
      ],
      "apple/mobileclip_s1": [
        {
          "distance": 0.28950045,
          "id": 1527832757
        },
        {
          "distance": 0.30074945,
          "id": 1527834603
        },
        {
          "distance": 0.30560607,
          "id": 1527854403
        },
        {
          "distance": 0.31143355,
          "id": 1527854307
        },
        {
          "distance": 0.32124612,
          "id": 1527832695
        },
        {
          "distance": 0.32274875,
          "id": 1527856491
        },
        {
          "distance": 0.3269837,
          "id": 1527856509
        },
        {
          "distance": 0.32753423,
          "id": 1527854299
        },
        {
          "distance": 0.330189,
          "id": 1527854401
        },
        {
          "distance": 0.330241,
          "id": 1527833611
        }
      ],
      "apple/mobileclip_s2": [
        {
          "distance": 0.46498486,
          "id": 1527833581
        },
        {
          "distance": 0.47157395,
          "id": 1527832757
        },
        {
          "distance": 0.48453638,
          "id": 1527833703
        },
        {
          "distance": 0.48454073,
          "id": 1527834103
        },
        {
          "distance": 0.48780054,
          "id": 1527834767
        },
        {
          "distance": 0.4884274,
          "id": 1527834091
        },
        {
          "distance": 0.4908712,
          "id": 1527833801
        },
        {
          "distance": 0.49174136,
          "id": 1527833719
        },
        {
          "distance": 0.49313238,
          "id": 1527834007
        },
        {
          "distance": 0.49415112,
          "id": 1527828945
        }
      ]
    },
    "millsfield:subcategory_id": 1511213159,
    "mz:hierarchy_label": 1,
    "mz:is_current": -1,
    "sfomuseum:filename": "62159.tif",
    "sfomuseum:image_id": 62159,
    "sfomuseum:image_index": 5,
    "sfomuseum:image_type": "studio",
    "sfomuseum:object_id": 139170,
    "sfomuseum:placetype": "image",
    "sfomuseum:primary_image": 0,
    "src:geom": "sfomuseum",
    "wof:belongsto": [
      1511214215,
      1511953619,
      102527513,
      102191575,
      85633793,
      1511213159,
      85922583,
      102087579,
      1511214277,
      1511214203,
      85688637
    ],
    "wof:breaches": [],
    "wof:country": "XX",
    "wof:created": 1578951347,
    "wof:depicts": [
      1159284989,
      1159289651,
      1159291191,
      1511953619,
      1159293593
    ],
    "wof:geomhash": "bd906905ce4be6c0651c90b0fc24804c",
    "wof:hierarchy": [
      {
        "arcade_id": 1511213159,
        "building_id": 1511214277,
        "campus_id": 102527513,
        "concourse_id": 1511214215,
        "continent_id": 102191575,
        "country_id": 85633793,
        "county_id": 102087579,
        "custom_id": 1527832709,
        "image_id": 1527832709,
        "locality_id": 85922583,
        "media_id": 1527832709,
        "neighbourhood_id": -1,
        "region_id": 85688637,
        "venue_id": 1511953619,
        "wing_id": 1511214203
      }
    ],
    "wof:id": 1527832709,
    "wof:lastmodified": 1788449896,
    "wof:name": "airmail flight cover: Pan American World Airways, San Francisco - Honolulu First airmail flight, 15th Anniversary",
    "wof:parent_id": 1511953619,
    "wof:placetype": "custom",
    "wof:placetype_alt": [
      "image"
    ],
    "wof:repo": "sfomuseum-data-media-collection",
    "wof:superseded_by": [],
    "wof:supersedes": [],
    "wof:tags": []
  },
  "bbox": [
    -122.386155,
    37.616358,
    -122.386155,
    37.616358
  ],
  "geometry": {"type":"Point","coordinates":[-122.386155,37.616358]}
}
