{
  "id": 1880498815,
  "type": "Feature",
  "properties": {
    "date:cessation_lower": "1970-01-01",
    "date:cessation_upper": "1979-12-31",
    "date:inception_lower": "1970-01-01",
    "date:inception_upper": "1979-12-31",
    "edtf:cessation": "197X",
    "edtf:inception": "197X",
    "geom:area": 2.477324999997507e-7,
    "geom:bbox": "-122.386472,37.616105,-122.385834,37.616611",
    "geom:latitude": 37.61635756125121,
    "geom:longitude": -122.38615532866096,
    "media:fingerprint": "e46e433c300f1b6122cf3d2f8b48526c14fda813",
    "media:imagehash_avg": "a:ffe3c3c1818183ff",
    "media:imagehash_diff": "d:4e0f17170f4d0f0f",
    "media:imagetext": "",
    "media:mimetype": "image/tiff",
    "media:properties": {
      "sizes": {
        "b": {
          "extension": "jpg",
          "height": 768,
          "mimetype": "image/jpeg",
          "secret": "7iYAnriOByO5AV0kCB4bPB6oYRMSFyD6",
          "width": 965
        },
        "c": {
          "extension": "jpg",
          "height": 600,
          "mimetype": "image/jpeg",
          "secret": "7iYAnriOByO5AV0kCB4bPB6oYRMSFyD6",
          "width": 754
        },
        "dc": {
          "extension": "jpg",
          "height": 600,
          "mimetype": "image/jpeg",
          "secret": "7iYAnriOByO5AV0kCB4bPB6oYRMSFyD6",
          "width": 754
        },
        "ds": {
          "extension": "jpg",
          "height": 320,
          "mimetype": "image/jpeg",
          "secret": "7iYAnriOByO5AV0kCB4bPB6oYRMSFyD6",
          "width": 320
        },
        "k": {
          "extension": "jpg",
          "height": 1536,
          "mimetype": "image/jpeg",
          "secret": "7iYAnriOByO5AV0kCB4bPB6oYRMSFyD6",
          "width": 1931
        },
        "n": {
          "extension": "jpg",
          "height": 240,
          "mimetype": "image/jpeg",
          "secret": "7iYAnriOByO5AV0kCB4bPB6oYRMSFyD6",
          "width": 301
        },
        "o": {
          "extension": "jpg",
          "height": 1667,
          "mimetype": "image/jpeg",
          "secret": "OX8ML4Hi9gALU2d4aDOm6iEOYPij2wSJ",
          "width": 2096
        },
        "s": {
          "extension": "jpg",
          "height": 320,
          "mimetype": "image/jpeg",
          "secret": "7iYAnriOByO5AV0kCB4bPB6oYRMSFyD6",
          "width": 320
        },
        "z": {
          "extension": "jpg",
          "height": 480,
          "mimetype": "image/jpeg",
          "secret": "7iYAnriOByO5AV0kCB4bPB6oYRMSFyD6",
          "width": 603
        }
      }
    },
    "media:source": "sfomuseum",
    "media:status_id": 1,
    "media:uri_template": "https://static.sfomuseum.org/media/188/049/881/5/1880498815_{secret}_{label}.{extension}",
    "millsfield:airline_id": [
      1159284989
    ],
    "millsfield:category_id": 1763416393,
    "millsfield:collection_id": 1511214203,
    "millsfield:company_id": [
      1159286839
    ],
    "millsfield:images_colors": [
      {
        "hex": "#afb0af",
        "name": "#afb0af",
        "reference": "marekm4"
      },
      {
        "hex": "#a9a9a9",
        "name": "darkgrey",
        "reference": "css4"
      },
      {
        "hex": "#b0b7c6",
        "name": "Cadet Blue",
        "reference": "crayola"
      },
      {
        "hex": "#1c253e",
        "name": "#1c253e",
        "reference": "marekm4"
      },
      {
        "hex": "#2f4f4f",
        "name": "darkslategrey",
        "reference": "css4"
      },
      {
        "hex": "#414a4c",
        "name": "Outer Space",
        "reference": "crayola"
      }
    ],
    "millsfield:similar": {
      "apple/mobileclip_s0": [
        {
          "distance": 0.13277897,
          "id": 1880379967
        },
        {
          "distance": 0.15835258,
          "id": 1763446555
        },
        {
          "distance": 0.18345048,
          "id": 1880379931
        },
        {
          "distance": 0.20283794,
          "id": 1880498861
        },
        {
          "distance": 0.2050039,
          "id": 1746679539
        },
        {
          "distance": 0.21664041,
          "id": 1763446907
        },
        {
          "distance": 0.23029354,
          "id": 1880464953
        },
        {
          "distance": 0.23077075,
          "id": 1880332211
        },
        {
          "distance": 0.23400328,
          "id": 1880332291
        },
        {
          "distance": 0.28637537,
          "id": 1746679297
        }
      ],
      "apple/mobileclip_s1": [
        {
          "distance": 0.10593588,
          "id": 1763446555
        },
        {
          "distance": 0.12783654,
          "id": 1880379967
        },
        {
          "distance": 0.14358066,
          "id": 1880464953
        },
        {
          "distance": 0.1444075,
          "id": 1880379931
        },
        {
          "distance": 0.16607116,
          "id": 1746679539
        },
        {
          "distance": 0.19506136,
          "id": 1880498861
        },
        {
          "distance": 0.19637023,
          "id": 1763446907
        },
        {
          "distance": 0.20725548,
          "id": 1880332291
        },
        {
          "distance": 0.20769931,
          "id": 1880332211
        },
        {
          "distance": 0.21766491,
          "id": 1746865321
        }
      ],
      "apple/mobileclip_s2": [
        {
          "distance": 0.1908057,
          "id": 1880379931
        },
        {
          "distance": 0.20279568,
          "id": 1880379967
        },
        {
          "distance": 0.21344769,
          "id": 1763446555
        },
        {
          "distance": 0.24608509,
          "id": 1746679539
        },
        {
          "distance": 0.25488302,
          "id": 1763446907
        },
        {
          "distance": 0.26455688,
          "id": 1880332291
        },
        {
          "distance": 0.2658729,
          "id": 1880498861
        },
        {
          "distance": 0.272383,
          "id": 1880332211
        },
        {
          "distance": 0.2842512,
          "id": 1880464953
        },
        {
          "distance": 0.3144509,
          "id": 1746679297
        }
      ]
    },
    "millsfield:subcategory_id": 1511213457,
    "mz:is_current": 1,
    "sfomuseum:filename": "2014.132.046_bk1.tif",
    "sfomuseum:image_id": 147774,
    "sfomuseum:image_index": 5,
    "sfomuseum:image_type": "studio",
    "sfomuseum:object_id": 162283,
    "sfomuseum:placetype": "image",
    "sfomuseum:primary_image": 0,
    "src:geom": "sfomuseum",
    "wof:belongsto": [
      102527513,
      1159162825,
      102191575,
      85633793,
      102087579,
      85922583,
      1880497977,
      85688637,
      1159160869
    ],
    "wof:country": "XY",
    "wof:created": 1695716807,
    "wof:depicts": [
      1159286839,
      1880497977,
      1159284989
    ],
    "wof:geomhash": "ed7c2ab3547fc3916b5edc33488deaa7",
    "wof:hierarchy": [
      {
        "building_id": -1,
        "campus_id": 102527513,
        "collection_id": 1159162825,
        "concourse_id": 1159162825,
        "continent_id": 102191575,
        "country_id": 85633793,
        "county_id": 102087579,
        "custom_id": 1880498815,
        "image_id": 1880498815,
        "locality_id": 85922583,
        "neighbourhood_id": -1,
        "object_id": 1880497977,
        "region_id": 85688637,
        "wing_id": 1159160869
      }
    ],
    "wof:id": 1880498815,
    "wof:lastmodified": 1788451905,
    "wof:name": "flight attendant jacket: Pan American World Airways",
    "wof:parent_id": 1880497977,
    "wof:placetype": "custom",
    "wof:placetype_alt": [
      "image"
    ],
    "wof:repo": "sfomuseum-data-media-collection",
    "wof:superseded_by": [],
    "wof:supersedes": []
  },
  "bbox": [
    -122.386472,
    37.616105,
    -122.385834,
    37.616611
  ],
  "geometry": {"type":"Polygon","coordinates":[[[-122.386472,37.616318],[-122.386435,37.616233],[-122.386376,37.616178],[-122.386301,37.616131],[-122.386161,37.616105],[-122.386022,37.616131],[-122.385914,37.616186],[-122.385855,37.616267],[-122.385834,37.616369],[-122.385871,37.616467],[-122.385941,37.616543],[-122.386054,37.616603],[-122.386183,37.616611],[-122.386306,37.616573],[-122.386419,37.616509],[-122.386467,37.616411],[-122.386472,37.616318]]]}
}
