{
  "id": 1762710699,
  "type": "Feature",
  "properties": {
    "date:cessation_lower": "1944-01-01",
    "date:cessation_upper": "1944-12-31",
    "date:inception_lower": "1944-01-01",
    "date:inception_upper": "1944-12-31",
    "edtf:cessation": "1944",
    "edtf:inception": "1944",
    "geom:area": 2.477324999997507e-7,
    "geom:bbox": "-122.386472,37.616105,-122.385834,37.616611",
    "geom:latitude": 37.61635756125121,
    "geom:longitude": -122.38615532866096,
    "iso:country": "US",
    "media:fingerprint": "e600269d701fa36d38aaae9b938d0ff416f4c893",
    "media:imagehash_avg": "a:ff818181818181ff",
    "media:imagehash_diff": "d:4f6d4b0d39514d7d",
    "media:imagetext": "D-59\nDallas Municipal Air Port, Love Field, Dallas, Texas\nNCIS 713\n2B-H600",
    "media:imagetext_created": 1787957687,
    "media:imagetext_source": "com.apple.visionkit.VNImageRequestHandler#Version 26.6.2 (Build 25G83)",
    "media:mimetype": "image/tiff",
    "media:properties": {
      "sizes": {
        "b": {
          "extension": "jpg",
          "height": 661,
          "mimetype": "image/jpeg",
          "secret": "cie3ReKDlB7j7uwNw1m8paCGiNiZe5n9",
          "width": 1024
        },
        "c": {
          "extension": "jpg",
          "height": 516,
          "mimetype": "image/jpeg",
          "secret": "cie3ReKDlB7j7uwNw1m8paCGiNiZe5n9",
          "width": 800
        },
        "dc": {
          "extension": "jpg",
          "height": 516,
          "mimetype": "image/jpeg",
          "secret": "cie3ReKDlB7j7uwNw1m8paCGiNiZe5n9",
          "width": 800
        },
        "ds": {
          "extension": "jpg",
          "height": 320,
          "mimetype": "image/jpeg",
          "secret": "cie3ReKDlB7j7uwNw1m8paCGiNiZe5n9",
          "width": 320
        },
        "k": {
          "extension": "jpg",
          "height": 1323,
          "mimetype": "image/jpeg",
          "secret": "cie3ReKDlB7j7uwNw1m8paCGiNiZe5n9",
          "width": 2048
        },
        "n": {
          "extension": "jpg",
          "height": 206,
          "mimetype": "image/jpeg",
          "secret": "cie3ReKDlB7j7uwNw1m8paCGiNiZe5n9",
          "width": 320
        },
        "o": {
          "extension": "jpg",
          "height": 1119,
          "mimetype": "image/jpeg",
          "secret": "jV9sC6Qid9SrfM8WmquZw2wvyAyugqW4",
          "width": 1732
        },
        "s": {
          "extension": "jpg",
          "height": 320,
          "mimetype": "image/jpeg",
          "secret": "cie3ReKDlB7j7uwNw1m8paCGiNiZe5n9",
          "width": 320
        },
        "z": {
          "extension": "jpg",
          "height": 413,
          "mimetype": "image/jpeg",
          "secret": "cie3ReKDlB7j7uwNw1m8paCGiNiZe5n9",
          "width": 640
        }
      }
    },
    "media:source": "sfomuseum",
    "media:status_id": 1,
    "media:uri_template": "https://static.sfomuseum.org/media/176/271/069/9/1762710699_{secret}_{label}.{extension}",
    "millsfield:aircraft_id": [
      1159290417
    ],
    "millsfield:airline_id": [
      1159284011
    ],
    "millsfield:airport_id": [
      102525799
    ],
    "millsfield:category_id": 1511214215,
    "millsfield:collection_id": 1511214207,
    "millsfield:company_id": [],
    "millsfield:images_colors": [
      {
        "hex": "#563f10",
        "name": "#563f10",
        "reference": "marekm4"
      },
      {
        "hex": "#8b4513",
        "name": "saddlebrown",
        "reference": "css4"
      },
      {
        "hex": "#714b23",
        "name": "Raw Umber",
        "reference": "crayola"
      },
      {
        "hex": "#c5ab5b",
        "name": "#c5ab5b",
        "reference": "marekm4"
      },
      {
        "hex": "#bdb76b",
        "name": "darkkhaki",
        "reference": "css4"
      },
      {
        "hex": "#bab86c",
        "name": "Olive Green",
        "reference": "crayola"
      },
      {
        "hex": "#ece9e0",
        "name": "#ece9e0",
        "reference": "marekm4"
      },
      {
        "hex": "#f5f5dc",
        "name": "beige",
        "reference": "css4"
      },
      {
        "hex": "#fddde6",
        "name": "Piggy Pink",
        "reference": "crayola"
      },
      {
        "hex": "#8e7234",
        "name": "#8e7234",
        "reference": "marekm4"
      },
      {
        "hex": "#a0522d",
        "name": "sienna",
        "reference": "css4"
      },
      {
        "hex": "#9c7c38",
        "name": "Metallic Sunburst",
        "reference": "crayola"
      }
    ],
    "millsfield:images_texts": [
      "D-59\nDallas Municipal Air Port, Love Field, Dallas, Texas\nNCIS 713\n2B-H600",
      "Dartlker\nLOVE FIELD\nNEW $225,000 ADMINISTRATION BUILDING\nOne of America's finest air terminals which\ntakes care of more airline passengers, more\nair mail and more air express in ratio to;\nany other airport in the\nHaw.\nGENUINE CURTEICH-CHICAGO \"C.T. ART. COLORTONE\" POST ARGENTU\n75\nDATED STATES OPENCI\nANDUSTRY AGRICUETURE\nFOR DEFENSE\nGENT\nPOST CARD\nMr. Rakest Sere Homan\n217 Вле али.\nJauctan, see"
    ],
    "millsfield:images_texts_ids": [
      1762710699,
      1762710701
    ],
    "millsfield:similar": {
      "apple/mobileclip_s0": [
        {
          "distance": 0.5764183,
          "id": 1762710335
        },
        {
          "distance": 0.62557876,
          "id": 1762710753
        },
        {
          "distance": 0.64014405,
          "id": 1762711469
        },
        {
          "distance": 0.6525732,
          "id": 1762711279
        },
        {
          "distance": 0.6541365,
          "id": 1729567043
        },
        {
          "distance": 0.6605517,
          "id": 1762713059
        },
        {
          "distance": 0.66206545,
          "id": 1762711285
        },
        {
          "distance": 0.6620694,
          "id": 1779666337
        },
        {
          "distance": 0.66472787,
          "id": 1779668191
        },
        {
          "distance": 0.66525453,
          "id": 1762712929
        }
      ],
      "apple/mobileclip_s1": [
        {
          "distance": 0.42895588,
          "id": 1762710335
        },
        {
          "distance": 0.4437094,
          "id": 1762711689
        },
        {
          "distance": 0.46458623,
          "id": 1846756545
        },
        {
          "distance": 0.46516585,
          "id": 1762711681
        },
        {
          "distance": 0.4680089,
          "id": 1846756523
        },
        {
          "distance": 0.47127628,
          "id": 1846755617
        },
        {
          "distance": 0.47456515,
          "id": 1762712063
        },
        {
          "distance": 0.47527105,
          "id": 1846705535
        },
        {
          "distance": 0.47873694,
          "id": 1762712983
        },
        {
          "distance": 0.48128587,
          "id": 1846755857
        }
      ],
      "apple/mobileclip_s2": [
        {
          "distance": 0.6464266,
          "id": 1762710335
        },
        {
          "distance": 0.6664746,
          "id": 1846756523
        },
        {
          "distance": 0.6778002,
          "id": 1846756535
        },
        {
          "distance": 0.6885535,
          "id": 1762711689
        },
        {
          "distance": 0.69388914,
          "id": 1762713105
        },
        {
          "distance": 0.69412583,
          "id": 1846756545
        },
        {
          "distance": 0.6996591,
          "id": 1762710987
        },
        {
          "distance": 0.70119286,
          "id": 1762710645
        },
        {
          "distance": 0.701795,
          "id": 1762711681
        },
        {
          "distance": 0.70346975,
          "id": 1762712983
        }
      ]
    },
    "millsfield:subcategory_id": 1511213363,
    "mz:is_current": 1,
    "sfomuseum:filename": "2015.166.1899_ft.tif",
    "sfomuseum:image_id": 158588,
    "sfomuseum:image_index": 5,
    "sfomuseum:image_type": "studio",
    "sfomuseum:object_id": 181660,
    "sfomuseum:placetype": "image",
    "sfomuseum:primary_image": 1,
    "src:geom": "sfomuseum",
    "wof:belongsto": [
      102527513,
      1159162825,
      102191575,
      85633793,
      102087579,
      85922583,
      1762684169,
      85688637,
      1159160869
    ],
    "wof:country": "US",
    "wof:created": 1641350198,
    "wof:depicts": [
      1159284011,
      1159290417,
      102525799,
      1159286951,
      1762684169
    ],
    "wof:geomhash": "ed7c2ab3547fc3916b5edc33488deaa7",
    "wof:hierarchy": [
      {
        "building_id": -1,
        "campus_id": 102527513,
        "collection_id": 1159162825,
        "concourse_id": 1159162825,
        "continent_id": 102191575,
        "country_id": 85633793,
        "county_id": 102087579,
        "custom_id": 1762710699,
        "image_id": 1762710699,
        "locality_id": 85922583,
        "neighbourhood_id": -1,
        "object_id": 1762684169,
        "region_id": 85688637,
        "wing_id": 1159160869
      }
    ],
    "wof:id": 1762710699,
    "wof:lastmodified": 1788450620,
    "wof:name": "postcard: Dallas Love Field, Douglas DC-3, Braniff Airways",
    "wof:parent_id": 1762684169,
    "wof:placetype": "custom",
    "wof:placetype_alt": [
      "image"
    ],
    "wof:repo": "sfomuseum-data-media-collection",
    "wof:superseded_by": [],
    "wof:supersedes": []
  },
  "bbox": [
    -122.386472,
    37.616105,
    -122.385834,
    37.616611
  ],
  "geometry": {"type":"Polygon","coordinates":[[[-122.386472,37.616318],[-122.386435,37.616233],[-122.386376,37.616178],[-122.386301,37.616131],[-122.386161,37.616105],[-122.386022,37.616131],[-122.385914,37.616186],[-122.385855,37.616267],[-122.385834,37.616369],[-122.385871,37.616467],[-122.385941,37.616543],[-122.386054,37.616603],[-122.386183,37.616611],[-122.386306,37.616573],[-122.386419,37.616509],[-122.386467,37.616411],[-122.386472,37.616318]]]}
}
