{
  "id": 1527819407,
  "type": "Feature",
  "properties": {
    "date:cessation_lower": "1963-01-01",
    "date:cessation_upper": "1963-12-31",
    "date:inception_lower": "1963-01-01",
    "date:inception_upper": "1963-12-31",
    "edtf:cessation": "1963",
    "edtf:date": "1963",
    "edtf:inception": "1963",
    "geom:area": 0,
    "geom:bbox": "-122.386155,37.616358,-122.386155,37.616358",
    "geom:latitude": 37.616358,
    "geom:longitude": -122.386155,
    "iso:country": "US",
    "media:fingerprint": "71f8d09ba00a90200eb35aba39b6e63d43e4cc50",
    "media:imagehash_avg": "a:ff80b0a0c0f0a1ff",
    "media:imagehash_diff": "d:2101614115414747",
    "media:imagetext": "FROM NORTH\nFROM SAN BRUNO\nPUBLIC\nPREVIEW\nPARKING\nFROM\nMILLBRAE\nSUPPLEMENTAL\nPARKING\nFROM\nSOUTH",
    "media:imagetext_created": 1787947777,
    "media:imagetext_source": "com.apple.visionkit.VNImageRequestHandler#Version 26.6.2 (Build 25G83)",
    "media:medium": "image",
    "media:mimetype": "image/tiff",
    "media:properties": {
      "sizes": {
        "b": {
          "extension": "jpg",
          "height": 767,
          "mimetype": "image/jpeg",
          "secret": "NUNwJIPTU6H6wCPzM468C2TjwcbInU3Y",
          "width": 973
        },
        "c": {
          "extension": "jpg",
          "height": 600,
          "mimetype": "image/jpeg",
          "secret": "NUNwJIPTU6H6wCPzM468C2TjwcbInU3Y",
          "width": 760
        },
        "dc": {
          "extension": "jpg",
          "height": 600,
          "mimetype": "image/jpeg",
          "secret": "NUNwJIPTU6H6wCPzM468C2TjwcbInU3Y",
          "width": 760
        },
        "ds": {
          "extension": "jpg",
          "height": 320,
          "mimetype": "image/jpeg",
          "secret": "NUNwJIPTU6H6wCPzM468C2TjwcbInU3Y",
          "width": 320
        },
        "k": {
          "extension": "jpg",
          "height": 1535,
          "mimetype": "image/jpeg",
          "secret": "NUNwJIPTU6H6wCPzM468C2TjwcbInU3Y",
          "width": 1947
        },
        "n": {
          "extension": "jpg",
          "height": 240,
          "mimetype": "image/jpeg",
          "secret": "NUNwJIPTU6H6wCPzM468C2TjwcbInU3Y",
          "width": 304
        },
        "o": {
          "extension": "jpg",
          "height": 2140,
          "mimetype": "image/jpeg",
          "secret": "xlq2IkZCokUxNsN7xAmTXNEg8EvBolRX",
          "width": 2713
        },
        "s": {
          "extension": "jpg",
          "height": 320,
          "mimetype": "image/jpeg",
          "secret": "NUNwJIPTU6H6wCPzM468C2TjwcbInU3Y",
          "width": 320
        },
        "z": {
          "extension": "jpg",
          "height": 480,
          "mimetype": "image/jpeg",
          "secret": "NUNwJIPTU6H6wCPzM468C2TjwcbInU3Y",
          "width": 608
        }
      }
    },
    "media:source": "sfomuseum",
    "media:status_id": 1,
    "media:uri_template": "https://static.sfomuseum.org/media/152/781/940/7/1527819407_{secret}_{label}.{extension}",
    "millsfield:airport_id": [
      102527513
    ],
    "millsfield:category_id": 1511214209,
    "millsfield:collection_id": 1511214207,
    "millsfield:images_colors": [
      {
        "hex": "#3d3d3d",
        "name": "#3d3d3d",
        "reference": "marekm4"
      },
      {
        "hex": "#2f4f4f",
        "name": "darkslategrey",
        "reference": "css4"
      },
      {
        "hex": "#414a4c",
        "name": "Outer Space",
        "reference": "crayola"
      },
      {
        "hex": "#bcbcbc",
        "name": "#bcbcbc",
        "reference": "marekm4"
      },
      {
        "hex": "#c0c0c0",
        "name": "silver",
        "reference": "css4"
      },
      {
        "hex": "#b0b7c6",
        "name": "Cadet Blue",
        "reference": "crayola"
      }
    ],
    "millsfield:images_texts": [
      "FROM NORTH\nFROM SAN BRUNO\nPUBLIC\nPREVIEW\nPARKING\nFROM\nMILLBRAE\nSUPPLEMENTAL\nPARKING\nFROM\nSOUTH"
    ],
    "millsfield:images_texts_ids": [
      1527819407
    ],
    "millsfield:similar": {
      "apple/mobileclip_s0": [
        {
          "distance": 0.13555737,
          "id": 1527824161
        },
        {
          "distance": 0.44433755,
          "id": 1527824267
        },
        {
          "distance": 0.44701672,
          "id": 1762895697
        },
        {
          "distance": 0.46078953,
          "id": 1527827317
        },
        {
          "distance": 0.47396442,
          "id": 1527824155
        },
        {
          "distance": 0.49411353,
          "id": 1527822083
        },
        {
          "distance": 0.49724644,
          "id": 1762891267
        },
        {
          "distance": 0.498417,
          "id": 1762891271
        },
        {
          "distance": 0.50425583,
          "id": 1527827081
        },
        {
          "distance": 0.5067049,
          "id": 1527827083
        }
      ],
      "apple/mobileclip_s1": [
        {
          "distance": 0.058293853,
          "id": 1527824161
        },
        {
          "distance": 0.31377515,
          "id": 1762898583
        },
        {
          "distance": 0.32618046,
          "id": 1762891387
        },
        {
          "distance": 0.33372387,
          "id": 1527822551
        },
        {
          "distance": 0.33979926,
          "id": 1762895697
        },
        {
          "distance": 0.3418435,
          "id": 1527822867
        },
        {
          "distance": 0.3437439,
          "id": 1527827081
        },
        {
          "distance": 0.34483084,
          "id": 1527824155
        },
        {
          "distance": 0.34734863,
          "id": 1527827083
        },
        {
          "distance": 0.35146123,
          "id": 1527822463
        }
      ],
      "apple/mobileclip_s2": [
        {
          "distance": 0.14482886,
          "id": 1527824161
        },
        {
          "distance": 0.4671427,
          "id": 1762891387
        },
        {
          "distance": 0.46829778,
          "id": 1527827081
        },
        {
          "distance": 0.47042918,
          "id": 1527822367
        },
        {
          "distance": 0.47209808,
          "id": 1527822083
        },
        {
          "distance": 0.47783935,
          "id": 1527822085
        },
        {
          "distance": 0.48120785,
          "id": 1762891399
        },
        {
          "distance": 0.4834893,
          "id": 1527827083
        },
        {
          "distance": 0.48650137,
          "id": 1762898583
        },
        {
          "distance": 0.48837435,
          "id": 1762895777
        }
      ]
    },
    "millsfield:subcategory_id": 1511213801,
    "mz:hierarchy_label": 1,
    "mz:is_current": -1,
    "sfomuseum:filename": "30320.tif",
    "sfomuseum:image_id": 30320,
    "sfomuseum:image_index": 5,
    "sfomuseum:image_type": "studio",
    "sfomuseum:object_id": 120062,
    "sfomuseum:placetype": "image",
    "sfomuseum:primary_image": 1,
    "src:geom": "sfomuseum",
    "wof:belongsto": [
      1511214209,
      1511950325,
      102527513,
      102191575,
      85633793,
      1511213801,
      85922583,
      102087579,
      1511214277,
      1511214203,
      85688637
    ],
    "wof:breaches": [],
    "wof:country": "US",
    "wof:created": 1578949257,
    "wof:depicts": [
      1511950325,
      102527513
    ],
    "wof:geomhash": "bd906905ce4be6c0651c90b0fc24804c",
    "wof:hierarchy": [
      {
        "arcade_id": 1511213801,
        "building_id": 1511214277,
        "campus_id": 102527513,
        "concourse_id": 1511214209,
        "continent_id": 102191575,
        "country_id": 85633793,
        "county_id": 102087579,
        "custom_id": 1527819407,
        "image_id": 1527819407,
        "locality_id": 85922583,
        "media_id": 1527819407,
        "neighbourhood_id": -1,
        "region_id": 85688637,
        "venue_id": 1511950325,
        "wing_id": 1511214203
      }
    ],
    "wof:id": 1527819407,
    "wof:lastmodified": 1788449720,
    "wof:name": "negative: San Francisco International Airport (SFO), aerial, South Terminal",
    "wof:parent_id": 1511950325,
    "wof:placetype": "custom",
    "wof:placetype_alt": [
      "image"
    ],
    "wof:repo": "sfomuseum-data-media-collection",
    "wof:superseded_by": [],
    "wof:supersedes": [],
    "wof:tags": []
  },
  "bbox": [
    -122.386155,
    37.616358,
    -122.386155,
    37.616358
  ],
  "geometry": {"type":"Point","coordinates":[-122.386155,37.616358]}
}
