{
  "id": 2048167345,
  "type": "Feature",
  "properties": {
    "date:cessation_lower": "1970-01-01",
    "date:cessation_upper": "1979-12-31",
    "date:inception_lower": "1970-01-01",
    "date:inception_upper": "1979-12-31",
    "edtf:cessation": "197X",
    "edtf:inception": "197X",
    "geom:area": 2.475047457570636e-7,
    "geom:bbox": "-122.386472,37.616105,-122.385834,37.616611",
    "geom:latitude": 37.61635747477365,
    "geom:longitude": -122.38615540108617,
    "media:fingerprint": "d904c8047cec6bde31291080495a7732ba08a49c",
    "media:imagehash_avg": "a:00383c3c3c3c3c00",
    "media:imagehash_diff": "d:4460606064606000",
    "media:imagetext": "CLIPPER\n•PAN AM®",
    "media:imagetext_created": 1787976481,
    "media:imagetext_source": "com.apple.visionkit.VNImageRequestHandler#Version 26.6.2 (Build 25G83)",
    "media:mimetype": "image/jpeg",
    "media:properties": {
      "colours": null,
      "sizes": {
        "b": {
          "extension": "jpg",
          "height": 767,
          "mimetype": "image/jpeg",
          "secret": "Vkwr5FntQnK7T3XjO6rJClx5uV5mT6Wm",
          "width": 959
        },
        "c": {
          "extension": "jpg",
          "height": 600,
          "mimetype": "image/jpeg",
          "secret": "Vkwr5FntQnK7T3XjO6rJClx5uV5mT6Wm",
          "width": 750
        },
        "dc": {
          "extension": "jpg",
          "height": 320,
          "mimetype": "image/jpeg",
          "secret": "Vkwr5FntQnK7T3XjO6rJClx5uV5mT6Wm",
          "width": 320
        },
        "ds": {
          "extension": "jpg",
          "height": 320,
          "mimetype": "image/jpeg",
          "secret": "Vkwr5FntQnK7T3XjO6rJClx5uV5mT6Wm",
          "width": 320
        },
        "k": {
          "extension": "jpg",
          "height": 1535,
          "mimetype": "image/jpeg",
          "secret": "Vkwr5FntQnK7T3XjO6rJClx5uV5mT6Wm",
          "width": 1919
        },
        "n": {
          "extension": "jpg",
          "height": 240,
          "mimetype": "image/jpeg",
          "secret": "Vkwr5FntQnK7T3XjO6rJClx5uV5mT6Wm",
          "width": 300
        },
        "o": {
          "extension": "jpg",
          "height": 2472,
          "mimetype": "image/jpeg",
          "secret": "i5u0snl6isaVtufHWFdsM9VKUikXRM3L",
          "width": 3090
        },
        "s": {
          "extension": "jpg",
          "height": 320,
          "mimetype": "image/jpeg",
          "secret": "Vkwr5FntQnK7T3XjO6rJClx5uV5mT6Wm",
          "width": 320
        },
        "z": {
          "extension": "jpg",
          "height": 480,
          "mimetype": "image/jpeg",
          "secret": "Vkwr5FntQnK7T3XjO6rJClx5uV5mT6Wm",
          "width": 600
        }
      }
    },
    "media:source": "sfomuseum",
    "media:status_id": 1,
    "media:uri_template": "https://static.sfomuseum.org/media/204/816/734/5/2048167345_{secret}_{label}.{extention}",
    "millsfield:airline_id": [
      1159284989
    ],
    "millsfield:category_id": 1746152533,
    "millsfield:collection_id": 1511214203,
    "millsfield:company_id": [
      1159286839
    ],
    "millsfield:images_colors": [
      {
        "hex": "#bdbab2",
        "name": "#bdbab2",
        "reference": "marekm4"
      },
      {
        "hex": "#c0c0c0",
        "name": "silver",
        "reference": "css4"
      },
      {
        "hex": "#b0b7c6",
        "name": "Cadet Blue",
        "reference": "crayola"
      }
    ],
    "millsfield:images_texts": [
      "CLIPPER\n•PAN AM®"
    ],
    "millsfield:images_texts_ids": [
      2048167345
    ],
    "millsfield:similar": {
      "apple/mobileclip_s0": [
        {
          "distance": 0.43221167,
          "id": 1914623177
        },
        {
          "distance": 0.4361711,
          "id": 1779968667
        },
        {
          "distance": 0.47603902,
          "id": 1779968841
        },
        {
          "distance": 0.5044704,
          "id": 1914623179
        },
        {
          "distance": 0.53792405,
          "id": 1527856351
        },
        {
          "distance": 0.61017907,
          "id": 1846754995
        },
        {
          "distance": 0.6307676,
          "id": 2015217641
        },
        {
          "distance": 0.63880926,
          "id": 1762706741
        },
        {
          "distance": 0.6590892,
          "id": 2048167655
        },
        {
          "distance": 0.6605854,
          "id": 1930466387
        }
      ],
      "apple/mobileclip_s1": [
        {
          "distance": 0.29261506,
          "id": 1779968667
        },
        {
          "distance": 0.3331298,
          "id": 1914623177
        },
        {
          "distance": 0.3489334,
          "id": 1779968841
        },
        {
          "distance": 0.383289,
          "id": 1914623179
        },
        {
          "distance": 0.44067952,
          "id": 1527856351
        },
        {
          "distance": 0.47038734,
          "id": 1762706741
        },
        {
          "distance": 0.48501393,
          "id": 1779744349
        },
        {
          "distance": 0.49308956,
          "id": 1846756457
        },
        {
          "distance": 0.50229055,
          "id": 2015217641
        },
        {
          "distance": 0.50511724,
          "id": 1846756493
        }
      ],
      "apple/mobileclip_s2": [
        {
          "distance": 0.36309916,
          "id": 1914623177
        },
        {
          "distance": 0.36503214,
          "id": 1914623179
        },
        {
          "distance": 0.43030232,
          "id": 1779968667
        },
        {
          "distance": 0.4418978,
          "id": 1779968841
        },
        {
          "distance": 0.58245695,
          "id": 1527856351
        },
        {
          "distance": 0.6493675,
          "id": 2015217649
        },
        {
          "distance": 0.65294695,
          "id": 2015217641
        },
        {
          "distance": 0.66389847,
          "id": 1762706741
        },
        {
          "distance": 0.66602296,
          "id": 2015217647
        },
        {
          "distance": 0.7018707,
          "id": 1763444533
        }
      ]
    },
    "millsfield:subcategory_id": 1511213839,
    "mz:is_current": 1,
    "sfomuseum:filename": "2024.100.1819.jpg",
    "sfomuseum:image_id": 293928,
    "sfomuseum:image_index": 0,
    "sfomuseum:image_type": "studio",
    "sfomuseum:object_id": 249795,
    "sfomuseum:placetype": "image",
    "sfomuseum:primary_image": 1,
    "src:geom": "sfomuseum",
    "wof:belongsto": [
      102527513,
      1159162825,
      102191575,
      85633793,
      102087579,
      85922583,
      2048162269,
      85688637,
      1159160869
    ],
    "wof:country": "XY",
    "wof:created": 1787815547,
    "wof:depicts": [
      1159286839,
      2048162269,
      1159284989
    ],
    "wof:geomhash": "c281b9d9eefc83b5710e64b9d646067d",
    "wof:hierarchy": [
      {
        "building_id": -1,
        "campus_id": 102527513,
        "collection_id": 1159162825,
        "concourse_id": 1159162825,
        "continent_id": 102191575,
        "country_id": 85633793,
        "county_id": 102087579,
        "custom_id": 2048167345,
        "locality_id": 85922583,
        "neighbourhood_id": -1,
        "object_id": 2048162269,
        "region_id": 85688637,
        "wing_id": 1159160869
      }
    ],
    "wof:id": 2048167345,
    "wof:lastmodified": 1788452764,
    "wof:name": "cocktail napkin: Pan American World Airways",
    "wof:parent_id": 2048162269,
    "wof:placetype": "custom",
    "wof:repo": "sfomuseum-data-media-collection",
    "wof:superseded_by": [],
    "wof:supersedes": []
  },
  "bbox": [
    -122.38647222518921,
    37.6161053594541,
    -122.38583385944366,
    37.61661101879963
  ],
  "geometry": {"type":"Polygon","coordinates":[[[-122.38647222518921,37.61631782178288],[-122.386434674263,37.61623283692423],[-122.38637566566466,37.61617759671399],[-122.38630056381224,37.6161308549656],[-122.38616108894348,37.6161053594541],[-122.38602161407469,37.6161308549656],[-122.38591432571411,37.61618609521055],[-122.38585531711577,37.61626683087935],[-122.38583385944366,37.61636881265146],[-122.38587141036987,37.61646654505181],[-122.38594114780425,37.61654303118856],[-122.38605380058287,37.61660252035167],[-122.38618254661559,37.61661101879963],[-122.3863059282303,37.61657277577607],[-122.3864185810089,37.61650903735973],[-122.3864668607712,37.61641130501523],[-122.38647222518921,37.61631782178288]]]}
}
