{
  "id": 1813192953,
  "type": "Feature",
  "properties": {
    "date:cessation_lower": "2003-01-01",
    "date:cessation_upper": "2003-12-31",
    "date:inception_lower": "2003-01-01",
    "date:inception_upper": "2003-12-31",
    "edtf:cessation": "2003",
    "edtf:inception": "2003",
    "geom:area": 2.477324999997507e-7,
    "geom:bbox": "-122.386472,37.616105,-122.385834,37.616611",
    "geom:latitude": 37.61635756125121,
    "geom:longitude": -122.38615532866096,
    "media:fingerprint": "b27d4204d9b4eb9c73db188b1c9ede94af77c4d7",
    "media:imagehash_avg": "a:c18181fd818181ff",
    "media:imagehash_diff": "d:1131414949010969",
    "media:imagetext": "Rev. 06/03\nS80\nSafety\nInstructions\nAmericanAirlines®",
    "media:imagetext_created": 1787967233,
    "media:imagetext_source": "com.apple.visionkit.VNImageRequestHandler#Version 26.6.2 (Build 25G83)",
    "media:mimetype": "image/tiff",
    "media:properties": {
      "sizes": {
        "b": {
          "extension": "jpg",
          "height": 768,
          "mimetype": "image/jpeg",
          "secret": "odxMt6PXfE0HeKHXaHYVdhOIA9Awza94",
          "width": 415
        },
        "c": {
          "extension": "jpg",
          "height": 600,
          "mimetype": "image/jpeg",
          "secret": "odxMt6PXfE0HeKHXaHYVdhOIA9Awza94",
          "width": 324
        },
        "dc": {
          "extension": "jpg",
          "height": 600,
          "mimetype": "image/jpeg",
          "secret": "odxMt6PXfE0HeKHXaHYVdhOIA9Awza94",
          "width": 324
        },
        "ds": {
          "extension": "jpg",
          "height": 320,
          "mimetype": "image/jpeg",
          "secret": "odxMt6PXfE0HeKHXaHYVdhOIA9Awza94",
          "width": 320
        },
        "k": {
          "extension": "jpg",
          "height": 1536,
          "mimetype": "image/jpeg",
          "secret": "odxMt6PXfE0HeKHXaHYVdhOIA9Awza94",
          "width": 831
        },
        "n": {
          "extension": "jpg",
          "height": 240,
          "mimetype": "image/jpeg",
          "secret": "odxMt6PXfE0HeKHXaHYVdhOIA9Awza94",
          "width": 129
        },
        "o": {
          "extension": "jpg",
          "height": 2000,
          "mimetype": "image/jpeg",
          "secret": "4mZPiaYLazMde7bsA6l64t2ra7AslOQg",
          "width": 1083
        },
        "s": {
          "extension": "jpg",
          "height": 320,
          "mimetype": "image/jpeg",
          "secret": "odxMt6PXfE0HeKHXaHYVdhOIA9Awza94",
          "width": 320
        },
        "z": {
          "extension": "jpg",
          "height": 480,
          "mimetype": "image/jpeg",
          "secret": "odxMt6PXfE0HeKHXaHYVdhOIA9Awza94",
          "width": 259
        }
      }
    },
    "media:source": "sfomuseum",
    "media:status_id": 1,
    "media:uri_template": "https://static.sfomuseum.org/media/181/319/295/3/1813192953_{secret}_{label}.{extension}",
    "millsfield:aircraft_id": [
      1159291285
    ],
    "millsfield:airline_id": [
      1159283849
    ],
    "millsfield:category_id": 1762671311,
    "millsfield:collection_id": 1511214207,
    "millsfield:company_id": [
      1159293561
    ],
    "millsfield:images_colors": [
      {
        "hex": "#c61b11",
        "name": "#c61b11",
        "reference": "marekm4"
      },
      {
        "hex": "#b22222",
        "name": "firebrick",
        "reference": "css4"
      },
      {
        "hex": "#ff2b2b",
        "name": "Orange Red",
        "reference": "crayola"
      },
      {
        "hex": "#ebe7e6",
        "name": "#ebe7e6",
        "reference": "marekm4"
      },
      {
        "hex": "#faf0e6",
        "name": "linen",
        "reference": "css4"
      },
      {
        "hex": "#fddde6",
        "name": "Piggy Pink",
        "reference": "crayola"
      },
      {
        "hex": "#121a40",
        "name": "#121a40",
        "reference": "marekm4"
      },
      {
        "hex": "#191970",
        "name": "midnightblue",
        "reference": "css4"
      },
      {
        "hex": "#414a4c",
        "name": "Outer Space",
        "reference": "crayola"
      },
      {
        "hex": "#6793ca",
        "name": "#6793ca",
        "reference": "marekm4"
      },
      {
        "hex": "#6495ed",
        "name": "cornflowerblue",
        "reference": "css4"
      },
      {
        "hex": "#6699cc",
        "name": "Blue Gray",
        "reference": "crayola"
      },
      {
        "hex": "#445ea0",
        "name": "#445ea0",
        "reference": "marekm4"
      },
      {
        "hex": "#483d8b",
        "name": "darkslateblue",
        "reference": "css4"
      },
      {
        "hex": "#2e5894",
        "name": "B'dazzled Blue",
        "reference": "crayola"
      }
    ],
    "millsfield:images_texts": [
      "Rev. 06/03\nS80\nSafety\nInstructions\nAmericanAirlines®"
    ],
    "millsfield:images_texts_ids": [
      1813192953
    ],
    "millsfield:similar": {
      "apple/mobileclip_s0": [
        {
          "distance": 0.14375454,
          "id": 1813192955
        },
        {
          "distance": 0.16473034,
          "id": 1813192937
        },
        {
          "distance": 0.18537596,
          "id": 1813192959
        },
        {
          "distance": 0.18626264,
          "id": 1813192957
        },
        {
          "distance": 0.19519977,
          "id": 1813192941
        },
        {
          "distance": 0.20185283,
          "id": 1813192939
        },
        {
          "distance": 0.20258564,
          "id": 2015065217
        },
        {
          "distance": 0.20606618,
          "id": 2015065219
        },
        {
          "distance": 0.21657977,
          "id": 1813192943
        },
        {
          "distance": 0.21838142,
          "id": 1813192945
        }
      ],
      "apple/mobileclip_s1": [
        {
          "distance": 0.10274835,
          "id": 1813192957
        },
        {
          "distance": 0.10836844,
          "id": 1813192955
        },
        {
          "distance": 0.11321255,
          "id": 1813192937
        },
        {
          "distance": 0.11859525,
          "id": 2015065217
        },
        {
          "distance": 0.12805249,
          "id": 1931096069
        },
        {
          "distance": 0.13555415,
          "id": 1931096063
        },
        {
          "distance": 0.13655983,
          "id": 2015065219
        },
        {
          "distance": 0.13932748,
          "id": 1813192941
        },
        {
          "distance": 0.1410229,
          "id": 1813192945
        },
        {
          "distance": 0.1426607,
          "id": 1813192949
        }
      ],
      "apple/mobileclip_s2": [
        {
          "distance": 0.14829879,
          "id": 1931096063
        },
        {
          "distance": 0.15414214,
          "id": 1813192957
        },
        {
          "distance": 0.1622524,
          "id": 1813192937
        },
        {
          "distance": 0.1644347,
          "id": 1813192955
        },
        {
          "distance": 0.17901185,
          "id": 2015065211
        },
        {
          "distance": 0.18068732,
          "id": 2015065217
        },
        {
          "distance": 0.1847009,
          "id": 2015065219
        },
        {
          "distance": 0.1850095,
          "id": 1813192941
        },
        {
          "distance": 0.18658918,
          "id": 1931096069
        },
        {
          "distance": 0.18818197,
          "id": 1813192959
        }
      ]
    },
    "millsfield:subcategory_id": 1511213703,
    "mz:is_current": 1,
    "sfomuseum:filename": "2020.052.153.tif",
    "sfomuseum:image_id": 234448,
    "sfomuseum:image_index": 5,
    "sfomuseum:image_type": "studio",
    "sfomuseum:object_id": 217908,
    "sfomuseum:placetype": "image",
    "sfomuseum:primary_image": 1,
    "src:geom": "sfomuseum",
    "wof:belongsto": [
      102527513,
      1159162825,
      102191575,
      85633793,
      102087579,
      85922583,
      1813192499,
      85688637,
      1159160869
    ],
    "wof:country": "XY",
    "wof:created": 1676316604,
    "wof:depicts": [
      1360700619,
      1159291285,
      1159293561,
      1813192499,
      1159283849
    ],
    "wof:geomhash": "ed7c2ab3547fc3916b5edc33488deaa7",
    "wof:hierarchy": [
      {
        "building_id": -1,
        "campus_id": 102527513,
        "collection_id": 1159162825,
        "concourse_id": 1159162825,
        "continent_id": 102191575,
        "country_id": 85633793,
        "county_id": 102087579,
        "custom_id": 1813192953,
        "image_id": 1813192953,
        "locality_id": 85922583,
        "neighbourhood_id": -1,
        "object_id": 1813192499,
        "region_id": 85688637,
        "wing_id": 1159160869
      }
    ],
    "wof:id": 1813192953,
    "wof:lastmodified": 1788451599,
    "wof:name": "safety information card: American Airlines, S80",
    "wof:parent_id": 1813192499,
    "wof:placetype": "custom",
    "wof:placetype_alt": [
      "image"
    ],
    "wof:repo": "sfomuseum-data-media-collection",
    "wof:superseded_by": [],
    "wof:supersedes": []
  },
  "bbox": [
    -122.386472,
    37.616105,
    -122.385834,
    37.616611
  ],
  "geometry": {"type":"Polygon","coordinates":[[[-122.386472,37.616318],[-122.386435,37.616233],[-122.386376,37.616178],[-122.386301,37.616131],[-122.386161,37.616105],[-122.386022,37.616131],[-122.385914,37.616186],[-122.385855,37.616267],[-122.385834,37.616369],[-122.385871,37.616467],[-122.385941,37.616543],[-122.386054,37.616603],[-122.386183,37.616611],[-122.386306,37.616573],[-122.386419,37.616509],[-122.386467,37.616411],[-122.386472,37.616318]]]}
}
