{
  "id": 1763196289,
  "type": "Feature",
  "properties": {
    "date:cessation_lower": "1939-01-01",
    "date:cessation_upper": "1939-12-31",
    "date:inception_lower": "1939-01-01",
    "date:inception_upper": "1939-12-31",
    "edtf:cessation": "1939",
    "edtf:inception": "1939",
    "geom:area": 2.477324999997507e-7,
    "geom:bbox": "-122.386472,37.616105,-122.385834,37.616611",
    "geom:latitude": 37.61635756125121,
    "geom:longitude": -122.38615532866096,
    "media:fingerprint": "cc309fdb82dcf3734a2c1eacee364182d5e7be53",
    "media:imagehash_avg": "a:00ffedfdfffffcb8",
    "media:imagehash_diff": "d:4b55454d510d6961",
    "media:imagetext": "PENNSYLVANIA Central AIRLINES ... Fastest Service Between ...\nBaltimore - Chicago\nDETROIT •GRAND RAPIDS•CHICAGO•MILWAUKEE\nNORFOLK • WASHINGTON\nBALTIMORE • PITTSBURGH\nAKRON\n• CLEVELAND • DETROIT\nWASHINGTON\nHARRISBURG\nBUFFALO\n31\n38\n19\n10\n18\nDaily\n4A\nDaily 62.\nSTANDARD TIME\n37\n61-8\nDail\n51\nSTANDARD TIME\nDaily\nSTANDARD TIME\nSun\nSun. \u0026 Hol\nDaily\nsur\nDaily\n\u0026 Hol.\nDaily\nDaily\nDaily\nDaily\nDaily\nDaily\nDaily\nDaily\nDaily\nDaily\nDaily\nDaily\nDaily\nDaily\nDaily\nDaily\nHol. Ex.\nDaily\nPM\nA VI\nPM\nPM\n- washinotons.\nPM\nAM\nAM\nAM\nPM\nPM\nPM\nPM\nLv Norfolk (EST)\nAr Washington\n955\n10 59\n8 40\n4 52\n7 57\n10 01\n9 25\nBuffalo (Via C. P.-Mich. C. Ry.). At\n140\nPM\nAM\nAr Cnicaco Col\nAM*\nPM\nLv Buffalo (Via AA)\nDETROIT\nTRAVERSE CITY\n• SAULT STE. MARIE\nPM\nAr Chicago i\nPM\nSTANDARD TIME\n72\nDONT A NOR\nBally\nBally\nNORFOLK\nWASHINGTON\nBALTIMORE\nCLEVELAND\nCHICAGO\nWEST\nCOAST\nPITTSBURGH\nBUFFALO\nSTANDARD TIME\nDaily\nDaily\nDail\nSTANDARD TIME\nPM\n-Bay\nDaily\nPM\nDaily\nDaily\nPM\nPM\nCity\n35\n50\nLv Norfolk (EST).\nLv Pittsburgh (EST)...\n16\n10 01\nso. Marie BESi\nLv Buffalo (Via C. P.-Mich. C. Ry.).\n10 55\nAT FUTUREU\nLv Akron\nAr Cleveland.\nWASHINGTON\nMILWAUKEE\nNORTHWEST\nNORFOLK\nPHILADELPHIA\nNEW\nYORK\n3-33\n45\nDaily\nDaily\nii 25\nSTANDARD TIME\nSTANDARD TIME\nLv Norfolk (EST)..\nT. Norfolk (0S)..\nChicago 885:\n10\nPM\nPM\nPM\nAM\nPM\nPM\nAM\nIv Washington...\nh10 38\nNADONNO\nAr Baltimore\nNORFOLK\nWASHINGTON\nBALTIMORE -.-\nPITTSBURGH\nCHICAGO\nWEST COAST\nh 3 50\nAr New York (EST) (Via EAL).\nAM\nDaily\nDaily\n19\nDaily\nDaily\nDaily\n10\n18\nPM\nSTANDARD TIME\nDaily\nDaily\nDail\nDaily\nDaily\nDaily\nFLORIDA\nand\nthe\nSOUTHEAST\nPM\nPM\nPM\nAM\nAM\nPM\nPM\nPM\nPM\nPM\nAr Milwaukee (NWA)\nLy Nasik (ST)..\n18-5118-518-61\nDaily\nSTANDARD TIME\nDaily\n757\nMail.\n10 01\n10\n859:\nAr St. Paul..\nr Biline\ns (MST\nAr Spokane (PST)\nar Portand\nPM\"\n100 A.\nLv Detroit (EST).\nAr Seattle (PST)\n\u0026:\n5:\nPM\nLv Pittsburgh.\nAr Washington (EST).\n52222\nLv Buffalo (EST)\nCINCINNATI\nDALLAS\nSOUTHWEST\nSaily\nSTANDARD TIME\nAM\nPM\nPM\nPM\nPM\nPM\n*AM\nPM\nPM\nPM\nPM\nPM\nPM\nCHICAGO\n• MILWAUKEE\nDETROIT\nCLEVELAND • HARRISBURG\nPHILADELPHIA\nAr Washington (EST\nNEW YORK\n10 35\nLv Washington (Via EAL).\n845\n2 4-4.\n38 32-8\n2-33\nDaily\nDaily\nDaily\nDaily\nDaily\nDaily\n19\nSTANDARD TIME\nDailv\nDaily\nDaily\nMail.\nDaily\nDaily\nDaily\nDaily\nDaily\n3 20\nDM\n10\nAr Miami (EST)..........\nPM\nPM\nAM\nAN\nPM\nPM\n3 20\nLv Chicago (CST\nf-Daily except Sundays and Holidays.\nf-Flag stop.\ng-Stop temporarily discontinued\nd (Via AA\n• Musketon EST\n-Vie Penngv vania Kalroad\nLv Grand Rapids\nDayton.\n30-945\n→5 30\nMILWAUKEE\nSAULT STE. MARIE\n) BUFFALO\nTRAVERSE CITY\nА вина. и\n- Detroit (Via A4)\nCAGINAW RAY CIT\nWILL AMSPORT\nTO THE\nSLINI\nHARRISBURG\nLos Angeles (PST)\n10 30\n10\n1950\nd7 30\n(Via UAL).\n*CHICAGO\n-Only stops to c\nned beyond Detroit\non PCA.\n-ally except Sundav\n- Valv except Saturdays.\n853\nSee\nTwice as Much!\nFOR LITTLE OR NO EXTRA FARE\n° 43\n1 (Via TWA\nPhiladelphia\nAr New York (EST).\ne-Daily except Saturdavs.\nE39855888\n\"DETRON\nBAPN\nДОЙН\nCLEVELAN\nWASHINGTON\nVisit Washington on your way to or from the New York World's Fair\nb-Daily except Mondays.\nCONN\nC T\nAM\nPM\nd-Daily except Sundays\nS\nAM\nAM\nS\naio\nPM\npM\nDaily arcent Sundave and Mondave\nT\nServing 20 Million People in 20 Cities and 8 States\nC\nO\nA\nS\nT",
    "media:imagetext_created": 1787961143,
    "media:imagetext_source": "com.apple.visionkit.VNImageRequestHandler#Version 26.6.2 (Build 25G83)",
    "media:mimetype": "image/tiff",
    "media:properties": {
      "sizes": {
        "b": {
          "extension": "jpg",
          "height": 580,
          "mimetype": "image/jpeg",
          "secret": "KwltxVpqp8dVl0wW8OYlzaWUX7oJ1a4e",
          "width": 1024
        },
        "c": {
          "extension": "jpg",
          "height": 453,
          "mimetype": "image/jpeg",
          "secret": "KwltxVpqp8dVl0wW8OYlzaWUX7oJ1a4e",
          "width": 800
        },
        "dc": {
          "extension": "jpg",
          "height": 453,
          "mimetype": "image/jpeg",
          "secret": "KwltxVpqp8dVl0wW8OYlzaWUX7oJ1a4e",
          "width": 800
        },
        "ds": {
          "extension": "jpg",
          "height": 320,
          "mimetype": "image/jpeg",
          "secret": "KwltxVpqp8dVl0wW8OYlzaWUX7oJ1a4e",
          "width": 320
        },
        "k": {
          "extension": "jpg",
          "height": 1160,
          "mimetype": "image/jpeg",
          "secret": "KwltxVpqp8dVl0wW8OYlzaWUX7oJ1a4e",
          "width": 2048
        },
        "n": {
          "extension": "jpg",
          "height": 181,
          "mimetype": "image/jpeg",
          "secret": "KwltxVpqp8dVl0wW8OYlzaWUX7oJ1a4e",
          "width": 320
        },
        "o": {
          "extension": "jpg",
          "height": 1360,
          "mimetype": "image/jpeg",
          "secret": "pSIL3TJnlgi9HimWKGeBIUCE5orq4VrU",
          "width": 2400
        },
        "s": {
          "extension": "jpg",
          "height": 320,
          "mimetype": "image/jpeg",
          "secret": "KwltxVpqp8dVl0wW8OYlzaWUX7oJ1a4e",
          "width": 320
        },
        "z": {
          "extension": "jpg",
          "height": 362,
          "mimetype": "image/jpeg",
          "secret": "KwltxVpqp8dVl0wW8OYlzaWUX7oJ1a4e",
          "width": 640
        }
      }
    },
    "media:source": "sfomuseum",
    "media:status_id": 1,
    "media:uri_template": "https://static.sfomuseum.org/media/176/319/628/9/1763196289_{secret}_{label}.{extension}",
    "millsfield:airline_id": [
      1159285009
    ],
    "millsfield:category_id": 1511214223,
    "millsfield:collection_id": 1511214207,
    "millsfield:company_id": [
      1159288787
    ],
    "millsfield:images_colors": [
      {
        "hex": "#e4ce8e",
        "name": "#e4ce8e",
        "reference": "marekm4"
      },
      {
        "hex": "#deb887",
        "name": "burlywood",
        "reference": "css4"
      },
      {
        "hex": "#e7c697",
        "name": "Gold",
        "reference": "crayola"
      },
      {
        "hex": "#262620",
        "name": "#262620",
        "reference": "marekm4"
      },
      {
        "hex": "#000000",
        "name": "black",
        "reference": "css4"
      },
      {
        "hex": "#000000",
        "name": "Black",
        "reference": "crayola"
      },
      {
        "hex": "#baa972",
        "name": "#baa972",
        "reference": "marekm4"
      },
      {
        "hex": "#bdb76b",
        "name": "darkkhaki",
        "reference": "css4"
      },
      {
        "hex": "#bab86c",
        "name": "Olive Green",
        "reference": "crayola"
      }
    ],
    "millsfield:images_texts": [
      "P\nEFFECTIVE MARCH 1, 1939\nENNSYLYANIA\nCentral AIRLINES\nSERVING THE CAPITALS OF INDUSTRY\nCOURTESY OF\nBRACE-ERION CORP.\nSAULT STE. MARIE\nWASHINGTON\nCLEVELAND\nCHICAGO\nDETROIT\nAKRON\nNORFOLK\nPITTSBURGH\nWILLIAMSPORT\nBUFFALO, N. Y\nFLINT\nSAGINAW-BAY CITY\nHARRISBURG\nMILWAUKEE\nMUSKEGON\nLANSING\nBUFFALO\nBALTIMORE\nGRAND RAPIDS\nTRAVERSE CITY",
      "PENNSYLVANIA Central AIRLINES ... Fastest Service Between ...\nBaltimore - Chicago\nDETROIT •GRAND RAPIDS•CHICAGO•MILWAUKEE\nNORFOLK • WASHINGTON\nBALTIMORE • PITTSBURGH\nAKRON\n• CLEVELAND • DETROIT\nWASHINGTON\nHARRISBURG\nBUFFALO\n31\n38\n19\n10\n18\nDaily\n4A\nDaily 62.\nSTANDARD TIME\n37\n61-8\nDail\n51\nSTANDARD TIME\nDaily\nSTANDARD TIME\nSun\nSun. \u0026 Hol\nDaily\nsur\nDaily\n\u0026 Hol.\nDaily\nDaily\nDaily\nDaily\nDaily\nDaily\nDaily\nDaily\nDaily\nDaily\nDaily\nDaily\nDaily\nDaily\nDaily\nDaily\nHol. Ex.\nDaily\nPM\nA VI\nPM\nPM\n- washinotons.\nPM\nAM\nAM\nAM\nPM\nPM\nPM\nPM\nLv Norfolk (EST)\nAr Washington\n955\n10 59\n8 40\n4 52\n7 57\n10 01\n9 25\nBuffalo (Via C. P.-Mich. C. Ry.). At\n140\nPM\nAM\nAr Cnicaco Col\nAM*\nPM\nLv Buffalo (Via AA)\nDETROIT\nTRAVERSE CITY\n• SAULT STE. MARIE\nPM\nAr Chicago i\nPM\nSTANDARD TIME\n72\nDONT A NOR\nBally\nBally\nNORFOLK\nWASHINGTON\nBALTIMORE\nCLEVELAND\nCHICAGO\nWEST\nCOAST\nPITTSBURGH\nBUFFALO\nSTANDARD TIME\nDaily\nDaily\nDail\nSTANDARD TIME\nPM\n-Bay\nDaily\nPM\nDaily\nDaily\nPM\nPM\nCity\n35\n50\nLv Norfolk (EST).\nLv Pittsburgh (EST)...\n16\n10 01\nso. Marie BESi\nLv Buffalo (Via C. P.-Mich. C. Ry.).\n10 55\nAT FUTUREU\nLv Akron\nAr Cleveland.\nWASHINGTON\nMILWAUKEE\nNORTHWEST\nNORFOLK\nPHILADELPHIA\nNEW\nYORK\n3-33\n45\nDaily\nDaily\nii 25\nSTANDARD TIME\nSTANDARD TIME\nLv Norfolk (EST)..\nT. Norfolk (0S)..\nChicago 885:\n10\nPM\nPM\nPM\nAM\nPM\nPM\nAM\nIv Washington...\nh10 38\nNADONNO\nAr Baltimore\nNORFOLK\nWASHINGTON\nBALTIMORE -.-\nPITTSBURGH\nCHICAGO\nWEST COAST\nh 3 50\nAr New York (EST) (Via EAL).\nAM\nDaily\nDaily\n19\nDaily\nDaily\nDaily\n10\n18\nPM\nSTANDARD TIME\nDaily\nDaily\nDail\nDaily\nDaily\nDaily\nFLORIDA\nand\nthe\nSOUTHEAST\nPM\nPM\nPM\nAM\nAM\nPM\nPM\nPM\nPM\nPM\nAr Milwaukee (NWA)\nLy Nasik (ST)..\n18-5118-518-61\nDaily\nSTANDARD TIME\nDaily\n757\nMail.\n10 01\n10\n859:\nAr St. Paul..\nr Biline\ns (MST\nAr Spokane (PST)\nar Portand\nPM\"\n100 A.\nLv Detroit (EST).\nAr Seattle (PST)\n\u0026:\n5:\nPM\nLv Pittsburgh.\nAr Washington (EST).\n52222\nLv Buffalo (EST)\nCINCINNATI\nDALLAS\nSOUTHWEST\nSaily\nSTANDARD TIME\nAM\nPM\nPM\nPM\nPM\nPM\n*AM\nPM\nPM\nPM\nPM\nPM\nPM\nCHICAGO\n• MILWAUKEE\nDETROIT\nCLEVELAND • HARRISBURG\nPHILADELPHIA\nAr Washington (EST\nNEW YORK\n10 35\nLv Washington (Via EAL).\n845\n2 4-4.\n38 32-8\n2-33\nDaily\nDaily\nDaily\nDaily\nDaily\nDaily\n19\nSTANDARD TIME\nDailv\nDaily\nDaily\nMail.\nDaily\nDaily\nDaily\nDaily\nDaily\n3 20\nDM\n10\nAr Miami (EST)..........\nPM\nPM\nAM\nAN\nPM\nPM\n3 20\nLv Chicago (CST\nf-Daily except Sundays and Holidays.\nf-Flag stop.\ng-Stop temporarily discontinued\nd (Via AA\n• Musketon EST\n-Vie Penngv vania Kalroad\nLv Grand Rapids\nDayton.\n30-945\n→5 30\nMILWAUKEE\nSAULT STE. MARIE\n) BUFFALO\nTRAVERSE CITY\nА вина. и\n- Detroit (Via A4)\nCAGINAW RAY CIT\nWILL AMSPORT\nTO THE\nSLINI\nHARRISBURG\nLos Angeles (PST)\n10 30\n10\n1950\nd7 30\n(Via UAL).\n*CHICAGO\n-Only stops to c\nned beyond Detroit\non PCA.\n-ally except Sundav\n- Valv except Saturdays.\n853\nSee\nTwice as Much!\nFOR LITTLE OR NO EXTRA FARE\n° 43\n1 (Via TWA\nPhiladelphia\nAr New York (EST).\ne-Daily except Saturdavs.\nE39855888\n\"DETRON\nBAPN\nДОЙН\nCLEVELAN\nWASHINGTON\nVisit Washington on your way to or from the New York World's Fair\nb-Daily except Mondays.\nCONN\nC T\nAM\nPM\nd-Daily except Sundays\nS\nAM\nAM\nS\naio\nPM\npM\nDaily arcent Sundave and Mondave\nT\nServing 20 Million People in 20 Cities and 8 States\nC\nO\nA\nS\nT"
    ],
    "millsfield:images_texts_ids": [
      1763196287,
      1763196289
    ],
    "millsfield:similar": {
      "apple/mobileclip_s0": [
        {
          "distance": 0.4592407,
          "id": 1763196285
        },
        {
          "distance": 0.6083001,
          "id": 1763249329
        },
        {
          "distance": 0.6102571,
          "id": 1527855151
        },
        {
          "distance": 0.61353636,
          "id": 1527850609
        },
        {
          "distance": 0.6185947,
          "id": 1763196195
        },
        {
          "distance": 0.6224143,
          "id": 1527850483
        },
        {
          "distance": 0.6240062,
          "id": 1527850749
        },
        {
          "distance": 0.62524855,
          "id": 1762698071
        },
        {
          "distance": 0.62633044,
          "id": 1763196315
        },
        {
          "distance": 0.62942606,
          "id": 1527854927
        }
      ],
      "apple/mobileclip_s1": [
        {
          "distance": 0.29932058,
          "id": 1763196285
        },
        {
          "distance": 0.3772226,
          "id": 1527850481
        },
        {
          "distance": 0.3801493,
          "id": 1527850487
        },
        {
          "distance": 0.38888964,
          "id": 1527850749
        },
        {
          "distance": 0.39799988,
          "id": 1527850489
        },
        {
          "distance": 0.40320724,
          "id": 1527850483
        },
        {
          "distance": 0.40478468,
          "id": 1763196195
        },
        {
          "distance": 0.40488175,
          "id": 1762698071
        },
        {
          "distance": 0.40599704,
          "id": 1762713989
        },
        {
          "distance": 0.4109911,
          "id": 1527850747
        }
      ],
      "apple/mobileclip_s2": [
        {
          "distance": 0.40914112,
          "id": 1763196285
        },
        {
          "distance": 0.5961694,
          "id": 1527850483
        },
        {
          "distance": 0.6047624,
          "id": 1527850481
        },
        {
          "distance": 0.60822177,
          "id": 1527850749
        },
        {
          "distance": 0.6232476,
          "id": 1762698441
        },
        {
          "distance": 0.62435687,
          "id": 1527850487
        },
        {
          "distance": 0.6302319,
          "id": 1762698071
        },
        {
          "distance": 0.63642776,
          "id": 1762700801
        },
        {
          "distance": 0.6377549,
          "id": 1763241473
        },
        {
          "distance": 0.6422611,
          "id": 1762698201
        }
      ]
    },
    "millsfield:subcategory_id": 1511213425,
    "mz:is_current": 1,
    "sfomuseum:filename": "2014.082.019_int.tif",
    "sfomuseum:image_id": 102088,
    "sfomuseum:image_index": 5,
    "sfomuseum:image_type": "studio",
    "sfomuseum:object_id": 156403,
    "sfomuseum:placetype": "image",
    "sfomuseum:primary_image": 0,
    "src:geom": "sfomuseum",
    "wof:belongsto": [
      102527513,
      1159162825,
      102191575,
      85633793,
      102087579,
      85922583,
      1763195335,
      85688637,
      1159160869
    ],
    "wof:country": "XY",
    "wof:created": 1646383661,
    "wof:depicts": [
      1763195335,
      1159285009,
      1159288787
    ],
    "wof:geomhash": "ed7c2ab3547fc3916b5edc33488deaa7",
    "wof:hierarchy": [
      {
        "building_id": -1,
        "campus_id": 102527513,
        "collection_id": 1159162825,
        "concourse_id": 1159162825,
        "continent_id": 102191575,
        "country_id": 85633793,
        "county_id": 102087579,
        "custom_id": 1763196289,
        "image_id": 1763196289,
        "locality_id": 85922583,
        "neighbourhood_id": -1,
        "object_id": 1763195335,
        "region_id": 85688637,
        "wing_id": 1159160869
      }
    ],
    "wof:id": 1763196289,
    "wof:lastmodified": 1788216853,
    "wof:name": "timetable: Pennsylvania Central Airlines",
    "wof:parent_id": 1763195335,
    "wof:placetype": "custom",
    "wof:placetype_alt": [
      "image"
    ],
    "wof:repo": "sfomuseum-data-media-collection",
    "wof:superseded_by": [],
    "wof:supersedes": []
  },
  "bbox": [
    -122.386472,
    37.616105,
    -122.385834,
    37.616611
  ],
  "geometry": {"type":"Polygon","coordinates":[[[-122.386472,37.616318],[-122.386435,37.616233],[-122.386376,37.616178],[-122.386301,37.616131],[-122.386161,37.616105],[-122.386022,37.616131],[-122.385914,37.616186],[-122.385855,37.616267],[-122.385834,37.616369],[-122.385871,37.616467],[-122.385941,37.616543],[-122.386054,37.616603],[-122.386183,37.616611],[-122.386306,37.616573],[-122.386419,37.616509],[-122.386467,37.616411],[-122.386472,37.616318]]]}
}
