{
  "id": 1527856441,
  "type": "Feature",
  "properties": {
    "date:cessation_lower": "1934-09-01",
    "date:cessation_upper": "1934-09-01",
    "date:inception_lower": "1934-09-01",
    "date:inception_upper": "1934-09-01",
    "edtf:cessation": "1934-09-01",
    "edtf:date": "1934-09-01",
    "edtf:inception": "1934-09-01",
    "geom:area": 0,
    "geom:bbox": "-122.386155,37.616358,-122.386155,37.616358",
    "geom:latitude": 37.616358,
    "geom:longitude": -122.386155,
    "iso:country": "XX",
    "media:fingerprint": "bd9ccfce781e251a915462457d8e5972dcc721f6",
    "media:imagehash_avg": "a:c39f7f7e7f7f7e00",
    "media:imagehash_diff": "d:8e6c9eecf8f8dcad",
    "media:imagetext": "194",
    "media:imagetext_created": 1701958550,
    "media:imagetext_source": "com.apple.visionkit.VNImageRequestHandler#Version 14.1.2 (Build 23B92)",
    "media:medium": "image",
    "media:mimetype": "image/tiff",
    "media:properties": {
      "sizes": {
        "b": {
          "extension": "jpg",
          "height": 584,
          "mimetype": "image/jpeg",
          "secret": "D1IlSP3HOwrljawDQ6PUrsLbKGoC4ZSd",
          "width": 1024
        },
        "c": {
          "extension": "jpg",
          "height": 456,
          "mimetype": "image/jpeg",
          "secret": "D1IlSP3HOwrljawDQ6PUrsLbKGoC4ZSd",
          "width": 800
        },
        "dc": {
          "extension": "jpg",
          "height": 456,
          "mimetype": "image/jpeg",
          "secret": "D1IlSP3HOwrljawDQ6PUrsLbKGoC4ZSd",
          "width": 800
        },
        "ds": {
          "extension": "jpg",
          "height": 320,
          "mimetype": "image/jpeg",
          "secret": "D1IlSP3HOwrljawDQ6PUrsLbKGoC4ZSd",
          "width": 320
        },
        "k": {
          "extension": "jpg",
          "height": 1168,
          "mimetype": "image/jpeg",
          "secret": "D1IlSP3HOwrljawDQ6PUrsLbKGoC4ZSd",
          "width": 2048
        },
        "n": {
          "extension": "jpg",
          "height": 182,
          "mimetype": "image/jpeg",
          "secret": "D1IlSP3HOwrljawDQ6PUrsLbKGoC4ZSd",
          "width": 320
        },
        "o": {
          "extension": "jpg",
          "height": 1196,
          "mimetype": "image/jpeg",
          "secret": "pBgJbv2RmfDYXou3z3HyaUa12P1bC8Aa",
          "width": 2096
        },
        "s": {
          "extension": "jpg",
          "height": 320,
          "mimetype": "image/jpeg",
          "secret": "D1IlSP3HOwrljawDQ6PUrsLbKGoC4ZSd",
          "width": 320
        },
        "z": {
          "extension": "jpg",
          "height": 365,
          "mimetype": "image/jpeg",
          "secret": "D1IlSP3HOwrljawDQ6PUrsLbKGoC4ZSd",
          "width": 640
        }
      }
    },
    "media:source": "sfomuseum",
    "media:status_id": 1,
    "media:uri_template": "https://static.sfomuseum.org/media/152/785/644/1/1527856441_{secret}_{label}.{extension}",
    "millsfield:category_id": 1511214215,
    "millsfield:collection_id": 1511214207,
    "millsfield:images_colors": [
      {
        "hex": "#d5c5a2",
        "name": "#d5c5a2",
        "reference": "marekm4"
      },
      {
        "hex": "#d2b48c",
        "name": "tan",
        "reference": "css4"
      },
      {
        "hex": "#e7c697",
        "name": "Gold",
        "reference": "crayola"
      },
      {
        "hex": "#18203b",
        "name": "#18203b",
        "reference": "marekm4"
      },
      {
        "hex": "#191970",
        "name": "midnightblue",
        "reference": "css4"
      },
      {
        "hex": "#414a4c",
        "name": "Outer Space",
        "reference": "crayola"
      },
      {
        "hex": "#b42d0e",
        "name": "#b42d0e",
        "reference": "marekm4"
      },
      {
        "hex": "#b22222",
        "name": "firebrick",
        "reference": "css4"
      },
      {
        "hex": "#c46210",
        "name": "Alloy Orange",
        "reference": "crayola"
      },
      {
        "hex": "#b9a175",
        "name": "#b9a175",
        "reference": "marekm4"
      },
      {
        "hex": "#bdb76b",
        "name": "darkkhaki",
        "reference": "css4"
      },
      {
        "hex": "#cd9575",
        "name": "Antique Brass",
        "reference": "crayola"
      }
    ],
    "millsfield:images_texts": [
      "SEP 1\n1934\nMA\nCONY\n00000000000\nWASHINGTO\nGENIES\n5\nVIA AIR MAIL\nMiss Virginia Le Count\n40-41 68th St•\nWoodside, New York.",
      "194"
    ],
    "millsfield:images_texts_ids": [
      1527856439,
      1527856441
    ],
    "millsfield:similar": {
      "apple/mobileclip_s0": [
        {
          "distance": 0.19988932,
          "id": 1527856447
        },
        {
          "distance": 0.24590258,
          "id": 1527856487
        },
        {
          "distance": 0.2607642,
          "id": 1527856527
        },
        {
          "distance": 0.2776731,
          "id": 1527856465
        },
        {
          "distance": 0.28514507,
          "id": 1527856509
        },
        {
          "distance": 0.29463682,
          "id": 1527856469
        },
        {
          "distance": 0.3079761,
          "id": 1527856491
        },
        {
          "distance": 0.31154603,
          "id": 1527856459
        },
        {
          "distance": 0.31361237,
          "id": 1527856531
        },
        {
          "distance": 0.3203048,
          "id": 1527854339
        }
      ],
      "apple/mobileclip_s1": [
        {
          "distance": 0.1135115,
          "id": 1527856469
        },
        {
          "distance": 0.12870061,
          "id": 1527856447
        },
        {
          "distance": 0.13428523,
          "id": 1527856487
        },
        {
          "distance": 0.14432377,
          "id": 1527856465
        },
        {
          "distance": 0.14758007,
          "id": 1527856527
        },
        {
          "distance": 0.14918059,
          "id": 1527856509
        },
        {
          "distance": 0.16670601,
          "id": 1527856491
        },
        {
          "distance": 0.17568107,
          "id": 1527856531
        },
        {
          "distance": 0.17869008,
          "id": 1527854401
        },
        {
          "distance": 0.18980704,
          "id": 1527856537
        }
      ],
      "apple/mobileclip_s2": [
        {
          "distance": 0.15914507,
          "id": 1527856447
        },
        {
          "distance": 0.18659991,
          "id": 1527856469
        },
        {
          "distance": 0.18795685,
          "id": 1527856487
        },
        {
          "distance": 0.19570112,
          "id": 1527856465
        },
        {
          "distance": 0.20729296,
          "id": 1527854339
        },
        {
          "distance": 0.21209621,
          "id": 1527856509
        },
        {
          "distance": 0.23677349,
          "id": 1527832865
        },
        {
          "distance": 0.2410433,
          "id": 1527832873
        },
        {
          "distance": 0.24404182,
          "id": 1527834651
        },
        {
          "distance": 0.24638322,
          "id": 1527834241
        }
      ]
    },
    "millsfield:subcategory_id": 1511213159,
    "mz:hierarchy_label": 1,
    "mz:is_current": -1,
    "sfomuseum:filename": "152371.tif",
    "sfomuseum:image_id": 152371,
    "sfomuseum:image_index": 5,
    "sfomuseum:image_type": "studio",
    "sfomuseum:object_id": 163660,
    "sfomuseum:placetype": "image",
    "sfomuseum:primary_image": 0,
    "src:geom": "sfomuseum",
    "wof:belongsto": [
      1511214203,
      1511957473,
      102191575,
      1511213159,
      1511214277,
      102527513,
      85633793,
      102087579,
      85688637,
      85922583,
      1511214215
    ],
    "wof:breaches": [],
    "wof:country": "XX",
    "wof:created": 1578955137,
    "wof:depicts": [
      1511957473
    ],
    "wof:geomhash": "bd906905ce4be6c0651c90b0fc24804c",
    "wof:hierarchy": [
      {
        "arcade_id": 1511213159,
        "building_id": 1511214277,
        "campus_id": 102527513,
        "concourse_id": 1511214215,
        "continent_id": 102191575,
        "country_id": 85633793,
        "county_id": 102087579,
        "custom_id": 1527856441,
        "image_id": 1527856441,
        "locality_id": 85922583,
        "media_id": 1527856441,
        "neighbourhood_id": -1,
        "region_id": 85688637,
        "venue_id": 1511957473,
        "wing_id": 1511214203
      }
    ],
    "wof:id": 1527856441,
    "wof:lastmodified": 1788450257,
    "wof:name": "airmail flight cover: Tyler, Texas",
    "wof:parent_id": 1511957473,
    "wof:placetype": "custom",
    "wof:placetype_alt": [
      "image"
    ],
    "wof:repo": "sfomuseum-data-media-collection",
    "wof:superseded_by": [],
    "wof:supersedes": [],
    "wof:tags": []
  },
  "bbox": [
    -122.386155,
    37.616358,
    -122.386155,
    37.616358
  ],
  "geometry": {"type":"Point","coordinates":[-122.386155,37.616358]}
}
