{
  "id": 1779667757,
  "type": "Feature",
  "properties": {
    "date:cessation_lower": "2017-01-01",
    "date:cessation_upper": "2017-12-31",
    "date:inception_lower": "2017-01-01",
    "date:inception_upper": "2017-12-31",
    "edtf:cessation": "2017",
    "edtf:inception": "2017",
    "geom:area": 2.477324999997507e-7,
    "geom:bbox": "-122.386472,37.616105,-122.385834,37.616611",
    "geom:latitude": 37.61635756125121,
    "geom:longitude": -122.38615532866096,
    "media:fingerprint": "74ca097eea5ed5a44724d83bc1a2af95ef322fd9",
    "media:imagehash_avg": "a:99fdfd8181818181",
    "media:imagehash_diff": "d:7171717165454501",
    "media:imagetext": "THE BAR\nDelta Sky Club",
    "media:imagetext_created": 1787964589,
    "media:imagetext_source": "com.apple.visionkit.VNImageRequestHandler#Version 26.6.2 (Build 25G83)",
    "media:mimetype": "image/tiff",
    "media:properties": {
      "sizes": {
        "b": {
          "extension": "jpg",
          "height": 768,
          "mimetype": "image/jpeg",
          "secret": "5tvb526dwYZ02RBHs7jr753Uh1IMd3t3",
          "width": 323
        },
        "c": {
          "extension": "jpg",
          "height": 600,
          "mimetype": "image/jpeg",
          "secret": "5tvb526dwYZ02RBHs7jr753Uh1IMd3t3",
          "width": 252
        },
        "dc": {
          "extension": "jpg",
          "height": 600,
          "mimetype": "image/jpeg",
          "secret": "5tvb526dwYZ02RBHs7jr753Uh1IMd3t3",
          "width": 252
        },
        "ds": {
          "extension": "jpg",
          "height": 320,
          "mimetype": "image/jpeg",
          "secret": "5tvb526dwYZ02RBHs7jr753Uh1IMd3t3",
          "width": 320
        },
        "k": {
          "extension": "jpg",
          "height": 1536,
          "mimetype": "image/jpeg",
          "secret": "5tvb526dwYZ02RBHs7jr753Uh1IMd3t3",
          "width": 647
        },
        "n": {
          "extension": "jpg",
          "height": 240,
          "mimetype": "image/jpeg",
          "secret": "5tvb526dwYZ02RBHs7jr753Uh1IMd3t3",
          "width": 101
        },
        "o": {
          "extension": "jpg",
          "height": 2000,
          "mimetype": "image/jpeg",
          "secret": "L7iuemNDlgwHfQHXH8291WAUchMZ0riM",
          "width": 843
        },
        "s": {
          "extension": "jpg",
          "height": 320,
          "mimetype": "image/jpeg",
          "secret": "5tvb526dwYZ02RBHs7jr753Uh1IMd3t3",
          "width": 320
        },
        "z": {
          "extension": "jpg",
          "height": 480,
          "mimetype": "image/jpeg",
          "secret": "5tvb526dwYZ02RBHs7jr753Uh1IMd3t3",
          "width": 202
        }
      }
    },
    "media:source": "sfomuseum",
    "media:status_id": 1,
    "media:uri_template": "https://static.sfomuseum.org/media/177/966/775/7/1779667757_{secret}_{label}.{extension}",
    "millsfield:airline_id": [
      1159284261
    ],
    "millsfield:category_id": 1762671311,
    "millsfield:collection_id": 1511214207,
    "millsfield:company_id": [
      1159287931
    ],
    "millsfield:images_colors": [
      {
        "hex": "#323030",
        "name": "#323030",
        "reference": "marekm4"
      },
      {
        "hex": "#2f4f4f",
        "name": "darkslategrey",
        "reference": "css4"
      },
      {
        "hex": "#414a4c",
        "name": "Outer Space",
        "reference": "crayola"
      },
      {
        "hex": "#edeeeb",
        "name": "#edeeeb",
        "reference": "marekm4"
      },
      {
        "hex": "#faf0e6",
        "name": "linen",
        "reference": "css4"
      },
      {
        "hex": "#fddde6",
        "name": "Piggy Pink",
        "reference": "crayola"
      },
      {
        "hex": "#a99a09",
        "name": "#a99a09",
        "reference": "marekm4"
      },
      {
        "hex": "#b8860b",
        "name": "darkgoldenrod",
        "reference": "css4"
      },
      {
        "hex": "#9c7c38",
        "name": "Metallic Sunburst",
        "reference": "crayola"
      }
    ],
    "millsfield:images_texts": [
      "THE BAR\nDelta Sky Club"
    ],
    "millsfield:images_texts_ids": [
      1779667757
    ],
    "millsfield:similar": {
      "apple/mobileclip_s0": [
        {
          "distance": 0.70312506,
          "id": 1863469547
        },
        {
          "distance": 0.70880336,
          "id": 1527841411
        },
        {
          "distance": 0.7101415,
          "id": 1527846875
        },
        {
          "distance": 0.71318954,
          "id": 1913872135
        },
        {
          "distance": 0.71341485,
          "id": 1964106871
        },
        {
          "distance": 0.71423495,
          "id": 1527832309
        },
        {
          "distance": 0.7142669,
          "id": 1762704059
        },
        {
          "distance": 0.71663034,
          "id": 1913727873
        },
        {
          "distance": 0.7207025,
          "id": 1763196173
        },
        {
          "distance": 0.7219314,
          "id": 1527847541
        }
      ],
      "apple/mobileclip_s1": [
        {
          "distance": 0.5645319,
          "id": 1779984511
        },
        {
          "distance": 0.59201,
          "id": 1779984515
        },
        {
          "distance": 0.5936821,
          "id": 1779984875
        },
        {
          "distance": 0.5961958,
          "id": 1527842929
        },
        {
          "distance": 0.60052127,
          "id": 1762697405
        },
        {
          "distance": 0.6050875,
          "id": 1527843903
        },
        {
          "distance": 0.6066467,
          "id": 1779984877
        },
        {
          "distance": 0.612328,
          "id": 1527847541
        },
        {
          "distance": 0.61380404,
          "id": 1913842289
        },
        {
          "distance": 0.61544615,
          "id": 1527843623
        }
      ],
      "apple/mobileclip_s2": [
        {
          "distance": 0.7668531,
          "id": 1779984511
        },
        {
          "distance": 0.79539394,
          "id": 1779984877
        },
        {
          "distance": 0.81486046,
          "id": 1779984869
        },
        {
          "distance": 0.81687415,
          "id": 1779984871
        },
        {
          "distance": 0.8230759,
          "id": 1779984515
        },
        {
          "distance": 0.8248439,
          "id": 1779984875
        },
        {
          "distance": 0.8302965,
          "id": 1762697405
        },
        {
          "distance": 0.83899605,
          "id": 1779984879
        },
        {
          "distance": 0.84256816,
          "id": 1527843903
        },
        {
          "distance": 0.8446206,
          "id": 2014778845
        }
      ]
    },
    "millsfield:subcategory_id": 1511213567,
    "mz:is_current": 1,
    "sfomuseum:filename": "2018.028.004.tif",
    "sfomuseum:image_id": 207598,
    "sfomuseum:image_index": 5,
    "sfomuseum:image_type": "studio",
    "sfomuseum:object_id": 195985,
    "sfomuseum:placetype": "image",
    "sfomuseum:primary_image": 1,
    "src:geom": "sfomuseum",
    "wof:belongsto": [
      102527513,
      1159162825,
      102191575,
      85633793,
      102087579,
      85922583,
      1779667213,
      85688637,
      1159160869
    ],
    "wof:country": "XY",
    "wof:created": 1655193536,
    "wof:depicts": [
      1159287931,
      1779667213,
      1159284261
    ],
    "wof:geomhash": "ed7c2ab3547fc3916b5edc33488deaa7",
    "wof:hierarchy": [
      {
        "building_id": -1,
        "campus_id": 102527513,
        "collection_id": 1159162825,
        "concourse_id": 1159162825,
        "continent_id": 102191575,
        "country_id": 85633793,
        "county_id": 102087579,
        "custom_id": 1779667757,
        "image_id": 1779667757,
        "locality_id": 85922583,
        "neighbourhood_id": -1,
        "object_id": 1779667213,
        "region_id": 85688637,
        "wing_id": 1159160869
      }
    ],
    "wof:id": 1779667757,
    "wof:lastmodified": 1788451334,
    "wof:name": "wine list: Delta Air Lines",
    "wof:parent_id": 1779667213,
    "wof:placetype": "custom",
    "wof:placetype_alt": [
      "image"
    ],
    "wof:repo": "sfomuseum-data-media-collection",
    "wof:superseded_by": [],
    "wof:supersedes": []
  },
  "bbox": [
    -122.386472,
    37.616105,
    -122.385834,
    37.616611
  ],
  "geometry": {"type":"Polygon","coordinates":[[[-122.386472,37.616318],[-122.386435,37.616233],[-122.386376,37.616178],[-122.386301,37.616131],[-122.386161,37.616105],[-122.386022,37.616131],[-122.385914,37.616186],[-122.385855,37.616267],[-122.385834,37.616369],[-122.385871,37.616467],[-122.385941,37.616543],[-122.386054,37.616603],[-122.386183,37.616611],[-122.386306,37.616573],[-122.386419,37.616509],[-122.386467,37.616411],[-122.386472,37.616318]]]}
}
