{
  "id": 1527828325,
  "type": "Feature",
  "properties": {
    "date:cessation_lower": "1974-01-01",
    "date:cessation_upper": "1974-12-31",
    "date:inception_lower": "1974-01-01",
    "date:inception_upper": "1974-12-31",
    "edtf:cessation": "1974",
    "edtf:date": "1974",
    "edtf:inception": "1974",
    "geom:area": 0,
    "geom:bbox": "-122.386155,37.616358,-122.386155,37.616358",
    "geom:latitude": 37.616358,
    "geom:longitude": -122.386155,
    "iso:country": "US",
    "media:fingerprint": "f7834fa3dad2b2c02070a09ec35e869197e4f561",
    "media:imagehash_avg": "a:203fffbf3e000000",
    "media:imagehash_diff": "d:e868686862785899",
    "media:medium": "image",
    "media:mimetype": "image/tiff",
    "media:properties": {
      "sizes": {
        "b": {
          "extension": "jpg",
          "height": 666,
          "mimetype": "image/jpeg",
          "secret": "vBR5XcMToQDirT87iGO1oNJV7fgly1Hf",
          "width": 1024
        },
        "c": {
          "extension": "jpg",
          "height": 520,
          "mimetype": "image/jpeg",
          "secret": "vBR5XcMToQDirT87iGO1oNJV7fgly1Hf",
          "width": 800
        },
        "dc": {
          "extension": "jpg",
          "height": 520,
          "mimetype": "image/jpeg",
          "secret": "vBR5XcMToQDirT87iGO1oNJV7fgly1Hf",
          "width": 800
        },
        "ds": {
          "extension": "jpg",
          "height": 320,
          "mimetype": "image/jpeg",
          "secret": "vBR5XcMToQDirT87iGO1oNJV7fgly1Hf",
          "width": 320
        },
        "k": {
          "extension": "jpg",
          "height": 1332,
          "mimetype": "image/jpeg",
          "secret": "vBR5XcMToQDirT87iGO1oNJV7fgly1Hf",
          "width": 2048
        },
        "n": {
          "extension": "jpg",
          "height": 208,
          "mimetype": "image/jpeg",
          "secret": "vBR5XcMToQDirT87iGO1oNJV7fgly1Hf",
          "width": 320
        },
        "o": {
          "extension": "jpg",
          "height": 1062,
          "mimetype": "image/jpeg",
          "secret": "kbhgph9MeUbL09xkeFk5IsKw6WfYbfwK",
          "width": 1632
        },
        "s": {
          "extension": "jpg",
          "height": 320,
          "mimetype": "image/jpeg",
          "secret": "vBR5XcMToQDirT87iGO1oNJV7fgly1Hf",
          "width": 320
        },
        "z": {
          "extension": "jpg",
          "height": 416,
          "mimetype": "image/jpeg",
          "secret": "vBR5XcMToQDirT87iGO1oNJV7fgly1Hf",
          "width": 640
        }
      }
    },
    "media:source": "sfomuseum",
    "media:status_id": 1,
    "media:uri_template": "https://static.sfomuseum.org/media/152/782/832/5/1527828325_{secret}_{label}.{extension}",
    "millsfield:airport_id": [
      102527513
    ],
    "millsfield:category_id": 1511214209,
    "millsfield:collection_id": 1511214207,
    "millsfield:images_colors": [
      {
        "hex": "#2c2c2c",
        "name": "#2c2c2c",
        "reference": "marekm4"
      },
      {
        "hex": "#2f4f4f",
        "name": "darkslategrey",
        "reference": "css4"
      },
      {
        "hex": "#414a4c",
        "name": "Outer Space",
        "reference": "crayola"
      },
      {
        "hex": "#dddddd",
        "name": "#dddddd",
        "reference": "marekm4"
      },
      {
        "hex": "#dcdcdc",
        "name": "gainsboro",
        "reference": "css4"
      },
      {
        "hex": "#dbd7d2",
        "name": "Timberwolf",
        "reference": "crayola"
      }
    ],
    "millsfield:similar": {
      "apple/mobileclip_s0": [
        {
          "distance": 0.47588766,
          "id": 1527828299
        },
        {
          "distance": 0.50866264,
          "id": 1527828297
        },
        {
          "distance": 0.58102894,
          "id": 1527825993
        },
        {
          "distance": 0.6079811,
          "id": 1527825983
        },
        {
          "distance": 0.64425135,
          "id": 1527825985
        },
        {
          "distance": 0.6477673,
          "id": 1913687663
        },
        {
          "distance": 0.65315634,
          "id": 1913687669
        },
        {
          "distance": 0.6583502,
          "id": 1913687665
        },
        {
          "distance": 0.6606562,
          "id": 1527825989
        },
        {
          "distance": 0.6613918,
          "id": 1527825979
        }
      ],
      "apple/mobileclip_s1": [
        {
          "distance": 0.3847173,
          "id": 1527828297
        },
        {
          "distance": 0.39901596,
          "id": 1527828299
        },
        {
          "distance": 0.45197532,
          "id": 1527825985
        },
        {
          "distance": 0.47736672,
          "id": 1527825993
        },
        {
          "distance": 0.48251343,
          "id": 1527825983
        },
        {
          "distance": 0.48505503,
          "id": 1913687665
        },
        {
          "distance": 0.48650992,
          "id": 1913687661
        },
        {
          "distance": 0.49091536,
          "id": 1913687669
        },
        {
          "distance": 0.49239302,
          "id": 1527825981
        },
        {
          "distance": 0.4932551,
          "id": 1527825979
        }
      ],
      "apple/mobileclip_s2": [
        {
          "distance": 0.47265556,
          "id": 1527828297
        },
        {
          "distance": 0.48144206,
          "id": 1527828299
        },
        {
          "distance": 0.5491659,
          "id": 1527825979
        },
        {
          "distance": 0.58527374,
          "id": 1527825985
        },
        {
          "distance": 0.5932362,
          "id": 1527825993
        },
        {
          "distance": 0.596558,
          "id": 1527825981
        },
        {
          "distance": 0.6022471,
          "id": 1913687665
        },
        {
          "distance": 0.60387665,
          "id": 1527825983
        },
        {
          "distance": 0.6182788,
          "id": 1913687663
        },
        {
          "distance": 0.6288799,
          "id": 1913687661
        }
      ]
    },
    "millsfield:subcategory_id": 1511213801,
    "mz:hierarchy_label": 1,
    "mz:is_current": -1,
    "sfomuseum:filename": "44541.tif",
    "sfomuseum:image_id": 44541,
    "sfomuseum:image_index": 5,
    "sfomuseum:image_type": "studio",
    "sfomuseum:object_id": 117222,
    "sfomuseum:placetype": "image",
    "sfomuseum:primary_image": 1,
    "src:geom": "sfomuseum",
    "wof:belongsto": [
      85688637,
      1511214277,
      102527513,
      85922583,
      102191575,
      102087579,
      1511949359,
      1511214203,
      1511214209,
      1511213801,
      85633793
    ],
    "wof:breaches": [],
    "wof:country": "US",
    "wof:created": 1578950663,
    "wof:depicts": [
      102527513,
      1511949359
    ],
    "wof:geomhash": "bd906905ce4be6c0651c90b0fc24804c",
    "wof:hierarchy": [
      {
        "arcade_id": 1511213801,
        "building_id": 1511214277,
        "campus_id": 102527513,
        "concourse_id": 1511214209,
        "continent_id": 102191575,
        "country_id": 85633793,
        "county_id": 102087579,
        "custom_id": 1527828325,
        "image_id": 1527828325,
        "locality_id": 85922583,
        "media_id": 1527828325,
        "neighbourhood_id": -1,
        "region_id": 85688637,
        "venue_id": 1511949359,
        "wing_id": 1511214203
      }
    ],
    "wof:id": 1527828325,
    "wof:lastmodified": 1788449845,
    "wof:name": "negative: San Francisco International Airport (SFO), air traffic control tower",
    "wof:parent_id": 1511949359,
    "wof:placetype": "custom",
    "wof:placetype_alt": [
      "image"
    ],
    "wof:repo": "sfomuseum-data-media-collection",
    "wof:superseded_by": [],
    "wof:supersedes": [],
    "wof:tags": []
  },
  "bbox": [
    -122.386155,
    37.616358,
    -122.386155,
    37.616358
  ],
  "geometry": {"type":"Point","coordinates":[-122.386155,37.616358]}
}
