{
  "id": 1746281337,
  "type": "Feature",
  "properties": {
    "date:cessation_lower": "1935-04-27",
    "date:cessation_upper": "1935-04-27",
    "date:inception_lower": "1935-04-27",
    "date:inception_upper": "1935-04-27",
    "edtf:cessation": "1935-04-27",
    "edtf:inception": "1935-04-27",
    "geom:area": 2.477324999997507e-7,
    "geom:bbox": "-122.386472,37.616105,-122.385834,37.616611",
    "geom:latitude": 37.61635756125121,
    "geom:longitude": -122.38615532866096,
    "media:fingerprint": "901e9c053540cc9618b4ded427a84693ecf70689",
    "media:imagehash_avg": "a:a080809f9f9f9fff",
    "media:imagehash_diff": "d:4d05277b31393961",
    "media:imagetext": "It day cover china clippee\nGuam to macon\nKIRST FLIGHT\n- SIA\nF.A.M.\nNo.14\nA\nAPR\n27\n5 AM\n1937\nGUAM•\n16\n20g",
    "media:imagetext_created": 1787954669,
    "media:imagetext_source": "com.apple.visionkit.VNImageRequestHandler#Version 26.6.2 (Build 25G83)",
    "media:mimetype": "image/tiff",
    "media:properties": {
      "sizes": {
        "b": {
          "extension": "jpg",
          "height": 573,
          "mimetype": "image/jpeg",
          "secret": "tbq2Qt0XCBOakHtZpoCJsXzY3WpQAJIl",
          "width": 1024
        },
        "c": {
          "extension": "jpg",
          "height": 448,
          "mimetype": "image/jpeg",
          "secret": "tbq2Qt0XCBOakHtZpoCJsXzY3WpQAJIl",
          "width": 800
        },
        "dc": {
          "extension": "jpg",
          "height": 448,
          "mimetype": "image/jpeg",
          "secret": "tbq2Qt0XCBOakHtZpoCJsXzY3WpQAJIl",
          "width": 800
        },
        "ds": {
          "extension": "jpg",
          "height": 320,
          "mimetype": "image/jpeg",
          "secret": "tbq2Qt0XCBOakHtZpoCJsXzY3WpQAJIl",
          "width": 320
        },
        "k": {
          "extension": "jpg",
          "height": 1146,
          "mimetype": "image/jpeg",
          "secret": "tbq2Qt0XCBOakHtZpoCJsXzY3WpQAJIl",
          "width": 2048
        },
        "n": {
          "extension": "jpg",
          "height": 179,
          "mimetype": "image/jpeg",
          "secret": "tbq2Qt0XCBOakHtZpoCJsXzY3WpQAJIl",
          "width": 320
        },
        "o": {
          "extension": "jpg",
          "height": 1115,
          "mimetype": "image/jpeg",
          "secret": "XThyhxnQea4RajJ4mtXxrC7bnE6U4EF6",
          "width": 1991
        },
        "s": {
          "extension": "jpg",
          "height": 320,
          "mimetype": "image/jpeg",
          "secret": "tbq2Qt0XCBOakHtZpoCJsXzY3WpQAJIl",
          "width": 320
        },
        "z": {
          "extension": "jpg",
          "height": 358,
          "mimetype": "image/jpeg",
          "secret": "tbq2Qt0XCBOakHtZpoCJsXzY3WpQAJIl",
          "width": 640
        }
      }
    },
    "media:source": "sfomuseum",
    "media:status_id": 1,
    "media:uri_template": "https://static.sfomuseum.org/media/174/628/133/7/1746281337_{secret}_{label}.{extension}",
    "millsfield:aircraft_id": [
      1159291191
    ],
    "millsfield:airline_id": [
      1159284991
    ],
    "millsfield:category_id": 1511214215,
    "millsfield:collection_id": 1511214207,
    "millsfield:company_id": [],
    "millsfield:images_colors": [
      {
        "hex": "#e6d6b0",
        "name": "#e6d6b0",
        "reference": "marekm4"
      },
      {
        "hex": "#f5deb3",
        "name": "wheat",
        "reference": "css4"
      },
      {
        "hex": "#efcdb8",
        "name": "Desert Sand",
        "reference": "crayola"
      },
      {
        "hex": "#535545",
        "name": "#535545",
        "reference": "marekm4"
      },
      {
        "hex": "#556b2f",
        "name": "darkolivegreen",
        "reference": "css4"
      },
      {
        "hex": "#414a4c",
        "name": "Outer Space",
        "reference": "crayola"
      },
      {
        "hex": "#9d9572",
        "name": "#9d9572",
        "reference": "marekm4"
      },
      {
        "hex": "#808080",
        "name": "grey",
        "reference": "css4"
      },
      {
        "hex": "#9f8170",
        "name": "Beaver",
        "reference": "crayola"
      },
      {
        "hex": "#a65951",
        "name": "#a65951",
        "reference": "marekm4"
      },
      {
        "hex": "#a0522d",
        "name": "sienna",
        "reference": "css4"
      },
      {
        "hex": "#a5694f",
        "name": "Sepia",
        "reference": "crayola"
      }
    ],
    "millsfield:images_texts": [
      "It day cover china clippee\nGuam to macon\nKIRST FLIGHT\n- SIA\nF.A.M.\nNo.14\nA\nAPR\n27\n5 AM\n1937\nGUAM•\n16\n20g",
      "800 :h206661\nCORRETOSETETE\nSTAÇÃO\"\nGRA-\nCENTRAL\n28-1V-37.12.\nMACAU\n/ 0r\nAVA"
    ],
    "millsfield:images_texts_ids": [
      1746281337,
      1746281339
    ],
    "millsfield:similar": {
      "apple/mobileclip_s0": [
        {
          "distance": 0.48292866,
          "id": 1527833081
        },
        {
          "distance": 0.5195074,
          "id": 1527833255
        },
        {
          "distance": 0.5196288,
          "id": 1527852651
        },
        {
          "distance": 0.523813,
          "id": 1527834601
        },
        {
          "distance": 0.5327378,
          "id": 1527820477
        },
        {
          "distance": 0.5327442,
          "id": 1527831847
        },
        {
          "distance": 0.5367599,
          "id": 1527829637
        },
        {
          "distance": 0.53862935,
          "id": 1527831791
        },
        {
          "distance": 0.5402661,
          "id": 1527833359
        },
        {
          "distance": 0.5415371,
          "id": 1527830113
        }
      ],
      "apple/mobileclip_s1": [
        {
          "distance": 0.37354147,
          "id": 1527852593
        },
        {
          "distance": 0.3736256,
          "id": 1527834239
        },
        {
          "distance": 0.3771797,
          "id": 1527856565
        },
        {
          "distance": 0.378552,
          "id": 1913823023
        },
        {
          "distance": 0.37945288,
          "id": 1527853757
        },
        {
          "distance": 0.38028955,
          "id": 1527831811
        },
        {
          "distance": 0.38078788,
          "id": 1527852153
        },
        {
          "distance": 0.3823693,
          "id": 1527832531
        },
        {
          "distance": 0.38389346,
          "id": 1527852055
        },
        {
          "distance": 0.384639,
          "id": 1527829489
        }
      ],
      "apple/mobileclip_s2": [
        {
          "distance": 0.49273223,
          "id": 1527852565
        },
        {
          "distance": 0.50676465,
          "id": 1527852651
        },
        {
          "distance": 0.5187107,
          "id": 1913823067
        },
        {
          "distance": 0.5274651,
          "id": 1527852457
        },
        {
          "distance": 0.53954595,
          "id": 1527832495
        },
        {
          "distance": 0.5451142,
          "id": 1527829571
        },
        {
          "distance": 0.55532175,
          "id": 1527831847
        },
        {
          "distance": 0.5563944,
          "id": 1527852593
        },
        {
          "distance": 0.5646111,
          "id": 1527833807
        },
        {
          "distance": 0.56885695,
          "id": 1527829423
        }
      ]
    },
    "millsfield:subcategory_id": 1511213159,
    "mz:is_current": 1,
    "sfomuseum:filename": "31474.tif",
    "sfomuseum:image_id": 31474,
    "sfomuseum:image_index": 5,
    "sfomuseum:image_type": "studio",
    "sfomuseum:object_id": 77428,
    "sfomuseum:placetype": "image",
    "sfomuseum:primary_image": 1,
    "src:geom": "sfomuseum",
    "wof:belongsto": [
      102527513,
      1159162825,
      102191575,
      85633793,
      102087579,
      85922583,
      1746272387,
      85688637,
      1159160869
    ],
    "wof:country": "XY",
    "wof:created": 1630600309,
    "wof:depicts": [
      1159284991,
      1159291191,
      1159286839,
      1746272387
    ],
    "wof:geomhash": "ed7c2ab3547fc3916b5edc33488deaa7",
    "wof:hierarchy": [
      {
        "building_id": -1,
        "campus_id": 102527513,
        "collection_id": 1159162825,
        "concourse_id": 1159162825,
        "continent_id": 102191575,
        "country_id": 85633793,
        "county_id": 102087579,
        "custom_id": 1746281337,
        "image_id": 1746281337,
        "locality_id": 85922583,
        "neighbourhood_id": -1,
        "object_id": 1746272387,
        "region_id": 85688637,
        "wing_id": 1159160869
      }
    ],
    "wof:id": 1746281337,
    "wof:lastmodified": 1788450313,
    "wof:name": "airmail flight cover: Pan American Airways, first airmail flight, FAM-14, Guam - Macao route",
    "wof:parent_id": 1746272387,
    "wof:placetype": "custom",
    "wof:placetype_alt": [
      "image"
    ],
    "wof:repo": "sfomuseum-data-media-collection",
    "wof:superseded_by": [],
    "wof:supersedes": []
  },
  "bbox": [
    -122.386472,
    37.616105,
    -122.385834,
    37.616611
  ],
  "geometry": {"type":"Polygon","coordinates":[[[-122.386472,37.616318],[-122.386435,37.616233],[-122.386376,37.616178],[-122.386301,37.616131],[-122.386161,37.616105],[-122.386022,37.616131],[-122.385914,37.616186],[-122.385855,37.616267],[-122.385834,37.616369],[-122.385871,37.616467],[-122.385941,37.616543],[-122.386054,37.616603],[-122.386183,37.616611],[-122.386306,37.616573],[-122.386419,37.616509],[-122.386467,37.616411],[-122.386472,37.616318]]]}
}
