{
  "id": 1746682063,
  "type": "Feature",
  "properties": {
    "date:cessation_lower": "2015-01-01",
    "date:cessation_upper": "2015-12-31",
    "date:inception_lower": "2015-01-01",
    "date:inception_upper": "2015-12-31",
    "edtf:cessation": "2015~",
    "edtf:inception": "2015~",
    "geom:area": 2.477324999997507e-7,
    "geom:bbox": "-122.386472,37.616105,-122.385834,37.616611",
    "geom:latitude": 37.61635756125121,
    "geom:longitude": -122.38615532866096,
    "media:fingerprint": "60119f3e1e4f33c2e84db842272c6ab5c3a1b7c7",
    "media:imagehash_avg": "a:ffe0f8fe7e808080",
    "media:imagehash_diff": "d:87035140d4610303",
    "media:mimetype": "image/jpeg",
    "media:properties": {
      "sizes": {
        "b": {
          "extension": "jpg",
          "height": 564,
          "mimetype": "image/jpeg",
          "secret": "T7NLkWJigGlpgMg5yBhOzBWrshmef5Zo",
          "width": 1023
        },
        "c": {
          "extension": "jpg",
          "height": 440,
          "mimetype": "image/jpeg",
          "secret": "T7NLkWJigGlpgMg5yBhOzBWrshmef5Zo",
          "width": 800
        },
        "dc": {
          "extension": "jpg",
          "height": 440,
          "mimetype": "image/jpeg",
          "secret": "T7NLkWJigGlpgMg5yBhOzBWrshmef5Zo",
          "width": 800
        },
        "ds": {
          "extension": "jpg",
          "height": 320,
          "mimetype": "image/jpeg",
          "secret": "T7NLkWJigGlpgMg5yBhOzBWrshmef5Zo",
          "width": 320
        },
        "k": {
          "extension": "jpg",
          "height": 1128,
          "mimetype": "image/jpeg",
          "secret": "T7NLkWJigGlpgMg5yBhOzBWrshmef5Zo",
          "width": 2047
        },
        "n": {
          "extension": "jpg",
          "height": 176,
          "mimetype": "image/jpeg",
          "secret": "T7NLkWJigGlpgMg5yBhOzBWrshmef5Zo",
          "width": 320
        },
        "o": {
          "extension": "jpg",
          "height": 2107,
          "mimetype": "image/jpeg",
          "secret": "UjipYnty2bnbmwp3fB5EXl7XObC85WFA",
          "width": 3824
        },
        "s": {
          "extension": "jpg",
          "height": 320,
          "mimetype": "image/jpeg",
          "secret": "T7NLkWJigGlpgMg5yBhOzBWrshmef5Zo",
          "width": 320
        },
        "z": {
          "extension": "jpg",
          "height": 352,
          "mimetype": "image/jpeg",
          "secret": "T7NLkWJigGlpgMg5yBhOzBWrshmef5Zo",
          "width": 640
        }
      }
    },
    "media:source": "sfomuseum",
    "media:status_id": 1,
    "media:uri_template": "https://static.sfomuseum.org/media/174/668/206/3/1746682063_{secret}_{label}.{extension}",
    "millsfield:airline_id": [
      1159284153
    ],
    "millsfield:category_id": 1746152551,
    "millsfield:collection_id": 1511214203,
    "millsfield:company_id": [
      1159288057
    ],
    "millsfield:images_colors": [
      {
        "hex": "#aba79d",
        "name": "#aba79d",
        "reference": "marekm4"
      },
      {
        "hex": "#a9a9a9",
        "name": "darkgrey",
        "reference": "css4"
      },
      {
        "hex": "#979aaa",
        "name": "Manatee",
        "reference": "crayola"
      },
      {
        "hex": "#72726d",
        "name": "#72726d",
        "reference": "marekm4"
      },
      {
        "hex": "#696969",
        "name": "dimgrey",
        "reference": "css4"
      },
      {
        "hex": "#757575",
        "name": "Sonic Silver",
        "reference": "crayola"
      },
      {
        "hex": "#83837d",
        "name": "#83837d",
        "reference": "marekm4"
      },
      {
        "hex": "#808080",
        "name": "grey",
        "reference": "css4"
      }
    ],
    "millsfield:similar": {
      "apple/mobileclip_s0": [
        {
          "distance": 0.24529757,
          "id": 1746682067
        },
        {
          "distance": 0.26532757,
          "id": 1746682061
        },
        {
          "distance": 0.4188269,
          "id": 1746682057
        },
        {
          "distance": 0.4202242,
          "id": 2015174423
        },
        {
          "distance": 0.42255944,
          "id": 2015174417
        },
        {
          "distance": 0.42680934,
          "id": 2015174419
        },
        {
          "distance": 0.4333873,
          "id": 1746682187
        },
        {
          "distance": 0.48704934,
          "id": 2015174425
        },
        {
          "distance": 0.51969314,
          "id": 1746682355
        },
        {
          "distance": 0.51987237,
          "id": 1746682357
        }
      ],
      "apple/mobileclip_s1": [
        {
          "distance": 0.22145164,
          "id": 1746682061
        },
        {
          "distance": 0.26473108,
          "id": 1746682067
        },
        {
          "distance": 0.3155659,
          "id": 2015174423
        },
        {
          "distance": 0.32658684,
          "id": 1746682187
        },
        {
          "distance": 0.34136897,
          "id": 1746682057
        },
        {
          "distance": 0.39144912,
          "id": 1796597209
        },
        {
          "distance": 0.39608124,
          "id": 2015174419
        },
        {
          "distance": 0.40853214,
          "id": 1746682203
        },
        {
          "distance": 0.43930483,
          "id": 1746682357
        },
        {
          "distance": 0.45288044,
          "id": 1746682355
        }
      ],
      "apple/mobileclip_s2": [
        {
          "distance": 0.32243642,
          "id": 1746682061
        },
        {
          "distance": 0.38167304,
          "id": 1746682067
        },
        {
          "distance": 0.40164626,
          "id": 1746682057
        },
        {
          "distance": 0.44981503,
          "id": 2015174423
        },
        {
          "distance": 0.49770808,
          "id": 1746682187
        },
        {
          "distance": 0.5265947,
          "id": 2015174419
        },
        {
          "distance": 0.5610375,
          "id": 2015174425
        },
        {
          "distance": 0.56314117,
          "id": 1796597209
        },
        {
          "distance": 0.58688843,
          "id": 1746682355
        },
        {
          "distance": 0.59376156,
          "id": 1746682351
        }
      ]
    },
    "millsfield:subcategory_id": 1779983657,
    "mz:is_current": 1,
    "sfomuseum:filename": "Photo 11-3-2020 3.16.03 PM.jpg",
    "sfomuseum:image_id": 226861,
    "sfomuseum:image_index": 0,
    "sfomuseum:image_type": "curator",
    "sfomuseum:object_id": 220085,
    "sfomuseum:placetype": "image",
    "sfomuseum:primary_image": 1,
    "src:geom": "sfomuseum",
    "wof:belongsto": [
      102527513,
      1159162825,
      102191575,
      85633793,
      102087579,
      85922583,
      1746271313,
      85688637,
      1159160869
    ],
    "wof:country": "XY",
    "wof:created": 1637706691,
    "wof:depicts": [
      1159288057,
      1746271313,
      1159284153
    ],
    "wof:geomhash": "ed7c2ab3547fc3916b5edc33488deaa7",
    "wof:hierarchy": [
      {
        "building_id": -1,
        "campus_id": 102527513,
        "collection_id": 1159162825,
        "concourse_id": 1159162825,
        "continent_id": 102191575,
        "country_id": 85633793,
        "county_id": 102087579,
        "custom_id": 1746682063,
        "image_id": 1746682063,
        "locality_id": 85922583,
        "neighbourhood_id": -1,
        "object_id": 1746271313,
        "region_id": 85688637,
        "wing_id": 1159160869
      }
    ],
    "wof:id": 1746682063,
    "wof:lastmodified": 1788450358,
    "wof:name": "utensil set: China Airlines",
    "wof:parent_id": 1746271313,
    "wof:placetype": "custom",
    "wof:placetype_alt": [
      "image"
    ],
    "wof:repo": "sfomuseum-data-media-collection",
    "wof:superseded_by": [],
    "wof:supersedes": []
  },
  "bbox": [
    -122.386472,
    37.616105,
    -122.385834,
    37.616611
  ],
  "geometry": {"type":"Polygon","coordinates":[[[-122.386472,37.616318],[-122.386435,37.616233],[-122.386376,37.616178],[-122.386301,37.616131],[-122.386161,37.616105],[-122.386022,37.616131],[-122.385914,37.616186],[-122.385855,37.616267],[-122.385834,37.616369],[-122.385871,37.616467],[-122.385941,37.616543],[-122.386054,37.616603],[-122.386183,37.616611],[-122.386306,37.616573],[-122.386419,37.616509],[-122.386467,37.616411],[-122.386472,37.616318]]]}
}
