{
  "id": 1762698199,
  "type": "Feature",
  "properties": {
    "date:cessation_lower": "1969-01-01",
    "date:cessation_upper": "1969-12-31",
    "date:inception_lower": "1969-01-01",
    "date:inception_upper": "1969-12-31",
    "edtf:cessation": "1969",
    "edtf:inception": "1969",
    "geom:area": 2.477324999997507e-7,
    "geom:bbox": "-122.386472,37.616105,-122.385834,37.616611",
    "geom:latitude": 37.61635756125121,
    "geom:longitude": -122.38615532866096,
    "media:fingerprint": "27bec7dcb2e9d99abea03b4b262ce2336c10aa1a",
    "media:imagehash_avg": "a:fe0efe7e00030f0f",
    "media:imagehash_diff": "d:8e1ed6fc7d677f5d",
    "media:imagetext": "U.S.A.\nEUROPE\n- AFRICA -\nASIA\nSAN\nFRANCISCO\nOAKLAND\n- To Europe\n• To Europe\nBOSTON\nLONDON\nSHANNON\nCHICAGO\nDETROI\nTWA WORLD ROUTES\nHARTFORD\nZURICH\nHONG KONG\nDENVER\nCLEVELAND\nINDIANAPOLÍS\nCOLUMBUS\nATHENS TEL AVIV\nBOMBAY\nBANGKOK\nKANSAS\nCITY\nST. LOUIS\nLOS\nANGELES\nLAS VEGAS\nWICHITA\nLOUISVILLE.\nNASHVILLE\nPHOENIX\nTULSA\n) AMARILLO\nDAYTON•\nCINCINNATI\nATLANTA\nPITTS-\nBURGH\nHARRISBURG\nPHILADELPHIA\nBALTIMORE\nWASHINGTON\nAZORES\nPARIS\nGENEVA\nDHAHRAN\nCOLOMBO\nALGIERS\nTUCSON\nALBU\nQUERQUE\nTRIPOLI\nLISBON\nMADRID\nTUNIS\nENTEBBE/KAMPALA\nCAIRO\nNAIROBI\nOKLAHOMA CITY\nTAMPA\nMIAMI\nDAR ES SALAAM\nSFO HELICOPTER AIRLINES\nHelicopter Service\nNEW YORK AIRWAYS\nHelicopter Service\nMARIN\nBERKELEY\nCONTRA COSTA\n10 MIN *\n10 MIN\n11 MIN\n6 MIN *\n6 MIN\n12 MIN\nMIN\nNEWARK\nWALL ST.\nLAGUARDIA\nTWA\nTERMINAL\n7 MIN\nOAKLAND\n12 MIN\n8 MIN\n* Average flight time\nbetween points\n8 MIN\n• Average flight time\nbetween points\nSAN FRANCISCO\nTWA\nTERMINAL\n12 MIN\nPALO ALTO\nSUNNYVALE\n(Served Through San Jose Airport)\nJ. F. KENNEDY\nTWA\nTERMINAL\nGENERAL PASSENGER INFORMATION\nBAGGAGE - Baggage includes all luggage, parcels, and packages\ncarried in the cabin or\nCUSTOMS REGULATIONS-Customs officers of each country examine baggage\non arrival.\nchecked in the cargo space.\nOvercoats,\numbrellas, ladies' handbags or ladies' pocketbooks,\nOnly personal articles for use while traveling are not subject to duty.\nResidents of the U.S.\nand small\ncameras carried by the passenger will not be weighed as \"baggage.\" TWA may\naway more than 48 hours may claim a duty and tax exemption of $100.00 once each 31 days\nlimit the weight, size and type of baggage.\nfor merchandise acquired overseas. Fruits, plants, meats and similar agricultural items can-\nBAGGAGE ALLOWANCE-IN THE U.S.A.-On each ticket, except when travel is part of an\nnot be taken into the U.S.A. without permission. Consult the U.S. Department of Agriculture\ninternational trip by air,\nfree baggage allowance is 2\nchecked bags, 1 with\ndimensions\nor the nearest U.S. Foreign Office overseas for details. While TWA usually has available the\n(length plus width plus height) not over 62 inches and 1 with dimensions not over 55 inches,\nlatest information, the carrier is not responsible for its accuracy and suggests that passen-\nplus 1 or more pieces of underseat baggage with combined dimensions not over 45 inches.\ngers consult the nearest Consulate of the country to be visited.\nINTERNATIONAL FIRST CLASS-66 Ibs.\n(30 kilograms) carried free for each full or half\nfare first class ticket, including portions of travel in the U.S.A.\nFAMILY STYLE FARES-IN THE U.S.A.—When travel is via First Class or Coach service Mon-\nINTERNATIONAL ECONOMY\nCLASS - 44 Ibs.\n(20 kilograms) carried free for each full or\nday Noon through Friday Noon, or Friday Midnight through Sunday Noon, your spouse,\nor if\nhalf fare economy class ticket, including portions of travel in the U.S.A.\nno accompanying spouse the first accompanying child 2 through 21 years, receives a discount\nCHILDREN - Children paying half fare are granted free baggage allowance on the same\nof 25%. Additional accompanying children 2 through 11 receive a 662% discount; accom-\nbasıs as a passenger paying the full adult fare. Children traveling free or at the 10% fare\npanying children 12 through 21 receive a 50% discount. Family discounts do not apply to\nreceive no free baggage allowance.\neconomy, jet commuter, or night coach fares. One infant under 2 years not occupying a seat\nBAGGAGE-EXCESS CHARGES-Checked baggage in excess of the above free allowances shall\nis carried free with each family group.\nbe charged for as follows:\nGROUND TRANSPORTATION - Taxicab and limousine service available between downtown\nIN THE U.S.A.—When the adult jet coach fare between the points between which the bag-\nscheduled pick-up points and airport, at passenger's expense.\ngage is checked or from the passenger's origin to his destination is $25 or less,\n$2 per piece;\n$25.01-50.00, $3 per piece; $50.01-120.00, $4 per piece; $120.01-200.00, $5 per piece;\nHOTEL RESERVATIONS-Any TWA office will gladly arrange hotel reservations in addition\nover $200, $6 per piece.\nto airline reservations.\nINTERNATIONAL-Excess baggage is charged for at 1% of the full first class adult one way\njet fare per kilogram (2.2 lbs.).\nBAGGAGE-EXCESS VALUE-TWA's liability for baggage is limited to its actual value, but not\nmore than $500.00 per passenger on trips in the U.S.A. or $16.50 per kilogram for checked.\nbaggage and $330 per passenger for unchecked baggage on international trips,\nhigher valuation is stated before the flight and a charge of 10g on trips in the U.S.A. or 15¢\non international trips is paid for each extra $100 or fraction thereof claimed.\nINSURANCE - Trip insurance is available at most airlines offices in the U.S.A.\nMEAL SERVICE - For information on Food and Beverage Service, see schedule pages.\nRECONFIRMATION - INTERNATIONAL - Passengers holding continuing or return reservations\nmust reconfirm their reservations at least 72 hours before scheduled flight departure time.\nFailure to reconfirm will result in cancellation of all reservations.\nCHECK-IN FOR FLIGHTS-INTERNATIONAL-The times shown for international flight check-in\nare the minimum required for completion of government formalities. Flights cannot be de-\ntained for passengers arriving late, and no responsibility can be accepted in such cases.\nIN THE U.S.A.—TWA may cancel the reservation of any passenger who fails to present himself\nRESERVATIONS - Reservations are not definite until tickets are purchased. Passage\nbe refused to any person when necessary to comply with Government regulations,\nmay\ntariff\nrules, or for reasons beyond the control of TWA.\nfor check-in at the ticket lifting point 5 minutes before scheduled departure time of domestic\nU.S.A. flights.\nCHILDREN-IN THE U.S. A.-(Not applicable to Family Fare travel)-(a) One child under 2\nyears not occupying a seat carried free with each accompanying fare paying adult passenger.\nb) Children under 2 years occupying a seat, or over 2 years and under 12 years, or more than\none child accompanying a passenger are each charged one half adult fare. (c) Children under\n5 years must be accompanied by a passenger at least 12 years old. Children between 5 and 8\nmay travel alone only by prior arrangement. Unaccompanied children between the ages of 5\nand 12 will be charged the full adult fare. INTERNATIONAL-One child under 2 years not occu-\nying a seat carried at 10% of adult fare with each accompanying full fare adult passenger.\nSCHEDULES - TWA reserves the right to cancel or change schedules without notice. Safety\nis our primary consideration. Schedules shown are based on expected flying times. Because\nweather and other factors may affect operating conditions, departures and arrivals cannot\nbe guaranteed.\nSTOPOVERS-IN THE U.S.A.—Stopovers are not permitted on domestic U.S.A. tickets with-\nout additional charge, except in connection with international air travel. INTERNATIONAL -\nWithin the time limit of the ticket, stopover will be permitted at any scheduled stop pro-\nvided reservation is made and, on international flights, provided the passenger has a valid\nvisa if required by law.\nChildren over 2 and under 12 years, a child under 2 occupying a seat, and more than one child\naccompanying a passenger are each charged one half adult fare. Children may travel alone\nonly under certain conditions.\nHALF/FARE TRAVEL PLAN - IN THE U.S.A. - Reduced fares are avalaible for\npersons 12\nthrough 21 years of age on a no-reservations basis at 50% of normal jet coach fares.",
    "media:imagetext_created": 1787955617,
    "media:imagetext_source": "com.apple.visionkit.VNImageRequestHandler#Version 26.6.2 (Build 25G83)",
    "media:mimetype": "image/tiff",
    "media:properties": {
      "sizes": {
        "b": {
          "extension": "jpg",
          "height": 768,
          "mimetype": "image/jpeg",
          "secret": "UTB8WMSgB4su9ejZ4Qp3M3qlIyvwkPQB",
          "width": 667
        },
        "c": {
          "extension": "jpg",
          "height": 600,
          "mimetype": "image/jpeg",
          "secret": "UTB8WMSgB4su9ejZ4Qp3M3qlIyvwkPQB",
          "width": 521
        },
        "dc": {
          "extension": "jpg",
          "height": 600,
          "mimetype": "image/jpeg",
          "secret": "UTB8WMSgB4su9ejZ4Qp3M3qlIyvwkPQB",
          "width": 521
        },
        "ds": {
          "extension": "jpg",
          "height": 320,
          "mimetype": "image/jpeg",
          "secret": "UTB8WMSgB4su9ejZ4Qp3M3qlIyvwkPQB",
          "width": 320
        },
        "k": {
          "extension": "jpg",
          "height": 1536,
          "mimetype": "image/jpeg",
          "secret": "UTB8WMSgB4su9ejZ4Qp3M3qlIyvwkPQB",
          "width": 1334
        },
        "n": {
          "extension": "jpg",
          "height": 240,
          "mimetype": "image/jpeg",
          "secret": "UTB8WMSgB4su9ejZ4Qp3M3qlIyvwkPQB",
          "width": 208
        },
        "o": {
          "extension": "jpg",
          "height": 2000,
          "mimetype": "image/jpeg",
          "secret": "81Ja5DxgZPOVgEWXRz9MYWhuGFYOroxK",
          "width": 1737
        },
        "s": {
          "extension": "jpg",
          "height": 320,
          "mimetype": "image/jpeg",
          "secret": "UTB8WMSgB4su9ejZ4Qp3M3qlIyvwkPQB",
          "width": 320
        },
        "z": {
          "extension": "jpg",
          "height": 480,
          "mimetype": "image/jpeg",
          "secret": "UTB8WMSgB4su9ejZ4Qp3M3qlIyvwkPQB",
          "width": 416
        }
      }
    },
    "media:source": "sfomuseum",
    "media:status_id": 1,
    "media:uri_template": "https://static.sfomuseum.org/media/176/269/819/9/1762698199_{secret}_{label}.{extension}",
    "millsfield:airline_id": [
      1159285393
    ],
    "millsfield:category_id": 1511214223,
    "millsfield:collection_id": 1511214207,
    "millsfield:company_id": [
      1159287531
    ],
    "millsfield:images_colors": [
      {
        "hex": "#e6ddce",
        "name": "#e6ddce",
        "reference": "marekm4"
      },
      {
        "hex": "#dcdcdc",
        "name": "gainsboro",
        "reference": "css4"
      },
      {
        "hex": "#efdecd",
        "name": "Almond",
        "reference": "crayola"
      },
      {
        "hex": "#31335f",
        "name": "#31335f",
        "reference": "marekm4"
      },
      {
        "hex": "#2f4f4f",
        "name": "darkslategrey",
        "reference": "css4"
      },
      {
        "hex": "#414a4c",
        "name": "Outer Space",
        "reference": "crayola"
      },
      {
        "hex": "#6a6d8a",
        "name": "#6a6d8a",
        "reference": "marekm4"
      },
      {
        "hex": "#708090",
        "name": "slategrey",
        "reference": "css4"
      },
      {
        "hex": "#757575",
        "name": "Sonic Silver",
        "reference": "crayola"
      },
      {
        "hex": "#b52018",
        "name": "#b52018",
        "reference": "marekm4"
      },
      {
        "hex": "#b22222",
        "name": "firebrick",
        "reference": "css4"
      },
      {
        "hex": "#9c2542",
        "name": "Big Dip O' Ruby",
        "reference": "crayola"
      }
    ],
    "millsfield:images_texts": [
      "EFFECTIVE JANUARY 15, 1969\nTWA\nTHE ALL-JET AIRLINE\nup up andaway TWA\n*Service mark owned exclusively by Trans World Airlines in\nWORLDWIDE SYSTEM TIMETABLE",
      "U.S.A.\nEUROPE\n- AFRICA -\nASIA\nSAN\nFRANCISCO\nOAKLAND\n- To Europe\n• To Europe\nBOSTON\nLONDON\nSHANNON\nCHICAGO\nDETROI\nTWA WORLD ROUTES\nHARTFORD\nZURICH\nHONG KONG\nDENVER\nCLEVELAND\nINDIANAPOLÍS\nCOLUMBUS\nATHENS TEL AVIV\nBOMBAY\nBANGKOK\nKANSAS\nCITY\nST. LOUIS\nLOS\nANGELES\nLAS VEGAS\nWICHITA\nLOUISVILLE.\nNASHVILLE\nPHOENIX\nTULSA\n) AMARILLO\nDAYTON•\nCINCINNATI\nATLANTA\nPITTS-\nBURGH\nHARRISBURG\nPHILADELPHIA\nBALTIMORE\nWASHINGTON\nAZORES\nPARIS\nGENEVA\nDHAHRAN\nCOLOMBO\nALGIERS\nTUCSON\nALBU\nQUERQUE\nTRIPOLI\nLISBON\nMADRID\nTUNIS\nENTEBBE/KAMPALA\nCAIRO\nNAIROBI\nOKLAHOMA CITY\nTAMPA\nMIAMI\nDAR ES SALAAM\nSFO HELICOPTER AIRLINES\nHelicopter Service\nNEW YORK AIRWAYS\nHelicopter Service\nMARIN\nBERKELEY\nCONTRA COSTA\n10 MIN *\n10 MIN\n11 MIN\n6 MIN *\n6 MIN\n12 MIN\nMIN\nNEWARK\nWALL ST.\nLAGUARDIA\nTWA\nTERMINAL\n7 MIN\nOAKLAND\n12 MIN\n8 MIN\n* Average flight time\nbetween points\n8 MIN\n• Average flight time\nbetween points\nSAN FRANCISCO\nTWA\nTERMINAL\n12 MIN\nPALO ALTO\nSUNNYVALE\n(Served Through San Jose Airport)\nJ. F. KENNEDY\nTWA\nTERMINAL\nGENERAL PASSENGER INFORMATION\nBAGGAGE - Baggage includes all luggage, parcels, and packages\ncarried in the cabin or\nCUSTOMS REGULATIONS-Customs officers of each country examine baggage\non arrival.\nchecked in the cargo space.\nOvercoats,\numbrellas, ladies' handbags or ladies' pocketbooks,\nOnly personal articles for use while traveling are not subject to duty.\nResidents of the U.S.\nand small\ncameras carried by the passenger will not be weighed as \"baggage.\" TWA may\naway more than 48 hours may claim a duty and tax exemption of $100.00 once each 31 days\nlimit the weight, size and type of baggage.\nfor merchandise acquired overseas. Fruits, plants, meats and similar agricultural items can-\nBAGGAGE ALLOWANCE-IN THE U.S.A.-On each ticket, except when travel is part of an\nnot be taken into the U.S.A. without permission. Consult the U.S. Department of Agriculture\ninternational trip by air,\nfree baggage allowance is 2\nchecked bags, 1 with\ndimensions\nor the nearest U.S. Foreign Office overseas for details. While TWA usually has available the\n(length plus width plus height) not over 62 inches and 1 with dimensions not over 55 inches,\nlatest information, the carrier is not responsible for its accuracy and suggests that passen-\nplus 1 or more pieces of underseat baggage with combined dimensions not over 45 inches.\ngers consult the nearest Consulate of the country to be visited.\nINTERNATIONAL FIRST CLASS-66 Ibs.\n(30 kilograms) carried free for each full or half\nfare first class ticket, including portions of travel in the U.S.A.\nFAMILY STYLE FARES-IN THE U.S.A.—When travel is via First Class or Coach service Mon-\nINTERNATIONAL ECONOMY\nCLASS - 44 Ibs.\n(20 kilograms) carried free for each full or\nday Noon through Friday Noon, or Friday Midnight through Sunday Noon, your spouse,\nor if\nhalf fare economy class ticket, including portions of travel in the U.S.A.\nno accompanying spouse the first accompanying child 2 through 21 years, receives a discount\nCHILDREN - Children paying half fare are granted free baggage allowance on the same\nof 25%. Additional accompanying children 2 through 11 receive a 662% discount; accom-\nbasıs as a passenger paying the full adult fare. Children traveling free or at the 10% fare\npanying children 12 through 21 receive a 50% discount. Family discounts do not apply to\nreceive no free baggage allowance.\neconomy, jet commuter, or night coach fares. One infant under 2 years not occupying a seat\nBAGGAGE-EXCESS CHARGES-Checked baggage in excess of the above free allowances shall\nis carried free with each family group.\nbe charged for as follows:\nGROUND TRANSPORTATION - Taxicab and limousine service available between downtown\nIN THE U.S.A.—When the adult jet coach fare between the points between which the bag-\nscheduled pick-up points and airport, at passenger's expense.\ngage is checked or from the passenger's origin to his destination is $25 or less,\n$2 per piece;\n$25.01-50.00, $3 per piece; $50.01-120.00, $4 per piece; $120.01-200.00, $5 per piece;\nHOTEL RESERVATIONS-Any TWA office will gladly arrange hotel reservations in addition\nover $200, $6 per piece.\nto airline reservations.\nINTERNATIONAL-Excess baggage is charged for at 1% of the full first class adult one way\njet fare per kilogram (2.2 lbs.).\nBAGGAGE-EXCESS VALUE-TWA's liability for baggage is limited to its actual value, but not\nmore than $500.00 per passenger on trips in the U.S.A. or $16.50 per kilogram for checked.\nbaggage and $330 per passenger for unchecked baggage on international trips,\nhigher valuation is stated before the flight and a charge of 10g on trips in the U.S.A. or 15¢\non international trips is paid for each extra $100 or fraction thereof claimed.\nINSURANCE - Trip insurance is available at most airlines offices in the U.S.A.\nMEAL SERVICE - For information on Food and Beverage Service, see schedule pages.\nRECONFIRMATION - INTERNATIONAL - Passengers holding continuing or return reservations\nmust reconfirm their reservations at least 72 hours before scheduled flight departure time.\nFailure to reconfirm will result in cancellation of all reservations.\nCHECK-IN FOR FLIGHTS-INTERNATIONAL-The times shown for international flight check-in\nare the minimum required for completion of government formalities. Flights cannot be de-\ntained for passengers arriving late, and no responsibility can be accepted in such cases.\nIN THE U.S.A.—TWA may cancel the reservation of any passenger who fails to present himself\nRESERVATIONS - Reservations are not definite until tickets are purchased. Passage\nbe refused to any person when necessary to comply with Government regulations,\nmay\ntariff\nrules, or for reasons beyond the control of TWA.\nfor check-in at the ticket lifting point 5 minutes before scheduled departure time of domestic\nU.S.A. flights.\nCHILDREN-IN THE U.S. A.-(Not applicable to Family Fare travel)-(a) One child under 2\nyears not occupying a seat carried free with each accompanying fare paying adult passenger.\nb) Children under 2 years occupying a seat, or over 2 years and under 12 years, or more than\none child accompanying a passenger are each charged one half adult fare. (c) Children under\n5 years must be accompanied by a passenger at least 12 years old. Children between 5 and 8\nmay travel alone only by prior arrangement. Unaccompanied children between the ages of 5\nand 12 will be charged the full adult fare. INTERNATIONAL-One child under 2 years not occu-\nying a seat carried at 10% of adult fare with each accompanying full fare adult passenger.\nSCHEDULES - TWA reserves the right to cancel or change schedules without notice. Safety\nis our primary consideration. Schedules shown are based on expected flying times. Because\nweather and other factors may affect operating conditions, departures and arrivals cannot\nbe guaranteed.\nSTOPOVERS-IN THE U.S.A.—Stopovers are not permitted on domestic U.S.A. tickets with-\nout additional charge, except in connection with international air travel. INTERNATIONAL -\nWithin the time limit of the ticket, stopover will be permitted at any scheduled stop pro-\nvided reservation is made and, on international flights, provided the passenger has a valid\nvisa if required by law.\nChildren over 2 and under 12 years, a child under 2 occupying a seat, and more than one child\naccompanying a passenger are each charged one half adult fare. Children may travel alone\nonly under certain conditions.\nHALF/FARE TRAVEL PLAN - IN THE U.S.A. - Reduced fares are avalaible for\npersons 12\nthrough 21 years of age on a no-reservations basis at 50% of normal jet coach fares."
    ],
    "millsfield:images_texts_ids": [
      1762696959,
      1762698199
    ],
    "millsfield:similar": {
      "apple/mobileclip_s0": [
        {
          "distance": 0.30901378,
          "id": 1527851173
        },
        {
          "distance": 0.31933406,
          "id": 1527851553
        },
        {
          "distance": 0.32777834,
          "id": 1527851551
        },
        {
          "distance": 0.42124996,
          "id": 1527851175
        },
        {
          "distance": 0.4642036,
          "id": 1527851183
        },
        {
          "distance": 0.4679389,
          "id": 1527851555
        },
        {
          "distance": 0.53913116,
          "id": 1527851171
        },
        {
          "distance": 0.59162486,
          "id": 1527850723
        },
        {
          "distance": 0.6110963,
          "id": 1527848425
        },
        {
          "distance": 0.6188266,
          "id": 1527850365
        }
      ],
      "apple/mobileclip_s1": [
        {
          "distance": 0.18715198,
          "id": 1527851553
        },
        {
          "distance": 0.20458627,
          "id": 1527851173
        },
        {
          "distance": 0.24238679,
          "id": 1527851551
        },
        {
          "distance": 0.33748978,
          "id": 1527851171
        },
        {
          "distance": 0.34677887,
          "id": 1527851183
        },
        {
          "distance": 0.3606803,
          "id": 1527851555
        },
        {
          "distance": 0.38119787,
          "id": 1527851175
        },
        {
          "distance": 0.42715806,
          "id": 1527851513
        },
        {
          "distance": 0.42786092,
          "id": 1527851167
        },
        {
          "distance": 0.44807807,
          "id": 1527851235
        }
      ],
      "apple/mobileclip_s2": [
        {
          "distance": 0.24588591,
          "id": 1527851553
        },
        {
          "distance": 0.2545421,
          "id": 1527851551
        },
        {
          "distance": 0.27423227,
          "id": 1527851173
        },
        {
          "distance": 0.37932158,
          "id": 1527851175
        },
        {
          "distance": 0.42477673,
          "id": 1527851171
        },
        {
          "distance": 0.44702357,
          "id": 1527851183
        },
        {
          "distance": 0.46852633,
          "id": 1527851555
        },
        {
          "distance": 0.5897225,
          "id": 1527844101
        },
        {
          "distance": 0.59925044,
          "id": 1527851067
        },
        {
          "distance": 0.61007255,
          "id": 1527851513
        }
      ]
    },
    "millsfield:subcategory_id": 1511213425,
    "mz:is_current": 1,
    "sfomuseum:filename": "82940.tif",
    "sfomuseum:image_id": 82940,
    "sfomuseum:image_index": 5,
    "sfomuseum:image_type": "studio",
    "sfomuseum:object_id": 141534,
    "sfomuseum:placetype": "image",
    "sfomuseum:primary_image": 0,
    "src:geom": "sfomuseum",
    "wof:belongsto": [
      102527513,
      1159162825,
      102191575,
      85633793,
      102087579,
      85922583,
      1762683271,
      85688637,
      1159160869
    ],
    "wof:country": "XY",
    "wof:created": 1641345638,
    "wof:depicts": [
      1762683271,
      1159285393,
      1159287531
    ],
    "wof:geomhash": "ed7c2ab3547fc3916b5edc33488deaa7",
    "wof:hierarchy": [
      {
        "building_id": -1,
        "campus_id": 102527513,
        "collection_id": 1159162825,
        "concourse_id": 1159162825,
        "continent_id": 102191575,
        "country_id": 85633793,
        "county_id": 102087579,
        "custom_id": 1762698199,
        "image_id": 1762698199,
        "locality_id": 85922583,
        "neighbourhood_id": -1,
        "object_id": 1762683271,
        "region_id": 85688637,
        "wing_id": 1159160869
      }
    ],
    "wof:id": 1762698199,
    "wof:lastmodified": 1788215183,
    "wof:name": "timetable: TWA (Trans World Airlines)",
    "wof:parent_id": 1762683271,
    "wof:placetype": "custom",
    "wof:placetype_alt": [
      "image"
    ],
    "wof:repo": "sfomuseum-data-media-collection",
    "wof:superseded_by": [],
    "wof:supersedes": []
  },
  "bbox": [
    -122.386472,
    37.616105,
    -122.385834,
    37.616611
  ],
  "geometry": {"type":"Polygon","coordinates":[[[-122.386472,37.616318],[-122.386435,37.616233],[-122.386376,37.616178],[-122.386301,37.616131],[-122.386161,37.616105],[-122.386022,37.616131],[-122.385914,37.616186],[-122.385855,37.616267],[-122.385834,37.616369],[-122.385871,37.616467],[-122.385941,37.616543],[-122.386054,37.616603],[-122.386183,37.616611],[-122.386306,37.616573],[-122.386419,37.616509],[-122.386467,37.616411],[-122.386472,37.616318]]]}
}
