{
  "id": 1930979249,
  "type": "Feature",
  "properties": {
    "date:cessation_lower": "1987-01-01",
    "date:cessation_upper": "1987-12-31",
    "date:inception_lower": "1987-01-01",
    "date:inception_upper": "1987-12-31",
    "edtf:cessation": "1987",
    "edtf:inception": "1987",
    "geom:area": 2.477324999997507e-7,
    "geom:bbox": "-122.386472,37.616105,-122.385834,37.616611",
    "geom:latitude": 37.61635756125121,
    "geom:longitude": -122.38615532866096,
    "media:fingerprint": "27d652b65b2937248d8e129245c79f43037fab66",
    "media:imagehash_avg": "a:e2007dd9dd48303f",
    "media:imagehash_diff": "d:9a96d1919191e0ee",
    "media:imagetext": "SEC\n2\nSEC\nSEC\nTÔ\nSEC\nSEC\n.....\nCopyright © Interaction Research Corporation, 1988, Olympia, WÀ, USA\nAll rights reserved.\nCode 596\n2005.133.268",
    "media:imagetext_created": 1787974232,
    "media:imagetext_source": "com.apple.visionkit.VNImageRequestHandler#Version 26.6.2 (Build 25G83)",
    "media:mimetype": "image/tiff",
    "media:properties": {
      "sizes": {
        "b": {
          "extension": "jpg",
          "height": 768,
          "mimetype": "image/jpeg",
          "secret": "vhUEThnmYnckEOMPn0QBsWZT0KLXwitQ",
          "width": 356
        },
        "c": {
          "extension": "jpg",
          "height": 600,
          "mimetype": "image/jpeg",
          "secret": "vhUEThnmYnckEOMPn0QBsWZT0KLXwitQ",
          "width": 278
        },
        "dc": {
          "extension": "jpg",
          "height": 600,
          "mimetype": "image/jpeg",
          "secret": "vhUEThnmYnckEOMPn0QBsWZT0KLXwitQ",
          "width": 278
        },
        "ds": {
          "extension": "jpg",
          "height": 320,
          "mimetype": "image/jpeg",
          "secret": "vhUEThnmYnckEOMPn0QBsWZT0KLXwitQ",
          "width": 320
        },
        "k": {
          "extension": "jpg",
          "height": 1536,
          "mimetype": "image/jpeg",
          "secret": "vhUEThnmYnckEOMPn0QBsWZT0KLXwitQ",
          "width": 713
        },
        "n": {
          "extension": "jpg",
          "height": 240,
          "mimetype": "image/jpeg",
          "secret": "vhUEThnmYnckEOMPn0QBsWZT0KLXwitQ",
          "width": 111
        },
        "o": {
          "extension": "jpg",
          "height": 2000,
          "mimetype": "image/jpeg",
          "secret": "vhHEHqzcFl0vROYqo0FXCOiZoQvB3pj3",
          "width": 929
        },
        "s": {
          "extension": "jpg",
          "height": 320,
          "mimetype": "image/jpeg",
          "secret": "vhUEThnmYnckEOMPn0QBsWZT0KLXwitQ",
          "width": 320
        },
        "z": {
          "extension": "jpg",
          "height": 480,
          "mimetype": "image/jpeg",
          "secret": "vhUEThnmYnckEOMPn0QBsWZT0KLXwitQ",
          "width": 222
        }
      }
    },
    "media:source": "sfomuseum",
    "media:status_id": 1,
    "media:uri_template": "https://static.sfomuseum.org/media/193/097/924/9/1930979249_{secret}_{label}.{extention}",
    "millsfield:aircraft_id": [
      1159291253
    ],
    "millsfield:airline_id": [
      1159284201
    ],
    "millsfield:category_id": 1762671311,
    "millsfield:collection_id": 1511214207,
    "millsfield:company_id": [
      1159291223
    ],
    "millsfield:images_colors": [
      {
        "hex": "#d5cdc0",
        "name": "#d5cdc0",
        "reference": "marekm4"
      },
      {
        "hex": "#d3d3d3",
        "name": "lightgrey",
        "reference": "css4"
      },
      {
        "hex": "#cdc5c2",
        "name": "Silver",
        "reference": "crayola"
      },
      {
        "hex": "#282422",
        "name": "#282422",
        "reference": "marekm4"
      },
      {
        "hex": "#2f4f4f",
        "name": "darkslategrey",
        "reference": "css4"
      },
      {
        "hex": "#414a4c",
        "name": "Outer Space",
        "reference": "crayola"
      },
      {
        "hex": "#e4d148",
        "name": "#e4d148",
        "reference": "marekm4"
      },
      {
        "hex": "#f4a460",
        "name": "sandybrown",
        "reference": "css4"
      },
      {
        "hex": "#ffcf48",
        "name": "Sunglow",
        "reference": "crayola"
      },
      {
        "hex": "#b0624f",
        "name": "#b0624f",
        "reference": "marekm4"
      },
      {
        "hex": "#cd5c5c",
        "name": "indianred",
        "reference": "css4"
      },
      {
        "hex": "#b4674d",
        "name": "Brown",
        "reference": "crayola"
      },
      {
        "hex": "#6ba3c4",
        "name": "#6ba3c4",
        "reference": "marekm4"
      },
      {
        "hex": "#5f9ea0",
        "name": "cadetblue",
        "reference": "css4"
      },
      {
        "hex": "#6699cc",
        "name": "Blue Gray",
        "reference": "crayola"
      }
    ],
    "millsfield:similar": {
      "apple/mobileclip_s0": [
        {
          "distance": 0.37726617,
          "id": 1914622725
        },
        {
          "distance": 0.3794304,
          "id": 1914622719
        },
        {
          "distance": 0.39000565,
          "id": 1931096667
        },
        {
          "distance": 0.40155518,
          "id": 1914622733
        },
        {
          "distance": 0.46168032,
          "id": 1930979819
        },
        {
          "distance": 0.46885943,
          "id": 1930466283
        },
        {
          "distance": 0.475983,
          "id": 1797194911
        },
        {
          "distance": 0.4903218,
          "id": 1914555909
        },
        {
          "distance": 0.4953423,
          "id": 1914556529
        },
        {
          "distance": 0.50100416,
          "id": 1914590391
        }
      ],
      "apple/mobileclip_s1": [
        {
          "distance": 0.30735978,
          "id": 1914622725
        },
        {
          "distance": 0.30957532,
          "id": 1914622719
        },
        {
          "distance": 0.31399482,
          "id": 1931096667
        },
        {
          "distance": 0.34031498,
          "id": 1914622733
        },
        {
          "distance": 0.35182163,
          "id": 1930466283
        },
        {
          "distance": 0.3554049,
          "id": 1930979819
        },
        {
          "distance": 0.35757244,
          "id": 1797194883
        },
        {
          "distance": 0.364212,
          "id": 1914622711
        },
        {
          "distance": 0.3814421,
          "id": 1930979811
        },
        {
          "distance": 0.39710367,
          "id": 1930979807
        }
      ],
      "apple/mobileclip_s2": [
        {
          "distance": 0.37509677,
          "id": 1914622719
        },
        {
          "distance": 0.38350087,
          "id": 1914622725
        },
        {
          "distance": 0.40014422,
          "id": 1914622733
        },
        {
          "distance": 0.4028272,
          "id": 1931096667
        },
        {
          "distance": 0.40799105,
          "id": 1930979819
        },
        {
          "distance": 0.44381347,
          "id": 1914622711
        },
        {
          "distance": 0.44965407,
          "id": 1797194883
        },
        {
          "distance": 0.4591205,
          "id": 1930466283
        },
        {
          "distance": 0.46600357,
          "id": 1930979811
        },
        {
          "distance": 0.47790313,
          "id": 1797194993
        }
      ]
    },
    "millsfield:subcategory_id": 1511213703,
    "mz:is_current": 1,
    "sfomuseum:filename": "75689.tif",
    "sfomuseum:image_id": 75689,
    "sfomuseum:image_index": 5,
    "sfomuseum:image_type": "studio",
    "sfomuseum:object_id": 78884,
    "sfomuseum:placetype": "image",
    "sfomuseum:primary_image": 0,
    "src:geom": "sfomuseum",
    "wof:belongsto": [
      102527513,
      1159162825,
      102191575,
      85633793,
      102087579,
      85922583,
      1930979063,
      85688637,
      1159160869
    ],
    "wof:country": "XY",
    "wof:created": 1726040083,
    "wof:depicts": [
      1930979063,
      1159284201,
      1159291253,
      1159291223
    ],
    "wof:geomhash": "ed7c2ab3547fc3916b5edc33488deaa7",
    "wof:hierarchy": [
      {
        "building_id": -1,
        "campus_id": 102527513,
        "collection_id": 1159162825,
        "concourse_id": 1159162825,
        "continent_id": 102191575,
        "country_id": 85633793,
        "county_id": 102087579,
        "custom_id": 1930979249,
        "locality_id": 85922583,
        "neighbourhood_id": -1,
        "object_id": 1930979063,
        "region_id": 85688637,
        "wing_id": 1159160869
      }
    ],
    "wof:id": 1930979249,
    "wof:lastmodified": 1788452446,
    "wof:name": "safety information card: Continental Airlines, Douglas DC-9-80 Super 80",
    "wof:parent_id": 1930979063,
    "wof:placetype": "custom",
    "wof:repo": "sfomuseum-data-media-collection",
    "wof:superseded_by": [],
    "wof:supersedes": []
  },
  "bbox": [
    -122.386472,
    37.616105,
    -122.385834,
    37.616611
  ],
  "geometry": {"type":"Polygon","coordinates":[[[-122.386472,37.616318],[-122.386435,37.616233],[-122.386376,37.616178],[-122.386301,37.616131],[-122.386161,37.616105],[-122.386022,37.616131],[-122.385914,37.616186],[-122.385855,37.616267],[-122.385834,37.616369],[-122.385871,37.616467],[-122.385941,37.616543],[-122.386054,37.616603],[-122.386183,37.616611],[-122.386306,37.616573],[-122.386419,37.616509],[-122.386467,37.616411],[-122.386472,37.616318]]]}
}
