{
  "id": 2048166903,
  "type": "Feature",
  "properties": {
    "date:cessation_lower": "1990-01-01",
    "date:cessation_upper": "1999-12-31",
    "date:inception_lower": "1990-01-01",
    "date:inception_upper": "1999-12-31",
    "edtf:cessation": "199X",
    "edtf:inception": "199X",
    "geom:area": 2.475047457570636e-7,
    "geom:bbox": "-122.386472,37.616105,-122.385834,37.616611",
    "geom:latitude": 37.61635747477365,
    "geom:longitude": -122.38615540108617,
    "media:fingerprint": "75114b15ac1838c784865a0ca8e12425a2a94d33",
    "media:imagehash_avg": "a:e0f0f0f0f0e0e0e0",
    "media:imagehash_diff": "d:4808080808080808",
    "media:imagetext": "KANSAI INTERNATIONAL AIRPORT\nEstablished Sept. 4th. 1994 Square measure: 510 3ha\nPOST CARD\nAFFIX\nSTAMP\nHERE\nCREATED BY\nFUKUL\nASAHIDO CO\nKYOTO\nJAPAN\nết: 30 C63.1015103h, 199449 4 8M/2.\nASAHI CARD\n=367",
    "media:imagetext_created": 1787976447,
    "media:imagetext_source": "com.apple.visionkit.VNImageRequestHandler#Version 26.6.2 (Build 25G83)",
    "media:mimetype": "image/jpeg",
    "media:properties": {
      "colours": null,
      "sizes": {
        "b": {
          "extension": "jpg",
          "height": 716,
          "mimetype": "image/jpeg",
          "secret": "hMKd6lBZ1IlvDuqx82aLVbQxbV4Jy5sJ",
          "width": 1024
        },
        "c": {
          "extension": "jpg",
          "height": 559,
          "mimetype": "image/jpeg",
          "secret": "hMKd6lBZ1IlvDuqx82aLVbQxbV4Jy5sJ",
          "width": 800
        },
        "dc": {
          "extension": "jpg",
          "height": 559,
          "mimetype": "image/jpeg",
          "secret": "hMKd6lBZ1IlvDuqx82aLVbQxbV4Jy5sJ",
          "width": 800
        },
        "ds": {
          "extension": "jpg",
          "height": 559,
          "mimetype": "image/jpeg",
          "secret": "hMKd6lBZ1IlvDuqx82aLVbQxbV4Jy5sJ",
          "width": 800
        },
        "k": {
          "extension": "jpg",
          "height": 1432,
          "mimetype": "image/jpeg",
          "secret": "hMKd6lBZ1IlvDuqx82aLVbQxbV4Jy5sJ",
          "width": 2048
        },
        "n": {
          "extension": "jpg",
          "height": 223,
          "mimetype": "image/jpeg",
          "secret": "hMKd6lBZ1IlvDuqx82aLVbQxbV4Jy5sJ",
          "width": 320
        },
        "o": {
          "extension": "jpg",
          "height": 1071,
          "mimetype": "image/jpeg",
          "secret": "Hxuyzl4jDVdgpHpV24RhkE20A0DnWolG",
          "width": 1531
        },
        "s": {
          "extension": "jpg",
          "height": 559,
          "mimetype": "image/jpeg",
          "secret": "hMKd6lBZ1IlvDuqx82aLVbQxbV4Jy5sJ",
          "width": 800
        },
        "z": {
          "extension": "jpg",
          "height": 447,
          "mimetype": "image/jpeg",
          "secret": "hMKd6lBZ1IlvDuqx82aLVbQxbV4Jy5sJ",
          "width": 640
        }
      }
    },
    "media:source": "sfomuseum",
    "media:status_id": 1,
    "media:uri_template": "https://static.sfomuseum.org/media/204/816/690/3/2048166903_{secret}_{label}.{extention}",
    "millsfield:airport_id": [
      102541661
    ],
    "millsfield:category_id": 1511214215,
    "millsfield:collection_id": 1511214207,
    "millsfield:images_colors": [
      {
        "hex": "#d9cdad",
        "name": "#d9cdad",
        "reference": "marekm4"
      },
      {
        "hex": "#f5deb3",
        "name": "wheat",
        "reference": "css4"
      },
      {
        "hex": "#efcdb8",
        "name": "Desert Sand",
        "reference": "crayola"
      },
      {
        "hex": "#383a1b",
        "name": "#383a1b",
        "reference": "marekm4"
      },
      {
        "hex": "#2f4f4f",
        "name": "darkslategrey",
        "reference": "css4"
      },
      {
        "hex": "#414a4c",
        "name": "Outer Space",
        "reference": "crayola"
      }
    ],
    "millsfield:images_texts": [
      "KANSAI INTERNATIONAL AIRPORT\nEstablished Sept. 4th. 1994 Square measure: 510 3ha\nPOST CARD\nAFFIX\nSTAMP\nHERE\nCREATED BY\nFUKUL\nASAHIDO CO\nKYOTO\nJAPAN\nết: 30 C63.1015103h, 199449 4 8M/2.\nASAHI CARD\n=367",
      "KANSAI INTERNATIONAL AIRPORT",
      "KANSAI INTERNATIONAL AIRPORT"
    ],
    "millsfield:images_texts_ids": [
      2048166903,
      2048166905,
      2048185711
    ],
    "millsfield:similar": {
      "apple/mobileclip_s0": [
        {
          "distance": 0.47825134,
          "id": 1762702989
        },
        {
          "distance": 0.47962302,
          "id": 1762702993
        },
        {
          "distance": 0.50398964,
          "id": 1762712701
        },
        {
          "distance": 0.5161822,
          "id": 1762712815
        },
        {
          "distance": 0.524309,
          "id": 1762712747
        },
        {
          "distance": 0.52838,
          "id": 1762712787
        },
        {
          "distance": 0.52886623,
          "id": 1762706345
        },
        {
          "distance": 0.532346,
          "id": 1762706003
        },
        {
          "distance": 0.5344884,
          "id": 1762705819
        },
        {
          "distance": 0.53591084,
          "id": 1762712837
        }
      ],
      "apple/mobileclip_s1": [
        {
          "distance": 0.3713677,
          "id": 1762712707
        },
        {
          "distance": 0.3755613,
          "id": 1762712701
        },
        {
          "distance": 0.38715348,
          "id": 1762702989
        },
        {
          "distance": 0.38992065,
          "id": 1762702993
        },
        {
          "distance": 0.4019906,
          "id": 1762712725
        },
        {
          "distance": 0.40200502,
          "id": 1762712779
        },
        {
          "distance": 0.4055938,
          "id": 1762705877
        },
        {
          "distance": 0.406739,
          "id": 1762705945
        },
        {
          "distance": 0.4074278,
          "id": 1762712747
        },
        {
          "distance": 0.4082363,
          "id": 1762712729
        }
      ],
      "apple/mobileclip_s2": [
        {
          "distance": 0.47238973,
          "id": 1762712809
        },
        {
          "distance": 0.49790686,
          "id": 1762712815
        },
        {
          "distance": 0.50843054,
          "id": 1762706021
        },
        {
          "distance": 0.50922036,
          "id": 1762705887
        },
        {
          "distance": 0.5108897,
          "id": 1762712787
        },
        {
          "distance": 0.51144826,
          "id": 1762702993
        },
        {
          "distance": 0.5120365,
          "id": 1762712701
        },
        {
          "distance": 0.51258284,
          "id": 1762705977
        },
        {
          "distance": 0.5210566,
          "id": 1762705963
        },
        {
          "distance": 0.52231884,
          "id": 1762705981
        }
      ]
    },
    "millsfield:subcategory_id": 1511213363,
    "mz:is_current": 1,
    "sfomuseum:filename": "image00074.jpg",
    "sfomuseum:image_id": 281563,
    "sfomuseum:image_index": 0,
    "sfomuseum:image_type": "studio",
    "sfomuseum:object_id": 245355,
    "sfomuseum:placetype": "image",
    "sfomuseum:primary_image": 0,
    "src:geom": "sfomuseum",
    "wof:belongsto": [
      102527513,
      1159162825,
      102191575,
      85633793,
      102087579,
      85922583,
      2048161273,
      85688637,
      1159160869
    ],
    "wof:country": "XY",
    "wof:created": 1787815299,
    "wof:depicts": [
      102541661,
      2048161273
    ],
    "wof:geomhash": "c281b9d9eefc83b5710e64b9d646067d",
    "wof:hierarchy": [
      {
        "building_id": -1,
        "campus_id": 102527513,
        "collection_id": 1159162825,
        "concourse_id": 1159162825,
        "continent_id": 102191575,
        "country_id": 85633793,
        "county_id": 102087579,
        "custom_id": 2048166903,
        "locality_id": 85922583,
        "neighbourhood_id": -1,
        "object_id": 2048161273,
        "region_id": 85688637,
        "wing_id": 1159160869
      }
    ],
    "wof:id": 2048166903,
    "wof:lastmodified": 1788333733,
    "wof:name": "postcard set: Kansai International Airport (KIX)",
    "wof:parent_id": 2048161273,
    "wof:placetype": "custom",
    "wof:repo": "sfomuseum-data-media-collection",
    "wof:superseded_by": [],
    "wof:supersedes": []
  },
  "bbox": [
    -122.38647222518921,
    37.6161053594541,
    -122.38583385944366,
    37.61661101879963
  ],
  "geometry": {"type":"Polygon","coordinates":[[[-122.38647222518921,37.61631782178288],[-122.386434674263,37.61623283692423],[-122.38637566566466,37.61617759671399],[-122.38630056381224,37.6161308549656],[-122.38616108894348,37.6161053594541],[-122.38602161407469,37.6161308549656],[-122.38591432571411,37.61618609521055],[-122.38585531711577,37.61626683087935],[-122.38583385944366,37.61636881265146],[-122.38587141036987,37.61646654505181],[-122.38594114780425,37.61654303118856],[-122.38605380058287,37.61660252035167],[-122.38618254661559,37.61661101879963],[-122.3863059282303,37.61657277577607],[-122.3864185810089,37.61650903735973],[-122.3864668607712,37.61641130501523],[-122.38647222518921,37.61631782178288]]]}
}
