{
  "id": 1527856737,
  "type": "Feature",
  "properties": {
    "date:cessation_lower": "1926-01-01",
    "date:cessation_upper": "1926-12-31",
    "date:inception_lower": "1926-01-01",
    "date:inception_upper": "1926-12-31",
    "edtf:cessation": "1926",
    "edtf:date": "1926",
    "edtf:inception": "1926",
    "geom:area": 0,
    "geom:bbox": "-122.386155,37.616358,-122.386155,37.616358",
    "geom:latitude": 37.616358,
    "geom:longitude": -122.386155,
    "iso:country": "US",
    "media:fingerprint": "667d2cdb0f2f078a11a63060db0cef476814af90",
    "media:imagehash_avg": "a:ffff8181c18181ff",
    "media:imagehash_diff": "d:e94f3753131b3541",
    "media:imagetext": "NOTES\nON AIRPORT\nTuesday, Sept. 14, 1926.\nCalled on Mr. Shaw, South San Francisco Land and Improve-\nment Company, Merchants Exchange Building.\nSuggested that the limit to be paid by the City for the\n100 acres involved in site No. 2 would be $260,000.00, provided that\nthe land be brought to an elevation of plus 10\nfeet by the present\nowner; that in addition, the land Company would have to include\na right of way for a spur track from the Belt Railroad into the\nproposed aeroplane site.\nMr. Shaw stated that if we submitted the offer it would\nbe forwarded to his company, but that he would not recommend its\nacceptance.\nMr. Shaw's price on the above site as per the conditions\nmentioned\nabove is $340,000.00 for an area of approximately 100\nacres.\n*******\nTuesday,\nSent. 14\n14:00 P. M.)\n1926.\nCalled on Mr. Medina, Mr. Howard Sr. and Mr. Howard Jr.,\nBank of California, in re site\nNo. 1.\nThey agreed to sell to the City all land that we wish\neast of the present transmission line and including the land on\nboth sides of the Bay Shore Boulevard, with the exception of two\neasements for road purposes at the northerly and southerly\nboundaries, these easements to be used for road purposes only.\nWould deliver the same subject to confirmation on the part of\nTaylor for $2,000.00 per acre.\nI stated to them that the price should be between $750.00\nand $1,000.00 per acre, and requested them to submit this proposi-\ntion to their principals.\nMr. Howard Sr. said that he would leave\nWednesday morning and would give me an answer by the 20th or the\n21st of September.",
    "media:imagetext_created": 1787954115,
    "media:imagetext_source": "com.apple.visionkit.VNImageRequestHandler#Version 26.6.2 (Build 25G83)",
    "media:medium": "image",
    "media:mimetype": "image/tiff",
    "media:properties": {
      "sizes": {
        "b": {
          "extension": "jpg",
          "height": 768,
          "mimetype": "image/jpeg",
          "secret": "q19ubG1vGHvxd0bRtIhCQ1oM3G8THogY",
          "width": 595
        },
        "c": {
          "extension": "jpg",
          "height": 600,
          "mimetype": "image/jpeg",
          "secret": "q19ubG1vGHvxd0bRtIhCQ1oM3G8THogY",
          "width": 465
        },
        "dc": {
          "extension": "jpg",
          "height": 600,
          "mimetype": "image/jpeg",
          "secret": "q19ubG1vGHvxd0bRtIhCQ1oM3G8THogY",
          "width": 465
        },
        "ds": {
          "extension": "jpg",
          "height": 320,
          "mimetype": "image/jpeg",
          "secret": "q19ubG1vGHvxd0bRtIhCQ1oM3G8THogY",
          "width": 320
        },
        "k": {
          "extension": "jpg",
          "height": 1536,
          "mimetype": "image/jpeg",
          "secret": "q19ubG1vGHvxd0bRtIhCQ1oM3G8THogY",
          "width": 1191
        },
        "n": {
          "extension": "jpg",
          "height": 240,
          "mimetype": "image/jpeg",
          "secret": "q19ubG1vGHvxd0bRtIhCQ1oM3G8THogY",
          "width": 186
        },
        "o": {
          "extension": "jpg",
          "height": 1800,
          "mimetype": "image/jpeg",
          "secret": "A4nlr95o29KWeG7WytCQTlwRqx4chNhs",
          "width": 1396
        },
        "s": {
          "extension": "jpg",
          "height": 320,
          "mimetype": "image/jpeg",
          "secret": "q19ubG1vGHvxd0bRtIhCQ1oM3G8THogY",
          "width": 320
        },
        "z": {
          "extension": "jpg",
          "height": 480,
          "mimetype": "image/jpeg",
          "secret": "q19ubG1vGHvxd0bRtIhCQ1oM3G8THogY",
          "width": 372
        }
      }
    },
    "media:source": "sfomuseum",
    "media:status_id": 1,
    "media:uri_template": "https://static.sfomuseum.org/media/152/785/673/7/1527856737_{secret}_{label}.{extension}",
    "millsfield:airport_id": [
      1360695653
    ],
    "millsfield:category_id": 1511214239,
    "millsfield:collection_id": 1511214207,
    "millsfield:images_colors": [
      {
        "hex": "#dad2bc",
        "name": "#dad2bc",
        "reference": "marekm4"
      },
      {
        "hex": "#d3d3d3",
        "name": "lightgrey",
        "reference": "css4"
      },
      {
        "hex": "#cdc5c2",
        "name": "Silver",
        "reference": "crayola"
      },
      {
        "hex": "#3f4046",
        "name": "#3f4046",
        "reference": "marekm4"
      },
      {
        "hex": "#2f4f4f",
        "name": "darkslategrey",
        "reference": "css4"
      },
      {
        "hex": "#414a4c",
        "name": "Outer Space",
        "reference": "crayola"
      }
    ],
    "millsfield:images_texts": [
      "NOTES\nON AIRPORT\nTuesday, Sept. 14, 1926.\nCalled on Mr. Shaw, South San Francisco Land and Improve-\nment Company, Merchants Exchange Building.\nSuggested that the limit to be paid by the City for the\n100 acres involved in site No. 2 would be $260,000.00, provided that\nthe land be brought to an elevation of plus 10\nfeet by the present\nowner; that in addition, the land Company would have to include\na right of way for a spur track from the Belt Railroad into the\nproposed aeroplane site.\nMr. Shaw stated that if we submitted the offer it would\nbe forwarded to his company, but that he would not recommend its\nacceptance.\nMr. Shaw's price on the above site as per the conditions\nmentioned\nabove is $340,000.00 for an area of approximately 100\nacres.\n*******\nTuesday,\nSent. 14\n14:00 P. M.)\n1926.\nCalled on Mr. Medina, Mr. Howard Sr. and Mr. Howard Jr.,\nBank of California, in re site\nNo. 1.\nThey agreed to sell to the City all land that we wish\neast of the present transmission line and including the land on\nboth sides of the Bay Shore Boulevard, with the exception of two\neasements for road purposes at the northerly and southerly\nboundaries, these easements to be used for road purposes only.\nWould deliver the same subject to confirmation on the part of\nTaylor for $2,000.00 per acre.\nI stated to them that the price should be between $750.00\nand $1,000.00 per acre, and requested them to submit this proposi-\ntion to their principals.\nMr. Howard Sr. said that he would leave\nWednesday morning and would give me an answer by the 20th or the\n21st of September.",
      "NOTES OV AIRPORT\nFriday, Sept. 17, 1926.\nAt the request of the. Chamber of Commerce and suggested\nby the Supervisors attending the luncheon to Assistant Secretary\nof the Navy Warner, I met Mr. Warner and the officers of the\nTwelfth Naval Division at Harrison and Spear Streets at 2:30 o'clock.\nWe left about 3:00 o'clock and visited the South San Francisco site\nand Millbrae site.\nDid not visit the San Mateo site,\nas it was not\nsuitable for hydroplanes.\nReturned to San Francisco\nat 4:45 o'clock.\nThe Assistant\nSecretary expressed the opinion that the\nsite at South San Francisco was not admirably adapted for hydro-\nplanes, as the hydroplane would probably have to taxi at some three\nmiles before it could start to rise. Depth of water is needed for\nhydroplanes, according to the Assistant Secretary, in order to enable\nboats to deliver supplies direct to the hydroplanes.\nWe also visited the Millbrae site and the Assistant\nSecretary said that it appeared to him that this was a much better\nNot being familiar with the direction of the winds at all\ntimes he could not state whether it was ideal or not.\nHe also asked\nconcerning drainage on both sites and whether during\nthe winter\nthe land would be waterlogged.\nHe also made the statement\nthat if it were a question of securing a field not suitable for\nhydroplanes but absolutely clear of fog, that he would select that\nfield rather than take a field suitable\nfog at times.\nfor hydroplanes that had\nMr. Guersey of the Chamber of Commerce accompanied the\nparty; also Rear-Admiral Thomas Washington Lieutenant Commander B\nRear-Admiral Peeples, of the Supply Corps,\nCommandant of the District,\nG. Leighton, Aide of\nthe Assistant Secretary and Commander C. J.\nFoy."
    ],
    "millsfield:images_texts_ids": [
      1527856737,
      1527856739
    ],
    "millsfield:similar": {
      "apple/mobileclip_s0": [
        {
          "distance": 0.23601332,
          "id": 1762897179
        },
        {
          "distance": 0.2924429,
          "id": 1762897065
        },
        {
          "distance": 0.2938816,
          "id": 1762897181
        },
        {
          "distance": 0.30502915,
          "id": 1762897101
        },
        {
          "distance": 0.30639645,
          "id": 1762897117
        },
        {
          "distance": 0.30831844,
          "id": 1527828659
        },
        {
          "distance": 0.30868435,
          "id": 1762897173
        },
        {
          "distance": 0.31096542,
          "id": 1762897107
        },
        {
          "distance": 0.31721148,
          "id": 1527856825
        },
        {
          "distance": 0.31849742,
          "id": 1762897069
        }
      ],
      "apple/mobileclip_s1": [
        {
          "distance": 0.16504456,
          "id": 1762897179
        },
        {
          "distance": 0.2628187,
          "id": 1762897107
        },
        {
          "distance": 0.2686828,
          "id": 1527856989
        },
        {
          "distance": 0.27114263,
          "id": 1762897209
        },
        {
          "distance": 0.2726407,
          "id": 1762897191
        },
        {
          "distance": 0.27302882,
          "id": 1527828659
        },
        {
          "distance": 0.27329358,
          "id": 1527856739
        },
        {
          "distance": 0.2751774,
          "id": 1527856769
        },
        {
          "distance": 0.27784765,
          "id": 1762897197
        },
        {
          "distance": 0.27806452,
          "id": 1913799995
        }
      ],
      "apple/mobileclip_s2": [
        {
          "distance": 0.29941246,
          "id": 1762897179
        },
        {
          "distance": 0.3846971,
          "id": 1527856739
        },
        {
          "distance": 0.3865293,
          "id": 1762897181
        },
        {
          "distance": 0.4111664,
          "id": 1527856969
        },
        {
          "distance": 0.4241806,
          "id": 1527856989
        },
        {
          "distance": 0.4280031,
          "id": 1527856769
        },
        {
          "distance": 0.43439266,
          "id": 1527856755
        },
        {
          "distance": 0.4348582,
          "id": 1527828659
        },
        {
          "distance": 0.4360647,
          "id": 1762897217
        },
        {
          "distance": 0.4452613,
          "id": 1762897091
        }
      ]
    },
    "millsfield:subcategory_id": 1511213147,
    "mz:hierarchy_label": 1,
    "mz:is_current": -1,
    "sfomuseum:filename": "157165.tif",
    "sfomuseum:image_id": 157165,
    "sfomuseum:image_index": 5,
    "sfomuseum:image_type": "studio",
    "sfomuseum:object_id": 50614,
    "sfomuseum:placetype": "image",
    "sfomuseum:primary_image": 1,
    "src:geom": "sfomuseum",
    "wof:belongsto": [
      1511214239,
      1511910049,
      102527513,
      102191575,
      85633793,
      1511213147,
      85922583,
      102087579,
      1511214277,
      1511214203,
      85688637
    ],
    "wof:breaches": [],
    "wof:country": "US",
    "wof:created": 1578955183,
    "wof:depicts": [
      1511910049,
      1360695653
    ],
    "wof:geomhash": "bd906905ce4be6c0651c90b0fc24804c",
    "wof:hierarchy": [
      {
        "arcade_id": 1511213147,
        "building_id": 1511214277,
        "campus_id": 102527513,
        "concourse_id": 1511214239,
        "continent_id": 102191575,
        "country_id": 85633793,
        "county_id": 102087579,
        "custom_id": 1527856737,
        "image_id": 1527856737,
        "locality_id": 85922583,
        "media_id": 1527856737,
        "neighbourhood_id": -1,
        "region_id": 85688637,
        "venue_id": 1511910049,
        "wing_id": 1511214203
      }
    ],
    "wof:id": 1527856737,
    "wof:lastmodified": 1788450262,
    "wof:name": "transcript: City and County of San Francisco, proposed airport, meeting minutes",
    "wof:parent_id": 1511910049,
    "wof:placetype": "custom",
    "wof:placetype_alt": [
      "image"
    ],
    "wof:repo": "sfomuseum-data-media-collection",
    "wof:superseded_by": [],
    "wof:supersedes": [],
    "wof:tags": []
  },
  "bbox": [
    -122.386155,
    37.616358,
    -122.386155,
    37.616358
  ],
  "geometry": {"type":"Point","coordinates":[-122.386155,37.616358]}
}
