{
  "id": 1763300801,
  "type": "Feature",
  "properties": {
    "date:cessation_lower": "1980-01-01",
    "date:cessation_upper": "1989-12-31",
    "date:inception_lower": "1980-01-01",
    "date:inception_upper": "1989-12-31",
    "edtf:cessation": "198X",
    "edtf:inception": "198X",
    "geom:area": 2.477324999997507e-7,
    "geom:bbox": "-122.386472,37.616105,-122.385834,37.616611",
    "geom:latitude": 37.61635756125121,
    "geom:longitude": -122.38615532866096,
    "media:fingerprint": "768a3bb4351e75ae00b9ae750231b0874a42330c",
    "media:imagehash_avg": "a:fff7ffc3c3c1c3ff",
    "media:imagehash_diff": "d:0e04b2961607071c",
    "media:imagetext": "*PANAM",
    "media:imagetext_created": 1787961766,
    "media:imagetext_source": "com.apple.visionkit.VNImageRequestHandler#Version 26.6.2 (Build 25G83)",
    "media:mimetype": "image/tiff",
    "media:properties": {
      "sizes": {
        "b": {
          "extension": "jpg",
          "height": 768,
          "mimetype": "image/jpeg",
          "secret": "CqP8i8aeLRyPKivYC0MG6jrfHzXuAB4d",
          "width": 965
        },
        "c": {
          "extension": "jpg",
          "height": 600,
          "mimetype": "image/jpeg",
          "secret": "CqP8i8aeLRyPKivYC0MG6jrfHzXuAB4d",
          "width": 754
        },
        "dc": {
          "extension": "jpg",
          "height": 600,
          "mimetype": "image/jpeg",
          "secret": "CqP8i8aeLRyPKivYC0MG6jrfHzXuAB4d",
          "width": 754
        },
        "ds": {
          "extension": "jpg",
          "height": 320,
          "mimetype": "image/jpeg",
          "secret": "CqP8i8aeLRyPKivYC0MG6jrfHzXuAB4d",
          "width": 320
        },
        "k": {
          "extension": "jpg",
          "height": 1536,
          "mimetype": "image/jpeg",
          "secret": "CqP8i8aeLRyPKivYC0MG6jrfHzXuAB4d",
          "width": 1931
        },
        "n": {
          "extension": "jpg",
          "height": 240,
          "mimetype": "image/jpeg",
          "secret": "CqP8i8aeLRyPKivYC0MG6jrfHzXuAB4d",
          "width": 301
        },
        "o": {
          "extension": "jpg",
          "height": 1326,
          "mimetype": "image/jpeg",
          "secret": "HP9a5QloxELh4Z41qOdCqC5UbH6gAYCP",
          "width": 1667
        },
        "s": {
          "extension": "jpg",
          "height": 320,
          "mimetype": "image/jpeg",
          "secret": "CqP8i8aeLRyPKivYC0MG6jrfHzXuAB4d",
          "width": 320
        },
        "z": {
          "extension": "jpg",
          "height": 480,
          "mimetype": "image/jpeg",
          "secret": "CqP8i8aeLRyPKivYC0MG6jrfHzXuAB4d",
          "width": 603
        }
      }
    },
    "media:source": "sfomuseum",
    "media:status_id": 1,
    "media:uri_template": "https://static.sfomuseum.org/media/176/330/080/1/1763300801_{secret}_{label}.{extension}",
    "millsfield:airline_id": [
      1159284989
    ],
    "millsfield:category_id": 1763416373,
    "millsfield:collection_id": 1511214203,
    "millsfield:company_id": [
      1159286839
    ],
    "millsfield:images_colors": [
      {
        "hex": "#c6c2bd",
        "name": "#c6c2bd",
        "reference": "marekm4"
      },
      {
        "hex": "#c0c0c0",
        "name": "silver",
        "reference": "css4"
      },
      {
        "hex": "#cdc5c2",
        "name": "Silver",
        "reference": "crayola"
      },
      {
        "hex": "#a78e73",
        "name": "#a78e73",
        "reference": "marekm4"
      },
      {
        "hex": "#bc8f8f",
        "name": "rosybrown",
        "reference": "css4"
      },
      {
        "hex": "#9f8170",
        "name": "Beaver",
        "reference": "crayola"
      },
      {
        "hex": "#916d52",
        "name": "#916d52",
        "reference": "marekm4"
      },
      {
        "hex": "#696969",
        "name": "dimgrey",
        "reference": "css4"
      },
      {
        "hex": "#85754e",
        "name": "Gold Fusion",
        "reference": "crayola"
      },
      {
        "hex": "#5c4737",
        "name": "#5c4737",
        "reference": "marekm4"
      },
      {
        "hex": "#556b2f",
        "name": "darkolivegreen",
        "reference": "css4"
      },
      {
        "hex": "#714b23",
        "name": "Raw Umber",
        "reference": "crayola"
      }
    ],
    "millsfield:images_texts": [
      "*PANAM",
      "SPAN AM",
      "Fly\nAway\nTravel\nOF ROSEBURG, INC",
      "Away\nTravel\nOF ROSEBURG, INC"
    ],
    "millsfield:images_texts_ids": [
      1763300801,
      1763300803,
      1763300805,
      1763300807
    ],
    "millsfield:similar": {
      "apple/mobileclip_s0": [
        {
          "distance": 0.2229191,
          "id": 1763300927
        },
        {
          "distance": 0.30718073,
          "id": 1763300803
        },
        {
          "distance": 0.3228092,
          "id": 1763300929
        },
        {
          "distance": 0.3497562,
          "id": 1763300809
        },
        {
          "distance": 0.3528428,
          "id": 1763308909
        },
        {
          "distance": 0.3595845,
          "id": 1763300991
        },
        {
          "distance": 0.36014307,
          "id": 1527857301
        },
        {
          "distance": 0.36265028,
          "id": 1763300811
        },
        {
          "distance": 0.37494743,
          "id": 1763301061
        },
        {
          "distance": 0.3750411,
          "id": 1763308911
        }
      ],
      "apple/mobileclip_s1": [
        {
          "distance": 0.12017903,
          "id": 1763300927
        },
        {
          "distance": 0.21928914,
          "id": 1763300803
        },
        {
          "distance": 0.2212051,
          "id": 1763308911
        },
        {
          "distance": 0.22264543,
          "id": 1763308909
        },
        {
          "distance": 0.23487367,
          "id": 1763309287
        },
        {
          "distance": 0.23494168,
          "id": 1763301061
        },
        {
          "distance": 0.23966835,
          "id": 1763300991
        },
        {
          "distance": 0.24355061,
          "id": 1763309289
        },
        {
          "distance": 0.24372323,
          "id": 1763300811
        },
        {
          "distance": 0.24787325,
          "id": 1763300929
        }
      ],
      "apple/mobileclip_s2": [
        {
          "distance": 0.16010426,
          "id": 1763300927
        },
        {
          "distance": 0.18014582,
          "id": 1763300929
        },
        {
          "distance": 0.24423373,
          "id": 1763308911
        },
        {
          "distance": 0.2647709,
          "id": 1763308909
        },
        {
          "distance": 0.277186,
          "id": 1527857301
        },
        {
          "distance": 0.28350365,
          "id": 1763300991
        },
        {
          "distance": 0.28592926,
          "id": 1763300811
        },
        {
          "distance": 0.2940827,
          "id": 1763301061
        },
        {
          "distance": 0.30523977,
          "id": 1763309287
        },
        {
          "distance": 0.31436634,
          "id": 1763309289
        }
      ]
    },
    "millsfield:subcategory_id": 1511213155,
    "mz:is_current": 1,
    "sfomuseum:filename": "2000.058.0182_ft1.tif",
    "sfomuseum:image_id": 160724,
    "sfomuseum:image_index": 5,
    "sfomuseum:image_type": "studio",
    "sfomuseum:object_id": 51230,
    "sfomuseum:placetype": "image",
    "sfomuseum:primary_image": 1,
    "src:geom": "sfomuseum",
    "wof:belongsto": [
      102527513,
      1159162825,
      102191575,
      85633793,
      102087579,
      85922583,
      1763300225,
      85688637,
      1159160869
    ],
    "wof:country": "XY",
    "wof:created": 1647589660,
    "wof:depicts": [
      1159284989,
      1159286839,
      1763300225
    ],
    "wof:geomhash": "ed7c2ab3547fc3916b5edc33488deaa7",
    "wof:hierarchy": [
      {
        "building_id": -1,
        "campus_id": 102527513,
        "collection_id": 1159162825,
        "concourse_id": 1159162825,
        "continent_id": 102191575,
        "country_id": 85633793,
        "county_id": 102087579,
        "custom_id": 1763300801,
        "image_id": 1763300801,
        "locality_id": 85922583,
        "neighbourhood_id": -1,
        "object_id": 1763300225,
        "region_id": 85688637,
        "wing_id": 1159160869
      }
    ],
    "wof:id": 1763300801,
    "wof:lastmodified": 1788451036,
    "wof:name": "airline bag: Pan American World Airways",
    "wof:parent_id": 1763300225,
    "wof:placetype": "custom",
    "wof:placetype_alt": [
      "image"
    ],
    "wof:repo": "sfomuseum-data-media-collection",
    "wof:superseded_by": [],
    "wof:supersedes": []
  },
  "bbox": [
    -122.386472,
    37.616105,
    -122.385834,
    37.616611
  ],
  "geometry": {"type":"Polygon","coordinates":[[[-122.386472,37.616318],[-122.386435,37.616233],[-122.386376,37.616178],[-122.386301,37.616131],[-122.386161,37.616105],[-122.386022,37.616131],[-122.385914,37.616186],[-122.385855,37.616267],[-122.385834,37.616369],[-122.385871,37.616467],[-122.385941,37.616543],[-122.386054,37.616603],[-122.386183,37.616611],[-122.386306,37.616573],[-122.386419,37.616509],[-122.386467,37.616411],[-122.386472,37.616318]]]}
}
