{
  "id": 1527832433,
  "type": "Feature",
  "properties": {
    "date:cessation_lower": "1980-01-01",
    "date:cessation_upper": "1980-12-31",
    "date:inception_lower": "1980-01-01",
    "date:inception_upper": "1980-12-31",
    "edtf:cessation": "1980",
    "edtf:date": "1980",
    "edtf:inception": "1980",
    "geom:area": 0,
    "geom:bbox": "-122.386155,37.616358,-122.386155,37.616358",
    "geom:latitude": 37.616358,
    "geom:longitude": -122.386155,
    "iso:country": "XX",
    "media:fingerprint": "df1aaf878999075971bb1862b7d49c90b7dd044b",
    "media:imagehash_avg": "a:ffbf8181878f8181",
    "media:imagehash_diff": "d:71693f333f793d1f",
    "media:imagetext": "AIR\nCALIFORNIA\nSystem Timetable\nEffective Soptomber 4, 1080\nONTARIO\nINTERNATIONA",
    "media:imagetext_created": 1787949438,
    "media:imagetext_source": "com.apple.visionkit.VNImageRequestHandler#Version 26.6.2 (Build 25G83)",
    "media:medium": "image",
    "media:mimetype": "image/tiff",
    "media:properties": {
      "sizes": {
        "b": {
          "extension": "jpg",
          "height": 768,
          "mimetype": "image/jpeg",
          "secret": "af6G9fK4Gy0inLj7J6pLWJbpkjopyqsp",
          "width": 340
        },
        "c": {
          "extension": "jpg",
          "height": 600,
          "mimetype": "image/jpeg",
          "secret": "af6G9fK4Gy0inLj7J6pLWJbpkjopyqsp",
          "width": 266
        },
        "dc": {
          "extension": "jpg",
          "height": 600,
          "mimetype": "image/jpeg",
          "secret": "af6G9fK4Gy0inLj7J6pLWJbpkjopyqsp",
          "width": 266
        },
        "ds": {
          "extension": "jpg",
          "height": 320,
          "mimetype": "image/jpeg",
          "secret": "af6G9fK4Gy0inLj7J6pLWJbpkjopyqsp",
          "width": 320
        },
        "k": {
          "extension": "jpg",
          "height": 1536,
          "mimetype": "image/jpeg",
          "secret": "af6G9fK4Gy0inLj7J6pLWJbpkjopyqsp",
          "width": 681
        },
        "n": {
          "extension": "jpg",
          "height": 240,
          "mimetype": "image/jpeg",
          "secret": "af6G9fK4Gy0inLj7J6pLWJbpkjopyqsp",
          "width": 106
        },
        "o": {
          "extension": "jpg",
          "height": 2097,
          "mimetype": "image/jpeg",
          "secret": "XR5SYsnctZ4SMZHtcqwvYz2QW5ztNAYA",
          "width": 931
        },
        "s": {
          "extension": "jpg",
          "height": 320,
          "mimetype": "image/jpeg",
          "secret": "af6G9fK4Gy0inLj7J6pLWJbpkjopyqsp",
          "width": 320
        },
        "z": {
          "extension": "jpg",
          "height": 480,
          "mimetype": "image/jpeg",
          "secret": "af6G9fK4Gy0inLj7J6pLWJbpkjopyqsp",
          "width": 213
        }
      }
    },
    "media:source": "sfomuseum",
    "media:status_id": 1,
    "media:uri_template": "https://static.sfomuseum.org/media/152/783/243/3/1527832433_{secret}_{label}.{extension}",
    "millsfield:airline_id": [
      1159283793
    ],
    "millsfield:category_id": 1511214223,
    "millsfield:collection_id": 1511214207,
    "millsfield:company_id": [
      1159286809
    ],
    "millsfield:images_colors": [
      {
        "hex": "#261e1c",
        "name": "#261e1c",
        "reference": "marekm4"
      },
      {
        "hex": "#000000",
        "name": "black",
        "reference": "css4"
      },
      {
        "hex": "#000000",
        "name": "Black",
        "reference": "crayola"
      },
      {
        "hex": "#c9c9c4",
        "name": "#c9c9c4",
        "reference": "marekm4"
      },
      {
        "hex": "#c0c0c0",
        "name": "silver",
        "reference": "css4"
      },
      {
        "hex": "#cdc5c2",
        "name": "Silver",
        "reference": "crayola"
      },
      {
        "hex": "#8d663e",
        "name": "#8d663e",
        "reference": "marekm4"
      },
      {
        "hex": "#a0522d",
        "name": "sienna",
        "reference": "css4"
      },
      {
        "hex": "#85754e",
        "name": "Gold Fusion",
        "reference": "crayola"
      },
      {
        "hex": "#9a905a",
        "name": "#9a905a",
        "reference": "marekm4"
      },
      {
        "hex": "#808080",
        "name": "grey",
        "reference": "css4"
      },
      {
        "hex": "#9f8170",
        "name": "Beaver",
        "reference": "crayola"
      }
    ],
    "millsfield:images_texts": [
      "AIR\nCALIFORNIA\nSystem Timetable\nEffective Soptomber 4, 1080\nONTARIO\nINTERNATIONA",
      "Ontario International Airport\nOntario is the convenient gateway to major cities\nin California, Nevada and Oregon on the airline\nthat wants everyone to fly.\nFrom Ontario International Airport Air Cali-\nfornia serves San Francisco, San Jose, Oakland,\nSacramento, Reno/Lake Tahoe, Las Vegas, Palm\nSprings and Portland.\nAir California serves more people with more\nflights from Ontario International Airport than\nany other airline.\nCall your Air California Travel Agent\nfor reservations.\nAIR\nCALIFORNIA"
    ],
    "millsfield:images_texts_ids": [
      1527832433,
      1527844469
    ],
    "millsfield:similar": {
      "apple/mobileclip_s0": [
        {
          "distance": 0.23723742,
          "id": 1762698665
        },
        {
          "distance": 0.6781171,
          "id": 1762711909
        },
        {
          "distance": 0.72758436,
          "id": 1527826193
        },
        {
          "distance": 0.73303723,
          "id": 1527832351
        },
        {
          "distance": 0.7368415,
          "id": 2014778389
        },
        {
          "distance": 0.7459182,
          "id": 1527839805
        },
        {
          "distance": 0.7491923,
          "id": 1762713037
        },
        {
          "distance": 0.74942386,
          "id": 1527840833
        },
        {
          "distance": 0.7543534,
          "id": 1763241317
        },
        {
          "distance": 0.7581211,
          "id": 1527825241
        }
      ],
      "apple/mobileclip_s1": [
        {
          "distance": 0.12214604,
          "id": 1762698665
        },
        {
          "distance": 0.51921254,
          "id": 1762711909
        },
        {
          "distance": 0.5634454,
          "id": 1527844469
        },
        {
          "distance": 0.57553244,
          "id": 1527847229
        },
        {
          "distance": 0.5797085,
          "id": 1762698885
        },
        {
          "distance": 0.580918,
          "id": 1931110301
        },
        {
          "distance": 0.59097576,
          "id": 1762714983
        },
        {
          "distance": 0.5940756,
          "id": 1762715129
        },
        {
          "distance": 0.5941316,
          "id": 1762700893
        },
        {
          "distance": 0.59423584,
          "id": 1527840965
        }
      ],
      "apple/mobileclip_s2": [
        {
          "distance": 0.17765258,
          "id": 1762698665
        },
        {
          "distance": 0.7078902,
          "id": 1762711909
        },
        {
          "distance": 0.78604996,
          "id": 1527840965
        },
        {
          "distance": 0.7905774,
          "id": 1527838625
        },
        {
          "distance": 0.7974431,
          "id": 1762713537
        },
        {
          "distance": 0.79845226,
          "id": 1527840835
        },
        {
          "distance": 0.79879075,
          "id": 1527844469
        },
        {
          "distance": 0.7999719,
          "id": 1762714983
        },
        {
          "distance": 0.80988383,
          "id": 1527840577
        },
        {
          "distance": 0.81594455,
          "id": 1762698885
        }
      ]
    },
    "millsfield:subcategory_id": 1511213425,
    "mz:hierarchy_label": 1,
    "mz:is_current": -1,
    "sfomuseum:filename": "61316.tif",
    "sfomuseum:image_id": 61316,
    "sfomuseum:image_index": 5,
    "sfomuseum:image_type": "studio",
    "sfomuseum:object_id": 97505,
    "sfomuseum:placetype": "image",
    "sfomuseum:primary_image": 1,
    "src:geom": "sfomuseum",
    "wof:belongsto": [
      1511214223,
      1511935757,
      102527513,
      102191575,
      85633793,
      1511213425,
      85922583,
      102087579,
      1511214277,
      1511214203,
      85688637
    ],
    "wof:breaches": [],
    "wof:country": "XX",
    "wof:created": 1578951304,
    "wof:depicts": [
      1159283793,
      1511935757,
      1159286809
    ],
    "wof:geomhash": "bd906905ce4be6c0651c90b0fc24804c",
    "wof:hierarchy": [
      {
        "arcade_id": 1511213425,
        "building_id": 1511214277,
        "campus_id": 102527513,
        "concourse_id": 1511214223,
        "continent_id": 102191575,
        "country_id": 85633793,
        "county_id": 102087579,
        "custom_id": 1527832433,
        "image_id": 1527832433,
        "locality_id": 85922583,
        "media_id": 1527832433,
        "neighbourhood_id": -1,
        "region_id": 85688637,
        "venue_id": 1511935757,
        "wing_id": 1511214203
      }
    ],
    "wof:id": 1527832433,
    "wof:lastmodified": 1788449892,
    "wof:name": "timetable: Air California",
    "wof:parent_id": 1511935757,
    "wof:placetype": "custom",
    "wof:placetype_alt": [
      "image"
    ],
    "wof:repo": "sfomuseum-data-media-collection",
    "wof:superseded_by": [],
    "wof:supersedes": [],
    "wof:tags": []
  },
  "bbox": [
    -122.386155,
    37.616358,
    -122.386155,
    37.616358
  ],
  "geometry": {"type":"Point","coordinates":[-122.386155,37.616358]}
}
