{
  "id": 1762698207,
  "type": "Feature",
  "properties": {
    "date:cessation_lower": "1972-01-01",
    "date:cessation_upper": "1972-12-31",
    "date:inception_lower": "1972-01-01",
    "date:inception_upper": "1972-12-31",
    "edtf:cessation": "1972",
    "edtf:inception": "1972",
    "geom:area": 2.477324999997507e-7,
    "geom:bbox": "-122.386472,37.616105,-122.385834,37.616611",
    "geom:latitude": 37.61635756125121,
    "geom:longitude": -122.38615532866096,
    "media:fingerprint": "4cdff8e5b99316e8135b2015dcb688fb6222af03",
    "media:imagehash_avg": "a:fffff8f0f0f0f0f0",
    "media:imagehash_diff": "d:323324c4a6a4a4a4",
    "media:imagetext": "TWA\nTWA\nSYSTEM TIMETABLE\nEFFECTIVE MARCH 19, 1972\nTWA family-style fares allow discounts up to 25% on most\nflights. See inside for details and save now!\nMARCH 1972\nAPRIL 1972\nSu Mo Tu We Th\n1\n2\n9\n12\n19\n26\n13\n20\n27\n14\n21\n28\n15\n22\n29\n16\n23\n30\nFr\n3\n10\n17\n24\n31\nSa\n4\n11\n18\n25\nSu Mo Tu We Th\nFr\n2\n9\n16\n23\n30\n10\n17\n24\n11\n18\n25\n12\n19\n26\n6\n13\n20\n27\n14\n21\n28\nSa\n1\n8\n15\n22\n29\nPrinted in U.S.A.\nTWA Form No. T-200\nSCHEDULES AND FARES ARE SUBJECT TO CHANGE WITHOUT NOTICE\nSYSTEM TIMETABLE\nEFFECTIVE MARCH 19, 1972\nSpeaking of\nvacations-we're\nall packed.\nGuida\nCOTO\naD Getaway\naventure\nU.S.A.7\nGetan\nVACATIOI\nGo Getaway\ndventures\nORIENT '72\nPassport\n→ Youth\nGetaway\nAdventures\n* EUROPE 72\n:72\nTWA Getaway\nVACATIONS\nSEE COUPON ON PAGE 67.\n*Getaway is a service mark owned exclusively by TWA.\n172",
    "media:imagetext_created": 1787955621,
    "media:imagetext_source": "com.apple.visionkit.VNImageRequestHandler#Version 26.6.2 (Build 25G83)",
    "media:mimetype": "image/tiff",
    "media:properties": {
      "sizes": {
        "b": {
          "extension": "jpg",
          "height": 768,
          "mimetype": "image/jpeg",
          "secret": "wWxUsWX2fWmP6zjCkisbiU2iZXBd0jRG",
          "width": 661
        },
        "c": {
          "extension": "jpg",
          "height": 600,
          "mimetype": "image/jpeg",
          "secret": "wWxUsWX2fWmP6zjCkisbiU2iZXBd0jRG",
          "width": 516
        },
        "dc": {
          "extension": "jpg",
          "height": 600,
          "mimetype": "image/jpeg",
          "secret": "wWxUsWX2fWmP6zjCkisbiU2iZXBd0jRG",
          "width": 516
        },
        "ds": {
          "extension": "jpg",
          "height": 320,
          "mimetype": "image/jpeg",
          "secret": "wWxUsWX2fWmP6zjCkisbiU2iZXBd0jRG",
          "width": 320
        },
        "k": {
          "extension": "jpg",
          "height": 1536,
          "mimetype": "image/jpeg",
          "secret": "wWxUsWX2fWmP6zjCkisbiU2iZXBd0jRG",
          "width": 1322
        },
        "n": {
          "extension": "jpg",
          "height": 240,
          "mimetype": "image/jpeg",
          "secret": "wWxUsWX2fWmP6zjCkisbiU2iZXBd0jRG",
          "width": 206
        },
        "o": {
          "extension": "jpg",
          "height": 2000,
          "mimetype": "image/jpeg",
          "secret": "m3RLpzXlvybV7iqoec7hxkN2zkLMDgJu",
          "width": 1722
        },
        "s": {
          "extension": "jpg",
          "height": 320,
          "mimetype": "image/jpeg",
          "secret": "wWxUsWX2fWmP6zjCkisbiU2iZXBd0jRG",
          "width": 320
        },
        "z": {
          "extension": "jpg",
          "height": 480,
          "mimetype": "image/jpeg",
          "secret": "wWxUsWX2fWmP6zjCkisbiU2iZXBd0jRG",
          "width": 413
        }
      }
    },
    "media:source": "sfomuseum",
    "media:status_id": 1,
    "media:uri_template": "https://static.sfomuseum.org/media/176/269/820/7/1762698207_{secret}_{label}.{extension}",
    "millsfield:airline_id": [
      1159285393
    ],
    "millsfield:category_id": 1511214223,
    "millsfield:collection_id": 1511214207,
    "millsfield:company_id": [
      1159287531
    ],
    "millsfield:images_colors": [
      {
        "hex": "#eceae5",
        "name": "#eceae5",
        "reference": "marekm4"
      },
      {
        "hex": "#faf0e6",
        "name": "linen",
        "reference": "css4"
      },
      {
        "hex": "#fddde6",
        "name": "Piggy Pink",
        "reference": "crayola"
      },
      {
        "hex": "#cc0506",
        "name": "#cc0506",
        "reference": "marekm4"
      },
      {
        "hex": "#b22222",
        "name": "firebrick",
        "reference": "css4"
      },
      {
        "hex": "#ff2b2b",
        "name": "Orange Red",
        "reference": "crayola"
      },
      {
        "hex": "#0c1c9b",
        "name": "#0c1c9b",
        "reference": "marekm4"
      },
      {
        "hex": "#00008b",
        "name": "darkblue",
        "reference": "css4"
      },
      {
        "hex": "#1a4876",
        "name": "Midnight Blue",
        "reference": "crayola"
      },
      {
        "hex": "#251f34",
        "name": "#251f34",
        "reference": "marekm4"
      },
      {
        "hex": "#2f4f4f",
        "name": "darkslategrey",
        "reference": "css4"
      },
      {
        "hex": "#414a4c",
        "name": "Outer Space",
        "reference": "crayola"
      }
    ],
    "millsfield:images_texts": [
      "SAN FRANCISCO\nLOS ANGELES\nTO/FROM\nASIA \u0026 EUROPE\nHONOLULU\nTO/FROM\nTHE U.S.A.\nSHANNON\nLONDON\n• PARIS\nGENEVA.\nMADRID\nLISBON\nSANTA\nMARIA\nTWA\nWORLD ROUTES\nTO/FROM\nEUROPE, AFRICA \u0026 ASIA\nDENVER\nLAS VEGAS.\nPHOENIX\nAMARILLO\nCHICAGO\n- INDIANAPOLIS\nKANSAS CITY\nST. LOUIS\nWICHITA\nTULSA\nOKLAHOMA\nCITY\nDETROIT\nCLEVELAND.\nPITTSBURGH\nCOLUMBUS\nDAYTON\nCINCINNATI\n• LOUISVILLE\nNASHVILLE\nATLANTA\nBOSTON\nHARTFORD\nNEW YORK\nHARRISBURG\nPHILADELPHIA\nBALTIMORE\nWASHINGTON\nTUCSON\nTAMPA\nMIAMI\nFRANKFURT\nZURICH\nMILAN\nROME\nATHENS\nTEL AVIV\nCAIRO\nOKINAWA\nTAIPEL\nHONG KONG\nTO/FROM\nTHE U.S.A.\nBOMBAY\nBANGKOK\nGUAM\nNAIROFI",
      "TWA\nTWA\nSYSTEM TIMETABLE\nEFFECTIVE MARCH 19, 1972\nTWA family-style fares allow discounts up to 25% on most\nflights. See inside for details and save now!\nMARCH 1972\nAPRIL 1972\nSu Mo Tu We Th\n1\n2\n9\n12\n19\n26\n13\n20\n27\n14\n21\n28\n15\n22\n29\n16\n23\n30\nFr\n3\n10\n17\n24\n31\nSa\n4\n11\n18\n25\nSu Mo Tu We Th\nFr\n2\n9\n16\n23\n30\n10\n17\n24\n11\n18\n25\n12\n19\n26\n6\n13\n20\n27\n14\n21\n28\nSa\n1\n8\n15\n22\n29\nPrinted in U.S.A.\nTWA Form No. T-200\nSCHEDULES AND FARES ARE SUBJECT TO CHANGE WITHOUT NOTICE\nSYSTEM TIMETABLE\nEFFECTIVE MARCH 19, 1972\nSpeaking of\nvacations-we're\nall packed.\nGuida\nCOTO\naD Getaway\naventure\nU.S.A.7\nGetan\nVACATIOI\nGo Getaway\ndventures\nORIENT '72\nPassport\n→ Youth\nGetaway\nAdventures\n* EUROPE 72\n:72\nTWA Getaway\nVACATIONS\nSEE COUPON ON PAGE 67.\n*Getaway is a service mark owned exclusively by TWA.\n172"
    ],
    "millsfield:images_texts_ids": [
      1762697715,
      1762698207
    ],
    "millsfield:similar": {
      "apple/mobileclip_s0": [
        {
          "distance": 0.66768444,
          "id": 1527844729
        },
        {
          "distance": 0.67226785,
          "id": 1527836995
        },
        {
          "distance": 0.67312014,
          "id": 2014778109
        },
        {
          "distance": 0.676652,
          "id": 1527836987
        },
        {
          "distance": 0.6792979,
          "id": 1527836991
        },
        {
          "distance": 0.67980695,
          "id": 1527837107
        },
        {
          "distance": 0.6808998,
          "id": 1527837027
        },
        {
          "distance": 0.6834011,
          "id": 1527837031
        },
        {
          "distance": 0.6854034,
          "id": 1762697711
        },
        {
          "distance": 0.6875904,
          "id": 1527837047
        }
      ],
      "apple/mobileclip_s1": [
        {
          "distance": 0.44345605,
          "id": 1527836991
        },
        {
          "distance": 0.455931,
          "id": 1527837069
        },
        {
          "distance": 0.4562094,
          "id": 1527844729
        },
        {
          "distance": 0.4574684,
          "id": 1527836995
        },
        {
          "distance": 0.46557045,
          "id": 1527844733
        },
        {
          "distance": 0.47184247,
          "id": 1527835255
        },
        {
          "distance": 0.4737251,
          "id": 1763249489
        },
        {
          "distance": 0.4790158,
          "id": 1527837033
        },
        {
          "distance": 0.48323056,
          "id": 1527837265
        },
        {
          "distance": 0.4836025,
          "id": 1527855073
        }
      ],
      "apple/mobileclip_s2": [
        {
          "distance": 0.66232723,
          "id": 1762699663
        },
        {
          "distance": 0.67073107,
          "id": 1762715355
        },
        {
          "distance": 0.6831835,
          "id": 1527849807
        },
        {
          "distance": 0.6840914,
          "id": 1527844729
        },
        {
          "distance": 0.6881291,
          "id": 1527835463
        },
        {
          "distance": 0.6891389,
          "id": 1527836995
        },
        {
          "distance": 0.68962646,
          "id": 1762714961
        },
        {
          "distance": 0.6901805,
          "id": 1527836991
        },
        {
          "distance": 0.690398,
          "id": 1527836743
        },
        {
          "distance": 0.691531,
          "id": 1762697711
        }
      ]
    },
    "millsfield:subcategory_id": 1511213425,
    "mz:is_current": 1,
    "sfomuseum:filename": "83063.tif",
    "sfomuseum:image_id": 83063,
    "sfomuseum:image_index": 5,
    "sfomuseum:image_type": "studio",
    "sfomuseum:object_id": 141537,
    "sfomuseum:placetype": "image",
    "sfomuseum:primary_image": 1,
    "src:geom": "sfomuseum",
    "wof:belongsto": [
      102527513,
      1159162825,
      102191575,
      85633793,
      102087579,
      85922583,
      1762684051,
      85688637,
      1159160869
    ],
    "wof:country": "XY",
    "wof:created": 1641345642,
    "wof:depicts": [
      1762684051,
      1159285393,
      1159287531
    ],
    "wof:geomhash": "ed7c2ab3547fc3916b5edc33488deaa7",
    "wof:hierarchy": [
      {
        "building_id": -1,
        "campus_id": 102527513,
        "collection_id": 1159162825,
        "concourse_id": 1159162825,
        "continent_id": 102191575,
        "country_id": 85633793,
        "county_id": 102087579,
        "custom_id": 1762698207,
        "image_id": 1762698207,
        "locality_id": 85922583,
        "neighbourhood_id": -1,
        "object_id": 1762684051,
        "region_id": 85688637,
        "wing_id": 1159160869
      }
    ],
    "wof:id": 1762698207,
    "wof:lastmodified": 1788450414,
    "wof:name": "timetable: TWA (Trans World Airlines)",
    "wof:parent_id": 1762684051,
    "wof:placetype": "custom",
    "wof:placetype_alt": [
      "image"
    ],
    "wof:repo": "sfomuseum-data-media-collection",
    "wof:superseded_by": [],
    "wof:supersedes": []
  },
  "bbox": [
    -122.386472,
    37.616105,
    -122.385834,
    37.616611
  ],
  "geometry": {"type":"Polygon","coordinates":[[[-122.386472,37.616318],[-122.386435,37.616233],[-122.386376,37.616178],[-122.386301,37.616131],[-122.386161,37.616105],[-122.386022,37.616131],[-122.385914,37.616186],[-122.385855,37.616267],[-122.385834,37.616369],[-122.385871,37.616467],[-122.385941,37.616543],[-122.386054,37.616603],[-122.386183,37.616611],[-122.386306,37.616573],[-122.386419,37.616509],[-122.386467,37.616411],[-122.386472,37.616318]]]}
}
