{
  "id": 1913799615,
  "type": "Feature",
  "properties": {
    "date:cessation_lower": "1949-12-06",
    "date:cessation_upper": "1949-12-06",
    "date:inception_lower": "1949-12-06",
    "date:inception_upper": "1949-12-06",
    "edtf:cessation": "1949-12-06",
    "edtf:inception": "1949-12-06",
    "geom:area": 2.477324999997507e-7,
    "geom:bbox": "-122.386472,37.616105,-122.385834,37.616611",
    "geom:latitude": 37.61635756125121,
    "geom:longitude": -122.38615532866096,
    "media:fingerprint": "a985e3011411b9b8f60fe80de777948807b94937",
    "media:imagehash_avg": "a:ff818181818181ff",
    "media:imagehash_diff": "d:392d693149756975",
    "media:imagetext": "The s gobi wrait Book\navrirs today. Dee enjoy reading it.\nand wile bring it along of I can to you and Hate to\nread or kar Jon fraid it?\nmes granor sounds\nthe flight you\n→ hair\ncertaine be mice to her and\nI'm sur she is gratifue.\nThe Clarks last night told me amt a r\nnice famie hatre cald\n\"The 14\"\n-at 148.60 where\nfind. of theirs an staying. They the frens.\nhair a\nlarge dorke bed room, a smile single\nbed room, batk and living room for 18% per day\nand the rats on\na months basis are lower.\nwie try to tair a took irfor coming to Paris\nI har decided not ti come back her\nafter Christmas but\n- Christmas but ratter to star on with you\nand for\nuntie o hair to go.\nback to Japan\naround the middle of Jamman. How woned to\ntwo lika to go alon\na far a. Bargkoke\nOur Feb. directors meeting will he is Honolen\naround the 22 and the theat of us cond\ntake that in and\nthen\ngo to manila.\n- and\nwait\nthee for me to\nreturn\nback toss\n• Paris.\nThis in\ntong a suggestur\nbut want yon to he thinking abort it traut\nJou dont lik me to spring suprisis or ya!\nI'm working eat at the offia - its now 2:3.\nano Im turd\nso win pick up my TWA ticket to\nSt.Louis get some chow and\nhome.\nLots an\nlot of loo - fon your own - Bis\n2019.1211148",
    "media:imagetext_created": 1787972158,
    "media:imagetext_source": "com.apple.visionkit.VNImageRequestHandler#Version 26.6.2 (Build 25G83)",
    "media:mimetype": "image/tiff",
    "media:properties": {
      "sizes": {
        "b": {
          "extension": "jpg",
          "height": 768,
          "mimetype": "image/jpeg",
          "secret": "UjSVYKVKNbHWiUi6Bg6V9eJ0nXCB4JZw",
          "width": 604
        },
        "c": {
          "extension": "jpg",
          "height": 600,
          "mimetype": "image/jpeg",
          "secret": "UjSVYKVKNbHWiUi6Bg6V9eJ0nXCB4JZw",
          "width": 471
        },
        "dc": {
          "extension": "jpg",
          "height": 600,
          "mimetype": "image/jpeg",
          "secret": "UjSVYKVKNbHWiUi6Bg6V9eJ0nXCB4JZw",
          "width": 471
        },
        "ds": {
          "extension": "jpg",
          "height": 320,
          "mimetype": "image/jpeg",
          "secret": "UjSVYKVKNbHWiUi6Bg6V9eJ0nXCB4JZw",
          "width": 320
        },
        "k": {
          "extension": "jpg",
          "height": 1536,
          "mimetype": "image/jpeg",
          "secret": "UjSVYKVKNbHWiUi6Bg6V9eJ0nXCB4JZw",
          "width": 1208
        },
        "n": {
          "extension": "jpg",
          "height": 240,
          "mimetype": "image/jpeg",
          "secret": "UjSVYKVKNbHWiUi6Bg6V9eJ0nXCB4JZw",
          "width": 188
        },
        "o": {
          "extension": "jpg",
          "height": 2000,
          "mimetype": "image/jpeg",
          "secret": "OKXpnCv5DWZdDiAbluSz7IdmIoHaunxe",
          "width": 1573
        },
        "s": {
          "extension": "jpg",
          "height": 320,
          "mimetype": "image/jpeg",
          "secret": "UjSVYKVKNbHWiUi6Bg6V9eJ0nXCB4JZw",
          "width": 320
        },
        "z": {
          "extension": "jpg",
          "height": 480,
          "mimetype": "image/jpeg",
          "secret": "UjSVYKVKNbHWiUi6Bg6V9eJ0nXCB4JZw",
          "width": 377
        }
      }
    },
    "media:source": "sfomuseum",
    "media:status_id": 1,
    "media:uri_template": "https://static.sfomuseum.org/media/191/379/961/5/1913799615_{secret}_{label}.{extension}",
    "millsfield:airline_id": [
      1159284991
    ],
    "millsfield:category_id": 1511214251,
    "millsfield:collection_id": 1511214207,
    "millsfield:company_id": [
      1159286839
    ],
    "millsfield:images_colors": [
      {
        "hex": "#e1dac5",
        "name": "#e1dac5",
        "reference": "marekm4"
      },
      {
        "hex": "#d3d3d3",
        "name": "lightgrey",
        "reference": "css4"
      },
      {
        "hex": "#dbd7d2",
        "name": "Timberwolf",
        "reference": "crayola"
      },
      {
        "hex": "#343b65",
        "name": "#343b65",
        "reference": "marekm4"
      },
      {
        "hex": "#2f4f4f",
        "name": "darkslategrey",
        "reference": "css4"
      },
      {
        "hex": "#414a4c",
        "name": "Outer Space",
        "reference": "crayola"
      }
    ],
    "millsfield:images_texts": [
      "Tuesday Dre 6t\nPAN AMERICAN WORLD AIRWAYS SYSTEM\nCHRYSLER BUILDING, 135 EAST 42ND STREET, NEW YORK 17, N. Y.\nDravenste\nDels.\nOFFICES\nHobby's death was a shock. The one, intimation\n\"\nI had was you.\n- lette of Wic, in which ya crate\nHate is very low.\nThe news came througe Caddy\nthis morning.\nRutt had phones he lart night but 3\nwas having dinner with Bonds and the Lewis Clacks\nand mrs Cabot (he was in a U.N. meting) And did nt\nSet home until late.\nThen this morning when o phone\nMany o the told me that the had wired Bo. Fron\nafterward Bo calls me hui.\nmar, no was wondufue.\nShe broke down a litte when the talked about you\nso far away but okawin carried on spendise.\nthat got set a batht to enga\nShe stamed way plass that I wored be in StiLous\nsaid she wanted to sur me\nte finese\nout that. I talked to Ham, fust and Din sust\nhe was a great keep to\nmany. after phonin,\non in Paris 9 call Bi Bix in St. Louis\ntold him that\n- Dd be ont - also asked him to\nsind flowns for us.\nIt was wonderfue to talk to\na En if the acaron was sad.\nHere are day son mac It tin Jims lette came witt\nJour two littr from.\nSan Francises in the ticone\nmail - abo margings lette which o lord. Is it\nshe funny abot the\n\"buff stat\" and the rent.",
      "The s gobi wrait Book\navrirs today. Dee enjoy reading it.\nand wile bring it along of I can to you and Hate to\nread or kar Jon fraid it?\nmes granor sounds\nthe flight you\n→ hair\ncertaine be mice to her and\nI'm sur she is gratifue.\nThe Clarks last night told me amt a r\nnice famie hatre cald\n\"The 14\"\n-at 148.60 where\nfind. of theirs an staying. They the frens.\nhair a\nlarge dorke bed room, a smile single\nbed room, batk and living room for 18% per day\nand the rats on\na months basis are lower.\nwie try to tair a took irfor coming to Paris\nI har decided not ti come back her\nafter Christmas but\n- Christmas but ratter to star on with you\nand for\nuntie o hair to go.\nback to Japan\naround the middle of Jamman. How woned to\ntwo lika to go alon\na far a. Bargkoke\nOur Feb. directors meeting will he is Honolen\naround the 22 and the theat of us cond\ntake that in and\nthen\ngo to manila.\n- and\nwait\nthee for me to\nreturn\nback toss\n• Paris.\nThis in\ntong a suggestur\nbut want yon to he thinking abort it traut\nJou dont lik me to spring suprisis or ya!\nI'm working eat at the offia - its now 2:3.\nano Im turd\nso win pick up my TWA ticket to\nSt.Louis get some chow and\nhome.\nLots an\nlot of loo - fon your own - Bis\n2019.1211148"
    ],
    "millsfield:images_texts_ids": [
      1913799613,
      1913799615
    ],
    "millsfield:similar": {
      "apple/mobileclip_s0": [
        {
          "distance": 0.19363491,
          "id": 1913799689
        },
        {
          "distance": 0.2132165,
          "id": 1913799685
        },
        {
          "distance": 0.22551753,
          "id": 1913802061
        },
        {
          "distance": 0.22701171,
          "id": 1913799621
        },
        {
          "distance": 0.23008314,
          "id": 1913802097
        },
        {
          "distance": 0.2316649,
          "id": 1913802341
        },
        {
          "distance": 0.23257187,
          "id": 1913799617
        },
        {
          "distance": 0.23980057,
          "id": 1913800679
        },
        {
          "distance": 0.23998894,
          "id": 1913799635
        },
        {
          "distance": 0.24097435,
          "id": 1913799491
        }
      ],
      "apple/mobileclip_s1": [
        {
          "distance": 0.14031422,
          "id": 1913799689
        },
        {
          "distance": 0.15525645,
          "id": 1913799579
        },
        {
          "distance": 0.16896366,
          "id": 1913799639
        },
        {
          "distance": 0.1781059,
          "id": 1913799625
        },
        {
          "distance": 0.1803322,
          "id": 1913802227
        },
        {
          "distance": 0.18044269,
          "id": 1913799617
        },
        {
          "distance": 0.18189391,
          "id": 1913801359
        },
        {
          "distance": 0.18290332,
          "id": 1913801921
        },
        {
          "distance": 0.18354648,
          "id": 1913801125
        },
        {
          "distance": 0.18525775,
          "id": 1913801129
        }
      ],
      "apple/mobileclip_s2": [
        {
          "distance": 0.19106995,
          "id": 1913799621
        },
        {
          "distance": 0.19600107,
          "id": 1913799689
        },
        {
          "distance": 0.20771743,
          "id": 1913799579
        },
        {
          "distance": 0.20814188,
          "id": 1913799549
        },
        {
          "distance": 0.2177766,
          "id": 1913799685
        },
        {
          "distance": 0.21992117,
          "id": 1913799823
        },
        {
          "distance": 0.22050574,
          "id": 1913801195
        },
        {
          "distance": 0.22208068,
          "id": 1913801129
        },
        {
          "distance": 0.22712678,
          "id": 1913799669
        },
        {
          "distance": 0.22776462,
          "id": 1913801145
        }
      ]
    },
    "millsfield:subcategory_id": 1511213489,
    "mz:is_current": 1,
    "sfomuseum:filename": "2019.121.1148_2.tif",
    "sfomuseum:image_id": 220372,
    "sfomuseum:image_index": 5,
    "sfomuseum:image_type": "studio",
    "sfomuseum:object_id": 211511,
    "sfomuseum:placetype": "image",
    "sfomuseum:primary_image": 0,
    "src:geom": "sfomuseum",
    "wof:belongsto": [
      102527513,
      1159162825,
      102191575,
      85633793,
      102087579,
      85922583,
      1913795375,
      85688637,
      1159160869
    ],
    "wof:country": "XY",
    "wof:created": 1714549976,
    "wof:depicts": [
      1159286839,
      1913795375,
      1159284991
    ],
    "wof:geomhash": "ed7c2ab3547fc3916b5edc33488deaa7",
    "wof:hierarchy": [
      {
        "building_id": -1,
        "campus_id": 102527513,
        "collection_id": 1159162825,
        "concourse_id": 1159162825,
        "continent_id": 102191575,
        "country_id": 85633793,
        "county_id": 102087579,
        "custom_id": 1913799615,
        "image_id": 1913799615,
        "locality_id": 85922583,
        "neighbourhood_id": -1,
        "object_id": 1913795375,
        "region_id": 85688637,
        "wing_id": 1159160869
      }
    ],
    "wof:id": 1913799615,
    "wof:lastmodified": 1788160870,
    "wof:name": "correspondence: Harold M. Bixby to Debby Bixby",
    "wof:parent_id": 1913795375,
    "wof:placetype": "custom",
    "wof:placetype_alt": [
      "image"
    ],
    "wof:repo": "sfomuseum-data-media-collection",
    "wof:superseded_by": [],
    "wof:supersedes": []
  },
  "bbox": [
    -122.386472,
    37.616105,
    -122.385834,
    37.616611
  ],
  "geometry": {"type":"Polygon","coordinates":[[[-122.386472,37.616318],[-122.386435,37.616233],[-122.386376,37.616178],[-122.386301,37.616131],[-122.386161,37.616105],[-122.386022,37.616131],[-122.385914,37.616186],[-122.385855,37.616267],[-122.385834,37.616369],[-122.385871,37.616467],[-122.385941,37.616543],[-122.386054,37.616603],[-122.386183,37.616611],[-122.386306,37.616573],[-122.386419,37.616509],[-122.386467,37.616411],[-122.386472,37.616318]]]}
}
