{
  "id": 1762894291,
  "type": "Feature",
  "properties": {
    "date:cessation_lower": "1970-01-01",
    "date:cessation_upper": "1979-12-31",
    "date:inception_lower": "1970-01-01",
    "date:inception_upper": "1979-12-31",
    "edtf:cessation": "197X",
    "edtf:inception": "197X",
    "geom:area": 2.477324999997507e-7,
    "geom:bbox": "-122.386472,37.616105,-122.385834,37.616611",
    "geom:latitude": 37.61635756125121,
    "geom:longitude": -122.38615532866096,
    "media:fingerprint": "d219c05f3622798ef33994c974369c764b552884",
    "media:imagehash_avg": "a:ffff0cff01030181",
    "media:imagehash_diff": "d:2139193955655555",
    "media:imagetext": "For your safety\nPara su seguridad\nPour votre sécurité\nSeat belt • Cinturón de seguridad • Ceinture de sécurité\nTo fasten\nComo abrocharlo\nPour l'attacher\nTo tighten\nComo ajustarlo\nPour la serrer\nDC-10 LuxuryLiner\nAmericanAirlines\nTo release\nComo desabrocharlo\nPour la détacher\nLift flap to release\nLevante la lengüeta para\ndesabrochar\nLevez le pan de la ceinture\npour la détacher\nOxygen...No Smoking... Mask locations • Oxigeno...No Fumar... Ubicación\nde las máscaras • Oxygène...Défense de fumer...Emplacement des masques\nIn seat backs\nAt overhead locations\nAt bulkhead locations\nEn los respaldos de los asientos\nSobre su cabeza\nEn los tabiques divisorios\nAu dos des sièges\nEn plafond\nDans les cloisons\nTo use oxygen mask • Para usar la máscara de oxígeno • Utilisation des masques à oxygène\nPlease do not remove this card from airplane • Favor dejar esta tarjeta a bordo • Prière de laisser cette carte à bord",
    "media:imagetext_created": 1787958976,
    "media:imagetext_source": "com.apple.visionkit.VNImageRequestHandler#Version 26.6.2 (Build 25G83)",
    "media:mimetype": "image/tiff",
    "media:properties": {
      "sizes": {
        "b": {
          "extension": "jpg",
          "height": 768,
          "mimetype": "image/jpeg",
          "secret": "sdrNQtriAMW0yj2V5NPToE0Hq6Ydonrg",
          "width": 612
        },
        "c": {
          "extension": "jpg",
          "height": 600,
          "mimetype": "image/jpeg",
          "secret": "sdrNQtriAMW0yj2V5NPToE0Hq6Ydonrg",
          "width": 478
        },
        "dc": {
          "extension": "jpg",
          "height": 600,
          "mimetype": "image/jpeg",
          "secret": "sdrNQtriAMW0yj2V5NPToE0Hq6Ydonrg",
          "width": 478
        },
        "ds": {
          "extension": "jpg",
          "height": 320,
          "mimetype": "image/jpeg",
          "secret": "sdrNQtriAMW0yj2V5NPToE0Hq6Ydonrg",
          "width": 320
        },
        "k": {
          "extension": "jpg",
          "height": 1536,
          "mimetype": "image/jpeg",
          "secret": "sdrNQtriAMW0yj2V5NPToE0Hq6Ydonrg",
          "width": 1224
        },
        "n": {
          "extension": "jpg",
          "height": 240,
          "mimetype": "image/jpeg",
          "secret": "sdrNQtriAMW0yj2V5NPToE0Hq6Ydonrg",
          "width": 191
        },
        "o": {
          "extension": "jpg",
          "height": 2000,
          "mimetype": "image/jpeg",
          "secret": "fGAPa35zHjUuv1bRm1XWRBlJhIWQ9G1Q",
          "width": 1594
        },
        "s": {
          "extension": "jpg",
          "height": 320,
          "mimetype": "image/jpeg",
          "secret": "sdrNQtriAMW0yj2V5NPToE0Hq6Ydonrg",
          "width": 320
        },
        "z": {
          "extension": "jpg",
          "height": 480,
          "mimetype": "image/jpeg",
          "secret": "sdrNQtriAMW0yj2V5NPToE0Hq6Ydonrg",
          "width": 382
        }
      }
    },
    "media:source": "sfomuseum",
    "media:status_id": 1,
    "media:uri_template": "https://static.sfomuseum.org/media/176/289/429/1/1762894291_{secret}_{label}.{extension}",
    "millsfield:aircraft_id": [
      1159291259
    ],
    "millsfield:airline_id": [
      1159283849
    ],
    "millsfield:category_id": 1762671311,
    "millsfield:collection_id": 1511214207,
    "millsfield:company_id": [
      1159293561
    ],
    "millsfield:images_colors": [
      {
        "hex": "#dfd2b4",
        "name": "#dfd2b4",
        "reference": "marekm4"
      },
      {
        "hex": "#f5deb3",
        "name": "wheat",
        "reference": "css4"
      },
      {
        "hex": "#efcdb8",
        "name": "Desert Sand",
        "reference": "crayola"
      },
      {
        "hex": "#3a241b",
        "name": "#3a241b",
        "reference": "marekm4"
      },
      {
        "hex": "#2f4f4f",
        "name": "darkslategrey",
        "reference": "css4"
      },
      {
        "hex": "#414a4c",
        "name": "Outer Space",
        "reference": "crayola"
      },
      {
        "hex": "#a14f30",
        "name": "#a14f30",
        "reference": "marekm4"
      },
      {
        "hex": "#a0522d",
        "name": "sienna",
        "reference": "css4"
      },
      {
        "hex": "#a5694f",
        "name": "Sepia",
        "reference": "crayola"
      },
      {
        "hex": "#a38f66",
        "name": "#a38f66",
        "reference": "marekm4"
      },
      {
        "hex": "#808080",
        "name": "grey",
        "reference": "css4"
      },
      {
        "hex": "#9f8170",
        "name": "Beaver",
        "reference": "crayola"
      }
    ],
    "millsfield:images_texts": [
      "For your safety\nPara su seguridad\nPour votre sécurité\nSeat belt • Cinturón de seguridad • Ceinture de sécurité\nTo fasten\nComo abrocharlo\nPour l'attacher\nTo tighten\nComo ajustarlo\nPour la serrer\nDC-10 LuxuryLiner\nAmericanAirlines\nTo release\nComo desabrocharlo\nPour la détacher\nLift flap to release\nLevante la lengüeta para\ndesabrochar\nLevez le pan de la ceinture\npour la détacher\nOxygen...No Smoking... Mask locations • Oxigeno...No Fumar... Ubicación\nde las máscaras • Oxygène...Défense de fumer...Emplacement des masques\nIn seat backs\nAt overhead locations\nAt bulkhead locations\nEn los respaldos de los asientos\nSobre su cabeza\nEn los tabiques divisorios\nAu dos des sièges\nEn plafond\nDans les cloisons\nTo use oxygen mask • Para usar la máscara de oxígeno • Utilisation des masques à oxygène\nPlease do not remove this card from airplane • Favor dejar esta tarjeta a bordo • Prière de laisser cette carte à bord",
      "DC-10\nTo open door exits 1\nPara abrir las puertas de salida 1\nOuverture des portes de sortie 1\nOPEN\nSlide located in door\nTobogán ubicado en la puerta\nToboggan loge dans la porte\nTo open door exits 2,3,4\nPara abrir las puertas\nde salidas 2,3,4\nOuverture des portes de sortie 2,3,4\nSlide located in door\nTobogán ubicado en la puerta\nToboggan logé dans la porte\nBrace positions\nPosiciones de emergencia\nPositions à prendre en cas\nd'atterrissage forcé\nEmergency exit routes • Rutas de salidas de emergencia • Sorties de secours\nStay on your feet and jump\nManténgase de pie y salte\nRestez debout et sautez\nAt wing exit jump on slide here\nEn las salidas por el ala,\nsalte aquí al tobogán\nEn cas de sortie sur l'aile, sautez\nsur le toboggan à cet endroit\nMove away from slide area\nAléjese del tobogán\nEloignez-vous du toboggan\nFlotation seat cushion\nAsiento flotante\nCoussin de siège flottant\n2005.\nOP 113-E\n33.239\nPrinted in U.S.A"
    ],
    "millsfield:images_texts_ids": [
      1762894291,
      1762894293
    ],
    "millsfield:similar": {
      "apple/mobileclip_s0": [
        {
          "distance": 0.3013183,
          "id": 1913928585
        },
        {
          "distance": 0.33909553,
          "id": 1913928577
        },
        {
          "distance": 0.3452201,
          "id": 1913928589
        },
        {
          "distance": 0.34790096,
          "id": 1931096051
        },
        {
          "distance": 0.45705283,
          "id": 1913928553
        },
        {
          "distance": 0.46154755,
          "id": 1913928549
        },
        {
          "distance": 0.5130057,
          "id": 1913928461
        },
        {
          "distance": 0.5290131,
          "id": 1913928613
        },
        {
          "distance": 0.53405225,
          "id": 1913928593
        },
        {
          "distance": 0.56996214,
          "id": 1930979287
        }
      ],
      "apple/mobileclip_s1": [
        {
          "distance": 0.23033266,
          "id": 1913928585
        },
        {
          "distance": 0.24622908,
          "id": 1913928577
        },
        {
          "distance": 0.29361302,
          "id": 1931096051
        },
        {
          "distance": 0.31407124,
          "id": 1913928589
        },
        {
          "distance": 0.34375286,
          "id": 1913928553
        },
        {
          "distance": 0.34516826,
          "id": 1913928549
        },
        {
          "distance": 0.37401643,
          "id": 1931096033
        },
        {
          "distance": 0.3776734,
          "id": 1913928613
        },
        {
          "distance": 0.3900819,
          "id": 1913928491
        },
        {
          "distance": 0.3972219,
          "id": 1931096039
        }
      ],
      "apple/mobileclip_s2": [
        {
          "distance": 0.35296187,
          "id": 1913928577
        },
        {
          "distance": 0.3542417,
          "id": 1913928585
        },
        {
          "distance": 0.38695377,
          "id": 1913928589
        },
        {
          "distance": 0.4034784,
          "id": 1931096051
        },
        {
          "distance": 0.5065139,
          "id": 1913928593
        },
        {
          "distance": 0.5233845,
          "id": 1913928549
        },
        {
          "distance": 0.5318702,
          "id": 1930979287
        },
        {
          "distance": 0.5319472,
          "id": 1913928553
        },
        {
          "distance": 0.5335256,
          "id": 1914622535
        },
        {
          "distance": 0.5412688,
          "id": 1762898937
        }
      ]
    },
    "millsfield:subcategory_id": 1511213703,
    "mz:is_current": 1,
    "sfomuseum:filename": "75899.tif",
    "sfomuseum:image_id": 75899,
    "sfomuseum:image_index": 5,
    "sfomuseum:image_type": "studio",
    "sfomuseum:object_id": 78855,
    "sfomuseum:placetype": "image",
    "sfomuseum:primary_image": 1,
    "src:geom": "sfomuseum",
    "wof:belongsto": [
      102527513,
      1159162825,
      102191575,
      85633793,
      102087579,
      85922583,
      1762832325,
      85688637,
      1159160869
    ],
    "wof:country": "XY",
    "wof:created": 1643414040,
    "wof:depicts": [
      1159291259,
      1159293561,
      1159283849,
      1360700619,
      1762832325
    ],
    "wof:geomhash": "ed7c2ab3547fc3916b5edc33488deaa7",
    "wof:hierarchy": [
      {
        "building_id": -1,
        "campus_id": 102527513,
        "collection_id": 1159162825,
        "concourse_id": 1159162825,
        "continent_id": 102191575,
        "country_id": 85633793,
        "county_id": 102087579,
        "custom_id": 1762894291,
        "image_id": 1762894291,
        "locality_id": 85922583,
        "neighbourhood_id": -1,
        "object_id": 1762832325,
        "region_id": 85688637,
        "wing_id": 1159160869
      }
    ],
    "wof:id": 1762894291,
    "wof:lastmodified": 1788450764,
    "wof:name": "safety information card: American Airlines, McDonnell Douglas DC-10",
    "wof:parent_id": 1762832325,
    "wof:placetype": "custom",
    "wof:placetype_alt": [
      "image"
    ],
    "wof:repo": "sfomuseum-data-media-collection",
    "wof:superseded_by": [],
    "wof:supersedes": []
  },
  "bbox": [
    -122.386472,
    37.616105,
    -122.385834,
    37.616611
  ],
  "geometry": {"type":"Polygon","coordinates":[[[-122.386472,37.616318],[-122.386435,37.616233],[-122.386376,37.616178],[-122.386301,37.616131],[-122.386161,37.616105],[-122.386022,37.616131],[-122.385914,37.616186],[-122.385855,37.616267],[-122.385834,37.616369],[-122.385871,37.616467],[-122.385941,37.616543],[-122.386054,37.616603],[-122.386183,37.616611],[-122.386306,37.616573],[-122.386419,37.616509],[-122.386467,37.616411],[-122.386472,37.616318]]]}
}
