{
  "id": 1931109763,
  "type": "Feature",
  "properties": {
    "date:cessation_lower": "1982-01-01",
    "date:cessation_upper": "1982-12-31",
    "date:inception_lower": "1982-01-01",
    "date:inception_upper": "1982-12-31",
    "edtf:cessation": "1982",
    "edtf:inception": "1982",
    "geom:area": 2.477324999997507e-7,
    "geom:bbox": "-122.386472,37.616105,-122.385834,37.616611",
    "geom:latitude": 37.61635756125121,
    "geom:longitude": -122.38615532866096,
    "media:fingerprint": "64c79ec809eef674ce7b9b73d63880d3a2490116",
    "media:imagehash_avg": "a:ff93ff000000ffff",
    "media:imagehash_diff": "d:3333f17949a18f8f",
    "media:imagetext": "WHAT TO DO\nIN AN EMERGENCY\nQUE SE DEBE HACER EN CASO DE EMERGENCIA\nPSA\nMD-80\nPSA\nPACIFIC SOUTHWEST AIRLINES\nPLEASE DO NOT REMOVE CARD FROM AIRCRAFT\nFAVOR DE NO QUITAR ESTA TARJETA DE LA AERONAVE\n2-6\n4/86",
    "media:imagetext_created": 1787974576,
    "media:imagetext_source": "com.apple.visionkit.VNImageRequestHandler#Version 26.6.2 (Build 25G83)",
    "media:mimetype": "image/tiff",
    "media:properties": {
      "sizes": {
        "b": {
          "extension": "jpg",
          "height": 768,
          "mimetype": "image/jpeg",
          "secret": "9kBuZsKG0iajqCac9P9jUJ4CUtq8boxt",
          "width": 390
        },
        "c": {
          "extension": "jpg",
          "height": 600,
          "mimetype": "image/jpeg",
          "secret": "9kBuZsKG0iajqCac9P9jUJ4CUtq8boxt",
          "width": 304
        },
        "dc": {
          "extension": "jpg",
          "height": 600,
          "mimetype": "image/jpeg",
          "secret": "9kBuZsKG0iajqCac9P9jUJ4CUtq8boxt",
          "width": 304
        },
        "ds": {
          "extension": "jpg",
          "height": 320,
          "mimetype": "image/jpeg",
          "secret": "9kBuZsKG0iajqCac9P9jUJ4CUtq8boxt",
          "width": 320
        },
        "k": {
          "extension": "jpg",
          "height": 1536,
          "mimetype": "image/jpeg",
          "secret": "9kBuZsKG0iajqCac9P9jUJ4CUtq8boxt",
          "width": 780
        },
        "n": {
          "extension": "jpg",
          "height": 240,
          "mimetype": "image/jpeg",
          "secret": "9kBuZsKG0iajqCac9P9jUJ4CUtq8boxt",
          "width": 121
        },
        "o": {
          "extension": "jpg",
          "height": 2000,
          "mimetype": "image/jpeg",
          "secret": "3TvkQgUhsz91GToh2qr9bXxwKm4LWgjn",
          "width": 1016
        },
        "s": {
          "extension": "jpg",
          "height": 320,
          "mimetype": "image/jpeg",
          "secret": "9kBuZsKG0iajqCac9P9jUJ4CUtq8boxt",
          "width": 320
        },
        "z": {
          "extension": "jpg",
          "height": 480,
          "mimetype": "image/jpeg",
          "secret": "9kBuZsKG0iajqCac9P9jUJ4CUtq8boxt",
          "width": 243
        }
      }
    },
    "media:source": "sfomuseum",
    "media:status_id": 1,
    "media:uri_template": "https://static.sfomuseum.org/media/193/110/976/3/1931109763_{secret}_{label}.{extention}",
    "millsfield:aircraft_id": [
      1159291285
    ],
    "millsfield:airline_id": [
      1159284973
    ],
    "millsfield:category_id": 1762671311,
    "millsfield:collection_id": 1511214207,
    "millsfield:company_id": [
      1159293561
    ],
    "millsfield:images_colors": [
      {
        "hex": "#e2d8cb",
        "name": "#e2d8cb",
        "reference": "marekm4"
      },
      {
        "hex": "#d3d3d3",
        "name": "lightgrey",
        "reference": "css4"
      },
      {
        "hex": "#dbd7d2",
        "name": "Timberwolf",
        "reference": "crayola"
      },
      {
        "hex": "#14224c",
        "name": "#14224c",
        "reference": "marekm4"
      },
      {
        "hex": "#191970",
        "name": "midnightblue",
        "reference": "css4"
      },
      {
        "hex": "#1a4876",
        "name": "Midnight Blue",
        "reference": "crayola"
      },
      {
        "hex": "#3c5fa6",
        "name": "#3c5fa6",
        "reference": "marekm4"
      },
      {
        "hex": "#4682b4",
        "name": "steelblue",
        "reference": "css4"
      },
      {
        "hex": "#2e5894",
        "name": "B'dazzled Blue",
        "reference": "crayola"
      },
      {
        "hex": "#cf2310",
        "name": "#cf2310",
        "reference": "marekm4"
      },
      {
        "hex": "#b22222",
        "name": "firebrick",
        "reference": "css4"
      },
      {
        "hex": "#ff2b2b",
        "name": "Orange Red",
        "reference": "crayola"
      },
      {
        "hex": "#7289bd",
        "name": "#7289bd",
        "reference": "marekm4"
      },
      {
        "hex": "#778899",
        "name": "lightslategrey",
        "reference": "css4"
      },
      {
        "hex": "#6699cc",
        "name": "Blue Gray",
        "reference": "crayola"
      }
    ],
    "millsfield:images_texts": [
      "WHAT TO DO\nIN AN EMERGENCY\nQUE SE DEBE HACER EN CASO DE EMERGENCIA\nPSA\nMD-80\nPSA\nPACIFIC SOUTHWEST AIRLINES\nPLEASE DO NOT REMOVE CARD FROM AIRCRAFT\nFAVOR DE NO QUITAR ESTA TARJETA DE LA AERONAVE\n2-6\n4/86",
      "AUTOMATIC OXYGEN\nSYSTEM - Should a loss of\ncabin pressure occur, the\noxygen mask compartment\nwill automatically open\ndirectly overhead. Ex-\ntinguish smoking material,\nreach up and grasp a mask,\npull down to start the flow\nof oxygen. Place the mask\nover nose and mouth, adjust\nthe elastic strap and breathe\nnormally. If you are traveling\nwith a small child or infant,\nput your mask on first and\nthen assist your child.\nSISTEMA AUTOMATICO DE OXIGENO - En caso de una baja de presión en\nla cabina, mascarillas de oxígeno se desprenderán automaticamente del\ncompartimento superior. Extinga todo el material de fumar, jale la mascarilla\nhacia abajo para así comenzar el flujo de oxígeno, coloque inmediatamente\nla mascarilla sobre la boca y la nariz, ajuste la cinta sobre la cabeza y respire\nnormalmente. Si está viajando con niños pequeños, coloquese la mascarilla\nprimero y despues asista al niño.\nBRACING POSITIONS\nPOSICIONES DE\nSEGURIDAD\nRear-facing\nseats\nAsientos con\nvista hacia\natrás.\nForward-facing\nseats\nAsientos con\nSEATBELTS\nvista hacia\nadelante.\nKeep fastened\nwhile seated\nCINTURONES\n(TO\nRELEASE)\nDE SEGURIDAD\nManténgalos\nabrochados mientras\n(PARA\nDESABROCHAR)\npermanezca sentado.\nFLOTATION EQUIPMENT - In the\nevent of a water landing, your seat\ncushion bottom should be used for\nflotation. Grasp the cushion at the\nrear, pull it forward and take it with\nyou. Place arms through straps on\ncushion bottom to retain.\nEQUIPO PARA FLOTAR - En caso de un des-\nembarque en el agua, use el cojin de su asien-\nto para mantenerse a flote. Agarre el cojin\npor atrás, jálelo hacia adelante y llévelo con-\nsigo. Enlace los brazos entre las correas en la\nparte inferior del cojin para sostenerse.\n2007\n072",
      "EXIT DOORS - Rotate handle in\ndirection of arrow. Push door out-\nward.\nPUERTAS DE SALIDA - De\nvuelta a la manija en dirección\nde la flecha. Empuje la puerta\nhacia afuera. Tire del anillo rojo\npara inflar el tobogan de eva-\ncuación. Manténgase de pie y\nsalte al tobogan.\nPull red loop to inflate evacuation\nslide. Remain standing and jump\ninto slide.\n42-0-\n1053 000000000000302\nEXIT\nREAR EXIT DOOR WITH\nTAILCONE - Rotate handle in\ndirection of arrow. Pull door\ninward to full open position...\n...Quickly walk\ndown walkway,\nremain standing\nand\njump into\nslide.\nOVERWING\nWINDOW EXIT\nVENTANILLA DE SALIDA\nSOBRE EL ALA\nLA PUERTA TRASERA DE SALIDA EN EL CONO DEL FUSELA-\nJE.-De vuelta a la manija en dirección de la flecha. Jale la puer-\nta hacia adentro hasta que se abra totalmente. Rapidamente\ncamine por el pasillo, permanezca de pie y salte al tobogan.\nPull handle to unlock exit. Pull exit inward. Push exit outside.\nJale la manija para abrir la salida. Jale la puerta hacia adentro.\nEmpuje la puerta hacia afuera."
    ],
    "millsfield:images_texts_ids": [
      1931109763,
      1931109765,
      1931109767
    ],
    "millsfield:similar": {
      "apple/mobileclip_s0": [
        {
          "distance": 0.22131012,
          "id": 1762894675
        },
        {
          "distance": 0.6470722,
          "id": 1931109745
        },
        {
          "distance": 0.67267007,
          "id": 1930980083
        },
        {
          "distance": 0.67662746,
          "id": 1762894761
        },
        {
          "distance": 0.6829703,
          "id": 1914622927
        },
        {
          "distance": 0.69023263,
          "id": 1763396547
        },
        {
          "distance": 0.69081134,
          "id": 1931131991
        },
        {
          "distance": 0.6915404,
          "id": 1931109535
        },
        {
          "distance": 0.694701,
          "id": 1527847609
        },
        {
          "distance": 0.6955777,
          "id": 1762894785
        }
      ],
      "apple/mobileclip_s1": [
        {
          "distance": 0.13761304,
          "id": 1762894675
        },
        {
          "distance": 0.48939022,
          "id": 1931131991
        },
        {
          "distance": 0.49984735,
          "id": 1914580005
        },
        {
          "distance": 0.53557354,
          "id": 1931109361
        },
        {
          "distance": 0.5365423,
          "id": 1930979267
        },
        {
          "distance": 0.53859663,
          "id": 1762894781
        },
        {
          "distance": 0.54024696,
          "id": 1931109601
        },
        {
          "distance": 0.5411056,
          "id": 1931095995
        },
        {
          "distance": 0.5460043,
          "id": 1930980027
        },
        {
          "distance": 0.5486094,
          "id": 1914622921
        }
      ],
      "apple/mobileclip_s2": [
        {
          "distance": 0.16062109,
          "id": 1762894675
        },
        {
          "distance": 0.70564365,
          "id": 1762711495
        },
        {
          "distance": 0.7084773,
          "id": 1914580005
        },
        {
          "distance": 0.712732,
          "id": 1763196099
        },
        {
          "distance": 0.71484864,
          "id": 1762715149
        },
        {
          "distance": 0.7253193,
          "id": 1914555973
        },
        {
          "distance": 0.7283371,
          "id": 1762894781
        },
        {
          "distance": 0.7333132,
          "id": 1762891645
        },
        {
          "distance": 0.74171346,
          "id": 1762700867
        },
        {
          "distance": 0.7430792,
          "id": 1762698571
        }
      ]
    },
    "millsfield:subcategory_id": 1511213703,
    "mz:is_current": 1,
    "sfomuseum:filename": "81752.tif",
    "sfomuseum:image_id": 81752,
    "sfomuseum:image_index": 5,
    "sfomuseum:image_type": "studio",
    "sfomuseum:object_id": 82523,
    "sfomuseum:placetype": "image",
    "sfomuseum:primary_image": 1,
    "src:geom": "sfomuseum",
    "wof:belongsto": [
      102527513,
      1159162825,
      102191575,
      85633793,
      102087579,
      85922583,
      1931105723,
      85688637,
      1159160869
    ],
    "wof:country": "XY",
    "wof:created": 1727197010,
    "wof:depicts": [
      1159284973,
      1159291285,
      1159293561,
      1931105723
    ],
    "wof:geomhash": "ed7c2ab3547fc3916b5edc33488deaa7",
    "wof:hierarchy": [
      {
        "building_id": -1,
        "campus_id": 102527513,
        "collection_id": 1159162825,
        "concourse_id": 1159162825,
        "continent_id": 102191575,
        "country_id": 85633793,
        "county_id": 102087579,
        "custom_id": 1931109763,
        "locality_id": 85922583,
        "neighbourhood_id": -1,
        "object_id": 1931105723,
        "region_id": 85688637,
        "wing_id": 1159160869
      }
    ],
    "wof:id": 1931109763,
    "wof:lastmodified": 1788452482,
    "wof:name": "safety information card: Pacific Southwest Airlines (PSA), McDonnell Douglas MD-80",
    "wof:parent_id": 1931105723,
    "wof:placetype": "custom",
    "wof:repo": "sfomuseum-data-media-collection",
    "wof:superseded_by": [],
    "wof:supersedes": []
  },
  "bbox": [
    -122.386472,
    37.616105,
    -122.385834,
    37.616611
  ],
  "geometry": {"type":"Polygon","coordinates":[[[-122.386472,37.616318],[-122.386435,37.616233],[-122.386376,37.616178],[-122.386301,37.616131],[-122.386161,37.616105],[-122.386022,37.616131],[-122.385914,37.616186],[-122.385855,37.616267],[-122.385834,37.616369],[-122.385871,37.616467],[-122.385941,37.616543],[-122.386054,37.616603],[-122.386183,37.616611],[-122.386306,37.616573],[-122.386419,37.616509],[-122.386467,37.616411],[-122.386472,37.616318]]]}
}
