{
  "id": 1762708409,
  "type": "Feature",
  "properties": {
    "date:cessation_lower": "1970-01-01",
    "date:cessation_upper": "1979-12-31",
    "date:inception_lower": "1970-01-01",
    "date:inception_upper": "1979-12-31",
    "edtf:cessation": "197X",
    "edtf:inception": "197X",
    "geom:area": 2.477324999997507e-7,
    "geom:bbox": "-122.386472,37.616105,-122.385834,37.616611",
    "geom:latitude": 37.61635756125121,
    "geom:longitude": -122.38615532866096,
    "media:fingerprint": "618577fddd9e33b0684e1b81be84330b75a044ec",
    "media:imagehash_avg": "a:ffffffff810001bf",
    "media:imagehash_diff": "d:63613977732f2f7b",
    "media:imagetext": "ZiMINNI ZLOWAYS\n33-131",
    "media:imagetext_created": 1787957364,
    "media:imagetext_source": "com.apple.visionkit.VNImageRequestHandler#Version 26.6.2 (Build 25G83)",
    "media:mimetype": "image/tiff",
    "media:properties": {
      "sizes": {
        "b": {
          "extension": "jpg",
          "height": 722,
          "mimetype": "image/jpeg",
          "secret": "MTkWlEgtrhb4d0XpLUr7GlNkJGnoZb3l",
          "width": 1024
        },
        "c": {
          "extension": "jpg",
          "height": 564,
          "mimetype": "image/jpeg",
          "secret": "MTkWlEgtrhb4d0XpLUr7GlNkJGnoZb3l",
          "width": 800
        },
        "dc": {
          "extension": "jpg",
          "height": 564,
          "mimetype": "image/jpeg",
          "secret": "MTkWlEgtrhb4d0XpLUr7GlNkJGnoZb3l",
          "width": 800
        },
        "ds": {
          "extension": "jpg",
          "height": 320,
          "mimetype": "image/jpeg",
          "secret": "MTkWlEgtrhb4d0XpLUr7GlNkJGnoZb3l",
          "width": 320
        },
        "k": {
          "extension": "jpg",
          "height": 1445,
          "mimetype": "image/jpeg",
          "secret": "MTkWlEgtrhb4d0XpLUr7GlNkJGnoZb3l",
          "width": 2048
        },
        "n": {
          "extension": "jpg",
          "height": 225,
          "mimetype": "image/jpeg",
          "secret": "MTkWlEgtrhb4d0XpLUr7GlNkJGnoZb3l",
          "width": 320
        },
        "o": {
          "extension": "jpg",
          "height": 1314,
          "mimetype": "image/jpeg",
          "secret": "0xuoy4wNj3vzTWi0Lb4Am8Ec5dU7Xd62",
          "width": 1862
        },
        "s": {
          "extension": "jpg",
          "height": 320,
          "mimetype": "image/jpeg",
          "secret": "MTkWlEgtrhb4d0XpLUr7GlNkJGnoZb3l",
          "width": 320
        },
        "z": {
          "extension": "jpg",
          "height": 451,
          "mimetype": "image/jpeg",
          "secret": "MTkWlEgtrhb4d0XpLUr7GlNkJGnoZb3l",
          "width": 640
        }
      }
    },
    "media:source": "sfomuseum",
    "media:status_id": 1,
    "media:uri_template": "https://static.sfomuseum.org/media/176/270/840/9/1762708409_{secret}_{label}.{extension}",
    "millsfield:aircraft_id": [
      1159290901
    ],
    "millsfield:airline_id": [
      1159285569
    ],
    "millsfield:category_id": 1511214215,
    "millsfield:collection_id": 1511214207,
    "millsfield:company_id": [
      1159294003
    ],
    "millsfield:images_colors": [
      {
        "hex": "#b8d0d9",
        "name": "#b8d0d9",
        "reference": "marekm4"
      },
      {
        "hex": "#b0c4de",
        "name": "lightsteelblue",
        "reference": "css4"
      },
      {
        "hex": "#c5d0e6",
        "name": "Periwinkle",
        "reference": "crayola"
      },
      {
        "hex": "#b99869",
        "name": "#b99869",
        "reference": "marekm4"
      },
      {
        "hex": "#bdb76b",
        "name": "darkkhaki",
        "reference": "css4"
      },
      {
        "hex": "#cd9575",
        "name": "Antique Brass",
        "reference": "crayola"
      },
      {
        "hex": "#6babd4",
        "name": "#6babd4",
        "reference": "marekm4"
      },
      {
        "hex": "#6495ed",
        "name": "cornflowerblue",
        "reference": "css4"
      },
      {
        "hex": "#6699cc",
        "name": "Blue Gray",
        "reference": "crayola"
      },
      {
        "hex": "#2e2621",
        "name": "#2e2621",
        "reference": "marekm4"
      },
      {
        "hex": "#2f4f4f",
        "name": "darkslategrey",
        "reference": "css4"
      },
      {
        "hex": "#414a4c",
        "name": "Outer Space",
        "reference": "crayola"
      },
      {
        "hex": "#9f6847",
        "name": "#9f6847",
        "reference": "marekm4"
      },
      {
        "hex": "#a0522d",
        "name": "sienna",
        "reference": "css4"
      },
      {
        "hex": "#a5694f",
        "name": "Sepia",
        "reference": "crayola"
      }
    ],
    "millsfield:images_texts": [
      "ZiMINNI ZLOWAYS\n33-131",
      "AIRWAYS\nTHE GROWING AIRLINE\nOF AFRICA\nHAWKER SIDDELEY AVIATION LTD., HS748\nSERIES 2A\nPowered by 2 Rolls Royce \"Dart\" MK532-2L Turbojet\nEngines.\nCruise speed: 232 knots (267 M.P.H./430 Km/h)\nMax Cruise Altitude: 25,000 feet (7,620 metres)\nZambia Airways Passenger configuration: 52 seats.\n2015,166 1758"
    ],
    "millsfield:images_texts_ids": [
      1762708409,
      1762708411
    ],
    "millsfield:similar": {
      "apple/mobileclip_s0": [
        {
          "distance": 0.45774168,
          "id": 1762708405
        },
        {
          "distance": 0.48252717,
          "id": 1729565705
        },
        {
          "distance": 0.51925266,
          "id": 1762709029
        },
        {
          "distance": 0.52006686,
          "id": 1762709183
        },
        {
          "distance": 0.5348463,
          "id": 1762704537
        },
        {
          "distance": 0.53632885,
          "id": 1762709663
        },
        {
          "distance": 0.5406299,
          "id": 1762709035
        },
        {
          "distance": 0.54270107,
          "id": 1762707989
        },
        {
          "distance": 0.54281086,
          "id": 1729565861
        },
        {
          "distance": 0.54434854,
          "id": 1762702855
        }
      ],
      "apple/mobileclip_s1": [
        {
          "distance": 0.31317052,
          "id": 1762708405
        },
        {
          "distance": 0.3707345,
          "id": 1762709029
        },
        {
          "distance": 0.39362925,
          "id": 1762705345
        },
        {
          "distance": 0.39660904,
          "id": 1762709183
        },
        {
          "distance": 0.40179577,
          "id": 1762709227
        },
        {
          "distance": 0.41166767,
          "id": 1897383761
        },
        {
          "distance": 0.412258,
          "id": 1762708751
        },
        {
          "distance": 0.41230953,
          "id": 1762709025
        },
        {
          "distance": 0.41576135,
          "id": 1762708363
        },
        {
          "distance": 0.41691005,
          "id": 1762710195
        }
      ],
      "apple/mobileclip_s2": [
        {
          "distance": 0.44734958,
          "id": 1762709029
        },
        {
          "distance": 0.4731687,
          "id": 1762708405
        },
        {
          "distance": 0.48895863,
          "id": 1762709053
        },
        {
          "distance": 0.5023726,
          "id": 1762709025
        },
        {
          "distance": 0.5037311,
          "id": 1762704857
        },
        {
          "distance": 0.52088803,
          "id": 1897416737
        },
        {
          "distance": 0.53344595,
          "id": 1762709183
        },
        {
          "distance": 0.5392795,
          "id": 1762711023
        },
        {
          "distance": 0.5438833,
          "id": 1762702855
        },
        {
          "distance": 0.5443919,
          "id": 1762711239
        }
      ]
    },
    "millsfield:subcategory_id": 1511213363,
    "mz:is_current": 1,
    "sfomuseum:filename": "2015.166.1758_ft.tif",
    "sfomuseum:image_id": 155841,
    "sfomuseum:image_index": 5,
    "sfomuseum:image_type": "studio",
    "sfomuseum:object_id": 181519,
    "sfomuseum:placetype": "image",
    "sfomuseum:primary_image": 1,
    "src:geom": "sfomuseum",
    "wof:belongsto": [
      102527513,
      1159162825,
      102191575,
      85633793,
      102087579,
      85922583,
      1762680225,
      85688637,
      1159160869
    ],
    "wof:country": "XY",
    "wof:created": 1641349396,
    "wof:depicts": [
      1159294003,
      1159288121,
      1762680225,
      1159285569,
      1159290901
    ],
    "wof:geomhash": "ed7c2ab3547fc3916b5edc33488deaa7",
    "wof:hierarchy": [
      {
        "building_id": -1,
        "campus_id": 102527513,
        "collection_id": 1159162825,
        "concourse_id": 1159162825,
        "continent_id": 102191575,
        "country_id": 85633793,
        "county_id": 102087579,
        "custom_id": 1762708409,
        "image_id": 1762708409,
        "locality_id": 85922583,
        "neighbourhood_id": -1,
        "object_id": 1762680225,
        "region_id": 85688637,
        "wing_id": 1159160869
      }
    ],
    "wof:id": 1762708409,
    "wof:lastmodified": 1788450582,
    "wof:name": "postcard: Zambia Airways, Hawker Siddeley HS.748",
    "wof:parent_id": 1762680225,
    "wof:placetype": "custom",
    "wof:placetype_alt": [
      "image"
    ],
    "wof:repo": "sfomuseum-data-media-collection",
    "wof:superseded_by": [],
    "wof:supersedes": []
  },
  "bbox": [
    -122.386472,
    37.616105,
    -122.385834,
    37.616611
  ],
  "geometry": {"type":"Polygon","coordinates":[[[-122.386472,37.616318],[-122.386435,37.616233],[-122.386376,37.616178],[-122.386301,37.616131],[-122.386161,37.616105],[-122.386022,37.616131],[-122.385914,37.616186],[-122.385855,37.616267],[-122.385834,37.616369],[-122.385871,37.616467],[-122.385941,37.616543],[-122.386054,37.616603],[-122.386183,37.616611],[-122.386306,37.616573],[-122.386419,37.616509],[-122.386467,37.616411],[-122.386472,37.616318]]]}
}
