{
  "id": 1527839221,
  "type": "Feature",
  "properties": {
    "date:cessation_lower": "1983-01-01",
    "date:cessation_upper": "1983-12-31",
    "date:inception_lower": "1983-01-01",
    "date:inception_upper": "1983-12-31",
    "edtf:cessation": "1983",
    "edtf:date": "1983",
    "edtf:inception": "1983",
    "geom:area": 0,
    "geom:bbox": "-122.386155,37.616358,-122.386155,37.616358",
    "geom:latitude": 37.616358,
    "geom:longitude": -122.386155,
    "iso:country": "XX",
    "media:fingerprint": "ded603b2035b5f0d9a6e2b22cfb227641e1f24be",
    "media:imagehash_avg": "a:ff00f9f10107e7ff",
    "media:imagehash_diff": "d:873fb1c30f1f8f97",
    "media:imagetext": "System Timetable\nEffective January 3, 1983\nMORE SERVICE TO\nPALM SPRINGS...\n...FROM\nSAN FRANCISCO,\nSAN JOSE, OAKLAND,\nPORTLAND, BOISE,\nMEDFORD, CHICO, AND\nLOS ANGELES.",
    "media:imagetext_created": 1787950655,
    "media:imagetext_source": "com.apple.visionkit.VNImageRequestHandler#Version 26.6.2 (Build 25G83)",
    "media:medium": "image",
    "media:mimetype": "image/tiff",
    "media:properties": {
      "sizes": {
        "b": {
          "extension": "jpg",
          "height": 768,
          "mimetype": "image/jpeg",
          "secret": "jM1Xwd3ARcEU4atZjE8rOnLYBVAp1dXF",
          "width": 338
        },
        "c": {
          "extension": "jpg",
          "height": 600,
          "mimetype": "image/jpeg",
          "secret": "jM1Xwd3ARcEU4atZjE8rOnLYBVAp1dXF",
          "width": 264
        },
        "dc": {
          "extension": "jpg",
          "height": 600,
          "mimetype": "image/jpeg",
          "secret": "jM1Xwd3ARcEU4atZjE8rOnLYBVAp1dXF",
          "width": 264
        },
        "ds": {
          "extension": "jpg",
          "height": 320,
          "mimetype": "image/jpeg",
          "secret": "jM1Xwd3ARcEU4atZjE8rOnLYBVAp1dXF",
          "width": 320
        },
        "k": {
          "extension": "jpg",
          "height": 1536,
          "mimetype": "image/jpeg",
          "secret": "jM1Xwd3ARcEU4atZjE8rOnLYBVAp1dXF",
          "width": 676
        },
        "n": {
          "extension": "jpg",
          "height": 240,
          "mimetype": "image/jpeg",
          "secret": "jM1Xwd3ARcEU4atZjE8rOnLYBVAp1dXF",
          "width": 105
        },
        "o": {
          "extension": "jpg",
          "height": 2716,
          "mimetype": "image/jpeg",
          "secret": "3t1YW8Of9ioerZoETjqTO60UwbNoOaFH",
          "width": 1196
        },
        "s": {
          "extension": "jpg",
          "height": 320,
          "mimetype": "image/jpeg",
          "secret": "jM1Xwd3ARcEU4atZjE8rOnLYBVAp1dXF",
          "width": 320
        },
        "z": {
          "extension": "jpg",
          "height": 480,
          "mimetype": "image/jpeg",
          "secret": "jM1Xwd3ARcEU4atZjE8rOnLYBVAp1dXF",
          "width": 211
        }
      }
    },
    "media:source": "sfomuseum",
    "media:status_id": 1,
    "media:uri_template": "https://static.sfomuseum.org/media/152/783/922/1/1527839221_{secret}_{label}.{extension}",
    "millsfield:airline_id": [
      1159284965
    ],
    "millsfield:category_id": 1511214223,
    "millsfield:collection_id": 1511214207,
    "millsfield:company_id": [
      1159288849
    ],
    "millsfield:images_colors": [
      {
        "hex": "#dfdcea",
        "name": "#dfdcea",
        "reference": "marekm4"
      },
      {
        "hex": "#dcdcdc",
        "name": "gainsboro",
        "reference": "css4"
      },
      {
        "hex": "#dbd7d2",
        "name": "Timberwolf",
        "reference": "crayola"
      },
      {
        "hex": "#27262d",
        "name": "#27262d",
        "reference": "marekm4"
      },
      {
        "hex": "#2f4f4f",
        "name": "darkslategrey",
        "reference": "css4"
      },
      {
        "hex": "#414a4c",
        "name": "Outer Space",
        "reference": "crayola"
      },
      {
        "hex": "#d5180c",
        "name": "#d5180c",
        "reference": "marekm4"
      },
      {
        "hex": "#b22222",
        "name": "firebrick",
        "reference": "css4"
      },
      {
        "hex": "#ff2b2b",
        "name": "Orange Red",
        "reference": "crayola"
      }
    ],
    "millsfield:images_texts": [
      "System Timetable\nEffective January 3, 1983\nMORE SERVICE TO\nPALM SPRINGS...\n...FROM\nSAN FRANCISCO,\nSAN JOSE, OAKLAND,\nPORTLAND, BOISE,\nMEDFORD, CHICO, AND\nLOS ANGELES."
    ],
    "millsfield:images_texts_ids": [
      1527839221
    ],
    "millsfield:similar": {
      "apple/mobileclip_s0": [
        {
          "distance": 0.23161584,
          "id": 1527839101
        },
        {
          "distance": 0.52197415,
          "id": 1527839103
        },
        {
          "distance": 0.5472229,
          "id": 2014997639
        },
        {
          "distance": 0.548537,
          "id": 1527839223
        },
        {
          "distance": 0.5533547,
          "id": 1998537097
        },
        {
          "distance": 0.55603355,
          "id": 1527842281
        },
        {
          "distance": 0.55979854,
          "id": 1762707631
        },
        {
          "distance": 0.5667782,
          "id": 1846755555
        },
        {
          "distance": 0.5787602,
          "id": 1762709169
        },
        {
          "distance": 0.58169395,
          "id": 1762700939
        }
      ],
      "apple/mobileclip_s1": [
        {
          "distance": 0.21459274,
          "id": 1527839101
        },
        {
          "distance": 0.38507494,
          "id": 1779533719
        },
        {
          "distance": 0.38933152,
          "id": 1762708665
        },
        {
          "distance": 0.4020581,
          "id": 1897914625
        },
        {
          "distance": 0.40263137,
          "id": 1913687745
        },
        {
          "distance": 0.40511978,
          "id": 1762705587
        },
        {
          "distance": 0.4057478,
          "id": 1762704125
        },
        {
          "distance": 0.40729865,
          "id": 1762705789
        },
        {
          "distance": 0.40732056,
          "id": 1913687729
        },
        {
          "distance": 0.4077836,
          "id": 1763241163
        }
      ],
      "apple/mobileclip_s2": [
        {
          "distance": 0.29096106,
          "id": 1527839101
        },
        {
          "distance": 0.4986055,
          "id": 1763196403
        },
        {
          "distance": 0.5016467,
          "id": 1527840499
        },
        {
          "distance": 0.5092548,
          "id": 1914622881
        },
        {
          "distance": 0.5268268,
          "id": 2014997801
        },
        {
          "distance": 0.52967614,
          "id": 1762895561
        },
        {
          "distance": 0.5321477,
          "id": 1763241163
        },
        {
          "distance": 0.53451043,
          "id": 1897416745
        },
        {
          "distance": 0.5349834,
          "id": 1527842761
        },
        {
          "distance": 0.535464,
          "id": 1762707649
        }
      ]
    },
    "millsfield:subcategory_id": 1511213425,
    "mz:hierarchy_label": 1,
    "mz:is_current": -1,
    "sfomuseum:filename": "2005.132.039.008.tif",
    "sfomuseum:image_id": 65801,
    "sfomuseum:image_index": 5,
    "sfomuseum:image_type": "studio",
    "sfomuseum:object_id": 97992,
    "sfomuseum:placetype": "image",
    "sfomuseum:primary_image": 1,
    "src:geom": "sfomuseum",
    "wof:belongsto": [
      1511214223,
      1511936813,
      102527513,
      102191575,
      85633793,
      1511213425,
      85922583,
      102087579,
      1511214277,
      1511214203,
      85688637
    ],
    "wof:breaches": [],
    "wof:country": "XX",
    "wof:created": 1578952367,
    "wof:depicts": [
      1159288849,
      1511936813,
      1159284965
    ],
    "wof:geomhash": "bd906905ce4be6c0651c90b0fc24804c",
    "wof:hierarchy": [
      {
        "arcade_id": 1511213425,
        "building_id": 1511214277,
        "campus_id": 102527513,
        "concourse_id": 1511214223,
        "continent_id": 102191575,
        "country_id": 85633793,
        "county_id": 102087579,
        "custom_id": 1527839221,
        "image_id": 1527839221,
        "locality_id": 85922583,
        "media_id": 1527839221,
        "neighbourhood_id": -1,
        "region_id": 85688637,
        "venue_id": 1511936813,
        "wing_id": 1511214203
      }
    ],
    "wof:id": 1527839221,
    "wof:lastmodified": 1788449997,
    "wof:name": "timetable: Pacific Express",
    "wof:parent_id": 1511936813,
    "wof:placetype": "custom",
    "wof:placetype_alt": [
      "image"
    ],
    "wof:repo": "sfomuseum-data-media-collection",
    "wof:superseded_by": [],
    "wof:supersedes": [],
    "wof:tags": []
  },
  "bbox": [
    -122.386155,
    37.616358,
    -122.386155,
    37.616358
  ],
  "geometry": {"type":"Point","coordinates":[-122.386155,37.616358]}
}
