{
  "id": 1763101923,
  "type": "Feature",
  "properties": {
    "date:cessation_lower": "1950-01-01",
    "date:cessation_upper": "1950-12-31",
    "date:inception_lower": "1950-01-01",
    "date:inception_upper": "1950-12-31",
    "edtf:cessation": "1950~",
    "edtf:inception": "1950~",
    "geom:area": 2.477324999997507e-7,
    "geom:bbox": "-122.386472,37.616105,-122.385834,37.616611",
    "geom:latitude": 37.61635756125121,
    "geom:longitude": -122.38615532866096,
    "media:fingerprint": "3b0e83d0ef27b217e0fded843f205f449ac07513",
    "media:imagehash_avg": "a:ffffff9d81818081",
    "media:imagehash_diff": "d:e8f06871370f0f0f",
    "media:imagetext": "T\nA",
    "media:imagetext_created": 1787960359,
    "media:imagetext_source": "com.apple.visionkit.VNImageRequestHandler#Version 26.6.2 (Build 25G83)",
    "media:mimetype": "image/tiff",
    "media:properties": {
      "sizes": {
        "b": {
          "extension": "jpg",
          "height": 768,
          "mimetype": "image/jpeg",
          "secret": "38SYocbt2tQidg9YpueYsmfUXpTZJBot",
          "width": 965
        },
        "c": {
          "extension": "jpg",
          "height": 600,
          "mimetype": "image/jpeg",
          "secret": "38SYocbt2tQidg9YpueYsmfUXpTZJBot",
          "width": 754
        },
        "dc": {
          "extension": "jpg",
          "height": 600,
          "mimetype": "image/jpeg",
          "secret": "38SYocbt2tQidg9YpueYsmfUXpTZJBot",
          "width": 754
        },
        "ds": {
          "extension": "jpg",
          "height": 320,
          "mimetype": "image/jpeg",
          "secret": "38SYocbt2tQidg9YpueYsmfUXpTZJBot",
          "width": 320
        },
        "k": {
          "extension": "jpg",
          "height": 1536,
          "mimetype": "image/jpeg",
          "secret": "38SYocbt2tQidg9YpueYsmfUXpTZJBot",
          "width": 1931
        },
        "n": {
          "extension": "jpg",
          "height": 240,
          "mimetype": "image/jpeg",
          "secret": "38SYocbt2tQidg9YpueYsmfUXpTZJBot",
          "width": 301
        },
        "o": {
          "extension": "jpg",
          "height": 1667,
          "mimetype": "image/jpeg",
          "secret": "YMRqc7KehcqKQnpROw37UWz6CisuIXnk",
          "width": 2096
        },
        "s": {
          "extension": "jpg",
          "height": 320,
          "mimetype": "image/jpeg",
          "secret": "38SYocbt2tQidg9YpueYsmfUXpTZJBot",
          "width": 320
        },
        "z": {
          "extension": "jpg",
          "height": 480,
          "mimetype": "image/jpeg",
          "secret": "38SYocbt2tQidg9YpueYsmfUXpTZJBot",
          "width": 603
        }
      }
    },
    "media:source": "sfomuseum",
    "media:status_id": 1,
    "media:uri_template": "https://static.sfomuseum.org/media/176/310/192/3/1763101923_{secret}_{label}.{extension}",
    "millsfield:airline_id": [
      1159285363
    ],
    "millsfield:category_id": 1511214225,
    "millsfield:collection_id": 1511214203,
    "millsfield:company_id": [
      1159288089
    ],
    "millsfield:exhibition_ids": [
      1746480481
    ],
    "millsfield:images_colors": [
      {
        "hex": "#a8a7a6",
        "name": "#a8a7a6",
        "reference": "marekm4"
      },
      {
        "hex": "#a9a9a9",
        "name": "darkgrey",
        "reference": "css4"
      },
      {
        "hex": "#979aaa",
        "name": "Manatee",
        "reference": "crayola"
      },
      {
        "hex": "#5d5a57",
        "name": "#5d5a57",
        "reference": "marekm4"
      },
      {
        "hex": "#696969",
        "name": "dimgrey",
        "reference": "css4"
      },
      {
        "hex": "#6e5160",
        "name": "Eggplant",
        "reference": "crayola"
      }
    ],
    "millsfield:images_texts": [
      "T\nA"
    ],
    "millsfield:images_texts_ids": [
      1763101923
    ],
    "millsfield:on_view": 0,
    "millsfield:similar": {
      "apple/mobileclip_s0": [
        {
          "distance": 0.440031,
          "id": 1796414429
        },
        {
          "distance": 0.4546966,
          "id": 1796335939
        },
        {
          "distance": 0.455266,
          "id": 1897383707
        },
        {
          "distance": 0.455266,
          "id": 1897383715
        },
        {
          "distance": 0.46076667,
          "id": 1796444429
        },
        {
          "distance": 0.4611074,
          "id": 1796444603
        },
        {
          "distance": 0.464239,
          "id": 1763101925
        },
        {
          "distance": 0.4650345,
          "id": 1780379601
        },
        {
          "distance": 0.4650726,
          "id": 1762946953
        },
        {
          "distance": 0.4663363,
          "id": 1796335937
        }
      ],
      "apple/mobileclip_s1": [
        {
          "distance": 0.35321748,
          "id": 1763101925
        },
        {
          "distance": 0.37717083,
          "id": 1796229749
        },
        {
          "distance": 0.37753567,
          "id": 1763079295
        },
        {
          "distance": 0.38035342,
          "id": 1746679875
        },
        {
          "distance": 0.3834594,
          "id": 1796414469
        },
        {
          "distance": 0.3891752,
          "id": 1796414429
        },
        {
          "distance": 0.3917846,
          "id": 1780379603
        },
        {
          "distance": 0.39379612,
          "id": 1796414433
        },
        {
          "distance": 0.3998277,
          "id": 1780379719
        },
        {
          "distance": 0.4002521,
          "id": 1763079297
        }
      ],
      "apple/mobileclip_s2": [
        {
          "distance": 0.41951194,
          "id": 1763101925
        },
        {
          "distance": 0.52874905,
          "id": 1762973569
        },
        {
          "distance": 0.5335238,
          "id": 1779566041
        },
        {
          "distance": 0.55211645,
          "id": 1796414277
        },
        {
          "distance": 0.5522641,
          "id": 1763079297
        },
        {
          "distance": 0.5523525,
          "id": 1763079295
        },
        {
          "distance": 0.5536383,
          "id": 1796414429
        },
        {
          "distance": 0.55634034,
          "id": 1796229749
        },
        {
          "distance": 0.55796444,
          "id": 1796444521
        },
        {
          "distance": 0.5585387,
          "id": 1863469407
        }
      ]
    },
    "millsfield:subcategory_id": 1511213741,
    "mz:is_current": 1,
    "sfomuseum:filename": "2019.084.308.tif",
    "sfomuseum:image_id": 214060,
    "sfomuseum:image_index": 5,
    "sfomuseum:image_type": "studio",
    "sfomuseum:object_id": 204315,
    "sfomuseum:placetype": "image",
    "sfomuseum:primary_image": 1,
    "src:geom": "sfomuseum",
    "wof:belongsto": [
      102527513,
      1159162825,
      102191575,
      85633793,
      102087579,
      85922583,
      1763101777,
      85688637,
      1159160869
    ],
    "wof:country": "XY",
    "wof:created": 1645173378,
    "wof:depicts": [
      1159288089,
      1763101777,
      1159285363
    ],
    "wof:geomhash": "ed7c2ab3547fc3916b5edc33488deaa7",
    "wof:hierarchy": [
      {
        "building_id": -1,
        "campus_id": 102527513,
        "collection_id": 1159162825,
        "concourse_id": 1159162825,
        "continent_id": 102191575,
        "country_id": 85633793,
        "county_id": 102087579,
        "custom_id": 1763101923,
        "image_id": 1763101923,
        "locality_id": 85922583,
        "neighbourhood_id": -1,
        "object_id": 1763101777,
        "region_id": 85688637,
        "wing_id": 1159160869
      }
    ],
    "wof:id": 1763101923,
    "wof:lastmodified": 1788450902,
    "wof:name": "flight officer wings: Transocean Air Lines",
    "wof:parent_id": 1763101777,
    "wof:placetype": "custom",
    "wof:placetype_alt": [
      "image"
    ],
    "wof:repo": "sfomuseum-data-media-collection",
    "wof:superseded_by": [],
    "wof:supersedes": []
  },
  "bbox": [
    -122.386472,
    37.616105,
    -122.385834,
    37.616611
  ],
  "geometry": {"type":"Polygon","coordinates":[[[-122.386472,37.616318],[-122.386435,37.616233],[-122.386376,37.616178],[-122.386301,37.616131],[-122.386161,37.616105],[-122.386022,37.616131],[-122.385914,37.616186],[-122.385855,37.616267],[-122.385834,37.616369],[-122.385871,37.616467],[-122.385941,37.616543],[-122.386054,37.616603],[-122.386183,37.616611],[-122.386306,37.616573],[-122.386419,37.616509],[-122.386467,37.616411],[-122.386472,37.616318]]]}
}
