{
  "id": 1796597101,
  "type": "Feature",
  "properties": {
    "date:cessation_lower": "1980-04-01",
    "date:cessation_upper": "1980-04-30",
    "date:inception_lower": "1980-01-01",
    "date:inception_upper": "1980-01-31",
    "edtf:cessation": "1980-04",
    "edtf:inception": "1980-01",
    "geom:area": 2.477324999997507e-7,
    "geom:bbox": "-122.386472,37.616105,-122.385834,37.616611",
    "geom:latitude": 37.61635756125121,
    "geom:longitude": -122.38615532866096,
    "media:fingerprint": "4440c60ebaa560519b6685dbfd3790e6f28da9cd",
    "media:imagehash_avg": "a:ffbf3f0f47360200",
    "media:imagehash_diff": "d:f8706058cce4f6f0",
    "media:mimetype": "image/tiff",
    "media:properties": {
      "sizes": {
        "b": {
          "extension": "jpg",
          "height": 768,
          "mimetype": "image/jpeg",
          "secret": "Cy1dKkhGnQqAOKTA0zEiulRexEU5qL6W",
          "width": 965
        },
        "c": {
          "extension": "jpg",
          "height": 600,
          "mimetype": "image/jpeg",
          "secret": "Cy1dKkhGnQqAOKTA0zEiulRexEU5qL6W",
          "width": 754
        },
        "dc": {
          "extension": "jpg",
          "height": 600,
          "mimetype": "image/jpeg",
          "secret": "Cy1dKkhGnQqAOKTA0zEiulRexEU5qL6W",
          "width": 754
        },
        "ds": {
          "extension": "jpg",
          "height": 320,
          "mimetype": "image/jpeg",
          "secret": "Cy1dKkhGnQqAOKTA0zEiulRexEU5qL6W",
          "width": 320
        },
        "k": {
          "extension": "jpg",
          "height": 1536,
          "mimetype": "image/jpeg",
          "secret": "Cy1dKkhGnQqAOKTA0zEiulRexEU5qL6W",
          "width": 1931
        },
        "n": {
          "extension": "jpg",
          "height": 240,
          "mimetype": "image/jpeg",
          "secret": "Cy1dKkhGnQqAOKTA0zEiulRexEU5qL6W",
          "width": 301
        },
        "o": {
          "extension": "jpg",
          "height": 1667,
          "mimetype": "image/jpeg",
          "secret": "AoeaJeZk5cZgDLYtps8XIFXkiBKeX5t4",
          "width": 2096
        },
        "s": {
          "extension": "jpg",
          "height": 320,
          "mimetype": "image/jpeg",
          "secret": "Cy1dKkhGnQqAOKTA0zEiulRexEU5qL6W",
          "width": 320
        },
        "z": {
          "extension": "jpg",
          "height": 480,
          "mimetype": "image/jpeg",
          "secret": "Cy1dKkhGnQqAOKTA0zEiulRexEU5qL6W",
          "width": 603
        }
      }
    },
    "media:source": "sfomuseum",
    "media:status_id": 1,
    "media:uri_template": "https://static.sfomuseum.org/media/179/659/710/1/1796597101_{secret}_{label}.{extension}",
    "millsfield:airline_id": [
      1159284563
    ],
    "millsfield:category_id": 1746152551,
    "millsfield:collection_id": 1511214203,
    "millsfield:company_id": [
      1159288585
    ],
    "millsfield:images_colors": [
      {
        "hex": "#b1b2b2",
        "name": "#b1b2b2",
        "reference": "marekm4"
      },
      {
        "hex": "#a9a9a9",
        "name": "darkgrey",
        "reference": "css4"
      },
      {
        "hex": "#b0b7c6",
        "name": "Cadet Blue",
        "reference": "crayola"
      },
      {
        "hex": "#5e5c5a",
        "name": "#5e5c5a",
        "reference": "marekm4"
      },
      {
        "hex": "#696969",
        "name": "dimgrey",
        "reference": "css4"
      },
      {
        "hex": "#6e5160",
        "name": "Eggplant",
        "reference": "crayola"
      }
    ],
    "millsfield:images_texts": [
      "18-8 Martian\nCanT\nJAL"
    ],
    "millsfield:images_texts_ids": [
      1796597103
    ],
    "millsfield:similar": {
      "apple/mobileclip_s0": [
        {
          "distance": 0.19360164,
          "id": 1763180283
        },
        {
          "distance": 0.19605885,
          "id": 1796472583
        },
        {
          "distance": 0.19729944,
          "id": 1763180255
        },
        {
          "distance": 0.1993019,
          "id": 1796503377
        },
        {
          "distance": 0.20692262,
          "id": 1796506361
        },
        {
          "distance": 0.20816536,
          "id": 1796597133
        },
        {
          "distance": 0.20914361,
          "id": 1796465059
        },
        {
          "distance": 0.20948882,
          "id": 1796597119
        },
        {
          "distance": 0.21243459,
          "id": 1796465065
        },
        {
          "distance": 0.21360949,
          "id": 1796597135
        }
      ],
      "apple/mobileclip_s1": [
        {
          "distance": 0.18041763,
          "id": 1796472505
        },
        {
          "distance": 0.1813611,
          "id": 1763180263
        },
        {
          "distance": 0.18455902,
          "id": 1796472391
        },
        {
          "distance": 0.18646157,
          "id": 1796454741
        },
        {
          "distance": 0.1872909,
          "id": 1763180257
        },
        {
          "distance": 0.18957879,
          "id": 1796465199
        },
        {
          "distance": 0.19063805,
          "id": 1796454739
        },
        {
          "distance": 0.19346806,
          "id": 1763180261
        },
        {
          "distance": 0.19529925,
          "id": 1796472251
        },
        {
          "distance": 0.19565694,
          "id": 1796597191
        }
      ],
      "apple/mobileclip_s2": [
        {
          "distance": 0.18501873,
          "id": 1796597149
        },
        {
          "distance": 0.19446845,
          "id": 1763180263
        },
        {
          "distance": 0.20640805,
          "id": 1796597141
        },
        {
          "distance": 0.20640805,
          "id": 1796597143
        },
        {
          "distance": 0.20919308,
          "id": 1796597161
        },
        {
          "distance": 0.21372026,
          "id": 1763180261
        },
        {
          "distance": 0.21723224,
          "id": 1796506633
        },
        {
          "distance": 0.21744359,
          "id": 1763180257
        },
        {
          "distance": 0.21918727,
          "id": 1796589647
        },
        {
          "distance": 0.22368588,
          "id": 1796476737
        }
      ]
    },
    "millsfield:subcategory_id": 1511213417,
    "mz:is_current": 1,
    "sfomuseum:filename": "2003.014.085 c.tif",
    "sfomuseum:image_id": 214575,
    "sfomuseum:image_index": 5,
    "sfomuseum:image_type": "studio",
    "sfomuseum:object_id": 188232,
    "sfomuseum:placetype": "image",
    "sfomuseum:primary_image": 1,
    "src:geom": "sfomuseum",
    "wof:belongsto": [
      102527513,
      1159162825,
      102191575,
      85633793,
      102087579,
      85922583,
      1796596455,
      85688637,
      1159160869
    ],
    "wof:country": "XY",
    "wof:created": 1668157223,
    "wof:depicts": [
      1159284563,
      1159288585,
      1796596455
    ],
    "wof:geomhash": "ed7c2ab3547fc3916b5edc33488deaa7",
    "wof:hierarchy": [
      {
        "building_id": -1,
        "campus_id": 102527513,
        "collection_id": 1159162825,
        "concourse_id": 1159162825,
        "continent_id": 102191575,
        "country_id": 85633793,
        "county_id": 102087579,
        "custom_id": 1796597101,
        "image_id": 1796597101,
        "locality_id": 85922583,
        "neighbourhood_id": -1,
        "object_id": 1796596455,
        "region_id": 85688637,
        "wing_id": 1159160869
      }
    ],
    "wof:id": 1796597101,
    "wof:lastmodified": 1788451574,
    "wof:name": "fork: Japan Airlines",
    "wof:parent_id": 1796596455,
    "wof:placetype": "custom",
    "wof:placetype_alt": [
      "image"
    ],
    "wof:repo": "sfomuseum-data-media-collection",
    "wof:superseded_by": [],
    "wof:supersedes": []
  },
  "bbox": [
    -122.386472,
    37.616105,
    -122.385834,
    37.616611
  ],
  "geometry": {"type":"Polygon","coordinates":[[[-122.386472,37.616318],[-122.386435,37.616233],[-122.386376,37.616178],[-122.386301,37.616131],[-122.386161,37.616105],[-122.386022,37.616131],[-122.385914,37.616186],[-122.385855,37.616267],[-122.385834,37.616369],[-122.385871,37.616467],[-122.385941,37.616543],[-122.386054,37.616603],[-122.386183,37.616611],[-122.386306,37.616573],[-122.386419,37.616509],[-122.386467,37.616411],[-122.386472,37.616318]]]}
}
