{
  "id": 1763379271,
  "type": "Feature",
  "properties": {
    "date:cessation_lower": "1980-01-01",
    "date:cessation_upper": "1989-12-31",
    "date:inception_lower": "1980-01-01",
    "date:inception_upper": "1989-12-31",
    "edtf:cessation": "198X",
    "edtf:inception": "198X",
    "geom:area": 2.477324999997507e-7,
    "geom:bbox": "-122.386472,37.616105,-122.385834,37.616611",
    "geom:latitude": 37.61635756125121,
    "geom:longitude": -122.38615532866096,
    "media:fingerprint": "740bf03c571d52f3e5d010553209f88f377fcfab",
    "media:imagehash_avg": "a:ffffc300a081c1c3",
    "media:imagehash_diff": "d:0f0f177545070707",
    "media:imagetext": "FEDERA\nEXPRETT\nTOM",
    "media:imagetext_created": 1787962255,
    "media:imagetext_source": "com.apple.visionkit.VNImageRequestHandler#Version 26.6.2 (Build 25G83)",
    "media:mimetype": "image/tiff",
    "media:properties": {
      "sizes": {
        "b": {
          "extension": "jpg",
          "height": 768,
          "mimetype": "image/jpeg",
          "secret": "j8rn5DcQSzQlx7052cNcyfdwf8nFxyId",
          "width": 965
        },
        "c": {
          "extension": "jpg",
          "height": 600,
          "mimetype": "image/jpeg",
          "secret": "j8rn5DcQSzQlx7052cNcyfdwf8nFxyId",
          "width": 754
        },
        "dc": {
          "extension": "jpg",
          "height": 600,
          "mimetype": "image/jpeg",
          "secret": "j8rn5DcQSzQlx7052cNcyfdwf8nFxyId",
          "width": 754
        },
        "ds": {
          "extension": "jpg",
          "height": 320,
          "mimetype": "image/jpeg",
          "secret": "j8rn5DcQSzQlx7052cNcyfdwf8nFxyId",
          "width": 320
        },
        "k": {
          "extension": "jpg",
          "height": 1536,
          "mimetype": "image/jpeg",
          "secret": "j8rn5DcQSzQlx7052cNcyfdwf8nFxyId",
          "width": 1931
        },
        "n": {
          "extension": "jpg",
          "height": 240,
          "mimetype": "image/jpeg",
          "secret": "j8rn5DcQSzQlx7052cNcyfdwf8nFxyId",
          "width": 301
        },
        "o": {
          "extension": "jpg",
          "height": 1667,
          "mimetype": "image/jpeg",
          "secret": "MJYAiFkVm2MAhGRURX95X9iZC6WRdEb4",
          "width": 2096
        },
        "s": {
          "extension": "jpg",
          "height": 320,
          "mimetype": "image/jpeg",
          "secret": "j8rn5DcQSzQlx7052cNcyfdwf8nFxyId",
          "width": 320
        },
        "z": {
          "extension": "jpg",
          "height": 480,
          "mimetype": "image/jpeg",
          "secret": "j8rn5DcQSzQlx7052cNcyfdwf8nFxyId",
          "width": 603
        }
      }
    },
    "media:source": "sfomuseum",
    "media:status_id": 1,
    "media:uri_template": "https://static.sfomuseum.org/media/176/337/927/1/1763379271_{secret}_{label}.{extension}",
    "millsfield:airline_id": [
      1159285987
    ],
    "millsfield:category_id": 1511214225,
    "millsfield:collection_id": 1511214203,
    "millsfield:company_id": [],
    "millsfield:images_colors": [
      {
        "hex": "#aaa8a5",
        "name": "#aaa8a5",
        "reference": "marekm4"
      },
      {
        "hex": "#a9a9a9",
        "name": "darkgrey",
        "reference": "css4"
      },
      {
        "hex": "#979aaa",
        "name": "Manatee",
        "reference": "crayola"
      },
      {
        "hex": "#48424c",
        "name": "#48424c",
        "reference": "marekm4"
      },
      {
        "hex": "#2f4f4f",
        "name": "darkslategrey",
        "reference": "css4"
      },
      {
        "hex": "#414a4c",
        "name": "Outer Space",
        "reference": "crayola"
      }
    ],
    "millsfield:images_texts": [
      "FEDERA\nEXPRETT\nTOM"
    ],
    "millsfield:images_texts_ids": [
      1763379271
    ],
    "millsfield:similar": {
      "apple/mobileclip_s0": [
        {
          "distance": 0.6787917,
          "id": 2048167411
        },
        {
          "distance": 0.68680245,
          "id": 2048176453
        },
        {
          "distance": 0.68719774,
          "id": 2048167409
        },
        {
          "distance": 0.6986406,
          "id": 2048167417
        },
        {
          "distance": 0.70013547,
          "id": 2048167415
        },
        {
          "distance": 0.71076614,
          "id": 1763396549
        },
        {
          "distance": 0.71173024,
          "id": 2048167427
        },
        {
          "distance": 0.7118258,
          "id": 2048167423
        },
        {
          "distance": 0.7182118,
          "id": 1880236307
        },
        {
          "distance": 0.71850264,
          "id": 1880236303
        }
      ],
      "apple/mobileclip_s1": [
        {
          "distance": 0.50193375,
          "id": 1964106919
        },
        {
          "distance": 0.50353974,
          "id": 1964107519
        },
        {
          "distance": 0.5275879,
          "id": 1964107283
        },
        {
          "distance": 0.5332765,
          "id": 1763396549
        },
        {
          "distance": 0.5580151,
          "id": 1763379309
        },
        {
          "distance": 0.5593653,
          "id": 1763381251
        },
        {
          "distance": 0.559692,
          "id": 1763379305
        },
        {
          "distance": 0.5603059,
          "id": 1763379707
        },
        {
          "distance": 0.56042093,
          "id": 1964341793
        },
        {
          "distance": 0.56056803,
          "id": 2014778589
        }
      ],
      "apple/mobileclip_s2": [
        {
          "distance": 0.64805853,
          "id": 1964107283
        },
        {
          "distance": 0.67018574,
          "id": 1964106919
        },
        {
          "distance": 0.6930479,
          "id": 1964107519
        },
        {
          "distance": 0.74701124,
          "id": 1796414231
        },
        {
          "distance": 0.79124784,
          "id": 1763396549
        },
        {
          "distance": 0.79927415,
          "id": 1931110293
        },
        {
          "distance": 0.80350333,
          "id": 2014778123
        },
        {
          "distance": 0.80856234,
          "id": 1527840799
        },
        {
          "distance": 0.8150883,
          "id": 1931110539
        },
        {
          "distance": 0.8156615,
          "id": 1762939547
        }
      ]
    },
    "millsfield:subcategory_id": 1511213775,
    "mz:is_current": 1,
    "sfomuseum:filename": "111163.tif",
    "sfomuseum:image_id": 111163,
    "sfomuseum:image_index": 5,
    "sfomuseum:image_type": "studio",
    "sfomuseum:object_id": 67545,
    "sfomuseum:placetype": "image",
    "sfomuseum:primary_image": 1,
    "src:geom": "sfomuseum",
    "wof:belongsto": [
      102527513,
      1159162825,
      102191575,
      85633793,
      102087579,
      85922583,
      1762932305,
      85688637,
      1159160869
    ],
    "wof:country": "XY",
    "wof:created": 1648683308,
    "wof:depicts": [
      1762932305,
      1159285987
    ],
    "wof:geomhash": "ed7c2ab3547fc3916b5edc33488deaa7",
    "wof:hierarchy": [
      {
        "building_id": -1,
        "campus_id": 102527513,
        "collection_id": 1159162825,
        "concourse_id": 1159162825,
        "continent_id": 102191575,
        "country_id": 85633793,
        "county_id": 102087579,
        "custom_id": 1763379271,
        "image_id": 1763379271,
        "locality_id": 85922583,
        "neighbourhood_id": -1,
        "object_id": 1762932305,
        "region_id": 85688637,
        "wing_id": 1159160869
      }
    ],
    "wof:id": 1763379271,
    "wof:lastmodified": 1788451080,
    "wof:name": "name pin: Federal Express, Tom",
    "wof:parent_id": 1762932305,
    "wof:placetype": "custom",
    "wof:placetype_alt": [
      "image"
    ],
    "wof:repo": "sfomuseum-data-media-collection",
    "wof:superseded_by": [],
    "wof:supersedes": []
  },
  "bbox": [
    -122.386472,
    37.616105,
    -122.385834,
    37.616611
  ],
  "geometry": {"type":"Polygon","coordinates":[[[-122.386472,37.616318],[-122.386435,37.616233],[-122.386376,37.616178],[-122.386301,37.616131],[-122.386161,37.616105],[-122.386022,37.616131],[-122.385914,37.616186],[-122.385855,37.616267],[-122.385834,37.616369],[-122.385871,37.616467],[-122.385941,37.616543],[-122.386054,37.616603],[-122.386183,37.616611],[-122.386306,37.616573],[-122.386419,37.616509],[-122.386467,37.616411],[-122.386472,37.616318]]]}
}
