{
  "id": 1913799643,
  "type": "Feature",
  "properties": {
    "date:cessation_lower": "1934-02-24",
    "date:cessation_upper": "1934-02-24",
    "date:inception_lower": "1934-02-24",
    "date:inception_upper": "1934-02-24",
    "edtf:cessation": "1934-02-24",
    "edtf:inception": "1934-02-24",
    "geom:area": 2.477324999997507e-7,
    "geom:bbox": "-122.386472,37.616105,-122.385834,37.616611",
    "geom:latitude": 37.61635756125121,
    "geom:longitude": -122.38615532866096,
    "media:fingerprint": "2c962cf5fb0a9efde3aba95bfaaaad8dcb165fda",
    "media:imagehash_avg": "a:bf818181818181ff",
    "media:imagehash_diff": "d:4b5b694b59595379",
    "media:imagetext": "2/24\nPAAL\nA BORDO DEL TRIMOTOR\nVOLAND DeMan aguan St Loreng.\nDearest Debo -\nFlyvy our denss Nicaraguan\njungle with actur volcanos\npoking their heads up int the\nclouds. It so rough - the mountain\nair that writing is difficult\nand if my hand looks shot,\nyou ie understand om neither\nsick nor tight but over in\nthile a expret for a moment\nor two that ur will tumble\nright out of the say, The tw\nLas ben fascinating today - over\nthe caree and all of this wild\ncountry.\nwice maid this odinary\nmail pom 5t Lorenzo Honduras",
    "media:imagetext_created": 1787972167,
    "media:imagetext_source": "com.apple.visionkit.VNImageRequestHandler#Version 26.6.2 (Build 25G83)",
    "media:mimetype": "image/tiff",
    "media:properties": {
      "sizes": {
        "b": {
          "extension": "jpg",
          "height": 768,
          "mimetype": "image/jpeg",
          "secret": "oZvZI1681L08QxsDEJp65vlhcROCjYWv",
          "width": 609
        },
        "c": {
          "extension": "jpg",
          "height": 600,
          "mimetype": "image/jpeg",
          "secret": "oZvZI1681L08QxsDEJp65vlhcROCjYWv",
          "width": 475
        },
        "dc": {
          "extension": "jpg",
          "height": 600,
          "mimetype": "image/jpeg",
          "secret": "oZvZI1681L08QxsDEJp65vlhcROCjYWv",
          "width": 475
        },
        "ds": {
          "extension": "jpg",
          "height": 320,
          "mimetype": "image/jpeg",
          "secret": "oZvZI1681L08QxsDEJp65vlhcROCjYWv",
          "width": 320
        },
        "k": {
          "extension": "jpg",
          "height": 1536,
          "mimetype": "image/jpeg",
          "secret": "oZvZI1681L08QxsDEJp65vlhcROCjYWv",
          "width": 1218
        },
        "n": {
          "extension": "jpg",
          "height": 240,
          "mimetype": "image/jpeg",
          "secret": "oZvZI1681L08QxsDEJp65vlhcROCjYWv",
          "width": 190
        },
        "o": {
          "extension": "jpg",
          "height": 2000,
          "mimetype": "image/jpeg",
          "secret": "tq0pR8FaYsV7OBPTsN4FW7COxVkm0gj6",
          "width": 1586
        },
        "s": {
          "extension": "jpg",
          "height": 320,
          "mimetype": "image/jpeg",
          "secret": "oZvZI1681L08QxsDEJp65vlhcROCjYWv",
          "width": 320
        },
        "z": {
          "extension": "jpg",
          "height": 480,
          "mimetype": "image/jpeg",
          "secret": "oZvZI1681L08QxsDEJp65vlhcROCjYWv",
          "width": 380
        }
      }
    },
    "media:source": "sfomuseum",
    "media:status_id": 1,
    "media:uri_template": "https://static.sfomuseum.org/media/191/379/964/3/1913799643_{secret}_{label}.{extension}",
    "millsfield:airline_id": [
      1159284989
    ],
    "millsfield:category_id": 1511214251,
    "millsfield:collection_id": 1511214207,
    "millsfield:company_id": [
      1159286839
    ],
    "millsfield:images_colors": [
      {
        "hex": "#e0d2b0",
        "name": "#e0d2b0",
        "reference": "marekm4"
      },
      {
        "hex": "#f5deb3",
        "name": "wheat",
        "reference": "css4"
      },
      {
        "hex": "#efcdb8",
        "name": "Desert Sand",
        "reference": "crayola"
      },
      {
        "hex": "#9a9072",
        "name": "#9a9072",
        "reference": "marekm4"
      },
      {
        "hex": "#808080",
        "name": "grey",
        "reference": "css4"
      },
      {
        "hex": "#9f8170",
        "name": "Beaver",
        "reference": "crayola"
      },
      {
        "hex": "#575951",
        "name": "#575951",
        "reference": "marekm4"
      },
      {
        "hex": "#696969",
        "name": "dimgrey",
        "reference": "css4"
      },
      {
        "hex": "#414a4c",
        "name": "Outer Space",
        "reference": "crayola"
      }
    ],
    "millsfield:images_texts": [
      "2/24\nPAAL\nA BORDO DEL TRIMOTOR\nVOLAND DeMan aguan St Loreng.\nDearest Debo -\nFlyvy our denss Nicaraguan\njungle with actur volcanos\npoking their heads up int the\nclouds. It so rough - the mountain\nair that writing is difficult\nand if my hand looks shot,\nyou ie understand om neither\nsick nor tight but over in\nthile a expret for a moment\nor two that ur will tumble\nright out of the say, The tw\nLas ben fascinating today - over\nthe caree and all of this wild\ncountry.\nwice maid this odinary\nmail pom 5t Lorenzo Honduras",
      "and will undoubtdly brat it\nhome but cat will like the\nstamp and then too Dits when\nEr s am thing anythin\ninteresting or having a good\ntime - my mind aliago chans\nright off to you - so I just\nhour to write you are ahmet it.\nPoor Sandino - ace Latin\nAmerica mourns his daith un\nhai just feion our the reag\nof the\ncount which he ruled\nAnd no wonder the Marines could\nnot find him - a needle in a\nkay stack world he simple br\ncomparison with the jagged -\nhat of love tal\nHad\n20191211153"
    ],
    "millsfield:images_texts_ids": [
      1913799643,
      1913799647
    ],
    "millsfield:similar": {
      "apple/mobileclip_s0": [
        {
          "distance": 0.33489874,
          "id": 1913802695
        },
        {
          "distance": 0.33981052,
          "id": 1913802043
        },
        {
          "distance": 0.3404465,
          "id": 1913800927
        },
        {
          "distance": 0.34074548,
          "id": 1913800583
        },
        {
          "distance": 0.34159613,
          "id": 1913800183
        },
        {
          "distance": 0.34180453,
          "id": 1913800999
        },
        {
          "distance": 0.34285942,
          "id": 1913799385
        },
        {
          "distance": 0.34397382,
          "id": 1913801673
        },
        {
          "distance": 0.34416607,
          "id": 1913800931
        },
        {
          "distance": 0.34436092,
          "id": 1913801869
        }
      ],
      "apple/mobileclip_s1": [
        {
          "distance": 0.2829051,
          "id": 1913802531
        },
        {
          "distance": 0.2891188,
          "id": 1913768917
        },
        {
          "distance": 0.29114017,
          "id": 1913768913
        },
        {
          "distance": 0.2928744,
          "id": 1913799399
        },
        {
          "distance": 0.29545408,
          "id": 1913800643
        },
        {
          "distance": 0.29596928,
          "id": 1913768909
        },
        {
          "distance": 0.2964481,
          "id": 1913800911
        },
        {
          "distance": 0.29848483,
          "id": 1913799889
        },
        {
          "distance": 0.2993723,
          "id": 1913801539
        },
        {
          "distance": 0.2999031,
          "id": 1913799895
        }
      ],
      "apple/mobileclip_s2": [
        {
          "distance": 0.42935786,
          "id": 1913799715
        },
        {
          "distance": 0.43067974,
          "id": 1913802357
        },
        {
          "distance": 0.43416846,
          "id": 1913799895
        },
        {
          "distance": 0.4347148,
          "id": 1913802031
        },
        {
          "distance": 0.4382102,
          "id": 1913802321
        },
        {
          "distance": 0.4391764,
          "id": 1913799889
        },
        {
          "distance": 0.43957782,
          "id": 1913799723
        },
        {
          "distance": 0.43996286,
          "id": 1913800179
        },
        {
          "distance": 0.44004726,
          "id": 1913802071
        },
        {
          "distance": 0.441375,
          "id": 1913800911
        }
      ]
    },
    "millsfield:subcategory_id": 1511213489,
    "mz:is_current": 1,
    "sfomuseum:filename": "2019.121.1153_1.tif",
    "sfomuseum:image_id": 220387,
    "sfomuseum:image_index": 5,
    "sfomuseum:image_type": "studio",
    "sfomuseum:object_id": 211516,
    "sfomuseum:placetype": "image",
    "sfomuseum:primary_image": 1,
    "src:geom": "sfomuseum",
    "wof:belongsto": [
      102527513,
      1159162825,
      102191575,
      85633793,
      102087579,
      85922583,
      1913796249,
      85688637,
      1159160869
    ],
    "wof:country": "XY",
    "wof:created": 1714549999,
    "wof:depicts": [
      1159284989,
      1159286839,
      1913796249
    ],
    "wof:geomhash": "ed7c2ab3547fc3916b5edc33488deaa7",
    "wof:hierarchy": [
      {
        "building_id": -1,
        "campus_id": 102527513,
        "collection_id": 1159162825,
        "concourse_id": 1159162825,
        "continent_id": 102191575,
        "country_id": 85633793,
        "county_id": 102087579,
        "custom_id": 1913799643,
        "image_id": 1913799643,
        "locality_id": 85922583,
        "neighbourhood_id": -1,
        "object_id": 1913796249,
        "region_id": 85688637,
        "wing_id": 1159160869
      }
    ],
    "wof:id": 1913799643,
    "wof:lastmodified": 1788452221,
    "wof:name": "correspondence: Harold M. Bixby to Debby Bixby",
    "wof:parent_id": 1913796249,
    "wof:placetype": "custom",
    "wof:placetype_alt": [
      "image"
    ],
    "wof:repo": "sfomuseum-data-media-collection",
    "wof:superseded_by": [],
    "wof:supersedes": []
  },
  "bbox": [
    -122.386472,
    37.616105,
    -122.385834,
    37.616611
  ],
  "geometry": {"type":"Polygon","coordinates":[[[-122.386472,37.616318],[-122.386435,37.616233],[-122.386376,37.616178],[-122.386301,37.616131],[-122.386161,37.616105],[-122.386022,37.616131],[-122.385914,37.616186],[-122.385855,37.616267],[-122.385834,37.616369],[-122.385871,37.616467],[-122.385941,37.616543],[-122.386054,37.616603],[-122.386183,37.616611],[-122.386306,37.616573],[-122.386419,37.616509],[-122.386467,37.616411],[-122.386472,37.616318]]]}
}
