{
  "id": 1527826839,
  "type": "Feature",
  "properties": {
    "date:cessation_lower": "1969-01-01",
    "date:cessation_upper": "1969-12-31",
    "date:inception_lower": "1969-01-01",
    "date:inception_upper": "1969-12-31",
    "edtf:cessation": "1969",
    "edtf:date": "1969",
    "edtf:inception": "1969",
    "geom:area": 0,
    "geom:bbox": "-122.386155,37.616358,-122.386155,37.616358",
    "geom:latitude": 37.616358,
    "geom:longitude": -122.386155,
    "iso:country": "US",
    "media:fingerprint": "edceacf7534c0b62d14998f312e51b161af38d0a",
    "media:imagehash_avg": "a:031fff070c0c0cfd",
    "media:imagehash_diff": "d:5b9b9b9f99193929",
    "media:medium": "image",
    "media:mimetype": "image/tiff",
    "media:properties": {
      "sizes": {
        "b": {
          "extension": "jpg",
          "height": 768,
          "mimetype": "image/jpeg",
          "secret": "3F4dySv8XP8YhYhY1WMDdvcTvXCa48ys",
          "width": 776
        },
        "c": {
          "extension": "jpg",
          "height": 600,
          "mimetype": "image/jpeg",
          "secret": "3F4dySv8XP8YhYhY1WMDdvcTvXCa48ys",
          "width": 606
        },
        "dc": {
          "extension": "jpg",
          "height": 600,
          "mimetype": "image/jpeg",
          "secret": "3F4dySv8XP8YhYhY1WMDdvcTvXCa48ys",
          "width": 606
        },
        "ds": {
          "extension": "jpg",
          "height": 320,
          "mimetype": "image/jpeg",
          "secret": "3F4dySv8XP8YhYhY1WMDdvcTvXCa48ys",
          "width": 320
        },
        "k": {
          "extension": "jpg",
          "height": 1536,
          "mimetype": "image/jpeg",
          "secret": "3F4dySv8XP8YhYhY1WMDdvcTvXCa48ys",
          "width": 1552
        },
        "n": {
          "extension": "jpg",
          "height": 239,
          "mimetype": "image/jpeg",
          "secret": "3F4dySv8XP8YhYhY1WMDdvcTvXCa48ys",
          "width": 242
        },
        "o": {
          "extension": "jpg",
          "height": 2563,
          "mimetype": "image/jpeg",
          "secret": "PmHFr8dLMu9drDLHFwOy0i7YiOlWfIKY",
          "width": 2590
        },
        "s": {
          "extension": "jpg",
          "height": 320,
          "mimetype": "image/jpeg",
          "secret": "3F4dySv8XP8YhYhY1WMDdvcTvXCa48ys",
          "width": 320
        },
        "z": {
          "extension": "jpg",
          "height": 479,
          "mimetype": "image/jpeg",
          "secret": "3F4dySv8XP8YhYhY1WMDdvcTvXCa48ys",
          "width": 485
        }
      }
    },
    "media:source": "sfomuseum",
    "media:status_id": 1,
    "media:uri_template": "https://static.sfomuseum.org/media/152/782/683/9/1527826839_{secret}_{label}.{extension}",
    "millsfield:airport_id": [
      102527513
    ],
    "millsfield:category_id": 1511214209,
    "millsfield:collection_id": 1511214207,
    "millsfield:images_colors": [
      {
        "hex": "#393939",
        "name": "#393939",
        "reference": "marekm4"
      },
      {
        "hex": "#2f4f4f",
        "name": "darkslategrey",
        "reference": "css4"
      },
      {
        "hex": "#414a4c",
        "name": "Outer Space",
        "reference": "crayola"
      },
      {
        "hex": "#aeaeae",
        "name": "#aeaeae",
        "reference": "marekm4"
      },
      {
        "hex": "#a9a9a9",
        "name": "darkgrey",
        "reference": "css4"
      },
      {
        "hex": "#b0b7c6",
        "name": "Cadet Blue",
        "reference": "crayola"
      }
    ],
    "millsfield:similar": {
      "apple/mobileclip_s0": [
        {
          "distance": 0.28702256,
          "id": 1527826841
        },
        {
          "distance": 0.53896,
          "id": 1527826855
        },
        {
          "distance": 0.54706347,
          "id": 1527824253
        },
        {
          "distance": 0.55456245,
          "id": 1763388533
        },
        {
          "distance": 0.5597105,
          "id": 1527823245
        },
        {
          "distance": 0.5631426,
          "id": 1527828415
        },
        {
          "distance": 0.5646253,
          "id": 1527825517
        },
        {
          "distance": 0.56470335,
          "id": 1527823241
        },
        {
          "distance": 0.56615704,
          "id": 1527824257
        },
        {
          "distance": 0.5697078,
          "id": 1998537161
        }
      ],
      "apple/mobileclip_s1": [
        {
          "distance": 0.24012943,
          "id": 1527826841
        },
        {
          "distance": 0.3408484,
          "id": 1527826843
        },
        {
          "distance": 0.36446494,
          "id": 1527826855
        },
        {
          "distance": 0.39740962,
          "id": 1763388533
        },
        {
          "distance": 0.40226588,
          "id": 1763388529
        },
        {
          "distance": 0.4064104,
          "id": 1527826845
        },
        {
          "distance": 0.41533944,
          "id": 1527823241
        },
        {
          "distance": 0.41840035,
          "id": 1527823247
        },
        {
          "distance": 0.42402023,
          "id": 1527823245
        },
        {
          "distance": 0.42792982,
          "id": 1527826853
        }
      ],
      "apple/mobileclip_s2": [
        {
          "distance": 0.28200752,
          "id": 1527826841
        },
        {
          "distance": 0.46702957,
          "id": 1527826855
        },
        {
          "distance": 0.49306026,
          "id": 1527826853
        },
        {
          "distance": 0.49978343,
          "id": 1527826845
        },
        {
          "distance": 0.50287586,
          "id": 1527826849
        },
        {
          "distance": 0.50373036,
          "id": 1527826843
        },
        {
          "distance": 0.50830436,
          "id": 1527826847
        },
        {
          "distance": 0.52008045,
          "id": 1763388529
        },
        {
          "distance": 0.52860606,
          "id": 1527826133
        },
        {
          "distance": 0.54426414,
          "id": 1763388533
        }
      ]
    },
    "millsfield:subcategory_id": 1511213801,
    "mz:hierarchy_label": 1,
    "mz:is_current": -1,
    "sfomuseum:filename": "43820.tif",
    "sfomuseum:image_id": 43820,
    "sfomuseum:image_index": 5,
    "sfomuseum:image_type": "studio",
    "sfomuseum:object_id": 116562,
    "sfomuseum:placetype": "image",
    "sfomuseum:primary_image": 1,
    "src:geom": "sfomuseum",
    "wof:belongsto": [
      1511214209,
      1511947877,
      102527513,
      102191575,
      85633793,
      1511213801,
      85922583,
      102087579,
      1511214277,
      1511214203,
      85688637
    ],
    "wof:breaches": [],
    "wof:country": "US",
    "wof:created": 1578950428,
    "wof:depicts": [
      1511947877,
      102527513
    ],
    "wof:geomhash": "bd906905ce4be6c0651c90b0fc24804c",
    "wof:hierarchy": [
      {
        "arcade_id": 1511213801,
        "building_id": 1511214277,
        "campus_id": 102527513,
        "concourse_id": 1511214209,
        "continent_id": 102191575,
        "country_id": 85633793,
        "county_id": 102087579,
        "custom_id": 1527826839,
        "image_id": 1527826839,
        "locality_id": 85922583,
        "media_id": 1527826839,
        "neighbourhood_id": -1,
        "region_id": 85688637,
        "venue_id": 1511947877,
        "wing_id": 1511214203
      }
    ],
    "wof:id": 1527826839,
    "wof:lastmodified": 1788449824,
    "wof:name": "negative: San Francisco International Airport (SFO), ceremony for ground service training school",
    "wof:parent_id": 1511947877,
    "wof:placetype": "custom",
    "wof:placetype_alt": [
      "image"
    ],
    "wof:repo": "sfomuseum-data-media-collection",
    "wof:superseded_by": [],
    "wof:supersedes": [],
    "wof:tags": []
  },
  "bbox": [
    -122.386155,
    37.616358,
    -122.386155,
    37.616358
  ],
  "geometry": {"type":"Point","coordinates":[-122.386155,37.616358]}
}
