{
  "id": 1763389045,
  "type": "Feature",
  "properties": {
    "date:cessation_lower": "1997-01-01",
    "date:cessation_upper": "1997-12-31",
    "date:inception_lower": "1997-01-01",
    "date:inception_upper": "1997-12-31",
    "edtf:cessation": "1997",
    "edtf:inception": "1997",
    "geom:area": 2.477324999997507e-7,
    "geom:bbox": "-122.386472,37.616105,-122.385834,37.616611",
    "geom:latitude": 37.61635756125121,
    "geom:longitude": -122.38615532866096,
    "media:fingerprint": "4acd051a41e1e588c6ade2438621a28ccfba092e",
    "media:imagehash_avg": "a:007e7ffe64000e00",
    "media:imagehash_diff": "d:fefee6ccc8ecfabc",
    "media:imagetext": "4H-124-100\nRA-B2U73",
    "media:imagetext_created": 1787962792,
    "media:imagetext_source": "com.apple.visionkit.VNImageRequestHandler#Version 26.6.2 (Build 25G83)",
    "media:mimetype": "image/tiff",
    "media:properties": {
      "sizes": {
        "b": {
          "extension": "jpg",
          "height": 697,
          "mimetype": "image/jpeg",
          "secret": "DR6SbjuZSK87s2ZUawJX5HTqFks3pwPH",
          "width": 1024
        },
        "c": {
          "extension": "jpg",
          "height": 544,
          "mimetype": "image/jpeg",
          "secret": "DR6SbjuZSK87s2ZUawJX5HTqFks3pwPH",
          "width": 800
        },
        "dc": {
          "extension": "jpg",
          "height": 544,
          "mimetype": "image/jpeg",
          "secret": "DR6SbjuZSK87s2ZUawJX5HTqFks3pwPH",
          "width": 800
        },
        "ds": {
          "extension": "jpg",
          "height": 320,
          "mimetype": "image/jpeg",
          "secret": "DR6SbjuZSK87s2ZUawJX5HTqFks3pwPH",
          "width": 320
        },
        "k": {
          "extension": "jpg",
          "height": 1395,
          "mimetype": "image/jpeg",
          "secret": "DR6SbjuZSK87s2ZUawJX5HTqFks3pwPH",
          "width": 2048
        },
        "n": {
          "extension": "jpg",
          "height": 217,
          "mimetype": "image/jpeg",
          "secret": "DR6SbjuZSK87s2ZUawJX5HTqFks3pwPH",
          "width": 320
        },
        "o": {
          "extension": "jpg",
          "height": 1128,
          "mimetype": "image/jpeg",
          "secret": "2cE6Nz2E3nGurMn2r7G5LH6PHr7h6vqP",
          "width": 1656
        },
        "s": {
          "extension": "jpg",
          "height": 320,
          "mimetype": "image/jpeg",
          "secret": "DR6SbjuZSK87s2ZUawJX5HTqFks3pwPH",
          "width": 320
        },
        "z": {
          "extension": "jpg",
          "height": 435,
          "mimetype": "image/jpeg",
          "secret": "DR6SbjuZSK87s2ZUawJX5HTqFks3pwPH",
          "width": 640
        }
      }
    },
    "media:source": "sfomuseum",
    "media:status_id": 1,
    "media:uri_template": "https://static.sfomuseum.org/media/176/338/904/5/1763389045_{secret}_{label}.{extension}",
    "millsfield:aircraft_id": [
      1159289479
    ],
    "millsfield:category_id": 1511214209,
    "millsfield:collection_id": 1511214207,
    "millsfield:company_id": [
      1159293813,
      1159289471
    ],
    "millsfield:images_colors": [
      {
        "hex": "#4a4a5d",
        "name": "#4a4a5d",
        "reference": "marekm4"
      },
      {
        "hex": "#2f4f4f",
        "name": "darkslategrey",
        "reference": "css4"
      },
      {
        "hex": "#414a4c",
        "name": "Outer Space",
        "reference": "crayola"
      },
      {
        "hex": "#5870a2",
        "name": "#5870a2",
        "reference": "marekm4"
      },
      {
        "hex": "#4682b4",
        "name": "steelblue",
        "reference": "css4"
      },
      {
        "hex": "#7366bd",
        "name": "Blue Violet",
        "reference": "crayola"
      },
      {
        "hex": "#6b87b3",
        "name": "#6b87b3",
        "reference": "marekm4"
      },
      {
        "hex": "#778899",
        "name": "lightslategrey",
        "reference": "css4"
      },
      {
        "hex": "#6699cc",
        "name": "Blue Gray",
        "reference": "crayola"
      },
      {
        "hex": "#cacdd6",
        "name": "#cacdd6",
        "reference": "marekm4"
      },
      {
        "hex": "#d3d3d3",
        "name": "lightgrey",
        "reference": "css4"
      },
      {
        "hex": "#c5d0e6",
        "name": "Periwinkle",
        "reference": "crayola"
      }
    ],
    "millsfield:images_texts": [
      "4H-124-100\nRA-B2U73"
    ],
    "millsfield:images_texts_ids": [
      1763389045
    ],
    "millsfield:similar": {
      "apple/mobileclip_s0": [
        {
          "distance": 0.4597173,
          "id": 1763442177
        },
        {
          "distance": 0.48876113,
          "id": 1763442859
        },
        {
          "distance": 0.4941639,
          "id": 1763443549
        },
        {
          "distance": 0.49509197,
          "id": 1763389023
        },
        {
          "distance": 0.49748638,
          "id": 1763443311
        },
        {
          "distance": 0.5008465,
          "id": 1763388745
        },
        {
          "distance": 0.5053294,
          "id": 1763445443
        },
        {
          "distance": 0.50845563,
          "id": 1763442271
        },
        {
          "distance": 0.51120996,
          "id": 1763389147
        },
        {
          "distance": 0.51534134,
          "id": 1763445449
        }
      ],
      "apple/mobileclip_s1": [
        {
          "distance": 0.33189094,
          "id": 1763442177
        },
        {
          "distance": 0.35174596,
          "id": 1763445449
        },
        {
          "distance": 0.3655324,
          "id": 1763443249
        },
        {
          "distance": 0.37000775,
          "id": 1763443483
        },
        {
          "distance": 0.37621602,
          "id": 1763445407
        },
        {
          "distance": 0.37904,
          "id": 1763443513
        },
        {
          "distance": 0.3874926,
          "id": 1763445059
        },
        {
          "distance": 0.3882019,
          "id": 1763442787
        },
        {
          "distance": 0.38919178,
          "id": 1763442859
        },
        {
          "distance": 0.3906844,
          "id": 1763443045
        }
      ],
      "apple/mobileclip_s2": [
        {
          "distance": 0.45655987,
          "id": 1763443207
        },
        {
          "distance": 0.4842897,
          "id": 1763445449
        },
        {
          "distance": 0.51175725,
          "id": 1763389191
        },
        {
          "distance": 0.51805645,
          "id": 1763442859
        },
        {
          "distance": 0.5295783,
          "id": 1763443249
        },
        {
          "distance": 0.5298561,
          "id": 1763443209
        },
        {
          "distance": 0.5343973,
          "id": 1762891951
        },
        {
          "distance": 0.5348211,
          "id": 1763443483
        },
        {
          "distance": 0.535553,
          "id": 1763442415
        },
        {
          "distance": 0.53981775,
          "id": 1763443455
        }
      ]
    },
    "millsfield:subcategory_id": 1511213401,
    "millsfield:tailnumbers": [
      "RA-82073"
    ],
    "mz:is_current": 1,
    "sfomuseum:filename": "2015.108.176.tif",
    "sfomuseum:image_id": 156355,
    "sfomuseum:image_index": 0,
    "sfomuseum:image_type": "studio",
    "sfomuseum:object_id": 171262,
    "sfomuseum:placetype": "image",
    "sfomuseum:primary_image": 1,
    "src:geom": "sfomuseum",
    "wof:belongsto": [
      102527513,
      1159162825,
      102191575,
      85633793,
      102087579,
      85922583,
      1762828703,
      85688637,
      1159160869
    ],
    "wof:country": "XY",
    "wof:created": 1648799049,
    "wof:depicts": [
      1159293813,
      1159289471,
      1762828703,
      1159289479
    ],
    "wof:geomhash": "ed7c2ab3547fc3916b5edc33488deaa7",
    "wof:hierarchy": [
      {
        "building_id": -1,
        "campus_id": 102527513,
        "collection_id": 1159162825,
        "concourse_id": 1159162825,
        "continent_id": 102191575,
        "country_id": 85633793,
        "county_id": 102087579,
        "custom_id": 1763389045,
        "image_id": 1763389045,
        "locality_id": 85922583,
        "neighbourhood_id": -1,
        "object_id": 1762828703,
        "region_id": 85688637,
        "wing_id": 1159160869
      }
    ],
    "wof:id": 1763389045,
    "wof:lastmodified": 1788451130,
    "wof:name": "slide: Russian Airlines, Antonov An-124",
    "wof:parent_id": 1762828703,
    "wof:placetype": "custom",
    "wof:placetype_alt": [
      "image"
    ],
    "wof:repo": "sfomuseum-data-media-collection",
    "wof:superseded_by": [],
    "wof:supersedes": []
  },
  "bbox": [
    -122.386472,
    37.616105,
    -122.385834,
    37.616611
  ],
  "geometry": {"type":"Polygon","coordinates":[[[-122.386472,37.616318],[-122.386435,37.616233],[-122.386376,37.616178],[-122.386301,37.616131],[-122.386161,37.616105],[-122.386022,37.616131],[-122.385914,37.616186],[-122.385855,37.616267],[-122.385834,37.616369],[-122.385871,37.616467],[-122.385941,37.616543],[-122.386054,37.616603],[-122.386183,37.616611],[-122.386306,37.616573],[-122.386419,37.616509],[-122.386467,37.616411],[-122.386472,37.616318]]]}
}
