{
  "id": 1527849771,
  "type": "Feature",
  "properties": {
    "date:cessation_lower": "1967-01-01",
    "date:cessation_upper": "1967-12-31",
    "date:inception_lower": "1967-01-01",
    "date:inception_upper": "1967-12-31",
    "edtf:cessation": "1967",
    "edtf:date": "1967",
    "edtf:inception": "1967",
    "geom:area": 0,
    "geom:bbox": "-122.386155,37.616358,-122.386155,37.616358",
    "geom:latitude": 37.616358,
    "geom:longitude": -122.386155,
    "iso:country": "XX",
    "media:fingerprint": "37c47268f6b10cee13a62f5e6e593507070eb9c2",
    "media:imagehash_avg": "a:9d818181ffffffff",
    "media:imagehash_diff": "d:796949494d69690d",
    "media:imagetext": "TDI\nCOMBINED TIMETABLES\nALL SCHEDULED AIRLINES\nWashington\nDULLES INTERNATIONAL • WASHINGTON NATIONAL\nto and from\n1. ATLANTA\n7. BALTIMORE\n2. BOSTON\n4. CHICAGO\n3. CLEVELAND\n15. DETROIT\n14. LOS ANGELES\n8. MIAMI\n10. NEW YORK\n5. NORFOLK\n11. PHILADELPHIA\n12. PITTSBURGH\n13. RICHMOND\n6. ST. LOUIS\n9. SAN FRANCISCO\nOctober 29, 1967 thru November 30, 1967\nGOING\nTO\nNEW YORK • SAN FRANCISCO\nLONDON • PARIS • KARACHI\nTOKYO • HONG KONG • SAIGON\nTEL AVIV...?\nIn fact, anywhere you want to go;\nCALL\nSecurity Travel, Ltd.\na subsidiary of Security Storage Company of Washington\nAnd you get SECURITY when you\nTRAVEL WITH SECURITY\n1701 Florida Ave.,N.W.., Washington D.C. 20009\n234-1630",
    "media:imagetext_created": 1787952848,
    "media:imagetext_source": "com.apple.visionkit.VNImageRequestHandler#Version 26.6.2 (Build 25G83)",
    "media:medium": "image",
    "media:mimetype": "image/tiff",
    "media:properties": {
      "sizes": {
        "b": {
          "extension": "jpg",
          "height": 768,
          "mimetype": "image/jpeg",
          "secret": "mL453PmTlHlu3fa8cHW2w2HMSNxTfUy9",
          "width": 311
        },
        "c": {
          "extension": "jpg",
          "height": 600,
          "mimetype": "image/jpeg",
          "secret": "mL453PmTlHlu3fa8cHW2w2HMSNxTfUy9",
          "width": 243
        },
        "dc": {
          "extension": "jpg",
          "height": 600,
          "mimetype": "image/jpeg",
          "secret": "mL453PmTlHlu3fa8cHW2w2HMSNxTfUy9",
          "width": 243
        },
        "ds": {
          "extension": "jpg",
          "height": 320,
          "mimetype": "image/jpeg",
          "secret": "mL453PmTlHlu3fa8cHW2w2HMSNxTfUy9",
          "width": 320
        },
        "k": {
          "extension": "jpg",
          "height": 1536,
          "mimetype": "image/jpeg",
          "secret": "mL453PmTlHlu3fa8cHW2w2HMSNxTfUy9",
          "width": 622
        },
        "n": {
          "extension": "jpg",
          "height": 240,
          "mimetype": "image/jpeg",
          "secret": "mL453PmTlHlu3fa8cHW2w2HMSNxTfUy9",
          "width": 97
        },
        "o": {
          "extension": "jpg",
          "height": 2755,
          "mimetype": "image/jpeg",
          "secret": "ylcQ85kIm1PoMCRgtIkHWbI1HVpE6CQD",
          "width": 1117
        },
        "s": {
          "extension": "jpg",
          "height": 320,
          "mimetype": "image/jpeg",
          "secret": "mL453PmTlHlu3fa8cHW2w2HMSNxTfUy9",
          "width": 320
        },
        "z": {
          "extension": "jpg",
          "height": 480,
          "mimetype": "image/jpeg",
          "secret": "mL453PmTlHlu3fa8cHW2w2HMSNxTfUy9",
          "width": 194
        }
      }
    },
    "media:source": "sfomuseum",
    "media:status_id": 1,
    "media:uri_template": "https://static.sfomuseum.org/media/152/784/977/1/1527849771_{secret}_{label}.{extension}",
    "millsfield:category_id": 1511214223,
    "millsfield:collection_id": 1511214207,
    "millsfield:images_colors": [
      {
        "hex": "#d5caab",
        "name": "#d5caab",
        "reference": "marekm4"
      },
      {
        "hex": "#c0c0c0",
        "name": "silver",
        "reference": "css4"
      },
      {
        "hex": "#cdc5c2",
        "name": "Silver",
        "reference": "crayola"
      },
      {
        "hex": "#0f473b",
        "name": "#0f473b",
        "reference": "marekm4"
      },
      {
        "hex": "#2f4f4f",
        "name": "darkslategrey",
        "reference": "css4"
      },
      {
        "hex": "#414a4c",
        "name": "Outer Space",
        "reference": "crayola"
      },
      {
        "hex": "#b6a174",
        "name": "#b6a174",
        "reference": "marekm4"
      },
      {
        "hex": "#bdb76b",
        "name": "darkkhaki",
        "reference": "css4"
      },
      {
        "hex": "#bab86c",
        "name": "Olive Green",
        "reference": "crayola"
      }
    ],
    "millsfield:images_texts": [
      "TDI\nCOMBINED TIMETABLES\nALL SCHEDULED AIRLINES\nWashington\nDULLES INTERNATIONAL • WASHINGTON NATIONAL\nto and from\n1. ATLANTA\n7. BALTIMORE\n2. BOSTON\n4. CHICAGO\n3. CLEVELAND\n15. DETROIT\n14. LOS ANGELES\n8. MIAMI\n10. NEW YORK\n5. NORFOLK\n11. PHILADELPHIA\n12. PITTSBURGH\n13. RICHMOND\n6. ST. LOUIS\n9. SAN FRANCISCO\nOctober 29, 1967 thru November 30, 1967\nGOING\nTO\nNEW YORK • SAN FRANCISCO\nLONDON • PARIS • KARACHI\nTOKYO • HONG KONG • SAIGON\nTEL AVIV...?\nIn fact, anywhere you want to go;\nCALL\nSecurity Travel, Ltd.\na subsidiary of Security Storage Company of Washington\nAnd you get SECURITY when you\nTRAVEL WITH SECURITY\n1701 Florida Ave.,N.W.., Washington D.C. 20009\n234-1630"
    ],
    "millsfield:images_texts_ids": [
      1527849771
    ],
    "millsfield:similar": {
      "apple/mobileclip_s0": [
        {
          "distance": 0.5466855,
          "id": 1527849673
        },
        {
          "distance": 0.5656674,
          "id": 1527849677
        },
        {
          "distance": 0.5826351,
          "id": 1527849681
        },
        {
          "distance": 0.60067266,
          "id": 1527849679
        },
        {
          "distance": 0.6054238,
          "id": 1527848863
        },
        {
          "distance": 0.6055206,
          "id": 1527855029
        },
        {
          "distance": 0.6070836,
          "id": 1527850397
        },
        {
          "distance": 0.60957426,
          "id": 1527832329
        },
        {
          "distance": 0.6097349,
          "id": 1527835557
        },
        {
          "distance": 0.6172752,
          "id": 1527856187
        }
      ],
      "apple/mobileclip_s1": [
        {
          "distance": 0.42641088,
          "id": 1527849673
        },
        {
          "distance": 0.47692862,
          "id": 1527838363
        },
        {
          "distance": 0.48380828,
          "id": 1527849679
        },
        {
          "distance": 0.48766965,
          "id": 1527838773
        },
        {
          "distance": 0.48785025,
          "id": 1527838845
        },
        {
          "distance": 0.49063584,
          "id": 1762700365
        },
        {
          "distance": 0.49088618,
          "id": 1527838809
        },
        {
          "distance": 0.49770233,
          "id": 1527838831
        },
        {
          "distance": 0.49773476,
          "id": 1527854755
        },
        {
          "distance": 0.49921146,
          "id": 1527846915
        }
      ],
      "apple/mobileclip_s2": [
        {
          "distance": 0.64642274,
          "id": 1527849673
        },
        {
          "distance": 0.69163036,
          "id": 1527849679
        },
        {
          "distance": 0.7061052,
          "id": 1527835249
        },
        {
          "distance": 0.70854205,
          "id": 1527838363
        },
        {
          "distance": 0.7122126,
          "id": 1527842713
        },
        {
          "distance": 0.7139795,
          "id": 1527838359
        },
        {
          "distance": 0.71944636,
          "id": 1763241285
        },
        {
          "distance": 0.7196843,
          "id": 1762715179
        },
        {
          "distance": 0.72386664,
          "id": 1527837539
        },
        {
          "distance": 0.724522,
          "id": 1527818721
        }
      ]
    },
    "millsfield:subcategory_id": 1511213425,
    "mz:hierarchy_label": 1,
    "mz:is_current": -1,
    "sfomuseum:filename": "2006.059.270.tif",
    "sfomuseum:image_id": 75393,
    "sfomuseum:image_index": 5,
    "sfomuseum:image_type": "studio",
    "sfomuseum:object_id": 81528,
    "sfomuseum:placetype": "image",
    "sfomuseum:primary_image": 1,
    "src:geom": "sfomuseum",
    "wof:belongsto": [
      102527513,
      1511214277,
      1511214223,
      85688637,
      102191575,
      85633793,
      102087579,
      1511928277,
      1511213425,
      85922583,
      1511214203
    ],
    "wof:breaches": [],
    "wof:country": "XX",
    "wof:created": 1578954081,
    "wof:depicts": [
      1511928277
    ],
    "wof:geomhash": "bd906905ce4be6c0651c90b0fc24804c",
    "wof:hierarchy": [
      {
        "arcade_id": 1511213425,
        "building_id": 1511214277,
        "campus_id": 102527513,
        "concourse_id": 1511214223,
        "continent_id": 102191575,
        "country_id": 85633793,
        "county_id": 102087579,
        "custom_id": 1527849771,
        "image_id": 1527849771,
        "locality_id": 85922583,
        "media_id": 1527849771,
        "neighbourhood_id": -1,
        "region_id": 85688637,
        "venue_id": 1511928277,
        "wing_id": 1511214203
      }
    ],
    "wof:id": 1527849771,
    "wof:lastmodified": 1788450165,
    "wof:name": "timetable: TDI Combined Timetables All Airlines Washington",
    "wof:parent_id": 1511928277,
    "wof:placetype": "custom",
    "wof:placetype_alt": [
      "image"
    ],
    "wof:repo": "sfomuseum-data-media-collection",
    "wof:superseded_by": [],
    "wof:supersedes": [],
    "wof:tags": []
  },
  "bbox": [
    -122.386155,
    37.616358,
    -122.386155,
    37.616358
  ],
  "geometry": {"type":"Point","coordinates":[-122.386155,37.616358]}
}
