{
  "id": 1913801281,
  "type": "Feature",
  "properties": {
    "date:cessation_lower": "1933-10-27",
    "date:cessation_upper": "1933-10-27",
    "date:inception_lower": "1933-10-27",
    "date:inception_upper": "1933-10-27",
    "edtf:cessation": "1933-10-27",
    "edtf:inception": "1933-10-27",
    "geom:area": 2.477324999997507e-7,
    "geom:bbox": "-122.386472,37.616105,-122.385834,37.616611",
    "geom:latitude": 37.61635756125121,
    "geom:longitude": -122.38615532866096,
    "media:fingerprint": "45dbce1f0f4a3c056f6d7c3745f172e5adb007d0",
    "media:imagehash_avg": "a:ff818181818181ff",
    "media:imagehash_diff": "d:5b5f3b2b637b6b41",
    "media:imagetext": "may not agour on Nod. 4 but\ncontinus on untie the qt had\nPlanned to leave on the 4th\nbut may hail to remain oin\nuntie our bie is retter paood\nor rejreted.\nLast night ? ward sympath,\nto Mrs Bace. Harry had Cabled me\nof Me Baces death. and said that\nhe had that\nthat flowers. I fre or.\nbath and aful, tad abort Mr B\nHe was a rare\na rare characta.\nas\nFinds as a lamb with ace of hi\nbrusque retirior.\nSUN\nWarkd on mail contract and\nAmendments\nto tan chin bie, boat\nnight - hwing dmni\nalone - atr\nturth strek. nothing to rao about.\nloir.\nHad.\n2019.121.0766",
    "media:imagetext_created": 1787972555,
    "media:imagetext_source": "com.apple.visionkit.VNImageRequestHandler#Version 26.6.2 (Build 25G83)",
    "media:mimetype": "image/tiff",
    "media:properties": {
      "sizes": {
        "b": {
          "extension": "jpg",
          "height": 768,
          "mimetype": "image/jpeg",
          "secret": "UgADPvDVNL5KAcerO0PE058dlVwzntwz",
          "width": 604
        },
        "c": {
          "extension": "jpg",
          "height": 600,
          "mimetype": "image/jpeg",
          "secret": "UgADPvDVNL5KAcerO0PE058dlVwzntwz",
          "width": 472
        },
        "dc": {
          "extension": "jpg",
          "height": 600,
          "mimetype": "image/jpeg",
          "secret": "UgADPvDVNL5KAcerO0PE058dlVwzntwz",
          "width": 472
        },
        "ds": {
          "extension": "jpg",
          "height": 320,
          "mimetype": "image/jpeg",
          "secret": "UgADPvDVNL5KAcerO0PE058dlVwzntwz",
          "width": 320
        },
        "k": {
          "extension": "jpg",
          "height": 1536,
          "mimetype": "image/jpeg",
          "secret": "UgADPvDVNL5KAcerO0PE058dlVwzntwz",
          "width": 1208
        },
        "n": {
          "extension": "jpg",
          "height": 240,
          "mimetype": "image/jpeg",
          "secret": "UgADPvDVNL5KAcerO0PE058dlVwzntwz",
          "width": 188
        },
        "o": {
          "extension": "jpg",
          "height": 1852,
          "mimetype": "image/jpeg",
          "secret": "mWC67R9YB6zwtbHgEXisgVDjkagNZF7b",
          "width": 1457
        },
        "s": {
          "extension": "jpg",
          "height": 320,
          "mimetype": "image/jpeg",
          "secret": "UgADPvDVNL5KAcerO0PE058dlVwzntwz",
          "width": 320
        },
        "z": {
          "extension": "jpg",
          "height": 480,
          "mimetype": "image/jpeg",
          "secret": "UgADPvDVNL5KAcerO0PE058dlVwzntwz",
          "width": 377
        }
      }
    },
    "media:source": "sfomuseum",
    "media:status_id": 1,
    "media:uri_template": "https://static.sfomuseum.org/media/191/380/128/1/1913801281_{secret}_{label}.{extension}",
    "millsfield:airline_id": [
      1159284991,
      1159285931
    ],
    "millsfield:category_id": 1511214251,
    "millsfield:collection_id": 1511214207,
    "millsfield:company_id": [
      1159286721
    ],
    "millsfield:images_colors": [
      {
        "hex": "#e2d4af",
        "name": "#e2d4af",
        "reference": "marekm4"
      },
      {
        "hex": "#f5deb3",
        "name": "wheat",
        "reference": "css4"
      },
      {
        "hex": "#efcdb8",
        "name": "Desert Sand",
        "reference": "crayola"
      },
      {
        "hex": "#4f4728",
        "name": "#4f4728",
        "reference": "marekm4"
      },
      {
        "hex": "#556b2f",
        "name": "darkolivegreen",
        "reference": "css4"
      },
      {
        "hex": "#714b23",
        "name": "Raw Umber",
        "reference": "crayola"
      },
      {
        "hex": "#a5966d",
        "name": "#a5966d",
        "reference": "marekm4"
      },
      {
        "hex": "#bdb76b",
        "name": "darkkhaki",
        "reference": "css4"
      },
      {
        "hex": "#9f8170",
        "name": "Beaver",
        "reference": "crayola"
      }
    ],
    "millsfield:images_texts": [
      "CABLE ADDRESS:\nMANHOCO - MANILA\nALL TELEGRAPHIC CODES\nHUBERT C. ANDERSON\nMANAGER\nMANILA HOTEL\nManila, Philippines\nTHE\nSIGN OF SERVICE\nIN THE\nPHILIPPINES\n10/27\n'33\nFriday Q.m.\nDearest Debs.\nThis is\nnavy Day an i out in\nfront\nof the Notre the Thie ippin\nConstabulary\n→ Band is playing ace the\ntunes the marint Band usia to play\nat Boston Tech. The Navy is in the\nharko with ace the ships flying\nflage, etc.\nIt is\na brautifue\nmorning wilh bullet sun shina\nand sau white cloudo floatin,\nlazars high\n→ afamat a blue skr:\n- T hair an appointment with\nLet fee murph, this inco me gland\nprobabe, with frator Quegon.\nAll gou will but the hepalatins",
      "may not agour on Nod. 4 but\ncontinus on untie the qt had\nPlanned to leave on the 4th\nbut may hail to remain oin\nuntie our bie is retter paood\nor rejreted.\nLast night ? ward sympath,\nto Mrs Bace. Harry had Cabled me\nof Me Baces death. and said that\nhe had that\nthat flowers. I fre or.\nbath and aful, tad abort Mr B\nHe was a rare\na rare characta.\nas\nFinds as a lamb with ace of hi\nbrusque retirior.\nSUN\nWarkd on mail contract and\nAmendments\nto tan chin bie, boat\nnight - hwing dmni\nalone - atr\nturth strek. nothing to rao about.\nloir.\nHad.\n2019.121.0766"
    ],
    "millsfield:images_texts_ids": [
      1913801279,
      1913801281
    ],
    "millsfield:similar": {
      "apple/mobileclip_s0": [
        {
          "distance": 0.18920858,
          "id": 1913801277
        },
        {
          "distance": 0.22540644,
          "id": 1913802289
        },
        {
          "distance": 0.22743769,
          "id": 1880201517
        },
        {
          "distance": 0.2275041,
          "id": 1913801503
        },
        {
          "distance": 0.22770497,
          "id": 1913802037
        },
        {
          "distance": 0.23079029,
          "id": 1913801371
        },
        {
          "distance": 0.23376061,
          "id": 1913801851
        },
        {
          "distance": 0.2357249,
          "id": 1913802073
        },
        {
          "distance": 0.23626204,
          "id": 1913801385
        },
        {
          "distance": 0.2380729,
          "id": 1913801377
        }
      ],
      "apple/mobileclip_s1": [
        {
          "distance": 0.16348594,
          "id": 1913801849
        },
        {
          "distance": 0.16907868,
          "id": 1913801323
        },
        {
          "distance": 0.17605598,
          "id": 1913801277
        },
        {
          "distance": 0.17922291,
          "id": 1913801223
        },
        {
          "distance": 0.18297254,
          "id": 1913801317
        },
        {
          "distance": 0.18554397,
          "id": 1913802207
        },
        {
          "distance": 0.19191371,
          "id": 1913800733
        },
        {
          "distance": 0.19570534,
          "id": 1913800679
        },
        {
          "distance": 0.19605982,
          "id": 1913801385
        },
        {
          "distance": 0.1974244,
          "id": 1913801313
        }
      ],
      "apple/mobileclip_s2": [
        {
          "distance": 0.24107456,
          "id": 1913801383
        },
        {
          "distance": 0.26193744,
          "id": 1913801333
        },
        {
          "distance": 0.2633073,
          "id": 1913802239
        },
        {
          "distance": 0.27154338,
          "id": 1913801851
        },
        {
          "distance": 0.27402,
          "id": 1913800371
        },
        {
          "distance": 0.276603,
          "id": 1913801509
        },
        {
          "distance": 0.27787608,
          "id": 1913800331
        },
        {
          "distance": 0.27886066,
          "id": 1913800837
        },
        {
          "distance": 0.28007767,
          "id": 1913800733
        },
        {
          "distance": 0.28057525,
          "id": 1913801545
        }
      ]
    },
    "millsfield:subcategory_id": 1511213489,
    "mz:is_current": 1,
    "sfomuseum:filename": "2019.121.0766_2.tif",
    "sfomuseum:image_id": 225581,
    "sfomuseum:image_index": 5,
    "sfomuseum:image_type": "studio",
    "sfomuseum:object_id": 211114,
    "sfomuseum:placetype": "image",
    "sfomuseum:primary_image": 0,
    "src:geom": "sfomuseum",
    "wof:belongsto": [
      102527513,
      1159162825,
      102191575,
      85633793,
      102087579,
      85922583,
      1913795727,
      85688637,
      1159160869
    ],
    "wof:country": "XY",
    "wof:created": 1714551140,
    "wof:depicts": [
      1159285931,
      1159286721,
      1913795727,
      1159284991
    ],
    "wof:geomhash": "ed7c2ab3547fc3916b5edc33488deaa7",
    "wof:hierarchy": [
      {
        "building_id": -1,
        "campus_id": 102527513,
        "collection_id": 1159162825,
        "concourse_id": 1159162825,
        "continent_id": 102191575,
        "country_id": 85633793,
        "county_id": 102087579,
        "custom_id": 1913801281,
        "image_id": 1913801281,
        "locality_id": 85922583,
        "neighbourhood_id": -1,
        "object_id": 1913795727,
        "region_id": 85688637,
        "wing_id": 1159160869
      }
    ],
    "wof:id": 1913801281,
    "wof:lastmodified": 1788452255,
    "wof:name": "correspondence: Harold M. Bixby to Debby Bixby",
    "wof:parent_id": 1913795727,
    "wof:placetype": "custom",
    "wof:placetype_alt": [
      "image"
    ],
    "wof:repo": "sfomuseum-data-media-collection",
    "wof:superseded_by": [],
    "wof:supersedes": []
  },
  "bbox": [
    -122.386472,
    37.616105,
    -122.385834,
    37.616611
  ],
  "geometry": {"type":"Polygon","coordinates":[[[-122.386472,37.616318],[-122.386435,37.616233],[-122.386376,37.616178],[-122.386301,37.616131],[-122.386161,37.616105],[-122.386022,37.616131],[-122.385914,37.616186],[-122.385855,37.616267],[-122.385834,37.616369],[-122.385871,37.616467],[-122.385941,37.616543],[-122.386054,37.616603],[-122.386183,37.616611],[-122.386306,37.616573],[-122.386419,37.616509],[-122.386467,37.616411],[-122.386472,37.616318]]]}
}
