{
  "id": 1762710423,
  "type": "Feature",
  "properties": {
    "date:cessation_lower": "1940-01-01",
    "date:cessation_upper": "1949-12-31",
    "date:inception_lower": "1940-01-01",
    "date:inception_upper": "1949-12-31",
    "edtf:cessation": "194X",
    "edtf:inception": "194X",
    "geom:area": 2.477324999997507e-7,
    "geom:bbox": "-122.386472,37.616105,-122.385834,37.616611",
    "geom:latitude": 37.61635756125121,
    "geom:longitude": -122.38615532866096,
    "iso:country": "US",
    "media:fingerprint": "9668b5173f37ac1232fc8f6a4be7d60eebd30af2",
    "media:imagehash_avg": "a:8f80b1b1bda581fd",
    "media:imagehash_diff": "d:193d6343694d1919",
    "media:imagetext": "THE CHICAGO MUNICIPAL AIRPORT, recognized as one\nf the best equipped in the Country with one of the largest an\nsusiest landing fields, and has definitely established itself as th\nair transport center of the United States. Located at 63rd and\nCicero Avenue. About 9 miles from the loop.\nPLACE\nSTAMP HERE\nPOST CARD\nTHIS SPACE FOR WRITING\nTHIS SIDE IS FOR THE ADDRESS\n2015,166.1839",
    "media:imagetext_created": 1787957647,
    "media:imagetext_source": "com.apple.visionkit.VNImageRequestHandler#Version 26.6.2 (Build 25G83)",
    "media:mimetype": "image/tiff",
    "media:properties": {
      "sizes": {
        "b": {
          "extension": "jpg",
          "height": 663,
          "mimetype": "image/jpeg",
          "secret": "hfKLdoLasU47EC75EJaVR7Xs2qWR1qQw",
          "width": 1024
        },
        "c": {
          "extension": "jpg",
          "height": 518,
          "mimetype": "image/jpeg",
          "secret": "hfKLdoLasU47EC75EJaVR7Xs2qWR1qQw",
          "width": 800
        },
        "dc": {
          "extension": "jpg",
          "height": 518,
          "mimetype": "image/jpeg",
          "secret": "hfKLdoLasU47EC75EJaVR7Xs2qWR1qQw",
          "width": 800
        },
        "ds": {
          "extension": "jpg",
          "height": 320,
          "mimetype": "image/jpeg",
          "secret": "hfKLdoLasU47EC75EJaVR7Xs2qWR1qQw",
          "width": 320
        },
        "k": {
          "extension": "jpg",
          "height": 1326,
          "mimetype": "image/jpeg",
          "secret": "hfKLdoLasU47EC75EJaVR7Xs2qWR1qQw",
          "width": 2048
        },
        "n": {
          "extension": "jpg",
          "height": 207,
          "mimetype": "image/jpeg",
          "secret": "hfKLdoLasU47EC75EJaVR7Xs2qWR1qQw",
          "width": 320
        },
        "o": {
          "extension": "jpg",
          "height": 1130,
          "mimetype": "image/jpeg",
          "secret": "3RixiLVmPKsmJWfS8fMmkdwysOKXHdy5",
          "width": 1744
        },
        "s": {
          "extension": "jpg",
          "height": 320,
          "mimetype": "image/jpeg",
          "secret": "hfKLdoLasU47EC75EJaVR7Xs2qWR1qQw",
          "width": 320
        },
        "z": {
          "extension": "jpg",
          "height": 414,
          "mimetype": "image/jpeg",
          "secret": "hfKLdoLasU47EC75EJaVR7Xs2qWR1qQw",
          "width": 640
        }
      }
    },
    "media:source": "sfomuseum",
    "media:status_id": 1,
    "media:uri_template": "https://static.sfomuseum.org/media/176/271/042/3/1762710423_{secret}_{label}.{extension}",
    "millsfield:aircraft_id": [
      1159290417
    ],
    "millsfield:airline_id": [
      1159284011,
      1159285415
    ],
    "millsfield:airport_id": [
      102529559
    ],
    "millsfield:category_id": 1511214215,
    "millsfield:collection_id": 1511214207,
    "millsfield:company_id": [],
    "millsfield:images_colors": [
      {
        "hex": "#e4d1a4",
        "name": "#e4d1a4",
        "reference": "marekm4"
      },
      {
        "hex": "#eee8aa",
        "name": "palegoldenrod",
        "reference": "css4"
      },
      {
        "hex": "#edd19c",
        "name": "Maize",
        "reference": "crayola"
      },
      {
        "hex": "#58628e",
        "name": "#58628e",
        "reference": "marekm4"
      },
      {
        "hex": "#708090",
        "name": "slategrey",
        "reference": "css4"
      },
      {
        "hex": "#58427c",
        "name": "Cyber Grape",
        "reference": "crayola"
      }
    ],
    "millsfield:images_texts": [
      "568:-MUNICIPAL AIRPORT. CHICAGO. ILLINOIS\nmaintie „ n\n47300",
      "THE CHICAGO MUNICIPAL AIRPORT, recognized as one\nf the best equipped in the Country with one of the largest an\nsusiest landing fields, and has definitely established itself as th\nair transport center of the United States. Located at 63rd and\nCicero Avenue. About 9 miles from the loop.\nPLACE\nSTAMP HERE\nPOST CARD\nTHIS SPACE FOR WRITING\nTHIS SIDE IS FOR THE ADDRESS\n2015,166.1839"
    ],
    "millsfield:images_texts_ids": [
      1762710421,
      1762710423
    ],
    "millsfield:similar": {
      "apple/mobileclip_s0": [
        {
          "distance": 0.31662375,
          "id": 1762710015
        },
        {
          "distance": 0.32449278,
          "id": 1846705551
        },
        {
          "distance": 0.32706314,
          "id": 1762712339
        },
        {
          "distance": 0.33526307,
          "id": 1762712093
        },
        {
          "distance": 0.33589357,
          "id": 1846755781
        },
        {
          "distance": 0.3372007,
          "id": 1846755813
        },
        {
          "distance": 0.3385557,
          "id": 1846756547
        },
        {
          "distance": 0.34082446,
          "id": 1762712931
        },
        {
          "distance": 0.34129855,
          "id": 1846756151
        },
        {
          "distance": 0.34210137,
          "id": 1846755589
        }
      ],
      "apple/mobileclip_s1": [
        {
          "distance": 0.23712294,
          "id": 1762711691
        },
        {
          "distance": 0.26020455,
          "id": 1762711651
        },
        {
          "distance": 0.26128045,
          "id": 1762706633
        },
        {
          "distance": 0.26305395,
          "id": 1846755885
        },
        {
          "distance": 0.26676574,
          "id": 1846756587
        },
        {
          "distance": 0.26863134,
          "id": 1762710959
        },
        {
          "distance": 0.27217346,
          "id": 1762712931
        },
        {
          "distance": 0.27395502,
          "id": 1846755583
        },
        {
          "distance": 0.27472004,
          "id": 1846756569
        },
        {
          "distance": 0.27592614,
          "id": 1846755593
        }
      ],
      "apple/mobileclip_s2": [
        {
          "distance": 0.4200454,
          "id": 1846755885
        },
        {
          "distance": 0.4305834,
          "id": 1762711651
        },
        {
          "distance": 0.43197104,
          "id": 1762712931
        },
        {
          "distance": 0.43873006,
          "id": 1762706633
        },
        {
          "distance": 0.44090796,
          "id": 1846755781
        },
        {
          "distance": 0.4445423,
          "id": 1762711691
        },
        {
          "distance": 0.44979456,
          "id": 1846705519
        },
        {
          "distance": 0.4526982,
          "id": 1762710055
        },
        {
          "distance": 0.45378742,
          "id": 1846756587
        },
        {
          "distance": 0.455302,
          "id": 1846756241
        }
      ]
    },
    "millsfield:subcategory_id": 1511213363,
    "mz:is_current": 1,
    "sfomuseum:filename": "2015.166.1839_bk.tif",
    "sfomuseum:image_id": 158433,
    "sfomuseum:image_index": 5,
    "sfomuseum:image_type": "studio",
    "sfomuseum:object_id": 181600,
    "sfomuseum:placetype": "image",
    "sfomuseum:primary_image": 0,
    "src:geom": "sfomuseum",
    "wof:belongsto": [
      102527513,
      1159162825,
      102191575,
      85633793,
      102087579,
      85922583,
      1762689773,
      85688637,
      1159160869
    ],
    "wof:country": "US",
    "wof:created": 1641350103,
    "wof:depicts": [
      1159285415,
      102529559,
      1159288779,
      1159290417,
      1762689773,
      1159284011
    ],
    "wof:geomhash": "ed7c2ab3547fc3916b5edc33488deaa7",
    "wof:hierarchy": [
      {
        "building_id": -1,
        "campus_id": 102527513,
        "collection_id": 1159162825,
        "concourse_id": 1159162825,
        "continent_id": 102191575,
        "country_id": 85633793,
        "county_id": 102087579,
        "custom_id": 1762710423,
        "image_id": 1762710423,
        "locality_id": 85922583,
        "neighbourhood_id": -1,
        "object_id": 1762689773,
        "region_id": 85688637,
        "wing_id": 1159160869
      }
    ],
    "wof:id": 1762710423,
    "wof:lastmodified": 1788450614,
    "wof:name": "postcard: Braniff, United, Douglas DC-3, Chicago Municipal Airport",
    "wof:parent_id": 1762689773,
    "wof:placetype": "custom",
    "wof:placetype_alt": [
      "image"
    ],
    "wof:repo": "sfomuseum-data-media-collection",
    "wof:superseded_by": [],
    "wof:supersedes": []
  },
  "bbox": [
    -122.386472,
    37.616105,
    -122.385834,
    37.616611
  ],
  "geometry": {"type":"Polygon","coordinates":[[[-122.386472,37.616318],[-122.386435,37.616233],[-122.386376,37.616178],[-122.386301,37.616131],[-122.386161,37.616105],[-122.386022,37.616131],[-122.385914,37.616186],[-122.385855,37.616267],[-122.385834,37.616369],[-122.385871,37.616467],[-122.385941,37.616543],[-122.386054,37.616603],[-122.386183,37.616611],[-122.386306,37.616573],[-122.386419,37.616509],[-122.386467,37.616411],[-122.386472,37.616318]]]}
}
