{
  "id": 1527820429,
  "type": "Feature",
  "properties": {
    "date:cessation_lower": "1938-01-01",
    "date:cessation_upper": "1938-12-31",
    "date:inception_lower": "1938-01-01",
    "date:inception_upper": "1938-12-31",
    "edtf:cessation": "1938",
    "edtf:date": "1938",
    "edtf:inception": "1938",
    "geom:area": 0,
    "geom:bbox": "-122.386155,37.616358,-122.386155,37.616358",
    "geom:latitude": 37.616358,
    "geom:longitude": -122.386155,
    "iso:country": "XX",
    "media:fingerprint": "1f40b4b4754f0de88d1a8fb5ddb0ec9eef853cc9",
    "media:imagehash_avg": "a:007e7e7e7e7e7e00",
    "media:imagehash_diff": "d:8e8ee6e6ecccaeb6",
    "media:imagetext": "USS ARGONNE 5-12-38—1M\nBASE FORCE\nUNITED STATES FLEET\nSPECIAL REQUEST\nName\names Resos Makeley. Rate..\na.s\nDivision\nnameera Manal Nevenee Date 8/3/1.9.2.8\nSpecial Liberty\nLeave\nIt is requested that I be granted\nSpecial Money\nMiscellaneous\nTo Begin At Dunday, inquet 7, 1938\nTo Expire At Senden\ndan Ansgust 14, 19.28\nAmount Of Money Requested.\nPay No.\nI Have Had. Wowl Days Leave This Calendar Year...V.\nTransfer To.....\nReason: - Wick to mal\nmith old fright\nme Tour of Deland\n7 Jamaly\nAddress On Leave:\n1 0\n(Approved)\n(Approved)\n+ Pield.\na a Ninth avenue\nКаітиві\n(Disapproved) ..\nDivision Officer\n(Disapproved)\nExecutive Officer",
    "media:imagetext_created": 1787947939,
    "media:imagetext_source": "com.apple.visionkit.VNImageRequestHandler#Version 26.6.2 (Build 25G83)",
    "media:medium": "image",
    "media:mimetype": "image/tiff",
    "media:properties": {
      "sizes": {
        "b": {
          "extension": "jpg",
          "height": 768,
          "mimetype": "image/jpeg",
          "secret": "tc1zl2mqFSaWJEZ6eCg9KnHgBTuqi4Ow",
          "width": 509
        },
        "c": {
          "extension": "jpg",
          "height": 600,
          "mimetype": "image/jpeg",
          "secret": "tc1zl2mqFSaWJEZ6eCg9KnHgBTuqi4Ow",
          "width": 397
        },
        "dc": {
          "extension": "jpg",
          "height": 600,
          "mimetype": "image/jpeg",
          "secret": "tc1zl2mqFSaWJEZ6eCg9KnHgBTuqi4Ow",
          "width": 397
        },
        "ds": {
          "extension": "jpg",
          "height": 320,
          "mimetype": "image/jpeg",
          "secret": "tc1zl2mqFSaWJEZ6eCg9KnHgBTuqi4Ow",
          "width": 320
        },
        "k": {
          "extension": "jpg",
          "height": 1536,
          "mimetype": "image/jpeg",
          "secret": "tc1zl2mqFSaWJEZ6eCg9KnHgBTuqi4Ow",
          "width": 1018
        },
        "n": {
          "extension": "jpg",
          "height": 240,
          "mimetype": "image/jpeg",
          "secret": "tc1zl2mqFSaWJEZ6eCg9KnHgBTuqi4Ow",
          "width": 159
        },
        "o": {
          "extension": "jpg",
          "height": 2478,
          "mimetype": "image/jpeg",
          "secret": "XbxNyquPgrBrDX5cjqBzpQgZXwWVDb94",
          "width": 1643
        },
        "s": {
          "extension": "jpg",
          "height": 320,
          "mimetype": "image/jpeg",
          "secret": "tc1zl2mqFSaWJEZ6eCg9KnHgBTuqi4Ow",
          "width": 320
        },
        "z": {
          "extension": "jpg",
          "height": 480,
          "mimetype": "image/jpeg",
          "secret": "tc1zl2mqFSaWJEZ6eCg9KnHgBTuqi4Ow",
          "width": 318
        }
      }
    },
    "media:source": "sfomuseum",
    "media:status_id": 1,
    "media:uri_template": "https://static.sfomuseum.org/media/152/782/042/9/1527820429_{secret}_{label}.{extension}",
    "millsfield:category_id": 1511214251,
    "millsfield:collection_id": 1511214207,
    "millsfield:images_colors": [
      {
        "hex": "#cecbbf",
        "name": "#cecbbf",
        "reference": "marekm4"
      },
      {
        "hex": "#c0c0c0",
        "name": "silver",
        "reference": "css4"
      },
      {
        "hex": "#cdc5c2",
        "name": "Silver",
        "reference": "crayola"
      },
      {
        "hex": "#393839",
        "name": "#393839",
        "reference": "marekm4"
      },
      {
        "hex": "#2f4f4f",
        "name": "darkslategrey",
        "reference": "css4"
      },
      {
        "hex": "#414a4c",
        "name": "Outer Space",
        "reference": "crayola"
      }
    ],
    "millsfield:images_texts": [
      "NAVY\nYMCA\n\"OUR HOME AWAY FROM HOME\"\nNAVY YOUNG MEN'S CHRISTIAN ASSOCIATION\nPEARL HARBOR, T. H.\nNear Mather\nI know you muet he mery angon\nto hear from me. Ill start at the begunning of\nThe tip. Freday when we got on kesaid me\nwere genen a place to sleep, eat, and a locker.\nWe meese abowen around the chip zo chat\nune world brow me chings were.\nWe got balerty the rest of the day lunt clicint\ngo achare. We had mances and turned in\nalout 9: 30- Wegot up Satureday morn\nat 6:20 washed and nad choivat 130- allche\nweet of che morning they loaded the officers\ncars aboard. 1 in all from Fords to Packardo\nQuent on watch at too in the engine roon\nWe au under mat 3:00 leaded ar\n(ert hashor-For the men/t 1 days albabat\nYou could see masabya water. The water\nwas the most beauliful blue Lie ever seen.\nPerthe hale cruse stood the 12:00 4400\nwatel day and night.\nSunday \u0026 was Méty cos to kany sea",
      "sieb. It was rough ond mean rongh. It was\nalmost imposite to walk. Fuset you were\nmalhung up hill then down. We had manes\nayam. (une hone chen every might-good ones.\nMondig a man was reparted mering the shep was\nsarched cut no age ghim was found. te was\nan aland sunbly neght and he hacent been\naen since. The keliene he either jumped ar\nfell overtmandalont sao meles from shore.\nTweeday mething amera haptened. Wedneday\nme hail calision dull Sharedy Iacsublid\nmy homach andtools a shower. For the pat\nfew days l'll been taleng care of all the pumps in\nthe eugene soon. It Tob guite a long Ume to learm\nhow to sun chem cent matred it..\ne great day assned me droped\nat taler Comming in wen the mast\nbeauty al seght Ine ener an. It would tale a\nmelts desile it. The weather has\ngranny cuernals - Sunday at 5:00 P.M meret\nthe clich bach one hour Fuerday at 3.0 teach the\nslands we set it bach hon. Its now just\n18:15 here there it in 15 milto 2:00 - Yentarday Fri,\n2 got Celerty at + p.m. We went into Honolulu\na od one way- Its smile, any.\n2001.038.1742",
      "\"OUR HOME AWAY FROM HOME\"\nNAVY\nNAVY YOUNG MEN'S CHRISTIAN ASSOCIATION\nPEARL HARBOR, T. H.\nFiret of all ma went tocke yo\nandthen to che\nyou Hon. There tons of her the one in town\naure is a leautiful place - Snend you a picture\nfA- We left che Y on mento Waikiki Beach.\n,of ly luns, three mile- We ment aminne\nright in front of the Royal Hawacon Hotel. Br\nwhat a place. The wellboy look like sing - The\nCulding i leautyul. We aram from 6:00 To 4500\nP.M. The water justas warm as a hat beth. ter\ncumming we had a Cute t eat and fooled around\nuntel 10: 30 - 2ve got Goebto Hon. about \"1 3g.\nQue malhed from the leach To Hon. We went had\nto the y and fromchere to the shif - We were!\ntrongered from che Dhi luaube to the ceyana\nWhen you write, unite care of the Il 65 cuyana\nPerl Harlear, Arma - oday une are gonny\nte go to all the interesting alecs me con, lobse\nrictures and hone fun. Vecterday it rained overy\nholy hour - just a dish - It hat here and the warm\nrainfeels gosh. We sleepin hamocks and han",
      "the run uvaly shining and the and a or s\nram cous at nice.\nJust aboutall Don think greylt\nnow except that i to the lect thing Ide you\nase comming to the Delands. It marlehe a\nfew years lust bel do it. The should hone nomel\nhere Zebands The sland Heren. Daywhat\na paradice - We leane heme about the is it\nganguet. We go from tere to Sun Pedo.\nhese me will hame to transfer forpussage\nhome- Dee mit you again aron - I ahuny•\nThinkay of You and wiching your were here-\nSine may love to all -\nAll my\nDone\nP. S\nд.\nThe x on the annelope in the Royal Howan\ntotel the o is vaunt of amand Hear.\nPlease sone he leller, clamp and\nennelope.\nд т.\n038174 €",
      "USS ARGONNE 5-12-38—1M\nBASE FORCE\nUNITED STATES FLEET\nSPECIAL REQUEST\nName\names Resos Makeley. Rate..\na.s\nDivision\nnameera Manal Nevenee Date 8/3/1.9.2.8\nSpecial Liberty\nLeave\nIt is requested that I be granted\nSpecial Money\nMiscellaneous\nTo Begin At Dunday, inquet 7, 1938\nTo Expire At Senden\ndan Ansgust 14, 19.28\nAmount Of Money Requested.\nPay No.\nI Have Had. Wowl Days Leave This Calendar Year...V.\nTransfer To.....\nReason: - Wick to mal\nmith old fright\nme Tour of Deland\n7 Jamaly\nAddress On Leave:\n1 0\n(Approved)\n(Approved)\n+ Pield.\na a Ninth avenue\nКаітиві\n(Disapproved) ..\nDivision Officer\n(Disapproved)\nExecutive Officer"
    ],
    "millsfield:images_texts_ids": [
      1527820411,
      1527820415,
      1527820419,
      1527820423,
      1527820429
    ],
    "millsfield:similar": {
      "apple/mobileclip_s0": [
        {
          "distance": 0.5068331,
          "id": 1762897177
        },
        {
          "distance": 0.53269094,
          "id": 1913799101
        },
        {
          "distance": 0.53569955,
          "id": 1527828661
        },
        {
          "distance": 0.5410347,
          "id": 1762891979
        },
        {
          "distance": 0.55259037,
          "id": 1527856817
        },
        {
          "distance": 0.5547765,
          "id": 1527856759
        },
        {
          "distance": 0.55717146,
          "id": 1762897061
        },
        {
          "distance": 0.55862445,
          "id": 1913802713
        },
        {
          "distance": 0.5731865,
          "id": 1913802863
        },
        {
          "distance": 0.5763041,
          "id": 1527856765
        }
      ],
      "apple/mobileclip_s1": [
        {
          "distance": 0.39423543,
          "id": 1762891979
        },
        {
          "distance": 0.4016835,
          "id": 1762897177
        },
        {
          "distance": 0.4030601,
          "id": 1527849079
        },
        {
          "distance": 0.40561363,
          "id": 1527856759
        },
        {
          "distance": 0.4074246,
          "id": 1527856817
        },
        {
          "distance": 0.40833795,
          "id": 1527828661
        },
        {
          "distance": 0.41325605,
          "id": 1762897111
        },
        {
          "distance": 0.42149308,
          "id": 1527856763
        },
        {
          "distance": 0.42181894,
          "id": 1527849077
        },
        {
          "distance": 0.42345634,
          "id": 1527830371
        }
      ],
      "apple/mobileclip_s2": [
        {
          "distance": 0.53646857,
          "id": 1913802783
        },
        {
          "distance": 0.55771166,
          "id": 1527849079
        },
        {
          "distance": 0.5579825,
          "id": 1762897177
        },
        {
          "distance": 0.56184834,
          "id": 1762897115
        },
        {
          "distance": 0.5713285,
          "id": 1527856759
        },
        {
          "distance": 0.57153857,
          "id": 1527856817
        },
        {
          "distance": 0.57203704,
          "id": 1527845691
        },
        {
          "distance": 0.5797284,
          "id": 1762897261
        },
        {
          "distance": 0.5804199,
          "id": 1762897111
        },
        {
          "distance": 0.580795,
          "id": 1913823097
        }
      ]
    },
    "millsfield:subcategory_id": 1511213505,
    "mz:hierarchy_label": 1,
    "mz:is_current": -1,
    "sfomuseum:filename": "31605.tif",
    "sfomuseum:image_id": 31605,
    "sfomuseum:image_index": 5,
    "sfomuseum:image_type": "studio",
    "sfomuseum:object_id": 67687,
    "sfomuseum:placetype": "image",
    "sfomuseum:primary_image": 0,
    "src:geom": "sfomuseum",
    "wof:belongsto": [
      102087579,
      1511214203,
      1511213581,
      102527513,
      1511214215,
      85633793,
      85688637,
      1511214277,
      85922583,
      102191575,
      1511923727
    ],
    "wof:breaches": [],
    "wof:country": "XX",
    "wof:created": 1578949420,
    "wof:depicts": [
      1511923727
    ],
    "wof:geomhash": "bd906905ce4be6c0651c90b0fc24804c",
    "wof:hierarchy": [
      {
        "arcade_id": 1511213581,
        "building_id": 1511214277,
        "campus_id": 102527513,
        "concourse_id": 1511214215,
        "continent_id": 102191575,
        "country_id": 85633793,
        "county_id": 102087579,
        "custom_id": 1527820429,
        "image_id": 1527820429,
        "locality_id": 85922583,
        "media_id": 1527820429,
        "neighbourhood_id": -1,
        "region_id": 85688637,
        "venue_id": 1511923727,
        "wing_id": 1511214203
      }
    ],
    "wof:id": 1527820429,
    "wof:lastmodified": 1788449735,
    "wof:name": "Letter: Honolulu, Hawaii",
    "wof:parent_id": 1511923727,
    "wof:placetype": "custom",
    "wof:placetype_alt": [
      "image"
    ],
    "wof:repo": "sfomuseum-data-media-collection",
    "wof:superseded_by": [],
    "wof:supersedes": [],
    "wof:tags": []
  },
  "bbox": [
    -122.386155,
    37.616358,
    -122.386155,
    37.616358
  ],
  "geometry": {"type":"Point","coordinates":[-122.386155,37.616358]}
}
