{
  "id": 2014821519,
  "type": "Feature",
  "properties": {
    "date:cessation_lower": "1980-01-01",
    "date:cessation_upper": "1989-12-31",
    "date:inception_lower": "1980-01-01",
    "date:inception_upper": "1989-12-31",
    "edtf:cessation": "198X",
    "edtf:inception": "198X",
    "geom:area": 2.475047457570636e-7,
    "geom:bbox": "-122.386472,37.616105,-122.385834,37.616611",
    "geom:latitude": 37.61635747477365,
    "geom:longitude": -122.38615540108617,
    "media:fingerprint": "7c90170de1d8eba5c85fe1f46c345838bc7be9cb",
    "media:imagehash_avg": "a:0f3d3c243c3c1800",
    "media:imagehash_diff": "d:fb71292c696930be",
    "media:imagetext": "EASTERN",
    "media:imagetext_created": 1787975599,
    "media:imagetext_source": "com.apple.visionkit.VNImageRequestHandler#Version 26.6.2 (Build 25G83)",
    "media:mimetype": "image/tiff",
    "media:properties": {
      "colours": null,
      "sizes": {
        "b": {
          "extension": "jpg",
          "height": 768,
          "mimetype": "image/jpeg",
          "secret": "LhDhcKlF0yltLk9N8R6XCOc3Ke4P5DgR",
          "width": 965
        },
        "c": {
          "extension": "jpg",
          "height": 600,
          "mimetype": "image/jpeg",
          "secret": "LhDhcKlF0yltLk9N8R6XCOc3Ke4P5DgR",
          "width": 754
        },
        "dc": {
          "extension": "jpg",
          "height": 320,
          "mimetype": "image/jpeg",
          "secret": "LhDhcKlF0yltLk9N8R6XCOc3Ke4P5DgR",
          "width": 320
        },
        "ds": {
          "extension": "jpg",
          "height": 320,
          "mimetype": "image/jpeg",
          "secret": "LhDhcKlF0yltLk9N8R6XCOc3Ke4P5DgR",
          "width": 320
        },
        "k": {
          "extension": "jpg",
          "height": 1536,
          "mimetype": "image/jpeg",
          "secret": "LhDhcKlF0yltLk9N8R6XCOc3Ke4P5DgR",
          "width": 1931
        },
        "n": {
          "extension": "jpg",
          "height": 240,
          "mimetype": "image/jpeg",
          "secret": "LhDhcKlF0yltLk9N8R6XCOc3Ke4P5DgR",
          "width": 301
        },
        "o": {
          "extension": "jpg",
          "height": 1667,
          "mimetype": "image/jpeg",
          "secret": "RTc1XoxZtXeqCtysC4CDIbUmst25kOnS",
          "width": 2096
        },
        "s": {
          "extension": "jpg",
          "height": 320,
          "mimetype": "image/jpeg",
          "secret": "LhDhcKlF0yltLk9N8R6XCOc3Ke4P5DgR",
          "width": 320
        },
        "z": {
          "extension": "jpg",
          "height": 480,
          "mimetype": "image/jpeg",
          "secret": "LhDhcKlF0yltLk9N8R6XCOc3Ke4P5DgR",
          "width": 603
        }
      }
    },
    "media:source": "sfomuseum",
    "media:status_id": 1,
    "media:uri_template": "https://static.sfomuseum.org/media/201/482/151/9/2014821519_{secret}_{label}.{extention}",
    "millsfield:airline_id": [
      1159284309
    ],
    "millsfield:category_id": 1763416373,
    "millsfield:collection_id": 1511214203,
    "millsfield:company_id": [
      1159287349
    ],
    "millsfield:images_colors": [
      {
        "hex": "#b7b5ae",
        "name": "#b7b5ae",
        "reference": "marekm4"
      },
      {
        "hex": "#a9a9a9",
        "name": "darkgrey",
        "reference": "css4"
      },
      {
        "hex": "#b0b7c6",
        "name": "Cadet Blue",
        "reference": "crayola"
      },
      {
        "hex": "#615e73",
        "name": "#615e73",
        "reference": "marekm4"
      },
      {
        "hex": "#696969",
        "name": "dimgrey",
        "reference": "css4"
      },
      {
        "hex": "#4a646c",
        "name": "Deep Space Sparkle",
        "reference": "crayola"
      },
      {
        "hex": "#d1c9bb",
        "name": "#d1c9bb",
        "reference": "marekm4"
      },
      {
        "hex": "#c0c0c0",
        "name": "silver",
        "reference": "css4"
      },
      {
        "hex": "#cdc5c2",
        "name": "Silver",
        "reference": "crayola"
      },
      {
        "hex": "#4c486c",
        "name": "#4c486c",
        "reference": "marekm4"
      },
      {
        "hex": "#483d8b",
        "name": "darkslateblue",
        "reference": "css4"
      },
      {
        "hex": "#58427c",
        "name": "Cyber Grape",
        "reference": "crayola"
      }
    ],
    "millsfield:images_texts": [
      "L EASTERN",
      "EASTERN"
    ],
    "millsfield:images_texts_ids": [
      2014821517,
      2014821519
    ],
    "millsfield:similar": {
      "apple/mobileclip_s0": [
        {
          "distance": 0.43338493,
          "id": 1964106905
        },
        {
          "distance": 0.47198397,
          "id": 1763588915
        },
        {
          "distance": 0.47250286,
          "id": 1964107591
        },
        {
          "distance": 0.47562048,
          "id": 1763496095
        },
        {
          "distance": 0.4801379,
          "id": 1763588913
        },
        {
          "distance": 0.4915784,
          "id": 1763496101
        },
        {
          "distance": 0.494377,
          "id": 1763496107
        },
        {
          "distance": 0.4965171,
          "id": 1763496109
        },
        {
          "distance": 0.5167364,
          "id": 1763496093
        },
        {
          "distance": 0.5272339,
          "id": 1763496097
        }
      ],
      "apple/mobileclip_s1": [
        {
          "distance": 0.32046565,
          "id": 1964106905
        },
        {
          "distance": 0.3276529,
          "id": 1964107591
        },
        {
          "distance": 0.35937142,
          "id": 1763496095
        },
        {
          "distance": 0.3656852,
          "id": 1763588915
        },
        {
          "distance": 0.36801535,
          "id": 1763496093
        },
        {
          "distance": 0.36836314,
          "id": 1763496091
        },
        {
          "distance": 0.3692171,
          "id": 2014821497
        },
        {
          "distance": 0.36932555,
          "id": 1763588913
        },
        {
          "distance": 0.37142465,
          "id": 1763496101
        },
        {
          "distance": 0.37505105,
          "id": 1763496097
        }
      ],
      "apple/mobileclip_s2": [
        {
          "distance": 0.3756095,
          "id": 1964107591
        },
        {
          "distance": 0.39400104,
          "id": 1964106905
        },
        {
          "distance": 0.40995303,
          "id": 1763496093
        },
        {
          "distance": 0.41042817,
          "id": 1763496101
        },
        {
          "distance": 0.4133526,
          "id": 1763588915
        },
        {
          "distance": 0.4167626,
          "id": 1763496095
        },
        {
          "distance": 0.4389498,
          "id": 1763496107
        },
        {
          "distance": 0.4402679,
          "id": 1763588913
        },
        {
          "distance": 0.44298872,
          "id": 1763496097
        },
        {
          "distance": 0.44366872,
          "id": 1763496109
        }
      ]
    },
    "millsfield:subcategory_id": 1511213677,
    "mz:is_current": 1,
    "sfomuseum:filename": "2015.057.015_ft.tif",
    "sfomuseum:image_id": 197971,
    "sfomuseum:image_index": 1,
    "sfomuseum:image_type": "studio",
    "sfomuseum:object_id": 167374,
    "sfomuseum:placetype": "image",
    "sfomuseum:primary_image": 1,
    "src:geom": "sfomuseum",
    "wof:belongsto": [
      102527513,
      1159162825,
      102191575,
      85633793,
      102087579,
      85922583,
      2014821053,
      85688637,
      1159160869
    ],
    "wof:country": "XY",
    "wof:created": 1771490014,
    "wof:depicts": [
      2014821053,
      1159284309,
      1159287349
    ],
    "wof:geomhash": "c281b9d9eefc83b5710e64b9d646067d",
    "wof:hierarchy": [
      {
        "building_id": -1,
        "campus_id": 102527513,
        "collection_id": 1159162825,
        "concourse_id": 1159162825,
        "continent_id": 102191575,
        "country_id": 85633793,
        "county_id": 102087579,
        "custom_id": 2014821519,
        "locality_id": 85922583,
        "neighbourhood_id": -1,
        "object_id": 2014821053,
        "region_id": 85688637,
        "wing_id": 1159160869
      }
    ],
    "wof:id": 2014821519,
    "wof:lastmodified": 1788452605,
    "wof:name": "matchbook: Eastern Air Lines",
    "wof:parent_id": 2014821053,
    "wof:placetype": "custom",
    "wof:repo": "sfomuseum-data-media-collection",
    "wof:superseded_by": [],
    "wof:supersedes": []
  },
  "bbox": [
    -122.38647222518921,
    37.6161053594541,
    -122.38583385944366,
    37.61661101879963
  ],
  "geometry": {"type":"Polygon","coordinates":[[[-122.38647222518921,37.61631782178288],[-122.386434674263,37.61623283692423],[-122.38637566566466,37.61617759671399],[-122.38630056381224,37.6161308549656],[-122.38616108894348,37.6161053594541],[-122.38602161407469,37.6161308549656],[-122.38591432571411,37.61618609521055],[-122.38585531711577,37.61626683087935],[-122.38583385944366,37.61636881265146],[-122.38587141036987,37.61646654505181],[-122.38594114780425,37.61654303118856],[-122.38605380058287,37.61660252035167],[-122.38618254661559,37.61661101879963],[-122.3863059282303,37.61657277577607],[-122.3864185810089,37.61650903735973],[-122.3864668607712,37.61641130501523],[-122.38647222518921,37.61631782178288]]]}
}
