{
  "id": 1762897519,
  "type": "Feature",
  "properties": {
    "date:cessation_lower": "1960-01-01",
    "date:cessation_upper": "1969-12-31",
    "date:inception_lower": "1960-01-01",
    "date:inception_upper": "1969-12-31",
    "edtf:cessation": "196X",
    "edtf:inception": "196X",
    "geom:area": 2.477324999997507e-7,
    "geom:bbox": "-122.386472,37.616105,-122.385834,37.616611",
    "geom:latitude": 37.61635756125121,
    "geom:longitude": -122.38615532866096,
    "media:fingerprint": "46af146dac25af300032485775a36cafa9da77b5",
    "media:imagehash_avg": "a:ffffe7c1810081c7",
    "media:imagehash_diff": "d:8d8f0f071371330f",
    "media:imagetext": "SINGAPORE\nVia QANTAS Australia \u0026 Round-the-World Jet Airline",
    "media:imagetext_created": 1787959544,
    "media:imagetext_source": "com.apple.visionkit.VNImageRequestHandler#Version 26.6.2 (Build 25G83)",
    "media:mimetype": "image/tiff",
    "media:properties": {
      "sizes": {
        "b": {
          "extension": "jpg",
          "height": 722,
          "mimetype": "image/jpeg",
          "secret": "luNpRc9txYvqTBR3SNFCUN9gEsnMnqUM",
          "width": 1024
        },
        "c": {
          "extension": "jpg",
          "height": 564,
          "mimetype": "image/jpeg",
          "secret": "luNpRc9txYvqTBR3SNFCUN9gEsnMnqUM",
          "width": 800
        },
        "dc": {
          "extension": "jpg",
          "height": 564,
          "mimetype": "image/jpeg",
          "secret": "luNpRc9txYvqTBR3SNFCUN9gEsnMnqUM",
          "width": 800
        },
        "ds": {
          "extension": "jpg",
          "height": 320,
          "mimetype": "image/jpeg",
          "secret": "luNpRc9txYvqTBR3SNFCUN9gEsnMnqUM",
          "width": 320
        },
        "k": {
          "extension": "jpg",
          "height": 1445,
          "mimetype": "image/jpeg",
          "secret": "luNpRc9txYvqTBR3SNFCUN9gEsnMnqUM",
          "width": 2048
        },
        "n": {
          "extension": "jpg",
          "height": 225,
          "mimetype": "image/jpeg",
          "secret": "luNpRc9txYvqTBR3SNFCUN9gEsnMnqUM",
          "width": 320
        },
        "o": {
          "extension": "jpg",
          "height": 1007,
          "mimetype": "image/jpeg",
          "secret": "aiDAJSbiUO3JfElTpMZCg4SqsazC6cdX",
          "width": 1427
        },
        "s": {
          "extension": "jpg",
          "height": 320,
          "mimetype": "image/jpeg",
          "secret": "luNpRc9txYvqTBR3SNFCUN9gEsnMnqUM",
          "width": 320
        },
        "z": {
          "extension": "jpg",
          "height": 451,
          "mimetype": "image/jpeg",
          "secret": "luNpRc9txYvqTBR3SNFCUN9gEsnMnqUM",
          "width": 640
        }
      }
    },
    "media:source": "sfomuseum",
    "media:status_id": 1,
    "media:uri_template": "https://static.sfomuseum.org/media/176/289/751/9/1762897519_{secret}_{label}.{extension}",
    "millsfield:airline_id": [
      1159285043
    ],
    "millsfield:category_id": 1763416397,
    "millsfield:collection_id": 1511214207,
    "millsfield:company_id": [
      1159287479
    ],
    "millsfield:images_colors": [
      {
        "hex": "#f1efeb",
        "name": "#f1efeb",
        "reference": "marekm4"
      },
      {
        "hex": "#faf0e6",
        "name": "linen",
        "reference": "css4"
      },
      {
        "hex": "#fddde6",
        "name": "Piggy Pink",
        "reference": "crayola"
      },
      {
        "hex": "#473c18",
        "name": "#473c18",
        "reference": "marekm4"
      },
      {
        "hex": "#556b2f",
        "name": "darkolivegreen",
        "reference": "css4"
      },
      {
        "hex": "#714b23",
        "name": "Raw Umber",
        "reference": "crayola"
      },
      {
        "hex": "#c29c2c",
        "name": "#c29c2c",
        "reference": "marekm4"
      },
      {
        "hex": "#daa520",
        "name": "goldenrod",
        "reference": "css4"
      },
      {
        "hex": "#9c7c38",
        "name": "Metallic Sunburst",
        "reference": "crayola"
      },
      {
        "hex": "#906e24",
        "name": "#906e24",
        "reference": "marekm4"
      },
      {
        "hex": "#a0522d",
        "name": "sienna",
        "reference": "css4"
      }
    ],
    "millsfield:images_texts": [
      "SINGAPORE\nVia QANTAS Australia \u0026 Round-the-World Jet Airline"
    ],
    "millsfield:images_texts_ids": [
      1762897519
    ],
    "millsfield:similar": {
      "apple/mobileclip_s0": [
        {
          "distance": 0.25110286,
          "id": 1762897517
        },
        {
          "distance": 0.7069695,
          "id": 1796509571
        },
        {
          "distance": 0.7069811,
          "id": 1762891745
        },
        {
          "distance": 0.7094554,
          "id": 1762897515
        },
        {
          "distance": 0.7317236,
          "id": 1762897531
        },
        {
          "distance": 0.73326623,
          "id": 1796509567
        },
        {
          "distance": 0.73587567,
          "id": 1762897533
        },
        {
          "distance": 0.7453546,
          "id": 1763380511
        },
        {
          "distance": 0.7476557,
          "id": 1762898359
        },
        {
          "distance": 0.748532,
          "id": 1762893527
        }
      ],
      "apple/mobileclip_s1": [
        {
          "distance": 0.15300626,
          "id": 1762897517
        },
        {
          "distance": 0.5311442,
          "id": 1762897523
        },
        {
          "distance": 0.5401689,
          "id": 1762897521
        },
        {
          "distance": 0.55577266,
          "id": 1729566761
        },
        {
          "distance": 0.567872,
          "id": 1762893379
        },
        {
          "distance": 0.5695516,
          "id": 1527818249
        },
        {
          "distance": 0.5725617,
          "id": 1762897537
        },
        {
          "distance": 0.5782275,
          "id": 1762898851
        },
        {
          "distance": 0.57906204,
          "id": 1762707727
        },
        {
          "distance": 0.58130336,
          "id": 1796509571
        }
      ],
      "apple/mobileclip_s2": [
        {
          "distance": 0.19299223,
          "id": 1762897517
        },
        {
          "distance": 0.69039273,
          "id": 1762897523
        },
        {
          "distance": 0.7002675,
          "id": 1762897521
        },
        {
          "distance": 0.7030089,
          "id": 1527849321
        },
        {
          "distance": 0.7278039,
          "id": 1527844643
        },
        {
          "distance": 0.7284145,
          "id": 1762897537
        },
        {
          "distance": 0.73023456,
          "id": 1762897535
        },
        {
          "distance": 0.7368218,
          "id": 1863470809
        },
        {
          "distance": 0.7398175,
          "id": 1779436875
        },
        {
          "distance": 0.74477315,
          "id": 1762891745
        }
      ]
    },
    "millsfield:subcategory_id": 1511213315,
    "mz:is_current": 1,
    "sfomuseum:filename": "2015.160.530.tif",
    "sfomuseum:image_id": 178273,
    "sfomuseum:image_index": 5,
    "sfomuseum:image_type": "studio",
    "sfomuseum:object_id": 177982,
    "sfomuseum:placetype": "image",
    "sfomuseum:primary_image": 1,
    "src:geom": "sfomuseum",
    "wof:belongsto": [
      102527513,
      1159162825,
      102191575,
      85633793,
      102087579,
      85922583,
      1762887599,
      85688637,
      1159160869
    ],
    "wof:country": "XY",
    "wof:created": 1643415178,
    "wof:depicts": [
      1159285043,
      1159287479,
      1762887599
    ],
    "wof:geomhash": "ed7c2ab3547fc3916b5edc33488deaa7",
    "wof:hierarchy": [
      {
        "building_id": -1,
        "campus_id": 102527513,
        "collection_id": 1159162825,
        "concourse_id": 1159162825,
        "continent_id": 102191575,
        "country_id": 85633793,
        "county_id": 102087579,
        "custom_id": 1762897519,
        "image_id": 1762897519,
        "locality_id": 85922583,
        "neighbourhood_id": -1,
        "object_id": 1762887599,
        "region_id": 85688637,
        "wing_id": 1159160869
      }
    ],
    "wof:id": 1762897519,
    "wof:lastmodified": 1788450817,
    "wof:name": "luggage label: Qantas Airways, Singapore",
    "wof:parent_id": 1762887599,
    "wof:placetype": "custom",
    "wof:placetype_alt": [
      "image"
    ],
    "wof:repo": "sfomuseum-data-media-collection",
    "wof:superseded_by": [],
    "wof:supersedes": []
  },
  "bbox": [
    -122.386472,
    37.616105,
    -122.385834,
    37.616611
  ],
  "geometry": {"type":"Polygon","coordinates":[[[-122.386472,37.616318],[-122.386435,37.616233],[-122.386376,37.616178],[-122.386301,37.616131],[-122.386161,37.616105],[-122.386022,37.616131],[-122.385914,37.616186],[-122.385855,37.616267],[-122.385834,37.616369],[-122.385871,37.616467],[-122.385941,37.616543],[-122.386054,37.616603],[-122.386183,37.616611],[-122.386306,37.616573],[-122.386419,37.616509],[-122.386467,37.616411],[-122.386472,37.616318]]]}
}
