{
  "id": 1527851839,
  "type": "Feature",
  "properties": {
    "date:cessation_lower": "1935-12-02",
    "date:cessation_upper": "1935-12-02",
    "date:inception_lower": "1935-12-02",
    "date:inception_upper": "1935-12-02",
    "edtf:cessation": "1935-12-02",
    "edtf:date": "1935-12-02",
    "edtf:inception": "1935-12-02",
    "geom:area": 0,
    "geom:bbox": "-122.386155,37.616358,-122.386155,37.616358",
    "geom:latitude": 37.616358,
    "geom:longitude": -122.386155,
    "iso:country": "XX",
    "media:fingerprint": "a6bc5879329496d107445809475ab19760920289",
    "media:imagehash_avg": "a:bf0040c0c1ffffff",
    "media:imagehash_diff": "d:7155959919535f1d",
    "media:imagetext": "Сіті\nMAIL\nTuin c hpaoch\nBAITIALO\n30\nN ORN\nAKERC\nPIRST FLIGHT\nPHILIPOINES. .U. 8.\nHansdu\nPAM-AMERIP ON\nS55 WEV =\nCLIPPER\nDEC 2 1935\n3\nTMA\nTRAD\nCLEN\nS CENTAYOS\n10\n30\nLAIN\nENTER\nGENTA/DS\n10\nANGHT\nCENTAVOS\n10\nPOSTAGEO\nINITIAL FLIGE\nCENTAVOS)\n10\no 1935\n10\nDL •ROSTAGE «\nTVTAL FLIGHT\n(CENTAVOS\n10\nLEGANEASO 193\nCENTAVOS\n10\nMR. L.\nL. B. GATCHELL,\nc/o Postmaster,\nHONOLULU. HAWAII.\nGen- khi\nva. Wucht w. J Jachuet",
    "media:imagetext_created": 1787953326,
    "media:imagetext_source": "com.apple.visionkit.VNImageRequestHandler#Version 26.6.2 (Build 25G83)",
    "media:medium": "image",
    "media:mimetype": "image/tiff",
    "media:properties": {
      "sizes": {
        "b": {
          "extension": "jpg",
          "height": 578,
          "mimetype": "image/jpeg",
          "secret": "SOnmKLwTbTx2KZF1CMtPlmJ9ljqwqAVO",
          "width": 1024
        },
        "c": {
          "extension": "jpg",
          "height": 451,
          "mimetype": "image/jpeg",
          "secret": "SOnmKLwTbTx2KZF1CMtPlmJ9ljqwqAVO",
          "width": 800
        },
        "dc": {
          "extension": "jpg",
          "height": 451,
          "mimetype": "image/jpeg",
          "secret": "SOnmKLwTbTx2KZF1CMtPlmJ9ljqwqAVO",
          "width": 800
        },
        "ds": {
          "extension": "jpg",
          "height": 320,
          "mimetype": "image/jpeg",
          "secret": "SOnmKLwTbTx2KZF1CMtPlmJ9ljqwqAVO",
          "width": 320
        },
        "k": {
          "extension": "jpg",
          "height": 1156,
          "mimetype": "image/jpeg",
          "secret": "SOnmKLwTbTx2KZF1CMtPlmJ9ljqwqAVO",
          "width": 2048
        },
        "n": {
          "extension": "jpg",
          "height": 180,
          "mimetype": "image/jpeg",
          "secret": "SOnmKLwTbTx2KZF1CMtPlmJ9ljqwqAVO",
          "width": 320
        },
        "o": {
          "extension": "jpg",
          "height": 1892,
          "mimetype": "image/jpeg",
          "secret": "EMFHIfg7pnLYV7R2TisKj7m8a4aeMmgd",
          "width": 3350
        },
        "s": {
          "extension": "jpg",
          "height": 320,
          "mimetype": "image/jpeg",
          "secret": "SOnmKLwTbTx2KZF1CMtPlmJ9ljqwqAVO",
          "width": 320
        },
        "z": {
          "extension": "jpg",
          "height": 361,
          "mimetype": "image/jpeg",
          "secret": "SOnmKLwTbTx2KZF1CMtPlmJ9ljqwqAVO",
          "width": 640
        }
      }
    },
    "media:source": "sfomuseum",
    "media:status_id": 1,
    "media:uri_template": "https://static.sfomuseum.org/media/152/785/183/9/1527851839_{secret}_{label}.{extension}",
    "millsfield:airline_id": [
      1159284991
    ],
    "millsfield:category_id": 1511214215,
    "millsfield:collection_id": 1511214207,
    "millsfield:company_id": [
      1159286839
    ],
    "millsfield:exhibition_ids": [
      1159160119
    ],
    "millsfield:images_colors": [
      {
        "hex": "#dbd0bd",
        "name": "#dbd0bd",
        "reference": "marekm4"
      },
      {
        "hex": "#d3d3d3",
        "name": "lightgrey",
        "reference": "css4"
      },
      {
        "hex": "#cdc5c2",
        "name": "Silver",
        "reference": "crayola"
      },
      {
        "hex": "#b15748",
        "name": "#b15748",
        "reference": "marekm4"
      },
      {
        "hex": "#a0522d",
        "name": "sienna",
        "reference": "css4"
      },
      {
        "hex": "#b4674d",
        "name": "Brown",
        "reference": "crayola"
      },
      {
        "hex": "#5d5049",
        "name": "#5d5049",
        "reference": "marekm4"
      },
      {
        "hex": "#556b2f",
        "name": "darkolivegreen",
        "reference": "css4"
      },
      {
        "hex": "#6e5160",
        "name": "Eggplant",
        "reference": "crayola"
      },
      {
        "hex": "#b98e6f",
        "name": "#b98e6f",
        "reference": "marekm4"
      },
      {
        "hex": "#bc8f8f",
        "name": "rosybrown",
        "reference": "css4"
      },
      {
        "hex": "#cd9575",
        "name": "Antique Brass",
        "reference": "crayola"
      }
    ],
    "millsfield:images_texts": [
      "Сіті\nMAIL\nTuin c hpaoch\nBAITIALO\n30\nN ORN\nAKERC\nPIRST FLIGHT\nPHILIPOINES. .U. 8.\nHansdu\nPAM-AMERIP ON\nS55 WEV =\nCLIPPER\nDEC 2 1935\n3\nTMA\nTRAD\nCLEN\nS CENTAYOS\n10\n30\nLAIN\nENTER\nGENTA/DS\n10\nANGHT\nCENTAVOS\n10\nPOSTAGEO\nINITIAL FLIGE\nCENTAVOS)\n10\no 1935\n10\nDL •ROSTAGE «\nTVTAL FLIGHT\n(CENTAVOS\n10\nLEGANEASO 193\nCENTAVOS\n10\nMR. L.\nL. B. GATCHELL,\nc/o Postmaster,\nHONOLULU. HAWAII.\nGen- khi\nva. Wucht w. J Jachuet"
    ],
    "millsfield:images_texts_ids": [
      1527851839
    ],
    "millsfield:on_view": 0,
    "millsfield:similar": {
      "apple/mobileclip_s0": [
        {
          "distance": 0.5221184,
          "id": 1913823073
        },
        {
          "distance": 0.5251187,
          "id": 1527829697
        },
        {
          "distance": 0.5274347,
          "id": 1527818295
        },
        {
          "distance": 0.5276172,
          "id": 1527829683
        },
        {
          "distance": 0.5444954,
          "id": 1746281363
        },
        {
          "distance": 0.5517745,
          "id": 1527829751
        },
        {
          "distance": 0.5593667,
          "id": 1527833081
        },
        {
          "distance": 0.56625575,
          "id": 1527851751
        },
        {
          "distance": 0.5678301,
          "id": 1527829687
        },
        {
          "distance": 0.56985235,
          "id": 1527819713
        }
      ],
      "apple/mobileclip_s1": [
        {
          "distance": 0.38609928,
          "id": 1527852335
        },
        {
          "distance": 0.3876943,
          "id": 1913823073
        },
        {
          "distance": 0.39040822,
          "id": 1527829697
        },
        {
          "distance": 0.39171863,
          "id": 1527852309
        },
        {
          "distance": 0.39402178,
          "id": 1527832959
        },
        {
          "distance": 0.3945935,
          "id": 1527818295
        },
        {
          "distance": 0.3987236,
          "id": 1527829687
        },
        {
          "distance": 0.40656805,
          "id": 1527820315
        },
        {
          "distance": 0.4082765,
          "id": 1527819829
        },
        {
          "distance": 0.41228998,
          "id": 1527858641
        }
      ],
      "apple/mobileclip_s2": [
        {
          "distance": 0.5200962,
          "id": 1527819829
        },
        {
          "distance": 0.5315875,
          "id": 1527852309
        },
        {
          "distance": 0.53418106,
          "id": 1527858641
        },
        {
          "distance": 0.5355787,
          "id": 1527829697
        },
        {
          "distance": 0.55114704,
          "id": 1527852359
        },
        {
          "distance": 0.5542946,
          "id": 1527852335
        },
        {
          "distance": 0.5589268,
          "id": 1527852383
        },
        {
          "distance": 0.56294566,
          "id": 1527829683
        },
        {
          "distance": 0.5647682,
          "id": 1527829687
        },
        {
          "distance": 0.57167494,
          "id": 1527832959
        }
      ]
    },
    "millsfield:subcategory_id": 1511213159,
    "mz:hierarchy_label": 1,
    "mz:is_current": -1,
    "sfomuseum:filename": "85203.tif",
    "sfomuseum:image_id": 85203,
    "sfomuseum:image_index": 5,
    "sfomuseum:image_type": "studio",
    "sfomuseum:object_id": 91260,
    "sfomuseum:placetype": "image",
    "sfomuseum:primary_image": 1,
    "src:geom": "sfomuseum",
    "wof:belongsto": [
      1511214215,
      1511931669,
      102527513,
      102191575,
      85633793,
      1511213159,
      85922583,
      102087579,
      1511214277,
      1511214203,
      85688637
    ],
    "wof:breaches": [],
    "wof:country": "XX",
    "wof:created": 1578954419,
    "wof:depicts": [
      1159286839,
      1159284991,
      1511931669
    ],
    "wof:geomhash": "bd906905ce4be6c0651c90b0fc24804c",
    "wof:hierarchy": [
      {
        "arcade_id": 1511213159,
        "building_id": 1511214277,
        "campus_id": 102527513,
        "concourse_id": 1511214215,
        "continent_id": 102191575,
        "country_id": 85633793,
        "county_id": 102087579,
        "custom_id": 1527851839,
        "image_id": 1527851839,
        "locality_id": 85922583,
        "media_id": 1527851839,
        "neighbourhood_id": -1,
        "region_id": 85688637,
        "venue_id": 1511931669,
        "wing_id": 1511214203
      }
    ],
    "wof:id": 1527851839,
    "wof:lastmodified": 1788450195,
    "wof:name": "airmail flight cover: Pan American Airways, first eastbound from Manila to Honolulu, December 2-5, 1935",
    "wof:parent_id": 1511931669,
    "wof:placetype": "custom",
    "wof:placetype_alt": [
      "image"
    ],
    "wof:repo": "sfomuseum-data-media-collection",
    "wof:superseded_by": [],
    "wof:supersedes": [],
    "wof:tags": []
  },
  "bbox": [
    -122.386155,
    37.616358,
    -122.386155,
    37.616358
  ],
  "geometry": {"type":"Point","coordinates":[-122.386155,37.616358]}
}
