{
  "id": 1762700411,
  "type": "Feature",
  "properties": {
    "date:cessation_lower": "1989-01-01",
    "date:cessation_upper": "1989-12-31",
    "date:inception_lower": "1989-01-01",
    "date:inception_upper": "1989-12-31",
    "edtf:cessation": "1989",
    "edtf:inception": "1989",
    "geom:area": 2.477324999997507e-7,
    "geom:bbox": "-122.386472,37.616105,-122.385834,37.616611",
    "geom:latitude": 37.61635756125121,
    "geom:longitude": -122.38615532866096,
    "media:fingerprint": "d433993b6a86ae0fab048145dd4157b8d81f0c81",
    "media:imagehash_avg": "a:ffc7c181c18081ff",
    "media:imagehash_diff": "d:0e0e031b1b594d8c",
    "media:imagetext": "PIEDMONT\nAIRLIZES\nA Subsidiary of USAir Group, Inc.\nSystem Schedule Effective June 1, 1989.\nIncludes Selected USAir Flights.\nOur New Service To\nBermuda Gives Everyone\nA Seat On The Isle.\nBermuda\nBahamas\nFlorida\nCalifornia",
    "media:imagetext_created": 1787956083,
    "media:imagetext_source": "com.apple.visionkit.VNImageRequestHandler#Version 26.6.2 (Build 25G83)",
    "media:mimetype": "image/tiff",
    "media:properties": {
      "sizes": {
        "b": {
          "extension": "jpg",
          "height": 768,
          "mimetype": "image/jpeg",
          "secret": "SJOki9qVuixbaiSMsNzgrqH7Zm95vrtQ",
          "width": 362
        },
        "c": {
          "extension": "jpg",
          "height": 600,
          "mimetype": "image/jpeg",
          "secret": "SJOki9qVuixbaiSMsNzgrqH7Zm95vrtQ",
          "width": 283
        },
        "dc": {
          "extension": "jpg",
          "height": 600,
          "mimetype": "image/jpeg",
          "secret": "SJOki9qVuixbaiSMsNzgrqH7Zm95vrtQ",
          "width": 283
        },
        "ds": {
          "extension": "jpg",
          "height": 320,
          "mimetype": "image/jpeg",
          "secret": "SJOki9qVuixbaiSMsNzgrqH7Zm95vrtQ",
          "width": 320
        },
        "k": {
          "extension": "jpg",
          "height": 1536,
          "mimetype": "image/jpeg",
          "secret": "SJOki9qVuixbaiSMsNzgrqH7Zm95vrtQ",
          "width": 725
        },
        "n": {
          "extension": "jpg",
          "height": 240,
          "mimetype": "image/jpeg",
          "secret": "SJOki9qVuixbaiSMsNzgrqH7Zm95vrtQ",
          "width": 113
        },
        "o": {
          "extension": "jpg",
          "height": 2700,
          "mimetype": "image/jpeg",
          "secret": "hI8I9evwYMbCvT6lhR7eI6hmwbrXs9pS",
          "width": 1275
        },
        "s": {
          "extension": "jpg",
          "height": 320,
          "mimetype": "image/jpeg",
          "secret": "SJOki9qVuixbaiSMsNzgrqH7Zm95vrtQ",
          "width": 320
        },
        "z": {
          "extension": "jpg",
          "height": 480,
          "mimetype": "image/jpeg",
          "secret": "SJOki9qVuixbaiSMsNzgrqH7Zm95vrtQ",
          "width": 226
        }
      }
    },
    "media:source": "sfomuseum",
    "media:status_id": 1,
    "media:uri_template": "https://static.sfomuseum.org/media/176/270/041/1/1762700411_{secret}_{label}.{extension}",
    "millsfield:airline_id": [
      1159285019
    ],
    "millsfield:category_id": 1511214223,
    "millsfield:collection_id": 1511214207,
    "millsfield:company_id": [
      1159287755
    ],
    "millsfield:images_colors": [
      {
        "hex": "#f7f3e1",
        "name": "#f7f3e1",
        "reference": "marekm4"
      },
      {
        "hex": "#f5f5dc",
        "name": "beige",
        "reference": "css4"
      },
      {
        "hex": "#fddde6",
        "name": "Piggy Pink",
        "reference": "crayola"
      },
      {
        "hex": "#1b170e",
        "name": "#1b170e",
        "reference": "marekm4"
      },
      {
        "hex": "#000000",
        "name": "black",
        "reference": "css4"
      },
      {
        "hex": "#000000",
        "name": "Black",
        "reference": "crayola"
      },
      {
        "hex": "#c5ab59",
        "name": "#c5ab59",
        "reference": "marekm4"
      },
      {
        "hex": "#bdb76b",
        "name": "darkkhaki",
        "reference": "css4"
      },
      {
        "hex": "#bab86c",
        "name": "Olive Green",
        "reference": "crayola"
      },
      {
        "hex": "#916e3e",
        "name": "#916e3e",
        "reference": "marekm4"
      },
      {
        "hex": "#a0522d",
        "name": "sienna",
        "reference": "css4"
      },
      {
        "hex": "#9c7c38",
        "name": "Metallic Sunburst",
        "reference": "crayola"
      }
    ],
    "millsfield:images_texts": [
      "PIEDMONT\nAIRLIZES\nA Subsidiary of USAir Group, Inc.\nSystem Schedule Effective June 1, 1989.\nIncludes Selected USAir Flights.\nOur New Service To\nBermuda Gives Everyone\nA Seat On The Isle.\nBermuda\nBahamas\nFlorida\nCalifornia"
    ],
    "millsfield:images_texts_ids": [
      1762700411
    ],
    "millsfield:similar": {
      "apple/mobileclip_s0": [
        {
          "distance": 0.5434024,
          "id": 1779566161
        },
        {
          "distance": 0.63257825,
          "id": 1527839115
        },
        {
          "distance": 0.6356561,
          "id": 1527835871
        },
        {
          "distance": 0.65122664,
          "id": 1527839233
        },
        {
          "distance": 0.6881422,
          "id": 1527847683
        },
        {
          "distance": 0.70467806,
          "id": 1527836743
        },
        {
          "distance": 0.7096181,
          "id": 1527843067
        },
        {
          "distance": 0.70969117,
          "id": 1527846377
        },
        {
          "distance": 0.71066344,
          "id": 1527847619
        },
        {
          "distance": 0.71240693,
          "id": 1762700279
        }
      ],
      "apple/mobileclip_s1": [
        {
          "distance": 0.37835002,
          "id": 1527839233
        },
        {
          "distance": 0.38109112,
          "id": 1779566161
        },
        {
          "distance": 0.38186744,
          "id": 1527839115
        },
        {
          "distance": 0.4345111,
          "id": 1527847683
        },
        {
          "distance": 0.45469204,
          "id": 1762699415
        },
        {
          "distance": 0.462205,
          "id": 1527836497
        },
        {
          "distance": 0.46244463,
          "id": 1762699421
        },
        {
          "distance": 0.4639856,
          "id": 1527836743
        },
        {
          "distance": 0.4689521,
          "id": 1527835871
        },
        {
          "distance": 0.46967298,
          "id": 1527846043
        }
      ],
      "apple/mobileclip_s2": [
        {
          "distance": 0.5846177,
          "id": 1527839115
        },
        {
          "distance": 0.59746516,
          "id": 1527839233
        },
        {
          "distance": 0.60940295,
          "id": 1779566161
        },
        {
          "distance": 0.61752486,
          "id": 1527835871
        },
        {
          "distance": 0.63056517,
          "id": 1527847683
        },
        {
          "distance": 0.64843994,
          "id": 1527847693
        },
        {
          "distance": 0.64873993,
          "id": 1527836743
        },
        {
          "distance": 0.6532516,
          "id": 1527849807
        },
        {
          "distance": 0.653878,
          "id": 1527836497
        },
        {
          "distance": 0.6585855,
          "id": 1527846377
        }
      ]
    },
    "millsfield:subcategory_id": 1511213425,
    "mz:is_current": 1,
    "sfomuseum:filename": "2014.084.1131.tif",
    "sfomuseum:image_id": 104212,
    "sfomuseum:image_index": 5,
    "sfomuseum:image_type": "studio",
    "sfomuseum:object_id": 157693,
    "sfomuseum:placetype": "image",
    "sfomuseum:primary_image": 1,
    "src:geom": "sfomuseum",
    "wof:belongsto": [
      102527513,
      1159162825,
      102191575,
      85633793,
      102087579,
      85922583,
      1762687729,
      85688637,
      1159160869
    ],
    "wof:country": "XY",
    "wof:created": 1641346430,
    "wof:depicts": [
      1762687729,
      1159285019,
      1159287755
    ],
    "wof:geomhash": "ed7c2ab3547fc3916b5edc33488deaa7",
    "wof:hierarchy": [
      {
        "building_id": -1,
        "campus_id": 102527513,
        "collection_id": 1159162825,
        "concourse_id": 1159162825,
        "continent_id": 102191575,
        "country_id": 85633793,
        "county_id": 102087579,
        "custom_id": 1762700411,
        "image_id": 1762700411,
        "locality_id": 85922583,
        "neighbourhood_id": -1,
        "object_id": 1762687729,
        "region_id": 85688637,
        "wing_id": 1159160869
      }
    ],
    "wof:id": 1762700411,
    "wof:lastmodified": 1788450451,
    "wof:name": "timetable: Piedmont Airlines",
    "wof:parent_id": 1762687729,
    "wof:placetype": "custom",
    "wof:placetype_alt": [
      "image"
    ],
    "wof:repo": "sfomuseum-data-media-collection",
    "wof:superseded_by": [],
    "wof:supersedes": []
  },
  "bbox": [
    -122.386472,
    37.616105,
    -122.385834,
    37.616611
  ],
  "geometry": {"type":"Polygon","coordinates":[[[-122.386472,37.616318],[-122.386435,37.616233],[-122.386376,37.616178],[-122.386301,37.616131],[-122.386161,37.616105],[-122.386022,37.616131],[-122.385914,37.616186],[-122.385855,37.616267],[-122.385834,37.616369],[-122.385871,37.616467],[-122.385941,37.616543],[-122.386054,37.616603],[-122.386183,37.616611],[-122.386306,37.616573],[-122.386419,37.616509],[-122.386467,37.616411],[-122.386472,37.616318]]]}
}
