{
  "id": 1913822689,
  "type": "Feature",
  "properties": {
    "date:cessation_lower": "1954-01-01",
    "date:cessation_upper": "1954-12-31",
    "date:inception_lower": "1951-01-01",
    "date:inception_upper": "1951-12-31",
    "edtf:cessation": "1954",
    "edtf:inception": "1951",
    "geom:area": 2.477324999997507e-7,
    "geom:bbox": "-122.386472,37.616105,-122.385834,37.616611",
    "geom:latitude": 37.61635756125121,
    "geom:longitude": -122.38615532866096,
    "media:fingerprint": "49a9d1325d85d2eb6a4544ba24ddc3c34e9bdbbf",
    "media:imagehash_avg": "a:ff998181818181ff",
    "media:imagehash_diff": "d:3331713333331f03",
    "media:imagetext": "No. 500639\nPASSPORT\nUnited States\nof America",
    "media:imagetext_created": 1787972925,
    "media:imagetext_source": "com.apple.visionkit.VNImageRequestHandler#Version 26.6.2 (Build 25G83)",
    "media:mimetype": "image/tiff",
    "media:properties": {
      "sizes": {
        "b": {
          "extension": "jpg",
          "height": 768,
          "mimetype": "image/jpeg",
          "secret": "w0Q3lHRd7n8S9evHA1ktYDN6XK7uSIFh",
          "width": 497
        },
        "c": {
          "extension": "jpg",
          "height": 600,
          "mimetype": "image/jpeg",
          "secret": "w0Q3lHRd7n8S9evHA1ktYDN6XK7uSIFh",
          "width": 388
        },
        "dc": {
          "extension": "jpg",
          "height": 600,
          "mimetype": "image/jpeg",
          "secret": "w0Q3lHRd7n8S9evHA1ktYDN6XK7uSIFh",
          "width": 388
        },
        "ds": {
          "extension": "jpg",
          "height": 320,
          "mimetype": "image/jpeg",
          "secret": "w0Q3lHRd7n8S9evHA1ktYDN6XK7uSIFh",
          "width": 320
        },
        "k": {
          "extension": "jpg",
          "height": 1536,
          "mimetype": "image/jpeg",
          "secret": "w0Q3lHRd7n8S9evHA1ktYDN6XK7uSIFh",
          "width": 994
        },
        "n": {
          "extension": "jpg",
          "height": 240,
          "mimetype": "image/jpeg",
          "secret": "w0Q3lHRd7n8S9evHA1ktYDN6XK7uSIFh",
          "width": 155
        },
        "o": {
          "extension": "jpg",
          "height": 1997,
          "mimetype": "image/jpeg",
          "secret": "gHwuREFEVJs0sEvWNtUcrwHtOa0UqFXc",
          "width": 1293
        },
        "s": {
          "extension": "jpg",
          "height": 320,
          "mimetype": "image/jpeg",
          "secret": "w0Q3lHRd7n8S9evHA1ktYDN6XK7uSIFh",
          "width": 320
        },
        "z": {
          "extension": "jpg",
          "height": 480,
          "mimetype": "image/jpeg",
          "secret": "w0Q3lHRd7n8S9evHA1ktYDN6XK7uSIFh",
          "width": 310
        }
      }
    },
    "media:source": "sfomuseum",
    "media:status_id": 1,
    "media:uri_template": "https://static.sfomuseum.org/media/191/382/268/9/1913822689_{secret}_{label}.{extension}",
    "millsfield:category_id": 1511214251,
    "millsfield:collection_id": 1511214207,
    "millsfield:images_colors": [
      {
        "hex": "#264037",
        "name": "#264037",
        "reference": "marekm4"
      },
      {
        "hex": "#2f4f4f",
        "name": "darkslategrey",
        "reference": "css4"
      },
      {
        "hex": "#414a4c",
        "name": "Outer Space",
        "reference": "crayola"
      },
      {
        "hex": "#d9dad8",
        "name": "#d9dad8",
        "reference": "marekm4"
      },
      {
        "hex": "#dcdcdc",
        "name": "gainsboro",
        "reference": "css4"
      },
      {
        "hex": "#dbd7d2",
        "name": "Timberwolf",
        "reference": "crayola"
      },
      {
        "hex": "#a09469",
        "name": "#a09469",
        "reference": "marekm4"
      },
      {
        "hex": "#808080",
        "name": "grey",
        "reference": "css4"
      },
      {
        "hex": "#9f8170",
        "name": "Beaver",
        "reference": "crayola"
      }
    ],
    "millsfield:images_texts": [
      "No. 500639\nPASSPORT\nUnited States\nof America"
    ],
    "millsfield:images_texts_ids": [
      1913822689
    ],
    "millsfield:similar": {
      "apple/mobileclip_s0": [
        {
          "distance": 0.25702715,
          "id": 1913822691
        },
        {
          "distance": 0.34287426,
          "id": 1913822679
        },
        {
          "distance": 0.45217422,
          "id": 1913822677
        },
        {
          "distance": 0.45828328,
          "id": 1913822675
        },
        {
          "distance": 0.47576353,
          "id": 1913822681
        },
        {
          "distance": 0.47830933,
          "id": 1797195047
        },
        {
          "distance": 0.5284156,
          "id": 1913822693
        },
        {
          "distance": 0.6191646,
          "id": 1797195305
        },
        {
          "distance": 0.7304697,
          "id": 1913822683
        },
        {
          "distance": 0.78316224,
          "id": 1527840029
        }
      ],
      "apple/mobileclip_s1": [
        {
          "distance": 0.12203498,
          "id": 1913822691
        },
        {
          "distance": 0.14201753,
          "id": 1913822679
        },
        {
          "distance": 0.19170347,
          "id": 1913822693
        },
        {
          "distance": 0.21197154,
          "id": 1913822681
        },
        {
          "distance": 0.21497878,
          "id": 1797195047
        },
        {
          "distance": 0.21499749,
          "id": 1913822675
        },
        {
          "distance": 0.23342282,
          "id": 1913822677
        },
        {
          "distance": 0.3693914,
          "id": 1797195305
        },
        {
          "distance": 0.38277745,
          "id": 1913822687
        },
        {
          "distance": 0.44724557,
          "id": 1913822683
        }
      ],
      "apple/mobileclip_s2": [
        {
          "distance": 0.16183469,
          "id": 1913822691
        },
        {
          "distance": 0.21819565,
          "id": 1913822679
        },
        {
          "distance": 0.33152795,
          "id": 1797195047
        },
        {
          "distance": 0.33305416,
          "id": 1913822681
        },
        {
          "distance": 0.34465677,
          "id": 1913822693
        },
        {
          "distance": 0.3670164,
          "id": 1913822675
        },
        {
          "distance": 0.39474648,
          "id": 1913822677
        },
        {
          "distance": 0.5151204,
          "id": 1797195305
        },
        {
          "distance": 0.5186878,
          "id": 1913822687
        },
        {
          "distance": 0.532962,
          "id": 1913822673
        }
      ]
    },
    "millsfield:subcategory_id": 1511213491,
    "mz:is_current": 1,
    "sfomuseum:filename": "2019.121.1423.tif",
    "sfomuseum:image_id": 220106,
    "sfomuseum:image_index": 5,
    "sfomuseum:image_type": "studio",
    "sfomuseum:object_id": 212076,
    "sfomuseum:placetype": "image",
    "sfomuseum:primary_image": 1,
    "src:geom": "sfomuseum",
    "wof:belongsto": [
      102527513,
      1159162825,
      102191575,
      85633793,
      102087579,
      85922583,
      1913822553,
      85688637,
      1159160869
    ],
    "wof:country": "XY",
    "wof:created": 1714635369,
    "wof:depicts": [
      1913822553
    ],
    "wof:geomhash": "ed7c2ab3547fc3916b5edc33488deaa7",
    "wof:hierarchy": [
      {
        "building_id": -1,
        "campus_id": 102527513,
        "collection_id": 1159162825,
        "concourse_id": 1159162825,
        "continent_id": 102191575,
        "country_id": 85633793,
        "county_id": 102087579,
        "custom_id": 1913822689,
        "image_id": 1913822689,
        "locality_id": 85922583,
        "neighbourhood_id": -1,
        "object_id": 1913822553,
        "region_id": 85688637,
        "wing_id": 1159160869
      }
    ],
    "wof:id": 1913822689,
    "wof:lastmodified": 1788452291,
    "wof:name": "passport: Elizabeth C. Bixby",
    "wof:parent_id": 1913822553,
    "wof:placetype": "custom",
    "wof:placetype_alt": [
      "image"
    ],
    "wof:repo": "sfomuseum-data-media-collection",
    "wof:superseded_by": [],
    "wof:supersedes": []
  },
  "bbox": [
    -122.386472,
    37.616105,
    -122.385834,
    37.616611
  ],
  "geometry": {"type":"Polygon","coordinates":[[[-122.386472,37.616318],[-122.386435,37.616233],[-122.386376,37.616178],[-122.386301,37.616131],[-122.386161,37.616105],[-122.386022,37.616131],[-122.385914,37.616186],[-122.385855,37.616267],[-122.385834,37.616369],[-122.385871,37.616467],[-122.385941,37.616543],[-122.386054,37.616603],[-122.386183,37.616611],[-122.386306,37.616573],[-122.386419,37.616509],[-122.386467,37.616411],[-122.386472,37.616318]]]}
}
