{
  "id": 1763196317,
  "type": "Feature",
  "properties": {
    "date:cessation_lower": "1932-01-01",
    "date:cessation_upper": "1932-12-31",
    "date:inception_lower": "1932-01-01",
    "date:inception_upper": "1932-12-31",
    "edtf:cessation": "1932",
    "edtf:inception": "1932",
    "geom:area": 2.477324999997507e-7,
    "geom:bbox": "-122.386472,37.616105,-122.385834,37.616611",
    "geom:latitude": 37.61635756125121,
    "geom:longitude": -122.38615532866096,
    "media:fingerprint": "3417c0477c5ba5f4779ec878774701d66080f4f6",
    "media:imagehash_avg": "a:ff8fb1818181ffff",
    "media:imagehash_diff": "d:3d7d733171350935",
    "media:imagetext": "SKY LINES\nJANUARY\nAIR TRAVEL GUIDE\nThe MAIN STREET\nof the SKYWAYS\nUNITED\nAIR LINES\nBOEING\nAIR\nPACIFIC AIR\nTRANSPORT, INC.\nTRANSPORT\nNATIONAL AIR\nVARNEY AIR\nTRANSPORT. INC.\nLINES. INC\n35 Million Miles' Experience",
    "media:imagetext_created": 1787961153,
    "media:imagetext_source": "com.apple.visionkit.VNImageRequestHandler#Version 26.6.2 (Build 25G83)",
    "media:mimetype": "image/tiff",
    "media:properties": {
      "sizes": {
        "b": {
          "extension": "jpg",
          "height": 768,
          "mimetype": "image/jpeg",
          "secret": "wj6nluU868VJyuRhxYelAbqx1h6K12Ep",
          "width": 353
        },
        "c": {
          "extension": "jpg",
          "height": 600,
          "mimetype": "image/jpeg",
          "secret": "wj6nluU868VJyuRhxYelAbqx1h6K12Ep",
          "width": 276
        },
        "dc": {
          "extension": "jpg",
          "height": 600,
          "mimetype": "image/jpeg",
          "secret": "wj6nluU868VJyuRhxYelAbqx1h6K12Ep",
          "width": 276
        },
        "ds": {
          "extension": "jpg",
          "height": 320,
          "mimetype": "image/jpeg",
          "secret": "wj6nluU868VJyuRhxYelAbqx1h6K12Ep",
          "width": 320
        },
        "k": {
          "extension": "jpg",
          "height": 1536,
          "mimetype": "image/jpeg",
          "secret": "wj6nluU868VJyuRhxYelAbqx1h6K12Ep",
          "width": 707
        },
        "n": {
          "extension": "jpg",
          "height": 240,
          "mimetype": "image/jpeg",
          "secret": "wj6nluU868VJyuRhxYelAbqx1h6K12Ep",
          "width": 110
        },
        "o": {
          "extension": "jpg",
          "height": 2772,
          "mimetype": "image/jpeg",
          "secret": "5Jwuqguo2tfG5L693on8nh5Chu91mYSv",
          "width": 1277
        },
        "s": {
          "extension": "jpg",
          "height": 320,
          "mimetype": "image/jpeg",
          "secret": "wj6nluU868VJyuRhxYelAbqx1h6K12Ep",
          "width": 320
        },
        "z": {
          "extension": "jpg",
          "height": 480,
          "mimetype": "image/jpeg",
          "secret": "wj6nluU868VJyuRhxYelAbqx1h6K12Ep",
          "width": 221
        }
      }
    },
    "media:source": "sfomuseum",
    "media:status_id": 1,
    "media:uri_template": "https://static.sfomuseum.org/media/176/319/631/7/1763196317_{secret}_{label}.{extension}",
    "millsfield:airline_id": [
      1159284849,
      1159285395,
      1159285415,
      1159285517,
      1159286017
    ],
    "millsfield:category_id": 1511214223,
    "millsfield:collection_id": 1511214207,
    "millsfield:company_id": [
      1360700619
    ],
    "millsfield:images_colors": [
      {
        "hex": "#1c1d19",
        "name": "#1c1d19",
        "reference": "marekm4"
      },
      {
        "hex": "#000000",
        "name": "black",
        "reference": "css4"
      },
      {
        "hex": "#000000",
        "name": "Black",
        "reference": "crayola"
      },
      {
        "hex": "#cdc9ba",
        "name": "#cdc9ba",
        "reference": "marekm4"
      },
      {
        "hex": "#c0c0c0",
        "name": "silver",
        "reference": "css4"
      },
      {
        "hex": "#cdc5c2",
        "name": "Silver",
        "reference": "crayola"
      },
      {
        "hex": "#4d8993",
        "name": "#4d8993",
        "reference": "marekm4"
      },
      {
        "hex": "#5f9ea0",
        "name": "cadetblue",
        "reference": "css4"
      },
      {
        "hex": "#319177",
        "name": "Illuminating Emerald",
        "reference": "crayola"
      },
      {
        "hex": "#ab9d59",
        "name": "#ab9d59",
        "reference": "marekm4"
      },
      {
        "hex": "#bdb76b",
        "name": "darkkhaki",
        "reference": "css4"
      },
      {
        "hex": "#bab86c",
        "name": "Olive Green",
        "reference": "crayola"
      },
      {
        "hex": "#38798b",
        "name": "#38798b",
        "reference": "marekm4"
      },
      {
        "hex": "#4682b4",
        "name": "steelblue",
        "reference": "css4"
      }
    ],
    "millsfield:images_texts": [
      "SKY LINES\nJANUARY\nAIR TRAVEL GUIDE\nThe MAIN STREET\nof the SKYWAYS\nUNITED\nAIR LINES\nBOEING\nAIR\nPACIFIC AIR\nTRANSPORT, INC.\nTRANSPORT\nNATIONAL AIR\nVARNEY AIR\nTRANSPORT. INC.\nLINES. INC\n35 Million Miles' Experience"
    ],
    "millsfield:images_texts_ids": [
      1763196317
    ],
    "millsfield:similar": {
      "apple/mobileclip_s0": [
        {
          "distance": 0.6633612,
          "id": 1527832119
        },
        {
          "distance": 0.6801241,
          "id": 1527830283
        },
        {
          "distance": 0.7142118,
          "id": 1527840285
        },
        {
          "distance": 0.7234139,
          "id": 1762700309
        },
        {
          "distance": 0.7317015,
          "id": 1762715055
        },
        {
          "distance": 0.7418206,
          "id": 1762706145
        },
        {
          "distance": 0.7427863,
          "id": 1762698739
        },
        {
          "distance": 0.7457428,
          "id": 1527835179
        },
        {
          "distance": 0.7496863,
          "id": 1847553699
        },
        {
          "distance": 0.75447136,
          "id": 1527840283
        }
      ],
      "apple/mobileclip_s1": [
        {
          "distance": 0.49563995,
          "id": 1527848239
        },
        {
          "distance": 0.5011164,
          "id": 1779668259
        },
        {
          "distance": 0.503721,
          "id": 1527841687
        },
        {
          "distance": 0.50930804,
          "id": 1527841689
        },
        {
          "distance": 0.51149464,
          "id": 1527840283
        },
        {
          "distance": 0.51151776,
          "id": 1527841685
        },
        {
          "distance": 0.51265895,
          "id": 1527844785
        },
        {
          "distance": 0.52071327,
          "id": 1527854685
        },
        {
          "distance": 0.5212948,
          "id": 1762699013
        },
        {
          "distance": 0.5257269,
          "id": 1527841691
        }
      ],
      "apple/mobileclip_s2": [
        {
          "distance": 0.6868299,
          "id": 1527832119
        },
        {
          "distance": 0.70034444,
          "id": 1779668259
        },
        {
          "distance": 0.73255104,
          "id": 1527837125
        },
        {
          "distance": 0.7414157,
          "id": 1527835179
        },
        {
          "distance": 0.74810714,
          "id": 1527836007
        },
        {
          "distance": 0.7501345,
          "id": 1527844785
        },
        {
          "distance": 0.7662014,
          "id": 1527841691
        },
        {
          "distance": 0.76740456,
          "id": 1762715461
        },
        {
          "distance": 0.7689843,
          "id": 1779539845
        },
        {
          "distance": 0.76946956,
          "id": 1746680293
        }
      ]
    },
    "millsfield:subcategory_id": 1511213425,
    "mz:is_current": 1,
    "sfomuseum:filename": "2014.082.033_ft.tif",
    "sfomuseum:image_id": 102114,
    "sfomuseum:image_index": 5,
    "sfomuseum:image_type": "studio",
    "sfomuseum:object_id": 156417,
    "sfomuseum:placetype": "image",
    "sfomuseum:primary_image": 1,
    "src:geom": "sfomuseum",
    "wof:belongsto": [
      102527513,
      1159162825,
      102191575,
      85633793,
      102087579,
      85922583,
      1763195201,
      85688637,
      1159160869
    ],
    "wof:country": "XY",
    "wof:created": 1646383668,
    "wof:depicts": [
      1159285415,
      1159285517,
      1159286017,
      1360700619,
      1763195201,
      1159284849,
      1159285395
    ],
    "wof:geomhash": "ed7c2ab3547fc3916b5edc33488deaa7",
    "wof:hierarchy": [
      {
        "building_id": -1,
        "campus_id": 102527513,
        "collection_id": 1159162825,
        "concourse_id": 1159162825,
        "continent_id": 102191575,
        "country_id": 85633793,
        "county_id": 102087579,
        "custom_id": 1763196317,
        "image_id": 1763196317,
        "locality_id": 85922583,
        "neighbourhood_id": -1,
        "object_id": 1763195201,
        "region_id": 85688637,
        "wing_id": 1159160869
      }
    ],
    "wof:id": 1763196317,
    "wof:lastmodified": 1788450973,
    "wof:name": "timetable: Sky Lines, multiple airlines, Air Transport Advertising Sky Lines",
    "wof:parent_id": 1763195201,
    "wof:placetype": "custom",
    "wof:placetype_alt": [
      "image"
    ],
    "wof:repo": "sfomuseum-data-media-collection",
    "wof:superseded_by": [],
    "wof:supersedes": []
  },
  "bbox": [
    -122.386472,
    37.616105,
    -122.385834,
    37.616611
  ],
  "geometry": {"type":"Polygon","coordinates":[[[-122.386472,37.616318],[-122.386435,37.616233],[-122.386376,37.616178],[-122.386301,37.616131],[-122.386161,37.616105],[-122.386022,37.616131],[-122.385914,37.616186],[-122.385855,37.616267],[-122.385834,37.616369],[-122.385871,37.616467],[-122.385941,37.616543],[-122.386054,37.616603],[-122.386183,37.616611],[-122.386306,37.616573],[-122.386419,37.616509],[-122.386467,37.616411],[-122.386472,37.616318]]]}
}
