{
  "id": 2048164753,
  "type": "Feature",
  "properties": {
    "date:cessation_lower": "2022-01-01",
    "date:cessation_upper": "2022-12-31",
    "date:inception_lower": "2022-01-01",
    "date:inception_upper": "2022-12-31",
    "edtf:cessation": "2022",
    "edtf:inception": "2022",
    "geom:area": 2.4750474575706356e-7,
    "geom:bbox": "-122.386472,37.616105,-122.385834,37.616611",
    "geom:latitude": 37.61635747477365,
    "geom:longitude": -122.38615540108617,
    "media:fingerprint": "385f3ef2e131e14841f7f0df30075c1112c051af",
    "media:imagehash_avg": "a:003c3c3c7c7c3c00",
    "media:imagehash_diff": "d:f0f0d8d8cce0f0e0",
    "media:imagetext": "Now it's our turn to entertain you.\nFree live TV'\nFree movies and shows\nFree messaging'\nConnect to our network\nand go to Southwestwifi.com\n'Due to licensing restrictions on WiFi-enabied international flights, free live TV\nmay not be available for the full duration of flight. Messaging service only\naliows access to iMessage and WhatsApp (must be downioaded before the flight).\nAvailable oniy on WiFi-enabied aircraft. Limited-time offer. Where available.\nMade from 100% post-consumer recycled material.\n2023.002.063",
    "media:mimetype": "image/tiff",
    "media:properties": {
      "colours": null,
      "sizes": {
        "b": {
          "extension": "jpg",
          "height": 768,
          "mimetype": "image/jpeg",
          "secret": "VOshsPIexKMhvDtWgFM1uNh1e3NzIYbv",
          "width": 960
        },
        "c": {
          "extension": "jpg",
          "height": 600,
          "mimetype": "image/jpeg",
          "secret": "VOshsPIexKMhvDtWgFM1uNh1e3NzIYbv",
          "width": 750
        },
        "dc": {
          "extension": "jpg",
          "height": 320,
          "mimetype": "image/jpeg",
          "secret": "VOshsPIexKMhvDtWgFM1uNh1e3NzIYbv",
          "width": 320
        },
        "ds": {
          "extension": "jpg",
          "height": 320,
          "mimetype": "image/jpeg",
          "secret": "VOshsPIexKMhvDtWgFM1uNh1e3NzIYbv",
          "width": 320
        },
        "k": {
          "extension": "jpg",
          "height": 1536,
          "mimetype": "image/jpeg",
          "secret": "VOshsPIexKMhvDtWgFM1uNh1e3NzIYbv",
          "width": 1920
        },
        "n": {
          "extension": "jpg",
          "height": 240,
          "mimetype": "image/jpeg",
          "secret": "VOshsPIexKMhvDtWgFM1uNh1e3NzIYbv",
          "width": 300
        },
        "o": {
          "extension": "jpg",
          "height": 1680,
          "mimetype": "image/jpeg",
          "secret": "U0JAmvw0LGLaeDxJqs5HgBY2zPVBiYcs",
          "width": 2100
        },
        "s": {
          "extension": "jpg",
          "height": 320,
          "mimetype": "image/jpeg",
          "secret": "VOshsPIexKMhvDtWgFM1uNh1e3NzIYbv",
          "width": 320
        },
        "z": {
          "extension": "jpg",
          "height": 480,
          "mimetype": "image/jpeg",
          "secret": "VOshsPIexKMhvDtWgFM1uNh1e3NzIYbv",
          "width": 600
        }
      }
    },
    "media:source": "sfomuseum",
    "media:status_id": 1,
    "media:uri_template": "https://static.sfomuseum.org/media/204/816/475/3/2048164753_{secret}_{label}.{extention}",
    "millsfield:airline_id": [
      1159285591
    ],
    "millsfield:category_id": 1746152533,
    "millsfield:collection_id": 1511214203,
    "millsfield:company_id": [
      1360700737
    ],
    "millsfield:images_colors": [
      {
        "hex": "#b3b1ac",
        "name": "#b3b1ac",
        "reference": "marekm4"
      },
      {
        "hex": "#a9a9a9",
        "name": "darkgrey",
        "reference": "css4"
      },
      {
        "hex": "#b0b7c6",
        "name": "Cadet Blue",
        "reference": "crayola"
      },
      {
        "hex": "#5f6393",
        "name": "#5f6393",
        "reference": "marekm4"
      },
      {
        "hex": "#708090",
        "name": "slategrey",
        "reference": "css4"
      },
      {
        "hex": "#7851a9",
        "name": "Royal Purple",
        "reference": "crayola"
      }
    ],
    "millsfield:subcategory_id": 1511213839,
    "mz:is_current": 1,
    "sfomuseum:filename": "2023.002.063_2.tif",
    "sfomuseum:image_id": 273760,
    "sfomuseum:image_index": 0,
    "sfomuseum:image_type": "studio",
    "sfomuseum:object_id": 234951,
    "sfomuseum:placetype": "image",
    "sfomuseum:primary_image": 0,
    "src:geom": "sfomuseum",
    "wof:belongsto": [
      102527513,
      1159162825,
      102191575,
      85633793,
      102087579,
      85922583,
      2048162683,
      85688637,
      1159160869
    ],
    "wof:country": "XY",
    "wof:created": 1787793169,
    "wof:depicts": [
      1360700737,
      2048162683,
      1159285591
    ],
    "wof:geomhash": "c281b9d9eefc83b5710e64b9d646067d",
    "wof:hierarchy": [
      {
        "building_id": -1,
        "campus_id": 102527513,
        "collection_id": 1159162825,
        "concourse_id": 1159162825,
        "continent_id": 102191575,
        "country_id": 85633793,
        "county_id": 102087579,
        "custom_id": 2048164753,
        "locality_id": 85922583,
        "neighbourhood_id": -1,
        "object_id": 2048162683,
        "region_id": 85688637,
        "wing_id": 1159160869
      }
    ],
    "wof:id": 2048164753,
    "wof:lastmodified": 1787795696,
    "wof:name": "cocktail napkin: Southwest Airlines",
    "wof:parent_id": 2048162683,
    "wof:placetype": "custom",
    "wof:repo": "sfomuseum-data-media-collection",
    "wof:superseded_by": [],
    "wof:supersedes": []
  },
  "bbox": [
    -122.38647222518921,
    37.6161053594541,
    -122.38583385944366,
    37.61661101879963
  ],
  "geometry": {"type":"Polygon","coordinates":[[[-122.38647222518921,37.61631782178288],[-122.386434674263,37.61623283692423],[-122.38637566566466,37.61617759671399],[-122.38630056381224,37.6161308549656],[-122.38616108894348,37.6161053594541],[-122.38602161407469,37.6161308549656],[-122.38591432571411,37.61618609521055],[-122.38585531711577,37.61626683087935],[-122.38583385944366,37.61636881265146],[-122.38587141036987,37.61646654505181],[-122.38594114780425,37.61654303118856],[-122.38605380058287,37.61660252035167],[-122.38618254661559,37.61661101879963],[-122.3863059282303,37.61657277577607],[-122.3864185810089,37.61650903735973],[-122.3864668607712,37.61641130501523],[-122.38647222518921,37.61631782178288]]]}
}
