{
  "id": 1762897403,
  "type": "Feature",
  "properties": {
    "date:cessation_lower": "1940-01-01",
    "date:cessation_upper": "1940-12-31",
    "date:inception_lower": "1940-01-01",
    "date:inception_upper": "1940-12-31",
    "edtf:cessation": "1940~",
    "edtf:inception": "1940~",
    "geom:area": 2.477324999997507e-7,
    "geom:bbox": "-122.386472,37.616105,-122.385834,37.616611",
    "geom:latitude": 37.61635756125121,
    "geom:longitude": -122.38615532866096,
    "media:fingerprint": "42e41b5eff7a1479345a519a7231f7b63f6671f8",
    "media:imagehash_avg": "a:ffffff838383ffff",
    "media:imagehash_diff": "d:f8f8b2361f1f71f0",
    "media:mimetype": "image/tiff",
    "media:properties": {
      "sizes": {
        "b": {
          "extension": "jpg",
          "height": 768,
          "mimetype": "image/jpeg",
          "secret": "IwKaz0mo5CMhmezrx9PQHoXRd2RTA9rB",
          "width": 965
        },
        "c": {
          "extension": "jpg",
          "height": 600,
          "mimetype": "image/jpeg",
          "secret": "IwKaz0mo5CMhmezrx9PQHoXRd2RTA9rB",
          "width": 754
        },
        "dc": {
          "extension": "jpg",
          "height": 600,
          "mimetype": "image/jpeg",
          "secret": "IwKaz0mo5CMhmezrx9PQHoXRd2RTA9rB",
          "width": 754
        },
        "ds": {
          "extension": "jpg",
          "height": 320,
          "mimetype": "image/jpeg",
          "secret": "IwKaz0mo5CMhmezrx9PQHoXRd2RTA9rB",
          "width": 320
        },
        "k": {
          "extension": "jpg",
          "height": 1536,
          "mimetype": "image/jpeg",
          "secret": "IwKaz0mo5CMhmezrx9PQHoXRd2RTA9rB",
          "width": 1931
        },
        "n": {
          "extension": "jpg",
          "height": 240,
          "mimetype": "image/jpeg",
          "secret": "IwKaz0mo5CMhmezrx9PQHoXRd2RTA9rB",
          "width": 301
        },
        "o": {
          "extension": "jpg",
          "height": 1667,
          "mimetype": "image/jpeg",
          "secret": "Gdq8qiLfnDIKszbJ1D8ETg9MqnqteYmc",
          "width": 2096
        },
        "s": {
          "extension": "jpg",
          "height": 320,
          "mimetype": "image/jpeg",
          "secret": "IwKaz0mo5CMhmezrx9PQHoXRd2RTA9rB",
          "width": 320
        },
        "z": {
          "extension": "jpg",
          "height": 480,
          "mimetype": "image/jpeg",
          "secret": "IwKaz0mo5CMhmezrx9PQHoXRd2RTA9rB",
          "width": 603
        }
      }
    },
    "media:source": "sfomuseum",
    "media:status_id": 1,
    "media:uri_template": "https://static.sfomuseum.org/media/176/289/740/3/1762897403_{secret}_{label}.{extension}",
    "millsfield:aircraft_id": [
      1159290417
    ],
    "millsfield:category_id": 1511214235,
    "millsfield:collection_id": 1511214203,
    "millsfield:company_id": [],
    "millsfield:exhibition_ids": [
      1159160325
    ],
    "millsfield:has_coloring_book": 1,
    "millsfield:images_colors": [
      {
        "hex": "#b5b5b5",
        "name": "#b5b5b5",
        "reference": "marekm4"
      },
      {
        "hex": "#c0c0c0",
        "name": "silver",
        "reference": "css4"
      },
      {
        "hex": "#b0b7c6",
        "name": "Cadet Blue",
        "reference": "crayola"
      },
      {
        "hex": "#3d3b38",
        "name": "#3d3b38",
        "reference": "marekm4"
      },
      {
        "hex": "#2f4f4f",
        "name": "darkslategrey",
        "reference": "css4"
      },
      {
        "hex": "#414a4c",
        "name": "Outer Space",
        "reference": "crayola"
      }
    ],
    "millsfield:on_view": 0,
    "millsfield:similar": {
      "apple/mobileclip_s0": [
        {
          "distance": 0.18076025,
          "id": 1762897407
        },
        {
          "distance": 0.3452867,
          "id": 1763144755
        },
        {
          "distance": 0.35682693,
          "id": 1762897409
        },
        {
          "distance": 0.36594748,
          "id": 1880319581
        },
        {
          "distance": 0.36940446,
          "id": 1763144751
        },
        {
          "distance": 0.37828925,
          "id": 1880319743
        },
        {
          "distance": 0.38021216,
          "id": 1880319741
        },
        {
          "distance": 0.38749823,
          "id": 1880319659
        },
        {
          "distance": 0.40038422,
          "id": 1762897399
        },
        {
          "distance": 0.40045455,
          "id": 1880319579
        }
      ],
      "apple/mobileclip_s1": [
        {
          "distance": 0.1804323,
          "id": 1762897407
        },
        {
          "distance": 0.22901553,
          "id": 1762897399
        },
        {
          "distance": 0.2945193,
          "id": 1762897409
        },
        {
          "distance": 0.3107273,
          "id": 1763144755
        },
        {
          "distance": 0.315986,
          "id": 1914676693
        },
        {
          "distance": 0.32340267,
          "id": 1763144751
        },
        {
          "distance": 0.32384875,
          "id": 1880319161
        },
        {
          "distance": 0.32982695,
          "id": 1880320477
        },
        {
          "distance": 0.3313758,
          "id": 1914676439
        },
        {
          "distance": 0.3379653,
          "id": 1914676441
        }
      ],
      "apple/mobileclip_s2": [
        {
          "distance": 0.21199024,
          "id": 1762897407
        },
        {
          "distance": 0.33485183,
          "id": 1762897399
        },
        {
          "distance": 0.33683217,
          "id": 1880319661
        },
        {
          "distance": 0.35268277,
          "id": 1914676693
        },
        {
          "distance": 0.36466244,
          "id": 1947939495
        },
        {
          "distance": 0.37510073,
          "id": 1880320477
        },
        {
          "distance": 0.37697324,
          "id": 1947939367
        },
        {
          "distance": 0.38184598,
          "id": 1880319659
        },
        {
          "distance": 0.39014965,
          "id": 1880320045
        },
        {
          "distance": 0.39039692,
          "id": 1880320357
        }
      ]
    },
    "millsfield:subcategory_id": 1511213161,
    "mz:is_current": 1,
    "sfomuseum:filename": "1995.43.14_02.tif",
    "sfomuseum:image_id": 162753,
    "sfomuseum:image_index": 5,
    "sfomuseum:image_type": "studio",
    "sfomuseum:object_id": 43469,
    "sfomuseum:placetype": "image",
    "sfomuseum:primary_image": 0,
    "src:geom": "sfomuseum",
    "wof:belongsto": [
      102527513,
      1159162825,
      102191575,
      85633793,
      102087579,
      85922583,
      1762829493,
      85688637,
      1159160869
    ],
    "wof:country": "XY",
    "wof:created": 1643415130,
    "wof:depicts": [
      1762829493,
      1159290417
    ],
    "wof:geomhash": "ed7c2ab3547fc3916b5edc33488deaa7",
    "wof:hierarchy": [
      {
        "building_id": -1,
        "campus_id": 102527513,
        "collection_id": 1159162825,
        "concourse_id": 1159162825,
        "continent_id": 102191575,
        "country_id": 85633793,
        "county_id": 102087579,
        "custom_id": 1762897403,
        "image_id": 1762897403,
        "locality_id": 85922583,
        "neighbourhood_id": -1,
        "object_id": 1762829493,
        "region_id": 85688637,
        "wing_id": 1159160869
      }
    ],
    "wof:id": 1762897403,
    "wof:lastmodified": 1788450815,
    "wof:name": "model airplane: Douglas DC-3",
    "wof:parent_id": 1762829493,
    "wof:placetype": "custom",
    "wof:placetype_alt": [
      "image"
    ],
    "wof:repo": "sfomuseum-data-media-collection",
    "wof:superseded_by": [],
    "wof:supersedes": []
  },
  "bbox": [
    -122.386472,
    37.616105,
    -122.385834,
    37.616611
  ],
  "geometry": {"type":"Polygon","coordinates":[[[-122.386472,37.616318],[-122.386435,37.616233],[-122.386376,37.616178],[-122.386301,37.616131],[-122.386161,37.616105],[-122.386022,37.616131],[-122.385914,37.616186],[-122.385855,37.616267],[-122.385834,37.616369],[-122.385871,37.616467],[-122.385941,37.616543],[-122.386054,37.616603],[-122.386183,37.616611],[-122.386306,37.616573],[-122.386419,37.616509],[-122.386467,37.616411],[-122.386472,37.616318]]]}
}
