{
  "id": 1527831861,
  "type": "Feature",
  "properties": {
    "date:cessation_lower": "1935-05-22",
    "date:cessation_upper": "1935-05-22",
    "date:inception_lower": "1935-05-22",
    "date:inception_upper": "1935-05-22",
    "edtf:cessation": "1935-05-22",
    "edtf:date": "1935-05-22",
    "edtf:inception": "1935-05-22",
    "geom:area": 0,
    "geom:bbox": "-122.386155,37.616358,-122.386155,37.616358",
    "geom:latitude": 37.616358,
    "geom:longitude": -122.386155,
    "iso:country": "XX",
    "media:fingerprint": "c9d1e3eba0a9f9b629c8bafc8829185095a08ad9",
    "media:imagehash_avg": "a:fdb0f0b19f99b1ff",
    "media:imagehash_diff": "d:4143616337636367",
    "media:imagetext": "Via\n1935\nMassed Flight\nMidway\nPearl Harbor\nU.S.S.\nMAY\n22\n1935\nA.M.\nEAVER\n→M DWAY\nISLANDS\nMr.\nR. C. Hendricks,\nc/o Navy Mail Clerk,\nU.S.S. \"BEAVER\"\nMidway Islands, I.H.",
    "media:imagetext_created": 1787949358,
    "media:imagetext_source": "com.apple.visionkit.VNImageRequestHandler#Version 26.6.2 (Build 25G83)",
    "media:medium": "image",
    "media:mimetype": "image/tiff",
    "media:properties": {
      "sizes": {
        "b": {
          "extension": "jpg",
          "height": 594,
          "mimetype": "image/jpeg",
          "secret": "D1zGwoeITGybcr0oQbSc6scQAK2tv2HE",
          "width": 1024
        },
        "c": {
          "extension": "jpg",
          "height": 464,
          "mimetype": "image/jpeg",
          "secret": "D1zGwoeITGybcr0oQbSc6scQAK2tv2HE",
          "width": 800
        },
        "dc": {
          "extension": "jpg",
          "height": 464,
          "mimetype": "image/jpeg",
          "secret": "D1zGwoeITGybcr0oQbSc6scQAK2tv2HE",
          "width": 800
        },
        "ds": {
          "extension": "jpg",
          "height": 320,
          "mimetype": "image/jpeg",
          "secret": "D1zGwoeITGybcr0oQbSc6scQAK2tv2HE",
          "width": 320
        },
        "k": {
          "extension": "jpg",
          "height": 1188,
          "mimetype": "image/jpeg",
          "secret": "D1zGwoeITGybcr0oQbSc6scQAK2tv2HE",
          "width": 2048
        },
        "n": {
          "extension": "jpg",
          "height": 185,
          "mimetype": "image/jpeg",
          "secret": "D1zGwoeITGybcr0oQbSc6scQAK2tv2HE",
          "width": 320
        },
        "o": {
          "extension": "jpg",
          "height": 1217,
          "mimetype": "image/jpeg",
          "secret": "lTESfvrUxzEDjJQmHk5wq4XsbSlHsusS",
          "width": 2097
        },
        "s": {
          "extension": "jpg",
          "height": 320,
          "mimetype": "image/jpeg",
          "secret": "D1zGwoeITGybcr0oQbSc6scQAK2tv2HE",
          "width": 320
        },
        "z": {
          "extension": "jpg",
          "height": 371,
          "mimetype": "image/jpeg",
          "secret": "D1zGwoeITGybcr0oQbSc6scQAK2tv2HE",
          "width": 640
        }
      }
    },
    "media:source": "sfomuseum",
    "media:status_id": 1,
    "media:uri_template": "https://static.sfomuseum.org/media/152/783/186/1/1527831861_{secret}_{label}.{extension}",
    "millsfield:airline_id": [
      1159285407
    ],
    "millsfield:category_id": 1511214215,
    "millsfield:collection_id": 1511214207,
    "millsfield:company_id": [],
    "millsfield:images_colors": [
      {
        "hex": "#d3ba97",
        "name": "#d3ba97",
        "reference": "marekm4"
      },
      {
        "hex": "#d2b48c",
        "name": "tan",
        "reference": "css4"
      },
      {
        "hex": "#e7c697",
        "name": "Gold",
        "reference": "crayola"
      },
      {
        "hex": "#bfa178",
        "name": "#bfa178",
        "reference": "marekm4"
      },
      {
        "hex": "#bdb76b",
        "name": "darkkhaki",
        "reference": "css4"
      },
      {
        "hex": "#cd9575",
        "name": "Antique Brass",
        "reference": "crayola"
      },
      {
        "hex": "#533437",
        "name": "#533437",
        "reference": "marekm4"
      },
      {
        "hex": "#2f4f4f",
        "name": "darkslategrey",
        "reference": "css4"
      },
      {
        "hex": "#414a4c",
        "name": "Outer Space",
        "reference": "crayola"
      },
      {
        "hex": "#926763",
        "name": "#926763",
        "reference": "marekm4"
      },
      {
        "hex": "#696969",
        "name": "dimgrey",
        "reference": "css4"
      },
      {
        "hex": "#8a795d",
        "name": "Shadow",
        "reference": "crayola"
      }
    ],
    "millsfield:images_texts": [
      "Via\n1935\nMassed Flight\nMidway\nPearl Harbor\nU.S.S.\nMAY\n22\n1935\nA.M.\nEAVER\n→M DWAY\nISLANDS\nMr.\nR. C. Hendricks,\nc/o Navy Mail Clerk,\nU.S.S. \"BEAVER\"\nMidway Islands, I.H."
    ],
    "millsfield:images_texts_ids": [
      1527831861
    ],
    "millsfield:similar": {
      "apple/mobileclip_s0": [
        {
          "distance": 0.5178826,
          "id": 1914060361
        },
        {
          "distance": 0.5180432,
          "id": 1527831853
        },
        {
          "distance": 0.53203577,
          "id": 1527831809
        },
        {
          "distance": 0.53421456,
          "id": 1527851825
        },
        {
          "distance": 0.5349221,
          "id": 1527831813
        },
        {
          "distance": 0.5364376,
          "id": 1527853775
        },
        {
          "distance": 0.5390258,
          "id": 1527833411
        },
        {
          "distance": 0.5502686,
          "id": 1527832713
        },
        {
          "distance": 0.5539515,
          "id": 1913823031
        },
        {
          "distance": 0.5544851,
          "id": 1527833519
        }
      ],
      "apple/mobileclip_s1": [
        {
          "distance": 0.38984752,
          "id": 1527853775
        },
        {
          "distance": 0.4024703,
          "id": 1527831853
        },
        {
          "distance": 0.4035075,
          "id": 1527851791
        },
        {
          "distance": 0.44329065,
          "id": 1527831851
        },
        {
          "distance": 0.44751665,
          "id": 1846705991
        },
        {
          "distance": 0.45500815,
          "id": 1527831863
        },
        {
          "distance": 0.4559549,
          "id": 1527820501
        },
        {
          "distance": 0.45926726,
          "id": 1527831865
        },
        {
          "distance": 0.46339676,
          "id": 1846705997
        },
        {
          "distance": 0.46522963,
          "id": 1527832713
        }
      ],
      "apple/mobileclip_s2": [
        {
          "distance": 0.52725244,
          "id": 1527851791
        },
        {
          "distance": 0.5719128,
          "id": 1527831853
        },
        {
          "distance": 0.5991665,
          "id": 1527853775
        },
        {
          "distance": 0.6478797,
          "id": 1527831809
        },
        {
          "distance": 0.6481263,
          "id": 1527831851
        },
        {
          "distance": 0.65425485,
          "id": 1527831879
        },
        {
          "distance": 0.6606572,
          "id": 1527831849
        },
        {
          "distance": 0.6748259,
          "id": 1527831841
        },
        {
          "distance": 0.6795296,
          "id": 1846705991
        },
        {
          "distance": 0.68171084,
          "id": 1527831871
        }
      ]
    },
    "millsfield:subcategory_id": 1511213159,
    "mz:hierarchy_label": 1,
    "mz:is_current": -1,
    "sfomuseum:filename": "60761.tif",
    "sfomuseum:image_id": 60761,
    "sfomuseum:image_index": 5,
    "sfomuseum:image_type": "studio",
    "sfomuseum:object_id": 91324,
    "sfomuseum:placetype": "image",
    "sfomuseum:primary_image": 1,
    "src:geom": "sfomuseum",
    "wof:belongsto": [
      1511214215,
      1511931813,
      102527513,
      102191575,
      85633793,
      1511213159,
      85922583,
      102087579,
      1511214277,
      1511214203,
      85688637
    ],
    "wof:breaches": [],
    "wof:country": "XX",
    "wof:created": 1578951216,
    "wof:depicts": [
      1159285407,
      1511931813,
      1159286573
    ],
    "wof:geomhash": "bd906905ce4be6c0651c90b0fc24804c",
    "wof:hierarchy": [
      {
        "arcade_id": 1511213159,
        "building_id": 1511214277,
        "campus_id": 102527513,
        "concourse_id": 1511214215,
        "continent_id": 102191575,
        "country_id": 85633793,
        "county_id": 102087579,
        "custom_id": 1527831861,
        "image_id": 1527831861,
        "locality_id": 85922583,
        "media_id": 1527831861,
        "neighbourhood_id": -1,
        "region_id": 85688637,
        "venue_id": 1511931813,
        "wing_id": 1511214203
      }
    ],
    "wof:id": 1527831861,
    "wof:lastmodified": 1788449883,
    "wof:name": "airmail flight cover: U.S. Navy Hawaii, Midway Island Mass Return Flight, May 23-24, 1935",
    "wof:parent_id": 1511931813,
    "wof:placetype": "custom",
    "wof:placetype_alt": [
      "image"
    ],
    "wof:repo": "sfomuseum-data-media-collection",
    "wof:superseded_by": [],
    "wof:supersedes": [],
    "wof:tags": []
  },
  "bbox": [
    -122.386155,
    37.616358,
    -122.386155,
    37.616358
  ],
  "geometry": {"type":"Point","coordinates":[-122.386155,37.616358]}
}
