{
  "id": 1527840059,
  "type": "Feature",
  "properties": {
    "date:cessation_lower": "1984-01-01",
    "date:cessation_upper": "1984-12-31",
    "date:inception_lower": "1984-01-01",
    "date:inception_upper": "1984-12-31",
    "edtf:cessation": "1984",
    "edtf:date": "1984",
    "edtf:inception": "1984",
    "geom:area": 0,
    "geom:bbox": "-122.386155,37.616358,-122.386155,37.616358",
    "geom:latitude": 37.616358,
    "geom:longitude": -122.386155,
    "iso:country": "XX",
    "media:fingerprint": "b45a6356c6504a919b6c907d89663fd9b1a02022",
    "media:imagehash_avg": "a:fffffd3918000000",
    "media:imagehash_diff": "d:6365617171716161",
    "media:imagetext": "BA72 7A12\nJapan AsIa 4,5,6 A\nAirways\nTimetable-\nApril, May, June\nEdition 1984\n2/1#45,6 AN 1984\nAPRI\nJUN.30 '84\nJAA\nB4EKB3A03",
    "media:imagetext_created": 1787950822,
    "media:imagetext_source": "com.apple.visionkit.VNImageRequestHandler#Version 26.6.2 (Build 25G83)",
    "media:medium": "image",
    "media:mimetype": "image/tiff",
    "media:properties": {
      "sizes": {
        "b": {
          "extension": "jpg",
          "height": 768,
          "mimetype": "image/jpeg",
          "secret": "5uoJLbZuhXYsvrqufiaMvQRANPTsP8nj",
          "width": 417
        },
        "c": {
          "extension": "jpg",
          "height": 600,
          "mimetype": "image/jpeg",
          "secret": "5uoJLbZuhXYsvrqufiaMvQRANPTsP8nj",
          "width": 326
        },
        "dc": {
          "extension": "jpg",
          "height": 600,
          "mimetype": "image/jpeg",
          "secret": "5uoJLbZuhXYsvrqufiaMvQRANPTsP8nj",
          "width": 326
        },
        "ds": {
          "extension": "jpg",
          "height": 320,
          "mimetype": "image/jpeg",
          "secret": "5uoJLbZuhXYsvrqufiaMvQRANPTsP8nj",
          "width": 320
        },
        "k": {
          "extension": "jpg",
          "height": 1536,
          "mimetype": "image/jpeg",
          "secret": "5uoJLbZuhXYsvrqufiaMvQRANPTsP8nj",
          "width": 835
        },
        "n": {
          "extension": "jpg",
          "height": 240,
          "mimetype": "image/jpeg",
          "secret": "5uoJLbZuhXYsvrqufiaMvQRANPTsP8nj",
          "width": 130
        },
        "o": {
          "extension": "jpg",
          "height": 1657,
          "mimetype": "image/jpeg",
          "secret": "kMWRJQ3kCvEQbPRLR1y9JnB17VlpOzAc",
          "width": 901
        },
        "s": {
          "extension": "jpg",
          "height": 320,
          "mimetype": "image/jpeg",
          "secret": "5uoJLbZuhXYsvrqufiaMvQRANPTsP8nj",
          "width": 320
        },
        "z": {
          "extension": "jpg",
          "height": 480,
          "mimetype": "image/jpeg",
          "secret": "5uoJLbZuhXYsvrqufiaMvQRANPTsP8nj",
          "width": 261
        }
      }
    },
    "media:source": "sfomuseum",
    "media:status_id": 1,
    "media:uri_template": "https://static.sfomuseum.org/media/152/784/005/9/1527840059_{secret}_{label}.{extension}",
    "millsfield:airline_id": [
      1159284571
    ],
    "millsfield:category_id": 1511214223,
    "millsfield:collection_id": 1511214207,
    "millsfield:company_id": [
      1159287035
    ],
    "millsfield:images_colors": [
      {
        "hex": "#c6c8dd",
        "name": "#c6c8dd",
        "reference": "marekm4"
      },
      {
        "hex": "#d3d3d3",
        "name": "lightgrey",
        "reference": "css4"
      },
      {
        "hex": "#c5d0e6",
        "name": "Periwinkle",
        "reference": "crayola"
      },
      {
        "hex": "#2d2832",
        "name": "#2d2832",
        "reference": "marekm4"
      },
      {
        "hex": "#2f4f4f",
        "name": "darkslategrey",
        "reference": "css4"
      },
      {
        "hex": "#414a4c",
        "name": "Outer Space",
        "reference": "crayola"
      },
      {
        "hex": "#b03425",
        "name": "#b03425",
        "reference": "marekm4"
      },
      {
        "hex": "#a52a2a",
        "name": "brown",
        "reference": "css4"
      },
      {
        "hex": "#9c2542",
        "name": "Big Dip O' Ruby",
        "reference": "crayola"
      },
      {
        "hex": "#455d9d",
        "name": "#455d9d",
        "reference": "marekm4"
      },
      {
        "hex": "#483d8b",
        "name": "darkslateblue",
        "reference": "css4"
      },
      {
        "hex": "#2e5894",
        "name": "B'dazzled Blue",
        "reference": "crayola"
      },
      {
        "hex": "#bb993b",
        "name": "#bb993b",
        "reference": "marekm4"
      },
      {
        "hex": "#cd853f",
        "name": "peru",
        "reference": "css4"
      },
      {
        "hex": "#9c7c38",
        "name": "Metallic Sunburst",
        "reference": "crayola"
      }
    ],
    "millsfield:images_texts": [
      "BA72 7A12\nJapan AsIa 4,5,6 A\nAirways\nTimetable-\nApril, May, June\nEdition 1984\n2/1#45,6 AN 1984\nAPRI\nJUN.30 '84\nJAA\nB4EKB3A03"
    ],
    "millsfield:images_texts_ids": [
      1527840059
    ],
    "millsfield:similar": {
      "apple/mobileclip_s0": [
        {
          "distance": 0.5801226,
          "id": 1763196727
        },
        {
          "distance": 0.5871702,
          "id": 1527840067
        },
        {
          "distance": 0.5976233,
          "id": 1763196735
        },
        {
          "distance": 0.6196636,
          "id": 1527840055
        },
        {
          "distance": 0.62553006,
          "id": 1763196729
        },
        {
          "distance": 0.6325497,
          "id": 1763196731
        },
        {
          "distance": 0.6339262,
          "id": 1763196725
        },
        {
          "distance": 0.6473577,
          "id": 1527840065
        },
        {
          "distance": 0.6592462,
          "id": 1527840053
        },
        {
          "distance": 0.6818891,
          "id": 1763196737
        }
      ],
      "apple/mobileclip_s1": [
        {
          "distance": 0.36521405,
          "id": 1763196735
        },
        {
          "distance": 0.39054385,
          "id": 1527840067
        },
        {
          "distance": 0.39317352,
          "id": 1763196727
        },
        {
          "distance": 0.42748052,
          "id": 1527840071
        },
        {
          "distance": 0.44115797,
          "id": 1527840055
        },
        {
          "distance": 0.4436734,
          "id": 1527840065
        },
        {
          "distance": 0.4546879,
          "id": 1763196737
        },
        {
          "distance": 0.45576018,
          "id": 1763196731
        },
        {
          "distance": 0.4561072,
          "id": 1763196729
        },
        {
          "distance": 0.4749794,
          "id": 1527845789
        }
      ],
      "apple/mobileclip_s2": [
        {
          "distance": 0.46710598,
          "id": 1763196735
        },
        {
          "distance": 0.5289376,
          "id": 1763196727
        },
        {
          "distance": 0.57579434,
          "id": 1527840067
        },
        {
          "distance": 0.58054286,
          "id": 1527840071
        },
        {
          "distance": 0.58370596,
          "id": 1763196737
        },
        {
          "distance": 0.59781915,
          "id": 1763196729
        },
        {
          "distance": 0.62506604,
          "id": 1527840055
        },
        {
          "distance": 0.633354,
          "id": 1527840065
        },
        {
          "distance": 0.64897865,
          "id": 1527840061
        },
        {
          "distance": 0.6561347,
          "id": 1527840051
        }
      ]
    },
    "millsfield:subcategory_id": 1511213425,
    "mz:hierarchy_label": 1,
    "mz:is_current": -1,
    "sfomuseum:filename": "2009.122.333.tif",
    "sfomuseum:image_id": 66249,
    "sfomuseum:image_index": 5,
    "sfomuseum:image_type": "studio",
    "sfomuseum:object_id": 103336,
    "sfomuseum:placetype": "image",
    "sfomuseum:primary_image": 1,
    "src:geom": "sfomuseum",
    "wof:belongsto": [
      1511214223,
      1511940653,
      102527513,
      102191575,
      85633793,
      1511213425,
      85922583,
      102087579,
      1511214277,
      1511214203,
      85688637
    ],
    "wof:breaches": [],
    "wof:country": "XX",
    "wof:created": 1578952494,
    "wof:depicts": [
      1511940653,
      1159287035,
      1159284571
    ],
    "wof:geomhash": "bd906905ce4be6c0651c90b0fc24804c",
    "wof:hierarchy": [
      {
        "arcade_id": 1511213425,
        "building_id": 1511214277,
        "campus_id": 102527513,
        "concourse_id": 1511214223,
        "continent_id": 102191575,
        "country_id": 85633793,
        "county_id": 102087579,
        "custom_id": 1527840059,
        "image_id": 1527840059,
        "locality_id": 85922583,
        "media_id": 1527840059,
        "neighbourhood_id": -1,
        "region_id": 85688637,
        "venue_id": 1511940653,
        "wing_id": 1511214203
      }
    ],
    "wof:id": 1527840059,
    "wof:lastmodified": 1788450012,
    "wof:name": "timetable: Japan Asia Airways",
    "wof:parent_id": 1511940653,
    "wof:placetype": "custom",
    "wof:placetype_alt": [
      "image"
    ],
    "wof:repo": "sfomuseum-data-media-collection",
    "wof:superseded_by": [],
    "wof:supersedes": [],
    "wof:tags": []
  },
  "bbox": [
    -122.386155,
    37.616358,
    -122.386155,
    37.616358
  ],
  "geometry": {"type":"Point","coordinates":[-122.386155,37.616358]}
}
