{
  "id": 1796506297,
  "type": "Feature",
  "properties": {
    "date:cessation_lower": "2011-01-01",
    "date:cessation_upper": "2011-12-31",
    "date:inception_lower": "2011-01-01",
    "date:inception_upper": "2011-12-31",
    "edtf:cessation": "2011",
    "edtf:inception": "2011",
    "geom:area": 2.477324999997507e-7,
    "geom:bbox": "-122.386472,37.616105,-122.385834,37.616611",
    "geom:latitude": 37.61635756125121,
    "geom:longitude": -122.38615532866096,
    "media:fingerprint": "aa9079d1625c8e0aafd59f48858219bd08b23e8a",
    "media:imagehash_avg": "a:ffffff1f020fffff",
    "media:imagehash_diff": "d:e0f0f07c3c3ce0e0",
    "media:mimetype": "image/jpeg",
    "media:properties": {
      "sizes": {
        "b": {
          "extension": "jpg",
          "height": 362,
          "mimetype": "image/jpeg",
          "secret": "ML2ZosRQ9BofkzkRQ3yTm0v4DKMDBir6",
          "width": 1024
        },
        "c": {
          "extension": "jpg",
          "height": 282,
          "mimetype": "image/jpeg",
          "secret": "ML2ZosRQ9BofkzkRQ3yTm0v4DKMDBir6",
          "width": 800
        },
        "dc": {
          "extension": "jpg",
          "height": 282,
          "mimetype": "image/jpeg",
          "secret": "ML2ZosRQ9BofkzkRQ3yTm0v4DKMDBir6",
          "width": 800
        },
        "ds": {
          "extension": "jpg",
          "height": 320,
          "mimetype": "image/jpeg",
          "secret": "ML2ZosRQ9BofkzkRQ3yTm0v4DKMDBir6",
          "width": 320
        },
        "k": {
          "extension": "jpg",
          "height": 724,
          "mimetype": "image/jpeg",
          "secret": "ML2ZosRQ9BofkzkRQ3yTm0v4DKMDBir6",
          "width": 2048
        },
        "n": {
          "extension": "jpg",
          "height": 113,
          "mimetype": "image/jpeg",
          "secret": "ML2ZosRQ9BofkzkRQ3yTm0v4DKMDBir6",
          "width": 320
        },
        "o": {
          "extension": "jpg",
          "height": 509,
          "mimetype": "image/jpeg",
          "secret": "pzWIuo9dTgGqrNfqZT9N6GNXFN8qhV5v",
          "width": 1439
        },
        "s": {
          "extension": "jpg",
          "height": 320,
          "mimetype": "image/jpeg",
          "secret": "ML2ZosRQ9BofkzkRQ3yTm0v4DKMDBir6",
          "width": 320
        },
        "z": {
          "extension": "jpg",
          "height": 226,
          "mimetype": "image/jpeg",
          "secret": "ML2ZosRQ9BofkzkRQ3yTm0v4DKMDBir6",
          "width": 640
        }
      }
    },
    "media:source": "sfomuseum",
    "media:status_id": 1,
    "media:uri_template": "https://static.sfomuseum.org/media/179/650/629/7/1796506297_{secret}_{label}.{extension}",
    "millsfield:airline_id": [
      1159285163
    ],
    "millsfield:category_id": 1746152551,
    "millsfield:collection_id": 1511214203,
    "millsfield:company_id": [
      1159288903
    ],
    "millsfield:images_colors": [
      {
        "hex": "#d7d7d6",
        "name": "#d7d7d6",
        "reference": "marekm4"
      },
      {
        "hex": "#d3d3d3",
        "name": "lightgrey",
        "reference": "css4"
      },
      {
        "hex": "#dbd7d2",
        "name": "Timberwolf",
        "reference": "crayola"
      },
      {
        "hex": "#343633",
        "name": "#343633",
        "reference": "marekm4"
      },
      {
        "hex": "#2f4f4f",
        "name": "darkslategrey",
        "reference": "css4"
      },
      {
        "hex": "#414a4c",
        "name": "Outer Space",
        "reference": "crayola"
      }
    ],
    "millsfield:similar": {
      "apple/mobileclip_s0": [
        {
          "distance": 0.21147615,
          "id": 1796506301
        },
        {
          "distance": 0.22078614,
          "id": 1796506293
        },
        {
          "distance": 0.24799503,
          "id": 1796506295
        },
        {
          "distance": 0.29296356,
          "id": 1796596945
        },
        {
          "distance": 0.30003014,
          "id": 1796596941
        },
        {
          "distance": 0.30016565,
          "id": 1796506291
        },
        {
          "distance": 0.31051105,
          "id": 1796506289
        },
        {
          "distance": 0.3268183,
          "id": 1796596939
        },
        {
          "distance": 0.3330856,
          "id": 1796597047
        },
        {
          "distance": 0.3374328,
          "id": 1796484677
        }
      ],
      "apple/mobileclip_s1": [
        {
          "distance": 0.18450105,
          "id": 1796506301
        },
        {
          "distance": 0.19521342,
          "id": 1796506293
        },
        {
          "distance": 0.20078796,
          "id": 1796506295
        },
        {
          "distance": 0.24472967,
          "id": 1796506291
        },
        {
          "distance": 0.25484076,
          "id": 1796506289
        },
        {
          "distance": 0.26039097,
          "id": 1796596945
        },
        {
          "distance": 0.2800419,
          "id": 1796596941
        },
        {
          "distance": 0.28485417,
          "id": 1796484683
        },
        {
          "distance": 0.31255534,
          "id": 1796596943
        },
        {
          "distance": 0.31894693,
          "id": 1796596939
        }
      ],
      "apple/mobileclip_s2": [
        {
          "distance": 0.2211955,
          "id": 1796506295
        },
        {
          "distance": 0.265571,
          "id": 1796506289
        },
        {
          "distance": 0.26634705,
          "id": 1796506291
        },
        {
          "distance": 0.28178427,
          "id": 1796506293
        },
        {
          "distance": 0.28786808,
          "id": 1796506301
        },
        {
          "distance": 0.29973692,
          "id": 1796484677
        },
        {
          "distance": 0.34128082,
          "id": 1796596945
        },
        {
          "distance": 0.34170884,
          "id": 1796484683
        },
        {
          "distance": 0.3461594,
          "id": 1796484675
        },
        {
          "distance": 0.34784153,
          "id": 1796503267
        }
      ]
    },
    "millsfield:subcategory_id": 1511213417,
    "mz:is_current": 1,
    "sfomuseum:filename": "30759.jpg",
    "sfomuseum:image_id": 30759,
    "sfomuseum:image_index": 1,
    "sfomuseum:image_type": "curator",
    "sfomuseum:object_id": 118392,
    "sfomuseum:placetype": "image",
    "sfomuseum:primary_image": 1,
    "src:geom": "sfomuseum",
    "wof:belongsto": [
      102527513,
      1159162825,
      102191575,
      85633793,
      102087579,
      85922583,
      1796506051,
      85688637,
      1159160869
    ],
    "wof:country": "XY",
    "wof:created": 1666943440,
    "wof:depicts": [
      1159285163,
      1159288903,
      1796506051
    ],
    "wof:geomhash": "ed7c2ab3547fc3916b5edc33488deaa7",
    "wof:hierarchy": [
      {
        "building_id": -1,
        "campus_id": 102527513,
        "collection_id": 1159162825,
        "concourse_id": 1159162825,
        "continent_id": 102191575,
        "country_id": 85633793,
        "county_id": 102087579,
        "custom_id": 1796506297,
        "image_id": 1796506297,
        "locality_id": 85922583,
        "neighbourhood_id": -1,
        "object_id": 1796506051,
        "region_id": 85688637,
        "wing_id": 1159160869
      }
    ],
    "wof:id": 1796506297,
    "wof:lastmodified": 1788451552,
    "wof:name": "fork: Singapore Airlines",
    "wof:parent_id": 1796506051,
    "wof:placetype": "custom",
    "wof:placetype_alt": [
      "image"
    ],
    "wof:repo": "sfomuseum-data-media-collection",
    "wof:superseded_by": [],
    "wof:supersedes": []
  },
  "bbox": [
    -122.386472,
    37.616105,
    -122.385834,
    37.616611
  ],
  "geometry": {"type":"Polygon","coordinates":[[[-122.386472,37.616318],[-122.386435,37.616233],[-122.386376,37.616178],[-122.386301,37.616131],[-122.386161,37.616105],[-122.386022,37.616131],[-122.385914,37.616186],[-122.385855,37.616267],[-122.385834,37.616369],[-122.385871,37.616467],[-122.385941,37.616543],[-122.386054,37.616603],[-122.386183,37.616611],[-122.386306,37.616573],[-122.386419,37.616509],[-122.386467,37.616411],[-122.386472,37.616318]]]}
}
