{
  "id": 1964107599,
  "type": "Feature",
  "properties": {
    "date:cessation_lower": "1990-01-01",
    "date:cessation_upper": "1999-12-31",
    "date:inception_lower": "1990-01-01",
    "date:inception_upper": "1999-12-31",
    "edtf:cessation": "199X",
    "edtf:inception": "199X",
    "geom:area": 2.477324999997507e-7,
    "geom:bbox": "-122.386472,37.616105,-122.385834,37.616611",
    "geom:latitude": 37.61635756125121,
    "geom:longitude": -122.38615532866096,
    "media:fingerprint": "396ba657f25e4d05eea9eb96b2ef1f48a2a9cfd6",
    "media:imagehash_avg": "a:e7c3e3e3f3fbf3e7",
    "media:imagehash_diff": "d:8e8e4eced656d646",
    "media:imagetext": "Making flying a pleasure\nsince 1923.\nOH-LCA\n- FINISH AIR LINES - T\nDC-3\nAERO\nFINNISH AIR LINES",
    "media:imagetext_created": 1787975121,
    "media:imagetext_source": "com.apple.visionkit.VNImageRequestHandler#Version 26.6.2 (Build 25G83)",
    "media:mimetype": "image/tiff",
    "media:properties": {
      "sizes": {
        "b": {
          "extension": "jpg",
          "height": 768,
          "mimetype": "image/jpeg",
          "secret": "fe2wbvdwvbAlWKnwaC1two17JSfVeLXA",
          "width": 965
        },
        "c": {
          "extension": "jpg",
          "height": 600,
          "mimetype": "image/jpeg",
          "secret": "fe2wbvdwvbAlWKnwaC1two17JSfVeLXA",
          "width": 754
        },
        "dc": {
          "extension": "jpg",
          "height": 1667,
          "mimetype": "image/jpeg",
          "secret": "fe2wbvdwvbAlWKnwaC1two17JSfVeLXA",
          "width": 2096
        },
        "ds": {
          "extension": "jpg",
          "height": 1667,
          "mimetype": "image/jpeg",
          "secret": "fe2wbvdwvbAlWKnwaC1two17JSfVeLXA",
          "width": 2096
        },
        "k": {
          "extension": "jpg",
          "height": 1536,
          "mimetype": "image/jpeg",
          "secret": "fe2wbvdwvbAlWKnwaC1two17JSfVeLXA",
          "width": 1931
        },
        "n": {
          "extension": "jpg",
          "height": 240,
          "mimetype": "image/jpeg",
          "secret": "fe2wbvdwvbAlWKnwaC1two17JSfVeLXA",
          "width": 301
        },
        "o": {
          "extension": "jpg",
          "height": 1667,
          "mimetype": "image/jpeg",
          "secret": "ndgb5ZyZv54K9aYgm71FAworOcBX4ijb",
          "width": 2096
        },
        "s": {
          "extension": "jpg",
          "height": 1667,
          "mimetype": "image/jpeg",
          "secret": "fe2wbvdwvbAlWKnwaC1two17JSfVeLXA",
          "width": 2096
        },
        "z": {
          "extension": "jpg",
          "height": 480,
          "mimetype": "image/jpeg",
          "secret": "fe2wbvdwvbAlWKnwaC1two17JSfVeLXA",
          "width": 603
        }
      }
    },
    "media:source": "sfomuseum",
    "media:status_id": 1,
    "media:uri_template": "https://static.sfomuseum.org/media/196/410/759/9/1964107599_{secret}_{label}.{extention}",
    "millsfield:airline_id": [
      1159284389
    ],
    "millsfield:category_id": 1763416373,
    "millsfield:collection_id": 1511214203,
    "millsfield:company_id": [
      1159287841
    ],
    "millsfield:images_colors": [
      {
        "hex": "#aeaeac",
        "name": "#aeaeac",
        "reference": "marekm4"
      },
      {
        "hex": "#a9a9a9",
        "name": "darkgrey",
        "reference": "css4"
      },
      {
        "hex": "#b0b7c6",
        "name": "Cadet Blue",
        "reference": "crayola"
      },
      {
        "hex": "#57524a",
        "name": "#57524a",
        "reference": "marekm4"
      },
      {
        "hex": "#556b2f",
        "name": "darkolivegreen",
        "reference": "css4"
      },
      {
        "hex": "#414a4c",
        "name": "Outer Space",
        "reference": "crayola"
      },
      {
        "hex": "#364e90",
        "name": "#364e90",
        "reference": "marekm4"
      },
      {
        "hex": "#483d8b",
        "name": "darkslateblue",
        "reference": "css4"
      },
      {
        "hex": "#2e5894",
        "name": "B'dazzled Blue",
        "reference": "crayola"
      }
    ],
    "millsfield:images_texts": [
      "Making flying a pleasure\nsince 1923.\nOH-LCA\n- FINISH AIR LINES - T\nDC-3\nAERO\nFINNISH AIR LINES"
    ],
    "millsfield:images_texts_ids": [
      1964107599
    ],
    "millsfield:similar": {
      "apple/mobileclip_s0": [
        {
          "distance": 0.40253302,
          "id": 1964107525
        },
        {
          "distance": 0.42847648,
          "id": 1964107523
        },
        {
          "distance": 0.578463,
          "id": 2014778309
        },
        {
          "distance": 0.58463544,
          "id": 2014778319
        },
        {
          "distance": 0.58741516,
          "id": 1897892317
        },
        {
          "distance": 0.5940301,
          "id": 1964107119
        },
        {
          "distance": 0.5943788,
          "id": 2014778315
        },
        {
          "distance": 0.59652495,
          "id": 2014778753
        },
        {
          "distance": 0.5988525,
          "id": 1763380497
        },
        {
          "distance": 0.60003334,
          "id": 1964341671
        }
      ],
      "apple/mobileclip_s1": [
        {
          "distance": 0.3160681,
          "id": 1964107525
        },
        {
          "distance": 0.3400402,
          "id": 1964107523
        },
        {
          "distance": 0.46266654,
          "id": 1897892317
        },
        {
          "distance": 0.47343957,
          "id": 1964115887
        },
        {
          "distance": 0.47797266,
          "id": 2014778411
        },
        {
          "distance": 0.48071155,
          "id": 2014778837
        },
        {
          "distance": 0.4821883,
          "id": 1964341685
        },
        {
          "distance": 0.48283654,
          "id": 1964106897
        },
        {
          "distance": 0.48397484,
          "id": 1964341671
        },
        {
          "distance": 0.48437127,
          "id": 1964106957
        }
      ],
      "apple/mobileclip_s2": [
        {
          "distance": 0.44966236,
          "id": 1964107525
        },
        {
          "distance": 0.5577231,
          "id": 1964107523
        },
        {
          "distance": 0.64721495,
          "id": 2014778319
        },
        {
          "distance": 0.67486334,
          "id": 2014778309
        },
        {
          "distance": 0.6883322,
          "id": 2014778315
        },
        {
          "distance": 0.69380105,
          "id": 1964106713
        },
        {
          "distance": 0.69619197,
          "id": 1964368079
        },
        {
          "distance": 0.69804704,
          "id": 2014778055
        },
        {
          "distance": 0.6999443,
          "id": 1964341685
        },
        {
          "distance": 0.70005035,
          "id": 1964107059
        }
      ]
    },
    "millsfield:subcategory_id": 1511213677,
    "mz:is_current": 1,
    "sfomuseum:filename": "114995.tif",
    "sfomuseum:image_id": 114995,
    "sfomuseum:image_index": 5,
    "sfomuseum:image_type": "studio",
    "sfomuseum:object_id": 129900,
    "sfomuseum:placetype": "image",
    "sfomuseum:primary_image": 1,
    "src:geom": "sfomuseum",
    "wof:belongsto": [
      102527513,
      1159162825,
      102191575,
      85633793,
      102087579,
      85922583,
      1964106397,
      85688637,
      1159160869
    ],
    "wof:country": "XY",
    "wof:created": 1742974843,
    "wof:depicts": [
      1964106397,
      1159284389,
      1159287841
    ],
    "wof:geomhash": "ed7c2ab3547fc3916b5edc33488deaa7",
    "wof:hierarchy": [
      {
        "building_id": -1,
        "campus_id": 102527513,
        "collection_id": 1159162825,
        "concourse_id": 1159162825,
        "continent_id": 102191575,
        "country_id": 85633793,
        "county_id": 102087579,
        "custom_id": 1964107599,
        "locality_id": 85922583,
        "neighbourhood_id": -1,
        "object_id": 1964106397,
        "region_id": 85688637,
        "wing_id": 1159160869
      }
    ],
    "wof:id": 1964107599,
    "wof:lastmodified": 1788452549,
    "wof:name": "matchbook: Finnish Air Lines (Finnair)",
    "wof:parent_id": 1964106397,
    "wof:placetype": "custom",
    "wof:repo": "sfomuseum-data-media-collection",
    "wof:superseded_by": [],
    "wof:supersedes": []
  },
  "bbox": [
    -122.386472,
    37.616105,
    -122.385834,
    37.616611
  ],
  "geometry": {"type":"Polygon","coordinates":[[[-122.386472,37.616318],[-122.386435,37.616233],[-122.386376,37.616178],[-122.386301,37.616131],[-122.386161,37.616105],[-122.386022,37.616131],[-122.385914,37.616186],[-122.385855,37.616267],[-122.385834,37.616369],[-122.385871,37.616467],[-122.385941,37.616543],[-122.386054,37.616603],[-122.386183,37.616611],[-122.386306,37.616573],[-122.386419,37.616509],[-122.386467,37.616411],[-122.386472,37.616318]]]}
}
