{
  "id": 1780332985,
  "type": "Feature",
  "properties": {
    "date:cessation_lower": "1930-01-01",
    "date:cessation_upper": "1939-12-31",
    "date:inception_lower": "1930-01-01",
    "date:inception_upper": "1939-12-31",
    "edtf:cessation": "193X",
    "edtf:inception": "193X",
    "geom:area": 2.477324999997507e-7,
    "geom:bbox": "-122.386472,37.616105,-122.385834,37.616611",
    "geom:latitude": 37.61635756125121,
    "geom:longitude": -122.38615532866096,
    "media:fingerprint": "0cef6618ead81310be60a9a8a4b5ad7846df7130",
    "media:imagehash_avg": "a:ffffe7c3c3e7ffff",
    "media:imagehash_diff": "d:ce98ce8e8e0c2c90",
    "media:imagetext": "W\n5",
    "media:imagetext_created": 1787966096,
    "media:imagetext_source": "com.apple.visionkit.VNImageRequestHandler#Version 26.6.2 (Build 25G83)",
    "media:mimetype": "image/tiff",
    "media:properties": {
      "sizes": {
        "b": {
          "extension": "jpg",
          "height": 768,
          "mimetype": "image/jpeg",
          "secret": "wWKOMgCm0lMTc7QK9DKXaEtO2hkw6RNC",
          "width": 965
        },
        "c": {
          "extension": "jpg",
          "height": 600,
          "mimetype": "image/jpeg",
          "secret": "wWKOMgCm0lMTc7QK9DKXaEtO2hkw6RNC",
          "width": 754
        },
        "dc": {
          "extension": "jpg",
          "height": 600,
          "mimetype": "image/jpeg",
          "secret": "wWKOMgCm0lMTc7QK9DKXaEtO2hkw6RNC",
          "width": 754
        },
        "ds": {
          "extension": "jpg",
          "height": 320,
          "mimetype": "image/jpeg",
          "secret": "wWKOMgCm0lMTc7QK9DKXaEtO2hkw6RNC",
          "width": 320
        },
        "k": {
          "extension": "jpg",
          "height": 1536,
          "mimetype": "image/jpeg",
          "secret": "wWKOMgCm0lMTc7QK9DKXaEtO2hkw6RNC",
          "width": 1931
        },
        "n": {
          "extension": "jpg",
          "height": 240,
          "mimetype": "image/jpeg",
          "secret": "wWKOMgCm0lMTc7QK9DKXaEtO2hkw6RNC",
          "width": 301
        },
        "o": {
          "extension": "jpg",
          "height": 1667,
          "mimetype": "image/jpeg",
          "secret": "jxLtve9Blifu2pWJpT4P4X5I0Dgnfo7D",
          "width": 2096
        },
        "s": {
          "extension": "jpg",
          "height": 320,
          "mimetype": "image/jpeg",
          "secret": "wWKOMgCm0lMTc7QK9DKXaEtO2hkw6RNC",
          "width": 320
        },
        "z": {
          "extension": "jpg",
          "height": 480,
          "mimetype": "image/jpeg",
          "secret": "wWKOMgCm0lMTc7QK9DKXaEtO2hkw6RNC",
          "width": 603
        }
      }
    },
    "media:source": "sfomuseum",
    "media:status_id": 1,
    "media:uri_template": "https://static.sfomuseum.org/media/178/033/298/5/1780332985_{secret}_{label}.{extension}",
    "millsfield:airline_id": [
      1159286385
    ],
    "millsfield:category_id": 1511214225,
    "millsfield:collection_id": 1511214203,
    "millsfield:company_id": [
      1159287299
    ],
    "millsfield:images_colors": [
      {
        "hex": "#ababaa",
        "name": "#ababaa",
        "reference": "marekm4"
      },
      {
        "hex": "#a9a9a9",
        "name": "darkgrey",
        "reference": "css4"
      },
      {
        "hex": "#979aaa",
        "name": "Manatee",
        "reference": "crayola"
      },
      {
        "hex": "#383b48",
        "name": "#383b48",
        "reference": "marekm4"
      },
      {
        "hex": "#2f4f4f",
        "name": "darkslategrey",
        "reference": "css4"
      },
      {
        "hex": "#414a4c",
        "name": "Outer Space",
        "reference": "crayola"
      }
    ],
    "millsfield:images_texts": [
      "W\n5"
    ],
    "millsfield:images_texts_ids": [
      1780332985
    ],
    "millsfield:similar": {
      "apple/mobileclip_s0": [
        {
          "distance": 0.52845275,
          "id": 1780379713
        },
        {
          "distance": 0.5765657,
          "id": 1780332991
        },
        {
          "distance": 0.6196199,
          "id": 1780332949
        },
        {
          "distance": 0.621829,
          "id": 1763373071
        },
        {
          "distance": 0.6224735,
          "id": 1763379201
        },
        {
          "distance": 0.62708706,
          "id": 1763373065
        },
        {
          "distance": 0.630217,
          "id": 1897306057
        },
        {
          "distance": 0.6314409,
          "id": 1779590717
        },
        {
          "distance": 0.6328109,
          "id": 1762987079
        },
        {
          "distance": 0.63424397,
          "id": 1763373153
        }
      ],
      "apple/mobileclip_s1": [
        {
          "distance": 0.34719837,
          "id": 1780379713
        },
        {
          "distance": 0.42744175,
          "id": 1897306069
        },
        {
          "distance": 0.43220466,
          "id": 1796414417
        },
        {
          "distance": 0.4330958,
          "id": 1796444629
        },
        {
          "distance": 0.44048375,
          "id": 1780332991
        },
        {
          "distance": 0.44204977,
          "id": 1780332949
        },
        {
          "distance": 0.44714254,
          "id": 1763389369
        },
        {
          "distance": 0.45070425,
          "id": 1796444635
        },
        {
          "distance": 0.45099545,
          "id": 1796444545
        },
        {
          "distance": 0.4510628,
          "id": 1763381181
        }
      ],
      "apple/mobileclip_s2": [
        {
          "distance": 0.5076448,
          "id": 1780379713
        },
        {
          "distance": 0.52037287,
          "id": 1780332965
        },
        {
          "distance": 0.58827245,
          "id": 1763101869
        },
        {
          "distance": 0.6157949,
          "id": 1796444437
        },
        {
          "distance": 0.6158612,
          "id": 1780332949
        },
        {
          "distance": 0.61747587,
          "id": 1881041493
        },
        {
          "distance": 0.6215534,
          "id": 1763373029
        },
        {
          "distance": 0.62220347,
          "id": 1762973605
        },
        {
          "distance": 0.625069,
          "id": 1796444545
        },
        {
          "distance": 0.62765384,
          "id": 1763379491
        }
      ]
    },
    "millsfield:subcategory_id": 1511213613,
    "mz:is_current": 1,
    "sfomuseum:filename": "116468.tif",
    "sfomuseum:image_id": 116468,
    "sfomuseum:image_index": 5,
    "sfomuseum:image_type": "studio",
    "sfomuseum:object_id": 113409,
    "sfomuseum:placetype": "image",
    "sfomuseum:primary_image": 1,
    "src:geom": "sfomuseum",
    "wof:belongsto": [
      102527513,
      1159162825,
      102191575,
      85633793,
      102087579,
      85922583,
      1780332655,
      85688637,
      1159160869
    ],
    "wof:country": "XY",
    "wof:created": 1661327654,
    "wof:depicts": [
      1780332655,
      1159286385,
      1159287299
    ],
    "wof:geomhash": "ed7c2ab3547fc3916b5edc33488deaa7",
    "wof:hierarchy": [
      {
        "building_id": -1,
        "campus_id": 102527513,
        "collection_id": 1159162825,
        "concourse_id": 1159162825,
        "continent_id": 102191575,
        "country_id": 85633793,
        "county_id": 102087579,
        "custom_id": 1780332985,
        "image_id": 1780332985,
        "locality_id": 85922583,
        "neighbourhood_id": -1,
        "object_id": 1780332655,
        "region_id": 85688637,
        "wing_id": 1159160869
      }
    ],
    "wof:id": 1780332985,
    "wof:lastmodified": 1788451482,
    "wof:name": "service pin: TWA (Transcontinental \u0026 Western Air), 5 years",
    "wof:parent_id": 1780332655,
    "wof:placetype": "custom",
    "wof:placetype_alt": [
      "image"
    ],
    "wof:repo": "sfomuseum-data-media-collection",
    "wof:superseded_by": [],
    "wof:supersedes": []
  },
  "bbox": [
    -122.386472,
    37.616105,
    -122.385834,
    37.616611
  ],
  "geometry": {"type":"Polygon","coordinates":[[[-122.386472,37.616318],[-122.386435,37.616233],[-122.386376,37.616178],[-122.386301,37.616131],[-122.386161,37.616105],[-122.386022,37.616131],[-122.385914,37.616186],[-122.385855,37.616267],[-122.385834,37.616369],[-122.385871,37.616467],[-122.385941,37.616543],[-122.386054,37.616603],[-122.386183,37.616611],[-122.386306,37.616573],[-122.386419,37.616509],[-122.386467,37.616411],[-122.386472,37.616318]]]}
}
