{
  "id": 1763241067,
  "type": "Feature",
  "properties": {
    "date:cessation_lower": "1990-01-01",
    "date:cessation_upper": "1999-12-31",
    "date:inception_lower": "1990-01-01",
    "date:inception_upper": "1999-12-31",
    "edtf:cessation": "199X",
    "edtf:inception": "199X",
    "geom:area": 2.477324999997507e-7,
    "geom:bbox": "-122.386472,37.616105,-122.385834,37.616611",
    "geom:latitude": 37.61635756125121,
    "geom:longitude": -122.38615532866096,
    "media:fingerprint": "3ae6b8377d371d3dedceecfbf10c8c7cbff50eca",
    "media:imagehash_avg": "a:ff8181818181819f",
    "media:imagehash_diff": "d:3133333737373773",
    "media:imagetext": "TAME\nLINEA AEREA DEL ECUADOR\nALAS PARA LA INTEGRACION\nFUNDA DE MAREO\nElabor:\ndo por:\nMONTGAR ECUADOR\nTELF: 434 009/010",
    "media:imagetext_created": 1787961375,
    "media:imagetext_source": "com.apple.visionkit.VNImageRequestHandler#Version 26.6.2 (Build 25G83)",
    "media:mimetype": "image/tiff",
    "media:properties": {
      "sizes": {
        "b": {
          "extension": "jpg",
          "height": 768,
          "mimetype": "image/jpeg",
          "secret": "dprs2O1lcgkSfXKhdIq0ihfqEPCuLV0c",
          "width": 369
        },
        "c": {
          "extension": "jpg",
          "height": 600,
          "mimetype": "image/jpeg",
          "secret": "dprs2O1lcgkSfXKhdIq0ihfqEPCuLV0c",
          "width": 288
        },
        "dc": {
          "extension": "jpg",
          "height": 600,
          "mimetype": "image/jpeg",
          "secret": "dprs2O1lcgkSfXKhdIq0ihfqEPCuLV0c",
          "width": 288
        },
        "ds": {
          "extension": "jpg",
          "height": 320,
          "mimetype": "image/jpeg",
          "secret": "dprs2O1lcgkSfXKhdIq0ihfqEPCuLV0c",
          "width": 320
        },
        "k": {
          "extension": "jpg",
          "height": 1536,
          "mimetype": "image/jpeg",
          "secret": "dprs2O1lcgkSfXKhdIq0ihfqEPCuLV0c",
          "width": 739
        },
        "n": {
          "extension": "jpg",
          "height": 240,
          "mimetype": "image/jpeg",
          "secret": "dprs2O1lcgkSfXKhdIq0ihfqEPCuLV0c",
          "width": 115
        },
        "o": {
          "extension": "jpg",
          "height": 2000,
          "mimetype": "image/jpeg",
          "secret": "5RpPw1BDTXreaTJNTs8orBTVQUQG6ahO",
          "width": 963
        },
        "s": {
          "extension": "jpg",
          "height": 320,
          "mimetype": "image/jpeg",
          "secret": "dprs2O1lcgkSfXKhdIq0ihfqEPCuLV0c",
          "width": 320
        },
        "z": {
          "extension": "jpg",
          "height": 480,
          "mimetype": "image/jpeg",
          "secret": "dprs2O1lcgkSfXKhdIq0ihfqEPCuLV0c",
          "width": 231
        }
      }
    },
    "media:source": "sfomuseum",
    "media:status_id": 1,
    "media:uri_template": "https://static.sfomuseum.org/media/176/324/106/7/1763241067_{secret}_{label}.{extension}",
    "millsfield:airline_id": [
      1159285263
    ],
    "millsfield:category_id": 1762671311,
    "millsfield:collection_id": 1511214207,
    "millsfield:company_id": [
      1159286603
    ],
    "millsfield:images_colors": [
      {
        "hex": "#0016ac",
        "name": "#0016ac",
        "reference": "marekm4"
      },
      {
        "hex": "#0000cd",
        "name": "mediumblue",
        "reference": "css4"
      },
      {
        "hex": "#324ab2",
        "name": "Violet Blue",
        "reference": "crayola"
      },
      {
        "hex": "#00011f",
        "name": "#00011f",
        "reference": "marekm4"
      },
      {
        "hex": "#000000",
        "name": "black",
        "reference": "css4"
      },
      {
        "hex": "#000000",
        "name": "Black",
        "reference": "crayola"
      }
    ],
    "millsfield:images_texts": [
      "TAME\nLINEA AEREA DEL ECUADOR\nALAS PARA LA INTEGRACION\nFUNDA DE MAREO\nElabor:\ndo por:\nMONTGAR ECUADOR\nTELF: 434 009/010"
    ],
    "millsfield:images_texts_ids": [
      1763241067
    ],
    "millsfield:similar": {
      "apple/mobileclip_s0": [
        {
          "distance": 0.6799216,
          "id": 1897763541
        },
        {
          "distance": 0.6831119,
          "id": 1763205031
        },
        {
          "distance": 0.6840065,
          "id": 2014778721
        },
        {
          "distance": 0.6846575,
          "id": 1762697685
        },
        {
          "distance": 0.6848037,
          "id": 2014778411
        },
        {
          "distance": 0.6850439,
          "id": 2014778413
        },
        {
          "distance": 0.6859637,
          "id": 2048165603
        },
        {
          "distance": 0.6880584,
          "id": 1527848971
        },
        {
          "distance": 0.690006,
          "id": 1763241069
        },
        {
          "distance": 0.69030297,
          "id": 2014778309
        }
      ],
      "apple/mobileclip_s1": [
        {
          "distance": 0.57850087,
          "id": 1527842189
        },
        {
          "distance": 0.57935905,
          "id": 2014778721
        },
        {
          "distance": 0.57975763,
          "id": 1527824401
        },
        {
          "distance": 0.58358455,
          "id": 1527824459
        },
        {
          "distance": 0.5900282,
          "id": 1779521039
        },
        {
          "distance": 0.59025943,
          "id": 1527824461
        },
        {
          "distance": 0.5930645,
          "id": 1763204865
        },
        {
          "distance": 0.59393346,
          "id": 1763241069
        },
        {
          "distance": 0.5960022,
          "id": 1779503021
        },
        {
          "distance": 0.59899026,
          "id": 1527823343
        }
      ],
      "apple/mobileclip_s2": [
        {
          "distance": 0.7986948,
          "id": 1897763541
        },
        {
          "distance": 0.8071578,
          "id": 1527824459
        },
        {
          "distance": 0.81355786,
          "id": 1779503021
        },
        {
          "distance": 0.8188569,
          "id": 1779984645
        },
        {
          "distance": 0.8189437,
          "id": 1527855059
        },
        {
          "distance": 0.8199944,
          "id": 1527824461
        },
        {
          "distance": 0.8256444,
          "id": 1527852877
        },
        {
          "distance": 0.82898086,
          "id": 1796455157
        },
        {
          "distance": 0.8300445,
          "id": 1796455159
        },
        {
          "distance": 0.8321798,
          "id": 1527858555
        }
      ]
    },
    "millsfield:subcategory_id": 1511213185,
    "mz:is_current": 1,
    "sfomuseum:filename": "67548.tif",
    "sfomuseum:image_id": 67548,
    "sfomuseum:image_index": 5,
    "sfomuseum:image_type": "studio",
    "sfomuseum:object_id": 70322,
    "sfomuseum:placetype": "image",
    "sfomuseum:primary_image": 1,
    "src:geom": "sfomuseum",
    "wof:belongsto": [
      102527513,
      1159162825,
      102191575,
      85633793,
      102087579,
      85922583,
      1763240835,
      85688637,
      1159160869
    ],
    "wof:country": "XY",
    "wof:created": 1646901986,
    "wof:depicts": [
      1159285263,
      1159286603,
      1763240835
    ],
    "wof:geomhash": "ed7c2ab3547fc3916b5edc33488deaa7",
    "wof:hierarchy": [
      {
        "building_id": -1,
        "campus_id": 102527513,
        "collection_id": 1159162825,
        "concourse_id": 1159162825,
        "continent_id": 102191575,
        "country_id": 85633793,
        "county_id": 102087579,
        "custom_id": 1763241067,
        "image_id": 1763241067,
        "locality_id": 85922583,
        "neighbourhood_id": -1,
        "object_id": 1763240835,
        "region_id": 85688637,
        "wing_id": 1159160869
      }
    ],
    "wof:id": 1763241067,
    "wof:lastmodified": 1788450996,
    "wof:name": "airsickness bag: TAME (Transportes Aereos Militares Ecuatorianos)",
    "wof:parent_id": 1763240835,
    "wof:placetype": "custom",
    "wof:placetype_alt": [
      "image"
    ],
    "wof:repo": "sfomuseum-data-media-collection",
    "wof:superseded_by": [],
    "wof:supersedes": []
  },
  "bbox": [
    -122.386472,
    37.616105,
    -122.385834,
    37.616611
  ],
  "geometry": {"type":"Polygon","coordinates":[[[-122.386472,37.616318],[-122.386435,37.616233],[-122.386376,37.616178],[-122.386301,37.616131],[-122.386161,37.616105],[-122.386022,37.616131],[-122.385914,37.616186],[-122.385855,37.616267],[-122.385834,37.616369],[-122.385871,37.616467],[-122.385941,37.616543],[-122.386054,37.616603],[-122.386183,37.616611],[-122.386306,37.616573],[-122.386419,37.616509],[-122.386467,37.616411],[-122.386472,37.616318]]]}
}
