{
  "id": 1527831721,
  "type": "Feature",
  "properties": {
    "date:cessation_lower": "1931-01-30",
    "date:cessation_upper": "1931-01-30",
    "date:inception_lower": "1931-01-30",
    "date:inception_upper": "1931-01-30",
    "edtf:cessation": "1931-01-30",
    "edtf:date": "1931-01-30",
    "edtf:inception": "1931-01-30",
    "geom:area": 0,
    "geom:bbox": "-122.386155,37.616358,-122.386155,37.616358",
    "geom:latitude": 37.616358,
    "geom:longitude": -122.386155,
    "iso:country": "XX",
    "media:fingerprint": "7f8bf7b32510a1f6889402ed7515e1cdede8fa94",
    "media:imagehash_avg": "a:ffe18081818189ff",
    "media:imagehash_diff": "d:2b0b03131b63732b",
    "media:imagetext": "UNY\nVAGE\ndAN 30\n-1280 PM\n1931\nBE AIR\nSHORE TO SHID™\njomary 24 ,193)\nGRAND\nCENTRAL AIR TERMINAL\nEST. 1910\nS.S.\nCITY OF LOS ANGELES\nSOS ARIES HAMAN\nVIA AIR MAIL\nSOMPA\nMR. ICHIRO IWASAKI\n1424 N. SCHOOL ST.\nHONOLULU, HAWAII",
    "media:imagetext_created": 1787949336,
    "media:imagetext_source": "com.apple.visionkit.VNImageRequestHandler#Version 26.6.2 (Build 25G83)",
    "media:medium": "image",
    "media:mimetype": "image/tiff",
    "media:properties": {
      "sizes": {
        "b": {
          "extension": "jpg",
          "height": 587,
          "mimetype": "image/jpeg",
          "secret": "0RyZumo2MjfBmji6TSqzfjQ8o0WHDQVt",
          "width": 1024
        },
        "c": {
          "extension": "jpg",
          "height": 459,
          "mimetype": "image/jpeg",
          "secret": "0RyZumo2MjfBmji6TSqzfjQ8o0WHDQVt",
          "width": 800
        },
        "dc": {
          "extension": "jpg",
          "height": 459,
          "mimetype": "image/jpeg",
          "secret": "0RyZumo2MjfBmji6TSqzfjQ8o0WHDQVt",
          "width": 800
        },
        "ds": {
          "extension": "jpg",
          "height": 320,
          "mimetype": "image/jpeg",
          "secret": "0RyZumo2MjfBmji6TSqzfjQ8o0WHDQVt",
          "width": 320
        },
        "k": {
          "extension": "jpg",
          "height": 1175,
          "mimetype": "image/jpeg",
          "secret": "0RyZumo2MjfBmji6TSqzfjQ8o0WHDQVt",
          "width": 2048
        },
        "n": {
          "extension": "jpg",
          "height": 183,
          "mimetype": "image/jpeg",
          "secret": "0RyZumo2MjfBmji6TSqzfjQ8o0WHDQVt",
          "width": 320
        },
        "o": {
          "extension": "jpg",
          "height": 1204,
          "mimetype": "image/jpeg",
          "secret": "UZmpGkvoVPT4BQPnB60uFqUtL0JwZ38A",
          "width": 2097
        },
        "s": {
          "extension": "jpg",
          "height": 320,
          "mimetype": "image/jpeg",
          "secret": "0RyZumo2MjfBmji6TSqzfjQ8o0WHDQVt",
          "width": 320
        },
        "z": {
          "extension": "jpg",
          "height": 367,
          "mimetype": "image/jpeg",
          "secret": "0RyZumo2MjfBmji6TSqzfjQ8o0WHDQVt",
          "width": 640
        }
      }
    },
    "media:source": "sfomuseum",
    "media:status_id": 1,
    "media:uri_template": "https://static.sfomuseum.org/media/152/783/172/1/1527831721_{secret}_{label}.{extension}",
    "millsfield:category_id": 1511214215,
    "millsfield:collection_id": 1511214207,
    "millsfield:exhibition_ids": [
      1159160119
    ],
    "millsfield:images_colors": [
      {
        "hex": "#bfa071",
        "name": "#bfa071",
        "reference": "marekm4"
      },
      {
        "hex": "#bdb76b",
        "name": "darkkhaki",
        "reference": "css4"
      },
      {
        "hex": "#cd9575",
        "name": "Antique Brass",
        "reference": "crayola"
      },
      {
        "hex": "#e5dac9",
        "name": "#e5dac9",
        "reference": "marekm4"
      },
      {
        "hex": "#dcdcdc",
        "name": "gainsboro",
        "reference": "css4"
      },
      {
        "hex": "#efdecd",
        "name": "Almond",
        "reference": "crayola"
      },
      {
        "hex": "#454039",
        "name": "#454039",
        "reference": "marekm4"
      },
      {
        "hex": "#2f4f4f",
        "name": "darkslategrey",
        "reference": "css4"
      },
      {
        "hex": "#414a4c",
        "name": "Outer Space",
        "reference": "crayola"
      },
      {
        "hex": "#ab5131",
        "name": "#ab5131",
        "reference": "marekm4"
      },
      {
        "hex": "#a0522d",
        "name": "sienna",
        "reference": "css4"
      },
      {
        "hex": "#b4674d",
        "name": "Brown",
        "reference": "crayola"
      }
    ],
    "millsfield:images_texts": [
      "UNY\nVAGE\ndAN 30\n-1280 PM\n1931\nBE AIR\nSHORE TO SHID™\njomary 24 ,193)\nGRAND\nCENTRAL AIR TERMINAL\nEST. 1910\nS.S.\nCITY OF LOS ANGELES\nSOS ARIES HAMAN\nVIA AIR MAIL\nSOMPA\nMR. ICHIRO IWASAKI\n1424 N. SCHOOL ST.\nHONOLULU, HAWAII"
    ],
    "millsfield:images_texts_ids": [
      1527831721
    ],
    "millsfield:on_view": 0,
    "millsfield:similar": {
      "apple/mobileclip_s0": [
        {
          "distance": 0.5393487,
          "id": 1746281469
        },
        {
          "distance": 0.60629433,
          "id": 1527831859
        },
        {
          "distance": 0.6116281,
          "id": 1913822885
        },
        {
          "distance": 0.61222464,
          "id": 1527834457
        },
        {
          "distance": 0.6167246,
          "id": 1527819775
        },
        {
          "distance": 0.61974216,
          "id": 1527832577
        },
        {
          "distance": 0.6217847,
          "id": 1527832559
        },
        {
          "distance": 0.6220935,
          "id": 1527832585
        },
        {
          "distance": 0.6222773,
          "id": 1527833987
        },
        {
          "distance": 0.623381,
          "id": 1527833779
        }
      ],
      "apple/mobileclip_s1": [
        {
          "distance": 0.4143141,
          "id": 1746281469
        },
        {
          "distance": 0.42096746,
          "id": 1527852171
        },
        {
          "distance": 0.4505219,
          "id": 1527819775
        },
        {
          "distance": 0.45070514,
          "id": 1527833807
        },
        {
          "distance": 0.45395812,
          "id": 1527820017
        },
        {
          "distance": 0.45489442,
          "id": 1527831859
        },
        {
          "distance": 0.4550537,
          "id": 1527834743
        },
        {
          "distance": 0.46465173,
          "id": 1527829885
        },
        {
          "distance": 0.46736372,
          "id": 1527819973
        },
        {
          "distance": 0.46846563,
          "id": 1913823031
        }
      ],
      "apple/mobileclip_s2": [
        {
          "distance": 0.5680191,
          "id": 1527831453
        },
        {
          "distance": 0.5736101,
          "id": 1527833873
        },
        {
          "distance": 0.5791757,
          "id": 1527832469
        },
        {
          "distance": 0.58791775,
          "id": 1527851769
        },
        {
          "distance": 0.59690636,
          "id": 1527858691
        },
        {
          "distance": 0.5976273,
          "id": 1527851849
        },
        {
          "distance": 0.5977076,
          "id": 1527832535
        },
        {
          "distance": 0.6056258,
          "id": 1527829445
        },
        {
          "distance": 0.6075842,
          "id": 1527833815
        },
        {
          "distance": 0.6091024,
          "id": 1527852557
        }
      ]
    },
    "millsfield:subcategory_id": 1511213159,
    "mz:hierarchy_label": 1,
    "mz:is_current": -1,
    "sfomuseum:filename": "60699.tif",
    "sfomuseum:image_id": 60699,
    "sfomuseum:image_index": 5,
    "sfomuseum:image_type": "studio",
    "sfomuseum:object_id": 91189,
    "sfomuseum:placetype": "image",
    "sfomuseum:primary_image": 1,
    "src:geom": "sfomuseum",
    "wof:belongsto": [
      1511931509,
      1511214277,
      85633793,
      102087579,
      102527513,
      102191575,
      85688637,
      1511214203,
      1511213159,
      1511214215,
      85922583
    ],
    "wof:breaches": [],
    "wof:country": "XX",
    "wof:created": 1578951195,
    "wof:depicts": [
      1511931509
    ],
    "wof:geomhash": "bd906905ce4be6c0651c90b0fc24804c",
    "wof:hierarchy": [
      {
        "arcade_id": 1511213159,
        "building_id": 1511214277,
        "campus_id": 102527513,
        "concourse_id": 1511214215,
        "continent_id": 102191575,
        "country_id": 85633793,
        "county_id": 102087579,
        "custom_id": 1527831721,
        "image_id": 1527831721,
        "locality_id": 85922583,
        "media_id": 1527831721,
        "neighbourhood_id": -1,
        "region_id": 85688637,
        "venue_id": 1511931509,
        "wing_id": 1511214203
      }
    ],
    "wof:id": 1527831721,
    "wof:lastmodified": 1788449881,
    "wof:name": "airmail flight cover: Experimental Shore-to-Ship, Glendale - S.S. City of Los Angeles",
    "wof:parent_id": 1511931509,
    "wof:placetype": "custom",
    "wof:placetype_alt": [
      "image"
    ],
    "wof:repo": "sfomuseum-data-media-collection",
    "wof:superseded_by": [],
    "wof:supersedes": [],
    "wof:tags": []
  },
  "bbox": [
    -122.386155,
    37.616358,
    -122.386155,
    37.616358
  ],
  "geometry": {"type":"Point","coordinates":[-122.386155,37.616358]}
}
