{
  "id": 1913801223,
  "type": "Feature",
  "properties": {
    "date:cessation_lower": "1933-10-21",
    "date:cessation_upper": "1933-10-21",
    "date:inception_lower": "1933-10-21",
    "date:inception_upper": "1933-10-21",
    "edtf:cessation": "1933-10-21",
    "edtf:inception": "1933-10-21",
    "geom:area": 2.477324999997507e-7,
    "geom:bbox": "-122.386472,37.616105,-122.385834,37.616611",
    "geom:latitude": 37.61635756125121,
    "geom:longitude": -122.38615532866096,
    "media:fingerprint": "e316b8fa7b73568a74e72b898eee194fc66b726a",
    "media:imagehash_avg": "a:ff818181818181ff",
    "media:imagehash_diff": "d:4b0f5b6b69694315",
    "media:imagetext": "An jog to talk to margar\ntomorrow morning. They say the\nphone connection\nis prefret - but\nİf cours anyone can lestra in\nso I Called hund tronae\npheaso\n• to\nwar describing the\n-\nvarious \" matters\nmattis in whack\nлог виг\nintrated ithich wice\n• Kuor as a\nbland to cork\n- what uz\nair talking aboat.\nhow\nI wish\nthe Beckon\noperator tone probate face.\ndead.\nhavey\ndennis\nEare, eird.\nworking tonight.\n1.e.\nreading bon ale mu\nold\nCorreapon dence, etc.\ndearest -\nHad.",
    "media:imagetext_created": 1787972543,
    "media:imagetext_source": "com.apple.visionkit.VNImageRequestHandler#Version 26.6.2 (Build 25G83)",
    "media:mimetype": "image/tiff",
    "media:properties": {
      "sizes": {
        "b": {
          "extension": "jpg",
          "height": 768,
          "mimetype": "image/jpeg",
          "secret": "AETo1tHWwTeRns8bowKzS2IaRzkh9bI5",
          "width": 598
        },
        "c": {
          "extension": "jpg",
          "height": 600,
          "mimetype": "image/jpeg",
          "secret": "AETo1tHWwTeRns8bowKzS2IaRzkh9bI5",
          "width": 467
        },
        "dc": {
          "extension": "jpg",
          "height": 600,
          "mimetype": "image/jpeg",
          "secret": "AETo1tHWwTeRns8bowKzS2IaRzkh9bI5",
          "width": 467
        },
        "ds": {
          "extension": "jpg",
          "height": 320,
          "mimetype": "image/jpeg",
          "secret": "AETo1tHWwTeRns8bowKzS2IaRzkh9bI5",
          "width": 320
        },
        "k": {
          "extension": "jpg",
          "height": 1536,
          "mimetype": "image/jpeg",
          "secret": "AETo1tHWwTeRns8bowKzS2IaRzkh9bI5",
          "width": 1196
        },
        "n": {
          "extension": "jpg",
          "height": 240,
          "mimetype": "image/jpeg",
          "secret": "AETo1tHWwTeRns8bowKzS2IaRzkh9bI5",
          "width": 186
        },
        "o": {
          "extension": "jpg",
          "height": 2000,
          "mimetype": "image/jpeg",
          "secret": "BSLaKD6gUyx4hbnV89TboxamO2NdGXts",
          "width": 1558
        },
        "s": {
          "extension": "jpg",
          "height": 320,
          "mimetype": "image/jpeg",
          "secret": "AETo1tHWwTeRns8bowKzS2IaRzkh9bI5",
          "width": 320
        },
        "z": {
          "extension": "jpg",
          "height": 480,
          "mimetype": "image/jpeg",
          "secret": "AETo1tHWwTeRns8bowKzS2IaRzkh9bI5",
          "width": 373
        }
      }
    },
    "media:source": "sfomuseum",
    "media:status_id": 1,
    "media:uri_template": "https://static.sfomuseum.org/media/191/380/122/3/1913801223_{secret}_{label}.{extension}",
    "millsfield:airline_id": [
      1159284991,
      1159285931
    ],
    "millsfield:category_id": 1511214251,
    "millsfield:collection_id": 1511214207,
    "millsfield:company_id": [
      1159286721
    ],
    "millsfield:images_colors": [
      {
        "hex": "#e2d2ab",
        "name": "#e2d2ab",
        "reference": "marekm4"
      },
      {
        "hex": "#f5deb3",
        "name": "wheat",
        "reference": "css4"
      },
      {
        "hex": "#edd19c",
        "name": "Maize",
        "reference": "crayola"
      },
      {
        "hex": "#ae9b6f",
        "name": "#ae9b6f",
        "reference": "marekm4"
      },
      {
        "hex": "#bdb76b",
        "name": "darkkhaki",
        "reference": "css4"
      },
      {
        "hex": "#9f8170",
        "name": "Beaver",
        "reference": "crayola"
      },
      {
        "hex": "#37280f",
        "name": "#37280f",
        "reference": "marekm4"
      },
      {
        "hex": "#000000",
        "name": "black",
        "reference": "css4"
      },
      {
        "hex": "#000000",
        "name": "Black",
        "reference": "crayola"
      }
    ],
    "millsfield:images_texts": [
      "CABLE ADDRESS:\nMANHOCO - MANILA\nproud\nALL TELEGRAPHIC CODES\nHUBERT C. ANDERSON\nMANAGER\n- Jost\ntros\nTET\nLITER\nTHE\nSIGN OF SERVICE\nIN THE\nPHILIPPINES\n-Frida, Det 21\n20,33\nMANILA, HOTEL\nManila, Philippines\n\" Dearest Drbs-\nalt pind\ngot a wars, this\nnoon\nShanghai Mohich sit me up for\n• the dan\ndan it road \"Cort det\nRecrora -\nthat meant the\nhat pụt kio chap\non\nthe provocanie aftiment.\na little Eif aid that\nhe would\n90 s\nworld take advantagr\nof.\nthat.\nnot having bara\ndone plen\nThan grai to\nup. Mauguration of thi Canton\nfor\nfurthe concisions.",
      "An jog to talk to margar\ntomorrow morning. They say the\nphone connection\nis prefret - but\nİf cours anyone can lestra in\nso I Called hund tronae\npheaso\n• to\nwar describing the\n-\nvarious \" matters\nmattis in whack\nлог виг\nintrated ithich wice\n• Kuor as a\nbland to cork\n- what uz\nair talking aboat.\nhow\nI wish\nthe Beckon\noperator tone probate face.\ndead.\nhavey\ndennis\nEare, eird.\nworking tonight.\n1.e.\nreading bon ale mu\nold\nCorreapon dence, etc.\ndearest -\nHad."
    ],
    "millsfield:images_texts_ids": [
      1913801221,
      1913801223
    ],
    "millsfield:similar": {
      "apple/mobileclip_s0": [
        {
          "distance": 0.2645443,
          "id": 1913801277
        },
        {
          "distance": 0.2693292,
          "id": 1913800371
        },
        {
          "distance": 0.2747386,
          "id": 1913801503
        },
        {
          "distance": 0.27596432,
          "id": 1880201517
        },
        {
          "distance": 0.27904642,
          "id": 1913801777
        },
        {
          "distance": 0.2792814,
          "id": 1913802289
        },
        {
          "distance": 0.283927,
          "id": 1913801313
        },
        {
          "distance": 0.2862434,
          "id": 1913801349
        },
        {
          "distance": 0.28802454,
          "id": 1913801281
        },
        {
          "distance": 0.29026684,
          "id": 1913801385
        }
      ],
      "apple/mobileclip_s1": [
        {
          "distance": 0.17922291,
          "id": 1913801281
        },
        {
          "distance": 0.20549813,
          "id": 1913802207
        },
        {
          "distance": 0.21061668,
          "id": 1913801317
        },
        {
          "distance": 0.21263115,
          "id": 1913801849
        },
        {
          "distance": 0.21789786,
          "id": 1913802031
        },
        {
          "distance": 0.21812357,
          "id": 1913801261
        },
        {
          "distance": 0.22108407,
          "id": 1913801277
        },
        {
          "distance": 0.22275206,
          "id": 1913768929
        },
        {
          "distance": 0.22311752,
          "id": 1913802285
        },
        {
          "distance": 0.22489014,
          "id": 1913801323
        }
      ],
      "apple/mobileclip_s2": [
        {
          "distance": 0.2842229,
          "id": 1913801281
        },
        {
          "distance": 0.29158157,
          "id": 1913801383
        },
        {
          "distance": 0.3068309,
          "id": 1913799821
        },
        {
          "distance": 0.30696195,
          "id": 1913800331
        },
        {
          "distance": 0.3097138,
          "id": 1913800371
        },
        {
          "distance": 0.31229076,
          "id": 1913801253
        },
        {
          "distance": 0.31436834,
          "id": 1913801971
        },
        {
          "distance": 0.31586516,
          "id": 1913802239
        },
        {
          "distance": 0.31609422,
          "id": 1913800337
        },
        {
          "distance": 0.3168162,
          "id": 1913801811
        }
      ]
    },
    "millsfield:subcategory_id": 1511213489,
    "mz:is_current": 1,
    "sfomuseum:filename": "2019.121.0757_Reverse.tif",
    "sfomuseum:image_id": 225554,
    "sfomuseum:image_index": 5,
    "sfomuseum:image_type": "studio",
    "sfomuseum:object_id": 211105,
    "sfomuseum:placetype": "image",
    "sfomuseum:primary_image": 0,
    "src:geom": "sfomuseum",
    "wof:belongsto": [
      102527513,
      1159162825,
      102191575,
      85633793,
      102087579,
      85922583,
      1913796379,
      85688637,
      1159160869
    ],
    "wof:country": "XY",
    "wof:created": 1714551103,
    "wof:depicts": [
      1159286721,
      1913796379,
      1159284991,
      1159285931
    ],
    "wof:geomhash": "ed7c2ab3547fc3916b5edc33488deaa7",
    "wof:hierarchy": [
      {
        "building_id": -1,
        "campus_id": 102527513,
        "collection_id": 1159162825,
        "concourse_id": 1159162825,
        "continent_id": 102191575,
        "country_id": 85633793,
        "county_id": 102087579,
        "custom_id": 1913801223,
        "image_id": 1913801223,
        "locality_id": 85922583,
        "neighbourhood_id": -1,
        "object_id": 1913796379,
        "region_id": 85688637,
        "wing_id": 1159160869
      }
    ],
    "wof:id": 1913801223,
    "wof:lastmodified": 1788452254,
    "wof:name": "correspondence: Harold M. Bixby to Debby Bixby",
    "wof:parent_id": 1913796379,
    "wof:placetype": "custom",
    "wof:placetype_alt": [
      "image"
    ],
    "wof:repo": "sfomuseum-data-media-collection",
    "wof:superseded_by": [],
    "wof:supersedes": []
  },
  "bbox": [
    -122.386472,
    37.616105,
    -122.385834,
    37.616611
  ],
  "geometry": {"type":"Polygon","coordinates":[[[-122.386472,37.616318],[-122.386435,37.616233],[-122.386376,37.616178],[-122.386301,37.616131],[-122.386161,37.616105],[-122.386022,37.616131],[-122.385914,37.616186],[-122.385855,37.616267],[-122.385834,37.616369],[-122.385871,37.616467],[-122.385941,37.616543],[-122.386054,37.616603],[-122.386183,37.616611],[-122.386306,37.616573],[-122.386419,37.616509],[-122.386467,37.616411],[-122.386472,37.616318]]]}
}
