{
  "id": 1913799621,
  "type": "Feature",
  "properties": {
    "date:cessation_lower": "1949-12-08",
    "date:cessation_upper": "1949-12-08",
    "date:inception_lower": "1949-12-08",
    "date:inception_upper": "1949-12-08",
    "edtf:cessation": "1949-12-08",
    "edtf:inception": "1949-12-08",
    "geom:area": 2.477324999997507e-7,
    "geom:bbox": "-122.386472,37.616105,-122.385834,37.616611",
    "geom:latitude": 37.61635756125121,
    "geom:longitude": -122.38615532866096,
    "media:fingerprint": "b47e1b3a4f656b403cfd571fe1f060a8032d92c3",
    "media:imagehash_avg": "a:ff818181818181ff",
    "media:imagehash_diff": "d:61655b717151671d",
    "media:imagetext": "Thursday Drc. 8\nStarest Dibs.\nqua\nBile met me at the field at 5 ant ur droar\ninto 13. Strea was having a buchday parts for\n•Charley\nso putt and\nStur invites me out to their\nRous for diane with Lucy and Ralph and gloria.\nof cours most of the conusation turasd on you\nand state a ho you lied what yo die\nand a lot of questions which 9 cones nt\nansurr.\nRuth and\nSour hair installed a new\nFrench systum of radiant electic heat and of\nCours 9 had to hear a lot about that from\nStar as wile as mate a thorough insprtia.\nDee say the hour\nwas neer ane warsa.\nAt\n13 I saw all of the Wlas an of whom\nSermed in the punk and that lo to yo\nand take-\nBe sure to look et Life of Wrc5 this\nis a story on praze 161 atont our frime bus.\nEmbiricos of Barbados which wile amuse you.\ngot a lot mor\nrefugee wip of the gruke Consul at shanghi\nShe was stayig at the gloserst Hate in\nHoken when Bond and 9ueac thine.\nWice stop now to fo to the struce for\nHobby and fra ish this late.\nLate- much lath. On the evan out to St. micraels\nPOCH ISIPIOS",
    "media:imagetext_created": 1787972160,
    "media:imagetext_source": "com.apple.visionkit.VNImageRequestHandler#Version 26.6.2 (Build 25G83)",
    "media:mimetype": "image/tiff",
    "media:properties": {
      "sizes": {
        "b": {
          "extension": "jpg",
          "height": 768,
          "mimetype": "image/jpeg",
          "secret": "npaC467XrR5zXpj45QKs9gEor13zjhra",
          "width": 598
        },
        "c": {
          "extension": "jpg",
          "height": 600,
          "mimetype": "image/jpeg",
          "secret": "npaC467XrR5zXpj45QKs9gEor13zjhra",
          "width": 467
        },
        "dc": {
          "extension": "jpg",
          "height": 600,
          "mimetype": "image/jpeg",
          "secret": "npaC467XrR5zXpj45QKs9gEor13zjhra",
          "width": 467
        },
        "ds": {
          "extension": "jpg",
          "height": 320,
          "mimetype": "image/jpeg",
          "secret": "npaC467XrR5zXpj45QKs9gEor13zjhra",
          "width": 320
        },
        "k": {
          "extension": "jpg",
          "height": 1536,
          "mimetype": "image/jpeg",
          "secret": "npaC467XrR5zXpj45QKs9gEor13zjhra",
          "width": 1196
        },
        "n": {
          "extension": "jpg",
          "height": 240,
          "mimetype": "image/jpeg",
          "secret": "npaC467XrR5zXpj45QKs9gEor13zjhra",
          "width": 186
        },
        "o": {
          "extension": "jpg",
          "height": 2000,
          "mimetype": "image/jpeg",
          "secret": "1gPqzs0i5qUTm7hRBgcZGry4maOf4YHv",
          "width": 1558
        },
        "s": {
          "extension": "jpg",
          "height": 320,
          "mimetype": "image/jpeg",
          "secret": "npaC467XrR5zXpj45QKs9gEor13zjhra",
          "width": 320
        },
        "z": {
          "extension": "jpg",
          "height": 480,
          "mimetype": "image/jpeg",
          "secret": "npaC467XrR5zXpj45QKs9gEor13zjhra",
          "width": 373
        }
      }
    },
    "media:source": "sfomuseum",
    "media:status_id": 1,
    "media:uri_template": "https://static.sfomuseum.org/media/191/379/962/1/1913799621_{secret}_{label}.{extension}",
    "millsfield:airline_id": [
      1159284991
    ],
    "millsfield:category_id": 1511214251,
    "millsfield:collection_id": 1511214207,
    "millsfield:company_id": [
      1159286839
    ],
    "millsfield:images_colors": [
      {
        "hex": "#f1ecd6",
        "name": "#f1ecd6",
        "reference": "marekm4"
      },
      {
        "hex": "#faebd7",
        "name": "antiquewhite",
        "reference": "css4"
      },
      {
        "hex": "#efdecd",
        "name": "Almond",
        "reference": "crayola"
      },
      {
        "hex": "#3f4361",
        "name": "#3f4361",
        "reference": "marekm4"
      },
      {
        "hex": "#2f4f4f",
        "name": "darkslategrey",
        "reference": "css4"
      },
      {
        "hex": "#414a4c",
        "name": "Outer Space",
        "reference": "crayola"
      }
    ],
    "millsfield:images_texts": [
      "Thursday Drc. 8\nStarest Dibs.\nqua\nBile met me at the field at 5 ant ur droar\ninto 13. Strea was having a buchday parts for\n•Charley\nso putt and\nStur invites me out to their\nRous for diane with Lucy and Ralph and gloria.\nof cours most of the conusation turasd on you\nand state a ho you lied what yo die\nand a lot of questions which 9 cones nt\nansurr.\nRuth and\nSour hair installed a new\nFrench systum of radiant electic heat and of\nCours 9 had to hear a lot about that from\nStar as wile as mate a thorough insprtia.\nDee say the hour\nwas neer ane warsa.\nAt\n13 I saw all of the Wlas an of whom\nSermed in the punk and that lo to yo\nand take-\nBe sure to look et Life of Wrc5 this\nis a story on praze 161 atont our frime bus.\nEmbiricos of Barbados which wile amuse you.\ngot a lot mor\nrefugee wip of the gruke Consul at shanghi\nShe was stayig at the gloserst Hate in\nHoken when Bond and 9ueac thine.\nWice stop now to fo to the struce for\nHobby and fra ish this late.\nLate- much lath. On the evan out to St. micraels\nPOCH ISIPIOS",
      "I had a lithe time to kill to wint leg the Lindbagh\nE hibit. The sevic for tably was long than it thomed have\nfria and treme ele a lot of mambo fumbo to me.\nLats and lit of our frinds was that the joe wicka a\nDudle Krigeh - na a Gy Kimbace de. Gen the streel\ndreir Bues ear back to 13 P. and want down town with\nStar aud Ralpa, Lune at the stack sohe 9 das au\nmy old frendo - Jack hehman. the Shrpen Bros, la tetehkin - (a\nreent granafeta) Tay Bryan, Das Frenes, de.\nmeting of the Esse at 3 Bm and ot 4 Star\nand 9 drois at to sr mary at Trimbe. The\nWhate famil was thas and was leaving at 5:30 to catch\nthe tram back to Philadelphia. The Pransy has giora m.D.\na prwat car. groge wes more ponderous than en\nalso Franera and Kent Cloro - Atakes sistem - Hy kitcheode\neno Neure Gugar.\nof court 9 was going to insir\nMo and than to come over to Paris for\nChristmes but\nthey har alsas planne to go to tel Sound with\ngrog who has a wacatin at that tome too. Howen\nMo waits to kros ale abre four atar ano ret\nento your lettes — you know the wan the dri- that\nyon wae viry lonesome.\n9 tols hes of my prometin\nof a trip to Bangkit but dis nit know what you\n. gom\nane Itatis reactia was. M.E. wones like to join\nyou in Paris Eutta about the middle of ganear o\nd 0211 L5/.P/os",
      "3 if tr maker the trip to Bargot and Hondale\nthin the world come or to Fars in the spring.\nTold her I'd with a or you world - at the Earlies\ngrible moment after my arrive ii Paris an\nur had had a chaser to talk our plans.\nM.D. is really glad - under as the cir-\nCumstanes that that dos nt har to suffer any\nar. suppor it you has to con someon\nway for au concerned - the\none who fors and\nthe\nones who stay. It dors\nprem a shame\nthat way when\nfu pour ald talesty to on takin\nmight have had to era must\nto lur for.\nNot much\nnews ont of St.L. Franke Re\ndied and ten loatkins - beth 2nt. shra.\nThursday aftinos after sung In to o got\nSter to stop by at the Cattina caut 2 kreur\nthat wored pleas you.\nFramen has ten m bro\nYou some wiiks fust with one theons ont tene\nand thin the othn.\nShe and Theren semd\ndilyntes to\nser us and us had a great fat\nFist up m\nIs room. the was up and around\nit don it\n- So doun stairs. Saw he shee\ncoctin whit is aufrey cuts and erry entriting.\nThen pointld i with much pride to that trat up\nlions pai which he found on one feng - shacking\nExprotes. Franer, of cours, has fur it e\npromint positin! Dumb eir magen, Banie!\n00211S/90s",
      "and dun our to\nFrom the Call, Birk Boy,\nun pickes up Rut at he hous\nfor cocktails with Ra L\n- took no au to dima aT Medart. Lug a Rough.\ntimes te mama fun is at can tr\na rooms and talk on the second floor an on\nthe frat. The hour was are worm! I think\nRaL and very happy this.\ndunna at the Leg Catin wher Bui a Steen has\nmentioned as a possibes ano bring disappointe\nin the mada decision deaded he wan fong to\npal his rake of the wald worst guest. The\nToms was day food bout he complained that mething\nwas any fand cit for that the emig cat\nnt come on accomt of\nsome othe angement. She look un wore and degit.\non ther o did it one much to her fron on\none sing ten st Ruth and Ser o stee that\nthat occanion the work an unusnel, loes sick!\nEss had a food fear and in deelarse a\nbeguidating dirid and a \"\n#goro pur indisédual - wher\nwe hep. Friday I went our a lot of things with\nBre, Regg and this facety aod them caught thi bond\nfor Lambat Feed both Bee and Rate wanted to\ndeir me out but o insisted on taking the air port\nans brauk the with was diade — Alect end\nAnow wit the roads Le.",
      "© bean arring at the fies they decides to potpone\nmy 5:30 flight to Lome. Lot of tryi was can -\ncild and sure plan wat our witt landing\nbout tamale, at 7 Ba the drous us own to the EAL\nLonger what the had cor on the wing u\ntaxico out - took the cons off - and got away\nAfore the sleet sero\nand sape, done.\nBajor a forget must tree yo\nthat I saw Sam guco. We sunt his regard, to\nDo and wine and wored had that half hi\nwagon too of 9 ened hai cared the plunder!\nthese was geno de sam ano hac wanting in\na snow storm to greet me. Inside the station\nFrancis Jammy and.\nSpark play.\n\" They had phone\nthe ampoet by gog to had it ben wait;\nlong. Never saw Francis booking to radiaat. She\nis plenty big bout just busting with hett - tow\nhur decter the day before and he taid \" 9 know\nyou fre a darn sight britn than 9 do.\ndror home in a ventuce blizzard bout the legs -\nthongs wide awake - war papeet, brans and sa\nTra - Who was up long after his usual ths time-\ndidnt whimpu of complain at all. San - Who has\ndeclapd unt one of the cutt butle bogs gou cn\nsaw - was dressed up\nin a er, good looking tar\nCoat which Sam sistruad sint him. mac had\non a mackinaw.\nand Taden a show suit. When",
      "C i got home the hous was cald - Sam had fixe.\nthe furmach lout foget to thr on the thing that freds\nthe coal! It reae,\ndis nit matte for er au had\nsnack - wck Rumso vra, attentar - ehnd wrat to\nbrd. This morning Bie Biron came ler for breskfat\nand he and sam tolo me the whole stan, atit\nthe lumbe deal and Bie. Im sure that the,\nbott wantro me te tenors ale abont it am In\nsuns alo thdt they bath free brace for havi,\nfet it au of\nthan chist.\n\"9 p com atoo\no for Bue ans tried es best o coned to mah\nhis portion clear to them. I do mot think titte\nOf thin nos hild arg anemo bout fuat beterm\nBie dis not für them the consideratión\nWhich he shined hai under all the circumatamas.\n2 he had made his aceytana of maguins bis\nsubject to Chicken wich them and then gese te\nLonisvie em tolo\ntod thim just what the job\nmeant to him they\nwone har Chrenful, releand\nhir from the definiti commitment whis he had\nmade. tt was - un othe words - the way t\nwhich he did it ratte than what tre dis.\nI toed Sam that of thay wornt Shrad woel\nthe deas and neede some of the money wkice\nthey\nhad countrs on from Bie that o cone he\nglas to puit it in. They an defin ite, commited\n70211 (SI Plos",
      "to to te busine and\nand may or may not want\nme to help. I wint on Sams affairs wil hin\nme to help.\nand won win pleased. He and Frances fai brea\nling wile wettin his income and he has used\nthe ikes carning as rate his shark of the\npartnership profits to pay for his interist in th\nfirm- he paid off 6000 an entrinat in 1948 an\n@ like amon this\nBrides that he ba\nyear.\nEnough cash in bank to pay his in come taxe\nand docta bies for Franen\nTor playre with the bags aftn Bie Brown\nlift - had lumen - drous to the anport and\nnow wise approaching\nWashington D.C. Wee\nfaish this litter and\nmaie it from Newark.\nEn ront Newark. The there key comes nt be cuth an\nmer typice bayo- near saw so many guns - Ourtee\nRodes or hostis. The an are wee and 2 thin\nget a great eft out of my visit, lie with\nan after my stay with Bo ano Bie.\nQue my los to you dear irts -\nno wonder your fees are to wonderfe\nwick you as\nexample - Lonto Wok\nBix"
    ],
    "millsfield:images_texts_ids": [
      1913799621,
      1913799623,
      1913799625,
      1913799629,
      1913799631,
      1913799633,
      1913799635
    ],
    "millsfield:similar": {
      "apple/mobileclip_s0": [
        {
          "distance": 0.21465251,
          "id": 1913802061
        },
        {
          "distance": 0.2264662,
          "id": 1913799617
        },
        {
          "distance": 0.22701171,
          "id": 1913799615
        },
        {
          "distance": 0.23117985,
          "id": 1913799659
        },
        {
          "distance": 0.23193705,
          "id": 1913796795
        },
        {
          "distance": 0.23435037,
          "id": 1913802069
        },
        {
          "distance": 0.23653471,
          "id": 1913800571
        },
        {
          "distance": 0.23913623,
          "id": 1913799635
        },
        {
          "distance": 0.23976591,
          "id": 1913799593
        },
        {
          "distance": 0.2406755,
          "id": 1913801191
        }
      ],
      "apple/mobileclip_s1": [
        {
          "distance": 0.14592941,
          "id": 1913799659
        },
        {
          "distance": 0.16063027,
          "id": 1913796695
        },
        {
          "distance": 0.16951035,
          "id": 1913799617
        },
        {
          "distance": 0.17823271,
          "id": 1913796795
        },
        {
          "distance": 0.18073206,
          "id": 1913799619
        },
        {
          "distance": 0.19150741,
          "id": 1913799629
        },
        {
          "distance": 0.19177239,
          "id": 1913799633
        },
        {
          "distance": 0.19523247,
          "id": 1913802299
        },
        {
          "distance": 0.19660947,
          "id": 1913796799
        },
        {
          "distance": 0.19705157,
          "id": 1913799631
        }
      ],
      "apple/mobileclip_s2": [
        {
          "distance": 0.19106995,
          "id": 1913799615
        },
        {
          "distance": 0.2178834,
          "id": 1913799549
        },
        {
          "distance": 0.22134025,
          "id": 1913801629
        },
        {
          "distance": 0.22320415,
          "id": 1913799625
        },
        {
          "distance": 0.22384733,
          "id": 1913801631
        },
        {
          "distance": 0.23289008,
          "id": 1913799823
        },
        {
          "distance": 0.23579611,
          "id": 1913799617
        },
        {
          "distance": 0.23710948,
          "id": 1913799597
        },
        {
          "distance": 0.23883271,
          "id": 1913799633
        },
        {
          "distance": 0.23918232,
          "id": 1913796795
        }
      ]
    },
    "millsfield:subcategory_id": 1511213489,
    "mz:is_current": 1,
    "sfomuseum:filename": "2019.121.1150a.tif",
    "sfomuseum:image_id": 220375,
    "sfomuseum:image_index": 5,
    "sfomuseum:image_type": "studio",
    "sfomuseum:object_id": 211513,
    "sfomuseum:placetype": "image",
    "sfomuseum:primary_image": 1,
    "src:geom": "sfomuseum",
    "wof:belongsto": [
      102527513,
      1159162825,
      102191575,
      85633793,
      102087579,
      85922583,
      1913796683,
      85688637,
      1159160869
    ],
    "wof:country": "XY",
    "wof:created": 1714549981,
    "wof:depicts": [
      1159286839,
      1913796683,
      1159284991
    ],
    "wof:geomhash": "ed7c2ab3547fc3916b5edc33488deaa7",
    "wof:hierarchy": [
      {
        "building_id": -1,
        "campus_id": 102527513,
        "collection_id": 1159162825,
        "concourse_id": 1159162825,
        "continent_id": 102191575,
        "country_id": 85633793,
        "county_id": 102087579,
        "custom_id": 1913799621,
        "image_id": 1913799621,
        "locality_id": 85922583,
        "neighbourhood_id": -1,
        "object_id": 1913796683,
        "region_id": 85688637,
        "wing_id": 1159160869
      }
    ],
    "wof:id": 1913799621,
    "wof:lastmodified": 1788220330,
    "wof:name": "correspondence: Harold M. Bixby to Debby Bixby",
    "wof:parent_id": 1913796683,
    "wof:placetype": "custom",
    "wof:placetype_alt": [
      "image"
    ],
    "wof:repo": "sfomuseum-data-media-collection",
    "wof:superseded_by": [],
    "wof:supersedes": []
  },
  "bbox": [
    -122.386472,
    37.616105,
    -122.385834,
    37.616611
  ],
  "geometry": {"type":"Polygon","coordinates":[[[-122.386472,37.616318],[-122.386435,37.616233],[-122.386376,37.616178],[-122.386301,37.616131],[-122.386161,37.616105],[-122.386022,37.616131],[-122.385914,37.616186],[-122.385855,37.616267],[-122.385834,37.616369],[-122.385871,37.616467],[-122.385941,37.616543],[-122.386054,37.616603],[-122.386183,37.616611],[-122.386306,37.616573],[-122.386419,37.616509],[-122.386467,37.616411],[-122.386472,37.616318]]]}
}
