{
  "id": 1527824623,
  "type": "Feature",
  "properties": {
    "date:cessation_lower": "1980-01-01",
    "date:cessation_upper": "1989-12-31",
    "date:inception_lower": "1980-01-01",
    "date:inception_upper": "1989-12-31",
    "edtf:cessation": "198X",
    "edtf:date": "198x",
    "edtf:inception": "198X",
    "geom:area": 0,
    "geom:bbox": "-122.386155,37.616358,-122.386155,37.616358",
    "geom:latitude": 37.616358,
    "geom:longitude": -122.386155,
    "iso:country": "XX",
    "media:fingerprint": "0047e68238393c371a9f31c901fe09e59722c01d",
    "media:imagehash_avg": "a:ffff0000007f7f7f",
    "media:imagehash_diff": "d:c8e9756777dacecc",
    "media:imagetext": "Luftkrankheits-Tasche\nDer\nKard-o-Seal Beutel\n2006.026.010",
    "media:imagetext_created": 1787948497,
    "media:imagetext_source": "com.apple.visionkit.VNImageRequestHandler#Version 26.6.2 (Build 25G83)",
    "media:medium": "image",
    "media:mimetype": "image/tiff",
    "media:properties": {
      "sizes": {
        "b": {
          "extension": "jpg",
          "height": 768,
          "mimetype": "image/jpeg",
          "secret": "LUbQKYkfCMla917HV5qZuTWIUFxHwbT8",
          "width": 434
        },
        "c": {
          "extension": "jpg",
          "height": 600,
          "mimetype": "image/jpeg",
          "secret": "LUbQKYkfCMla917HV5qZuTWIUFxHwbT8",
          "width": 339
        },
        "dc": {
          "extension": "jpg",
          "height": 600,
          "mimetype": "image/jpeg",
          "secret": "LUbQKYkfCMla917HV5qZuTWIUFxHwbT8",
          "width": 339
        },
        "ds": {
          "extension": "jpg",
          "height": 320,
          "mimetype": "image/jpeg",
          "secret": "LUbQKYkfCMla917HV5qZuTWIUFxHwbT8",
          "width": 320
        },
        "k": {
          "extension": "jpg",
          "height": 1536,
          "mimetype": "image/jpeg",
          "secret": "LUbQKYkfCMla917HV5qZuTWIUFxHwbT8",
          "width": 869
        },
        "n": {
          "extension": "jpg",
          "height": 240,
          "mimetype": "image/jpeg",
          "secret": "LUbQKYkfCMla917HV5qZuTWIUFxHwbT8",
          "width": 135
        },
        "o": {
          "extension": "jpg",
          "height": 2736,
          "mimetype": "image/jpeg",
          "secret": "yz09HpLjwBJsDet3BCnikl7uO9M3ekRm",
          "width": 1548
        },
        "s": {
          "extension": "jpg",
          "height": 320,
          "mimetype": "image/jpeg",
          "secret": "LUbQKYkfCMla917HV5qZuTWIUFxHwbT8",
          "width": 320
        },
        "z": {
          "extension": "jpg",
          "height": 480,
          "mimetype": "image/jpeg",
          "secret": "LUbQKYkfCMla917HV5qZuTWIUFxHwbT8",
          "width": 271
        }
      }
    },
    "media:source": "sfomuseum",
    "media:status_id": 1,
    "media:uri_template": "https://static.sfomuseum.org/media/152/782/462/3/1527824623_{secret}_{label}.{extension}",
    "millsfield:airline_id": [
      1159284669
    ],
    "millsfield:category_id": 1762671311,
    "millsfield:collection_id": 1511214207,
    "millsfield:company_id": [
      1159287181
    ],
    "millsfield:images_colors": [
      {
        "hex": "#ebe8da",
        "name": "#ebe8da",
        "reference": "marekm4"
      },
      {
        "hex": "#faebd7",
        "name": "antiquewhite",
        "reference": "css4"
      },
      {
        "hex": "#efdecd",
        "name": "Almond",
        "reference": "crayola"
      },
      {
        "hex": "#595c5e",
        "name": "#595c5e",
        "reference": "marekm4"
      },
      {
        "hex": "#696969",
        "name": "dimgrey",
        "reference": "css4"
      },
      {
        "hex": "#4a646c",
        "name": "Deep Space Sparkle",
        "reference": "crayola"
      },
      {
        "hex": "#de473e",
        "name": "#de473e",
        "reference": "marekm4"
      },
      {
        "hex": "#cd5c5c",
        "name": "indianred",
        "reference": "css4"
      },
      {
        "hex": "#cd4a4c",
        "name": "Mahogany",
        "reference": "crayola"
      }
    ],
    "millsfield:images_texts": [
      "Air-sickness bag",
      "Luftkrankheits-Tasche\nDer\nKard-o-Seal Beutel\n2006.026.010"
    ],
    "millsfield:images_texts_ids": [
      1527824621,
      1527824623
    ],
    "millsfield:similar": {
      "apple/mobileclip_s0": [
        {
          "distance": 0.27737746,
          "id": 1527824515
        },
        {
          "distance": 0.4679771,
          "id": 2048164373
        },
        {
          "distance": 0.4952922,
          "id": 1527824513
        },
        {
          "distance": 0.50914305,
          "id": 1527824621
        },
        {
          "distance": 0.5539051,
          "id": 1763204817
        },
        {
          "distance": 0.5631003,
          "id": 1527823517
        },
        {
          "distance": 0.5734139,
          "id": 1763205015
        },
        {
          "distance": 0.58318406,
          "id": 1527824831
        },
        {
          "distance": 0.5838357,
          "id": 1527824771
        },
        {
          "distance": 0.5840499,
          "id": 1527823435
        }
      ],
      "apple/mobileclip_s1": [
        {
          "distance": 0.2789081,
          "id": 1527824515
        },
        {
          "distance": 0.363887,
          "id": 2048164373
        },
        {
          "distance": 0.43859395,
          "id": 1527823435
        },
        {
          "distance": 0.44414425,
          "id": 1527824703
        },
        {
          "distance": 0.44989026,
          "id": 1779736863
        },
        {
          "distance": 0.45434317,
          "id": 1863470175
        },
        {
          "distance": 0.4591813,
          "id": 1527824541
        },
        {
          "distance": 0.46061364,
          "id": 1762894061
        },
        {
          "distance": 0.4620554,
          "id": 1527823507
        },
        {
          "distance": 0.46242985,
          "id": 1527824831
        }
      ],
      "apple/mobileclip_s2": [
        {
          "distance": 0.2588362,
          "id": 1527824515
        },
        {
          "distance": 0.4228306,
          "id": 2048164373
        },
        {
          "distance": 0.58378077,
          "id": 1779503009
        },
        {
          "distance": 0.59743553,
          "id": 1527824455
        },
        {
          "distance": 0.5989664,
          "id": 1763205115
        },
        {
          "distance": 0.62141395,
          "id": 1527824703
        },
        {
          "distance": 0.6240726,
          "id": 1527823435
        },
        {
          "distance": 0.6347644,
          "id": 1527824831
        },
        {
          "distance": 0.6348607,
          "id": 1527824405
        },
        {
          "distance": 0.63756984,
          "id": 1931110061
        }
      ]
    },
    "millsfield:subcategory_id": 1511213185,
    "mz:hierarchy_label": 1,
    "mz:is_current": -1,
    "sfomuseum:filename": "42688.tif",
    "sfomuseum:image_id": 42688,
    "sfomuseum:image_index": 5,
    "sfomuseum:image_type": "studio",
    "sfomuseum:object_id": 80226,
    "sfomuseum:placetype": "image",
    "sfomuseum:primary_image": 0,
    "src:geom": "sfomuseum",
    "wof:belongsto": [
      1511927513,
      102527513,
      102191575,
      85633793,
      85922583,
      102087579,
      1511214277,
      85688637
    ],
    "wof:breaches": [],
    "wof:country": "XX",
    "wof:created": 1578950083,
    "wof:depicts": [
      1511927513,
      1159284669,
      1159287181
    ],
    "wof:geomhash": "bd906905ce4be6c0651c90b0fc24804c",
    "wof:hierarchy": [
      {
        "building_id": 1511214277,
        "campus_id": 102527513,
        "continent_id": 102191575,
        "country_id": 85633793,
        "county_id": 102087579,
        "custom_id": 1527824623,
        "image_id": 1527824623,
        "locality_id": 85922583,
        "media_id": 1527824623,
        "neighbourhood_id": -1,
        "region_id": 85688637,
        "venue_id": 1511927513
      }
    ],
    "wof:id": 1527824623,
    "wof:lastmodified": 1788449791,
    "wof:name": "airsickness bag: Lauda Air",
    "wof:parent_id": 1511927513,
    "wof:placetype": "custom",
    "wof:placetype_alt": [
      "image"
    ],
    "wof:repo": "sfomuseum-data-media-collection",
    "wof:superseded_by": [],
    "wof:supersedes": [],
    "wof:tags": []
  },
  "bbox": [
    -122.386155,
    37.616358,
    -122.386155,
    37.616358
  ],
  "geometry": {"type":"Point","coordinates":[-122.386155,37.616358]}
}
