{
  "id": 1913938607,
  "type": "Feature",
  "properties": {
    "date:cessation_lower": "1989-01-01",
    "date:cessation_upper": "1989-12-31",
    "date:inception_lower": "1989-01-01",
    "date:inception_upper": "1989-12-31",
    "edtf:cessation": "1989",
    "edtf:inception": "1989",
    "geom:area": 2.477324999997507e-7,
    "geom:bbox": "-122.386472,37.616105,-122.385834,37.616611",
    "geom:latitude": 37.61635756125121,
    "geom:longitude": -122.38615532866096,
    "media:fingerprint": "fb083bfe1f8275bcd84409718c2955bd3c897ec8",
    "media:imagehash_avg": "a:bf00901f1f1f0f07",
    "media:imagehash_diff": "d:2b4969313173595d",
    "media:imagetext": "SEC\n2\nSEC\n1\nEXIT\nSEC\n3\nSEC\nDon't use butane\nlighters, radios\nor electronic games\nNo usar encendedores\nde gas butano, radios\no juegos electrónicos.\n4\nXX\n6\n720",
    "media:imagetext_created": 1787973317,
    "media:imagetext_source": "com.apple.visionkit.VNImageRequestHandler#Version 26.6.2 (Build 25G83)",
    "media:mimetype": "image/tiff",
    "media:properties": {
      "sizes": {
        "b": {
          "extension": "jpg",
          "height": 755,
          "mimetype": "image/jpeg",
          "secret": "wEyiACcmTUxQGUyhsG31xafmD9u8YXDI",
          "width": 1024
        },
        "c": {
          "extension": "jpg",
          "height": 590,
          "mimetype": "image/jpeg",
          "secret": "wEyiACcmTUxQGUyhsG31xafmD9u8YXDI",
          "width": 800
        },
        "dc": {
          "extension": "jpg",
          "height": 590,
          "mimetype": "image/jpeg",
          "secret": "wEyiACcmTUxQGUyhsG31xafmD9u8YXDI",
          "width": 800
        },
        "ds": {
          "extension": "jpg",
          "height": 320,
          "mimetype": "image/jpeg",
          "secret": "wEyiACcmTUxQGUyhsG31xafmD9u8YXDI",
          "width": 320
        },
        "k": {
          "extension": "jpg",
          "height": 1511,
          "mimetype": "image/jpeg",
          "secret": "wEyiACcmTUxQGUyhsG31xafmD9u8YXDI",
          "width": 2048
        },
        "n": {
          "extension": "jpg",
          "height": 236,
          "mimetype": "image/jpeg",
          "secret": "wEyiACcmTUxQGUyhsG31xafmD9u8YXDI",
          "width": 320
        },
        "o": {
          "extension": "jpg",
          "height": 1476,
          "mimetype": "image/jpeg",
          "secret": "VSd1xDwgmzahDBfyExtcw45lDp1xTrhR",
          "width": 2000
        },
        "s": {
          "extension": "jpg",
          "height": 320,
          "mimetype": "image/jpeg",
          "secret": "wEyiACcmTUxQGUyhsG31xafmD9u8YXDI",
          "width": 320
        },
        "z": {
          "extension": "jpg",
          "height": 472,
          "mimetype": "image/jpeg",
          "secret": "wEyiACcmTUxQGUyhsG31xafmD9u8YXDI",
          "width": 640
        }
      }
    },
    "media:source": "sfomuseum",
    "media:status_id": 1,
    "media:uri_template": "https://static.sfomuseum.org/media/191/393/860/7/1913938607_{secret}_{label}.{extention}",
    "millsfield:aircraft_id": [
      1159289409
    ],
    "millsfield:airline_id": [
      1159286457
    ],
    "millsfield:category_id": 1762671311,
    "millsfield:collection_id": 1511214207,
    "millsfield:company_id": [
      1159293829
    ],
    "millsfield:images_colors": [
      {
        "hex": "#d5d0bf",
        "name": "#d5d0bf",
        "reference": "marekm4"
      },
      {
        "hex": "#d3d3d3",
        "name": "lightgrey",
        "reference": "css4"
      },
      {
        "hex": "#cdc5c2",
        "name": "Silver",
        "reference": "crayola"
      },
      {
        "hex": "#332d2c",
        "name": "#332d2c",
        "reference": "marekm4"
      },
      {
        "hex": "#2f4f4f",
        "name": "darkslategrey",
        "reference": "css4"
      },
      {
        "hex": "#414a4c",
        "name": "Outer Space",
        "reference": "crayola"
      },
      {
        "hex": "#d2af69",
        "name": "#d2af69",
        "reference": "marekm4"
      },
      {
        "hex": "#bdb76b",
        "name": "darkkhaki",
        "reference": "css4"
      },
      {
        "hex": "#bab86c",
        "name": "Olive Green",
        "reference": "crayola"
      },
      {
        "hex": "#a34e36",
        "name": "#a34e36",
        "reference": "marekm4"
      },
      {
        "hex": "#a0522d",
        "name": "sienna",
        "reference": "css4"
      },
      {
        "hex": "#a5694f",
        "name": "Sepia",
        "reference": "crayola"
      }
    ],
    "millsfield:images_texts": [
      "For your safety\nPARA SU SEGURIDAD\nA-320\nBRAHIFF\n963-000574",
      "SEC\n2\nSEC\n1\nEXIT\nSEC\n3\nSEC\nDon't use butane\nlighters, radios\nor electronic games\nNo usar encendedores\nde gas butano, radios\no juegos electrónicos.\n4\nXX\n6\n720",
      "2\n3\n4\n5\nCopyright\n© Interaction Research Corporation, 1989, Olympia, WA, USA\nAll rights reserved.\nCode 720\n2002127.159"
    ],
    "millsfield:images_texts_ids": [
      1913938603,
      1913938607,
      1913938609
    ],
    "millsfield:similar": {
      "apple/mobileclip_s0": [
        {
          "distance": 0.07985657,
          "id": 1913938589
        },
        {
          "distance": 0.17812172,
          "id": 1930979577
        },
        {
          "distance": 0.3657873,
          "id": 1914590391
        },
        {
          "distance": 0.3836397,
          "id": 1930979311
        },
        {
          "distance": 0.39354214,
          "id": 1930979571
        },
        {
          "distance": 0.3974728,
          "id": 1931109355
        },
        {
          "distance": 0.39760455,
          "id": 1913928441
        },
        {
          "distance": 0.4029275,
          "id": 1914556225
        },
        {
          "distance": 0.40382305,
          "id": 1931096011
        },
        {
          "distance": 0.4042654,
          "id": 1931096125
        }
      ],
      "apple/mobileclip_s1": [
        {
          "distance": 0.076988444,
          "id": 1913938589
        },
        {
          "distance": 0.094215475,
          "id": 1930979577
        },
        {
          "distance": 0.27718282,
          "id": 1913938595
        },
        {
          "distance": 0.29236227,
          "id": 1914622809
        },
        {
          "distance": 0.29257357,
          "id": 1930979611
        },
        {
          "distance": 0.30397967,
          "id": 1762894229
        },
        {
          "distance": 0.31013867,
          "id": 1930979553
        },
        {
          "distance": 0.31397086,
          "id": 1914622865
        },
        {
          "distance": 0.31537113,
          "id": 1914622815
        },
        {
          "distance": 0.31983456,
          "id": 1930979319
        }
      ],
      "apple/mobileclip_s2": [
        {
          "distance": 0.11770325,
          "id": 1913938589
        },
        {
          "distance": 0.15485136,
          "id": 1930979577
        },
        {
          "distance": 0.4156385,
          "id": 1914622809
        },
        {
          "distance": 0.41875514,
          "id": 1914622815
        },
        {
          "distance": 0.42492256,
          "id": 1913938595
        },
        {
          "distance": 0.42825252,
          "id": 1930979571
        },
        {
          "distance": 0.43192348,
          "id": 1931096011
        },
        {
          "distance": 0.44585377,
          "id": 1762894261
        },
        {
          "distance": 0.44711795,
          "id": 1930979553
        },
        {
          "distance": 0.46038604,
          "id": 1931096125
        }
      ]
    },
    "millsfield:subcategory_id": 1511213703,
    "mz:is_current": 1,
    "sfomuseum:filename": "76710.tif",
    "sfomuseum:image_id": 76710,
    "sfomuseum:image_index": 5,
    "sfomuseum:image_type": "studio",
    "sfomuseum:object_id": 68567,
    "sfomuseum:placetype": "image",
    "sfomuseum:primary_image": 0,
    "src:geom": "sfomuseum",
    "wof:belongsto": [
      102527513,
      1159162825,
      102191575,
      85633793,
      102087579,
      85922583,
      1913938439,
      85688637,
      1159160869
    ],
    "wof:country": "XY",
    "wof:created": 1715758556,
    "wof:depicts": [
      1913938439,
      1159286457,
      1159289409,
      1159293829
    ],
    "wof:geomhash": "ed7c2ab3547fc3916b5edc33488deaa7",
    "wof:hierarchy": [
      {
        "building_id": -1,
        "campus_id": 102527513,
        "collection_id": 1159162825,
        "concourse_id": 1159162825,
        "continent_id": 102191575,
        "country_id": 85633793,
        "county_id": 102087579,
        "custom_id": 1913938607,
        "image_id": 1913938607,
        "locality_id": 85922583,
        "neighbourhood_id": -1,
        "object_id": 1913938439,
        "region_id": 85688637,
        "wing_id": 1159160869
      }
    ],
    "wof:id": 1913938607,
    "wof:lastmodified": 1788452339,
    "wof:name": "safety information card: Braniff Inc., Airbus A320",
    "wof:parent_id": 1913938439,
    "wof:placetype": "custom",
    "wof:placetype_alt": [
      "image"
    ],
    "wof:repo": "sfomuseum-data-media-collection",
    "wof:superseded_by": [],
    "wof:supersedes": []
  },
  "bbox": [
    -122.386472,
    37.616105,
    -122.385834,
    37.616611
  ],
  "geometry": {"type":"Polygon","coordinates":[[[-122.386472,37.616318],[-122.386435,37.616233],[-122.386376,37.616178],[-122.386301,37.616131],[-122.386161,37.616105],[-122.386022,37.616131],[-122.385914,37.616186],[-122.385855,37.616267],[-122.385834,37.616369],[-122.385871,37.616467],[-122.385941,37.616543],[-122.386054,37.616603],[-122.386183,37.616611],[-122.386306,37.616573],[-122.386419,37.616509],[-122.386467,37.616411],[-122.386472,37.616318]]]}
}
