{
  "id": 1527845263,
  "type": "Feature",
  "properties": {
    "date:cessation_lower": "2007-01-01",
    "date:cessation_upper": "2007-12-31",
    "date:inception_lower": "2007-01-01",
    "date:inception_upper": "2007-12-31",
    "edtf:cessation": "2007~",
    "edtf:date": "2007~",
    "edtf:inception": "2007~",
    "geom:area": 0,
    "geom:bbox": "-122.386155,37.616358,-122.386155,37.616358",
    "geom:latitude": 37.616358,
    "geom:longitude": -122.386155,
    "iso:country": "XX",
    "media:fingerprint": "39a719603fcf869051802371e67a0b1cde347dfa",
    "media:imagehash_avg": "a:0000017f7f7f7901",
    "media:imagehash_diff": "d:d9c9c9e7c3c3c5f3",
    "media:imagetext": "CATHAY PACIFIC\nFlying with Cathay Pacific Airways\nB-HNH\n•\nZSwIrE",
    "media:imagetext_created": 1787951891,
    "media:imagetext_source": "com.apple.visionkit.VNImageRequestHandler#Version 26.6.2 (Build 25G83)",
    "media:medium": "image",
    "media:mimetype": "image/tiff",
    "media:properties": {
      "sizes": {
        "b": {
          "extension": "jpg",
          "height": 768,
          "mimetype": "image/jpeg",
          "secret": "gMtp7572HnDJO087ezEnvYSHrahoReE3",
          "width": 397
        },
        "c": {
          "extension": "jpg",
          "height": 600,
          "mimetype": "image/jpeg",
          "secret": "gMtp7572HnDJO087ezEnvYSHrahoReE3",
          "width": 310
        },
        "dc": {
          "extension": "jpg",
          "height": 600,
          "mimetype": "image/jpeg",
          "secret": "gMtp7572HnDJO087ezEnvYSHrahoReE3",
          "width": 310
        },
        "ds": {
          "extension": "jpg",
          "height": 320,
          "mimetype": "image/jpeg",
          "secret": "gMtp7572HnDJO087ezEnvYSHrahoReE3",
          "width": 320
        },
        "k": {
          "extension": "jpg",
          "height": 1536,
          "mimetype": "image/jpeg",
          "secret": "gMtp7572HnDJO087ezEnvYSHrahoReE3",
          "width": 795
        },
        "n": {
          "extension": "jpg",
          "height": 240,
          "mimetype": "image/jpeg",
          "secret": "gMtp7572HnDJO087ezEnvYSHrahoReE3",
          "width": 124
        },
        "o": {
          "extension": "jpg",
          "height": 2408,
          "mimetype": "image/jpeg",
          "secret": "c7bZcIwKieX16vzSU5nQwDzspf0ihprc",
          "width": 1247
        },
        "s": {
          "extension": "jpg",
          "height": 320,
          "mimetype": "image/jpeg",
          "secret": "gMtp7572HnDJO087ezEnvYSHrahoReE3",
          "width": 320
        },
        "z": {
          "extension": "jpg",
          "height": 480,
          "mimetype": "image/jpeg",
          "secret": "gMtp7572HnDJO087ezEnvYSHrahoReE3",
          "width": 248
        }
      }
    },
    "media:source": "sfomuseum",
    "media:status_id": 1,
    "media:uri_template": "https://static.sfomuseum.org/media/152/784/526/3/1527845263_{secret}_{label}.{extension}",
    "millsfield:airline_id": [
      1159284127
    ],
    "millsfield:category_id": 1763416397,
    "millsfield:collection_id": 1511214207,
    "millsfield:company_id": [
      1159286837
    ],
    "millsfield:images_colors": [
      {
        "hex": "#b7c5e5",
        "name": "#b7c5e5",
        "reference": "marekm4"
      },
      {
        "hex": "#b0c4de",
        "name": "lightsteelblue",
        "reference": "css4"
      },
      {
        "hex": "#c5d0e6",
        "name": "Periwinkle",
        "reference": "crayola"
      },
      {
        "hex": "#4a63b8",
        "name": "#4a63b8",
        "reference": "marekm4"
      },
      {
        "hex": "#4682b4",
        "name": "steelblue",
        "reference": "css4"
      },
      {
        "hex": "#5d76cb",
        "name": "Indigo",
        "reference": "crayola"
      },
      {
        "hex": "#272f31",
        "name": "#272f31",
        "reference": "marekm4"
      },
      {
        "hex": "#2f4f4f",
        "name": "darkslategrey",
        "reference": "css4"
      },
      {
        "hex": "#414a4c",
        "name": "Outer Space",
        "reference": "crayola"
      },
      {
        "hex": "#6f92d9",
        "name": "#6f92d9",
        "reference": "marekm4"
      },
      {
        "hex": "#6495ed",
        "name": "cornflowerblue",
        "reference": "css4"
      },
      {
        "hex": "#6699cc",
        "name": "Blue Gray",
        "reference": "crayola"
      }
    ],
    "millsfield:images_texts": [
      "CATHAY PACIFIC\nFlying with Cathay Pacific Airways\nB-HNH\n•\nZSwIrE"
    ],
    "millsfield:images_texts_ids": [
      1527845263
    ],
    "millsfield:similar": {
      "apple/mobileclip_s0": [
        {
          "distance": 0.6636291,
          "id": 1779490043
        },
        {
          "distance": 0.6730667,
          "id": 1779489281
        },
        {
          "distance": 0.67325896,
          "id": 1779489283
        },
        {
          "distance": 0.67707103,
          "id": 1527838971
        },
        {
          "distance": 0.6782848,
          "id": 2014778503
        },
        {
          "distance": 0.67838883,
          "id": 2014778507
        },
        {
          "distance": 0.6786389,
          "id": 1762715123
        },
        {
          "distance": 0.6890181,
          "id": 1964107057
        },
        {
          "distance": 0.6890427,
          "id": 1762714209
        },
        {
          "distance": 0.6895465,
          "id": 1763256233
        }
      ],
      "apple/mobileclip_s1": [
        {
          "distance": 0.47989228,
          "id": 1762715123
        },
        {
          "distance": 0.48713827,
          "id": 1527840499
        },
        {
          "distance": 0.49312174,
          "id": 1763256233
        },
        {
          "distance": 0.4939986,
          "id": 1527841645
        },
        {
          "distance": 0.49470645,
          "id": 1762893877
        },
        {
          "distance": 0.49497467,
          "id": 1931110391
        },
        {
          "distance": 0.4949757,
          "id": 1762714209
        },
        {
          "distance": 0.4978836,
          "id": 1763204999
        },
        {
          "distance": 0.49790674,
          "id": 2014778515
        },
        {
          "distance": 0.5010452,
          "id": 1527840807
        }
      ],
      "apple/mobileclip_s2": [
        {
          "distance": 0.6783824,
          "id": 1763372787
        },
        {
          "distance": 0.6879474,
          "id": 1779436663
        },
        {
          "distance": 0.7121244,
          "id": 1931095909
        },
        {
          "distance": 0.7172577,
          "id": 1763256233
        },
        {
          "distance": 0.7174752,
          "id": 1527841649
        },
        {
          "distance": 0.7210161,
          "id": 1527838971
        },
        {
          "distance": 0.7297811,
          "id": 1763249285
        },
        {
          "distance": 0.73222697,
          "id": 1763196641
        },
        {
          "distance": 0.7336965,
          "id": 1762701989
        },
        {
          "distance": 0.73452383,
          "id": 1527849241
        }
      ]
    },
    "millsfield:subcategory_id": 1511213631,
    "mz:hierarchy_label": 1,
    "mz:is_current": -1,
    "sfomuseum:filename": "2007.041.076.tif",
    "sfomuseum:image_id": 69669,
    "sfomuseum:image_index": 5,
    "sfomuseum:image_type": "studio",
    "sfomuseum:object_id": 86602,
    "sfomuseum:placetype": "image",
    "sfomuseum:primary_image": 1,
    "src:geom": "sfomuseum",
    "wof:belongsto": [
      1511214205,
      1511930225,
      102527513,
      102191575,
      85633793,
      1511213631,
      85922583,
      102087579,
      1511214277,
      1511214203,
      85688637
    ],
    "wof:breaches": [],
    "wof:country": "XX",
    "wof:created": 1578953324,
    "wof:depicts": [
      1159286837,
      1511930225,
      1159284127
    ],
    "wof:geomhash": "bd906905ce4be6c0651c90b0fc24804c",
    "wof:hierarchy": [
      {
        "arcade_id": 1511213631,
        "building_id": 1511214277,
        "campus_id": 102527513,
        "concourse_id": 1511214205,
        "continent_id": 102191575,
        "country_id": 85633793,
        "county_id": 102087579,
        "custom_id": 1527845263,
        "image_id": 1527845263,
        "locality_id": 85922583,
        "media_id": 1527845263,
        "neighbourhood_id": -1,
        "region_id": 85688637,
        "venue_id": 1511930225,
        "wing_id": 1511214203
      }
    ],
    "wof:id": 1527845263,
    "wof:lastmodified": 1788450095,
    "wof:name": "brochure: Cathay Pacific Airways, general service",
    "wof:parent_id": 1511930225,
    "wof:placetype": "custom",
    "wof:placetype_alt": [
      "image"
    ],
    "wof:repo": "sfomuseum-data-media-collection",
    "wof:superseded_by": [],
    "wof:supersedes": [],
    "wof:tags": []
  },
  "bbox": [
    -122.386155,
    37.616358,
    -122.386155,
    37.616358
  ],
  "geometry": {"type":"Point","coordinates":[-122.386155,37.616358]}
}
