{
  "id": 1527829469,
  "type": "Feature",
  "properties": {
    "date:cessation_lower": "1947-06-30",
    "date:cessation_upper": "1947-06-30",
    "date:inception_lower": "1947-06-30",
    "date:inception_upper": "1947-06-30",
    "edtf:cessation": "1947-06-30",
    "edtf:date": "1947-06-30",
    "edtf:inception": "1947-06-30",
    "geom:area": 0,
    "geom:bbox": "-122.386155,37.616358,-122.386155,37.616358",
    "geom:latitude": 37.616358,
    "geom:longitude": -122.386155,
    "iso:country": "TH",
    "media:fingerprint": "ed6370134f88066497cf78766e8bb8e88fdd5dfc",
    "media:imagehash_avg": "a:ff0bfb839bbbe9ff",
    "media:imagehash_diff": "d:01d7b73732734b7f",
    "media:imagetext": "Aviation Safety Award\nConferred by\nInter-American Lafety Council, Inc.\nfor the year\n1946\nPan American /\nHorld Airways\nFor flying over its 48,440-mile network a total of 43,878,59l\nAying miles, totalling 760,238,654 passenger miles without\nan accident or fatality to passengers or crews\nAPPROVED\nGeo Hohite",
    "media:imagetext_created": 1787949121,
    "media:imagetext_source": "com.apple.visionkit.VNImageRequestHandler#Version 26.6.2 (Build 25G83)",
    "media:medium": "image",
    "media:mimetype": "image/tiff",
    "media:properties": {
      "sizes": {
        "b": {
          "extension": "jpg",
          "height": 586,
          "mimetype": "image/jpeg",
          "secret": "ot2fxl51ZI6wMBX5FkWEK8B5RrDdYuxR",
          "width": 1024
        },
        "c": {
          "extension": "jpg",
          "height": 458,
          "mimetype": "image/jpeg",
          "secret": "ot2fxl51ZI6wMBX5FkWEK8B5RrDdYuxR",
          "width": 800
        },
        "dc": {
          "extension": "jpg",
          "height": 458,
          "mimetype": "image/jpeg",
          "secret": "ot2fxl51ZI6wMBX5FkWEK8B5RrDdYuxR",
          "width": 800
        },
        "ds": {
          "extension": "jpg",
          "height": 320,
          "mimetype": "image/jpeg",
          "secret": "ot2fxl51ZI6wMBX5FkWEK8B5RrDdYuxR",
          "width": 320
        },
        "k": {
          "extension": "jpg",
          "height": 1172,
          "mimetype": "image/jpeg",
          "secret": "ot2fxl51ZI6wMBX5FkWEK8B5RrDdYuxR",
          "width": 2048
        },
        "n": {
          "extension": "jpg",
          "height": 183,
          "mimetype": "image/jpeg",
          "secret": "ot2fxl51ZI6wMBX5FkWEK8B5RrDdYuxR",
          "width": 320
        },
        "o": {
          "extension": "jpg",
          "height": 1140,
          "mimetype": "image/jpeg",
          "secret": "W2CJNQWvMkGXWTGbwRNZ0dqJ52tN0zTA",
          "width": 1991
        },
        "s": {
          "extension": "jpg",
          "height": 320,
          "mimetype": "image/jpeg",
          "secret": "ot2fxl51ZI6wMBX5FkWEK8B5RrDdYuxR",
          "width": 320
        },
        "z": {
          "extension": "jpg",
          "height": 366,
          "mimetype": "image/jpeg",
          "secret": "ot2fxl51ZI6wMBX5FkWEK8B5RrDdYuxR",
          "width": 640
        }
      }
    },
    "media:source": "sfomuseum",
    "media:status_id": 1,
    "media:uri_template": "https://static.sfomuseum.org/media/152/782/946/9/1527829469_{secret}_{label}.{extension}",
    "millsfield:airline_id": [
      1159284989
    ],
    "millsfield:category_id": 1511214215,
    "millsfield:collection_id": 1511214207,
    "millsfield:company_id": [
      1159286839
    ],
    "millsfield:images_colors": [
      {
        "hex": "#faf6e3",
        "name": "#faf6e3",
        "reference": "marekm4"
      },
      {
        "hex": "#fdf5e6",
        "name": "oldlace",
        "reference": "css4"
      },
      {
        "hex": "#fddde6",
        "name": "Piggy Pink",
        "reference": "crayola"
      },
      {
        "hex": "#49416a",
        "name": "#49416a",
        "reference": "marekm4"
      },
      {
        "hex": "#483d8b",
        "name": "darkslateblue",
        "reference": "css4"
      },
      {
        "hex": "#58427c",
        "name": "Cyber Grape",
        "reference": "crayola"
      }
    ],
    "millsfield:images_texts": [
      "Pan American World Airways\nFirst Clipper Air Mail Flight\nBangkok to Manila\nBANGKOK, STAM t6\nMANILA. PHILIPDINES\nDE\nAM\n15\nST.\n599\nA\nET.\nGE\n15\n1 AIR MAIL\nFIRST\nDIRECT\nAIR MAIL\nPAN AMERICAN WORLD AIRWAYS\nc/o Pan American Airways, Inc.\nNichols Airport\nManila, Philippine Islands",
      "MAS\nRECEIVED\nJUL\n2\n1947\nME\n1994,18.72a",
      "Aviation Safety Award\nConferred by\nInter-American Lafety Council, Inc.\nfor the year\n1946\nPan American /\nHorld Airways\nFor flying over its 48,440-mile network a total of 43,878,59l\nAying miles, totalling 760,238,654 passenger miles without\nan accident or fatality to passengers or crews\nAPPROVED\nGeo Hohite"
    ],
    "millsfield:images_texts_ids": [
      1527829465,
      1527829467,
      1527829469
    ],
    "millsfield:similar": {
      "apple/mobileclip_s0": [
        {
          "distance": 0.26258984,
          "id": 1527854233
        },
        {
          "distance": 0.47768387,
          "id": 1762713187
        },
        {
          "distance": 0.50278723,
          "id": 1762706273
        },
        {
          "distance": 0.5077789,
          "id": 1762702889
        },
        {
          "distance": 0.5178628,
          "id": 1762703259
        },
        {
          "distance": 0.5212933,
          "id": 1762706283
        },
        {
          "distance": 0.5218269,
          "id": 1762710251
        },
        {
          "distance": 0.52243316,
          "id": 1527856143
        },
        {
          "distance": 0.52570814,
          "id": 1762707595
        },
        {
          "distance": 0.5267124,
          "id": 1762711355
        }
      ],
      "apple/mobileclip_s1": [
        {
          "distance": 0.21398304,
          "id": 1527854233
        },
        {
          "distance": 0.4149517,
          "id": 1779668211
        },
        {
          "distance": 0.42185366,
          "id": 1762893211
        },
        {
          "distance": 0.43002284,
          "id": 1527848249
        },
        {
          "distance": 0.4386641,
          "id": 1527853655
        },
        {
          "distance": 0.4386641,
          "id": 1527853661
        },
        {
          "distance": 0.4386641,
          "id": 1527853665
        },
        {
          "distance": 0.4386641,
          "id": 1527853667
        },
        {
          "distance": 0.4386641,
          "id": 1527853673
        },
        {
          "distance": 0.4386641,
          "id": 1527853691
        }
      ],
      "apple/mobileclip_s2": [
        {
          "distance": 0.24449725,
          "id": 1527854233
        },
        {
          "distance": 0.57286143,
          "id": 1762893211
        },
        {
          "distance": 0.59805864,
          "id": 1527845399
        },
        {
          "distance": 0.6267464,
          "id": 1779668211
        },
        {
          "distance": 0.6297461,
          "id": 1762896835
        },
        {
          "distance": 0.6443527,
          "id": 1779668197
        },
        {
          "distance": 0.6476496,
          "id": 1527853655
        },
        {
          "distance": 0.6476496,
          "id": 1527853665
        },
        {
          "distance": 0.6476496,
          "id": 1527853667
        },
        {
          "distance": 0.6476496,
          "id": 1527853669
        }
      ]
    },
    "millsfield:subcategory_id": 1511213159,
    "mz:hierarchy_label": 1,
    "mz:is_current": -1,
    "sfomuseum:filename": "48257.tif",
    "sfomuseum:image_id": 48257,
    "sfomuseum:image_index": 5,
    "sfomuseum:image_type": "studio",
    "sfomuseum:object_id": 42949,
    "sfomuseum:placetype": "image",
    "sfomuseum:primary_image": 0,
    "src:geom": "sfomuseum",
    "wof:belongsto": [
      1511214215,
      1511906991,
      102527513,
      102191575,
      85633793,
      1511213159,
      85922583,
      102087579,
      1511214277,
      1511214203,
      85688637,
      102191569,
      85632293
    ],
    "wof:breaches": [],
    "wof:country": "TH",
    "wof:created": 1578950845,
    "wof:depicts": [
      1511906991,
      1159286839,
      1159284989
    ],
    "wof:geomhash": "bd906905ce4be6c0651c90b0fc24804c",
    "wof:hierarchy": [
      {
        "arcade_id": 1511213159,
        "building_id": 1511214277,
        "campus_id": 102527513,
        "concourse_id": 1511214215,
        "continent_id": 102191575,
        "country_id": 85633793,
        "county_id": 102087579,
        "custom_id": 1527829469,
        "image_id": 1527829469,
        "locality_id": 85922583,
        "media_id": 1527829469,
        "neighbourhood_id": -1,
        "region_id": 85688637,
        "venue_id": 1511906991,
        "wing_id": 1511214203
      },
      {
        "continent_id": 102191569,
        "country_id": 85632293,
        "custom_id": 1527829469,
        "image_id": 1527829469,
        "media_id": 1527829469,
        "venue_id": 1511906991
      }
    ],
    "wof:id": 1527829469,
    "wof:lastmodified": 1788449862,
    "wof:name": "airmail flight cover: Pan American World Airways, Bangkok - Manila route",
    "wof:parent_id": 1511906991,
    "wof:placetype": "custom",
    "wof:placetype_alt": [
      "image"
    ],
    "wof:repo": "sfomuseum-data-media-collection",
    "wof:superseded_by": [],
    "wof:supersedes": [],
    "wof:tags": []
  },
  "bbox": [
    -122.386155,
    37.616358,
    -122.386155,
    37.616358
  ],
  "geometry": {"type":"Point","coordinates":[-122.386155,37.616358]}
}
