{
  "id": 1846756421,
  "type": "Feature",
  "properties": {
    "date:cessation_lower": "1950-01-01",
    "date:cessation_upper": "1959-12-31",
    "date:inception_lower": "1950-01-01",
    "date:inception_upper": "1959-12-31",
    "edtf:cessation": "195X",
    "edtf:inception": "195X",
    "geom:area": 2.477324999997507e-7,
    "geom:bbox": "-122.386472,37.616105,-122.385834,37.616611",
    "geom:latitude": 37.61635756125121,
    "geom:longitude": -122.38615532866096,
    "media:fingerprint": "e20141894bc29eea563db3cc5731f21100fb8e08",
    "media:imagehash_avg": "a:00067e7e7e7e7e00",
    "media:imagehash_diff": "d:ecccdce8e8ccc8c0",
    "media:imagetext": "Double-decked \"Strato\" Clippers\", world's largest,\nfinest, most luxurious airliners, fly Pan American's\nexclusive \"President\" service. Only these modern\nsky giants offer you a choice of Sleeperette•\nservice or roomy berth, congenial lower deck\nlounge-unmatched travel luxury day and night.\nPRINTEO\nIN\nUGA.\n*TRADE MARK, PAN AMERICAN WORLD AIRWAYS, INC.\nWORLD'S MOST EXPERIENCED AIRLINE\nADDRESS\n20\n,489",
    "media:imagetext_created": 1787967541,
    "media:imagetext_source": "com.apple.visionkit.VNImageRequestHandler#Version 26.6.2 (Build 25G83)",
    "media:mimetype": "image/jpeg",
    "media:properties": {
      "sizes": {
        "b": {
          "extension": "jpg",
          "height": 702,
          "mimetype": "image/jpeg",
          "secret": "4Wys53JaKTtUJeldHK3opjqNQJI8iIP8",
          "width": 1023
        },
        "c": {
          "extension": "jpg",
          "height": 548,
          "mimetype": "image/jpeg",
          "secret": "4Wys53JaKTtUJeldHK3opjqNQJI8iIP8",
          "width": 800
        },
        "dc": {
          "extension": "jpg",
          "height": 548,
          "mimetype": "image/jpeg",
          "secret": "4Wys53JaKTtUJeldHK3opjqNQJI8iIP8",
          "width": 800
        },
        "ds": {
          "extension": "jpg",
          "height": 320,
          "mimetype": "image/jpeg",
          "secret": "4Wys53JaKTtUJeldHK3opjqNQJI8iIP8",
          "width": 320
        },
        "k": {
          "extension": "jpg",
          "height": 1404,
          "mimetype": "image/jpeg",
          "secret": "4Wys53JaKTtUJeldHK3opjqNQJI8iIP8",
          "width": 2047
        },
        "n": {
          "extension": "jpg",
          "height": 219,
          "mimetype": "image/jpeg",
          "secret": "4Wys53JaKTtUJeldHK3opjqNQJI8iIP8",
          "width": 320
        },
        "o": {
          "extension": "jpg",
          "height": 1202,
          "mimetype": "image/jpeg",
          "secret": "miPIucOeNqmnR7Upe2IrBSQTNXkzTaPI",
          "width": 1753
        },
        "s": {
          "extension": "jpg",
          "height": 320,
          "mimetype": "image/jpeg",
          "secret": "4Wys53JaKTtUJeldHK3opjqNQJI8iIP8",
          "width": 320
        },
        "z": {
          "extension": "jpg",
          "height": 438,
          "mimetype": "image/jpeg",
          "secret": "4Wys53JaKTtUJeldHK3opjqNQJI8iIP8",
          "width": 640
        }
      }
    },
    "media:source": "sfomuseum",
    "media:status_id": 1,
    "media:uri_template": "https://static.sfomuseum.org/media/184/675/642/1/1846756421_{secret}_{label}.{extension}",
    "millsfield:aircraft_id": [
      1159289651
    ],
    "millsfield:airline_id": [
      1159284989
    ],
    "millsfield:category_id": 1511214215,
    "millsfield:collection_id": 1511214207,
    "millsfield:company_id": [
      1159293593
    ],
    "millsfield:images_colors": [
      {
        "hex": "#cbcabb",
        "name": "#cbcabb",
        "reference": "marekm4"
      },
      {
        "hex": "#c0c0c0",
        "name": "silver",
        "reference": "css4"
      },
      {
        "hex": "#cdc5c2",
        "name": "Silver",
        "reference": "crayola"
      },
      {
        "hex": "#3a271d",
        "name": "#3a271d",
        "reference": "marekm4"
      },
      {
        "hex": "#2f4f4f",
        "name": "darkslategrey",
        "reference": "css4"
      },
      {
        "hex": "#414a4c",
        "name": "Outer Space",
        "reference": "crayola"
      }
    ],
    "millsfield:images_texts": [
      "CAN AMERICAN WORLD\nAINWA1S..\nPAA\n1 N1025 V",
      "Double-decked \"Strato\" Clippers\", world's largest,\nfinest, most luxurious airliners, fly Pan American's\nexclusive \"President\" service. Only these modern\nsky giants offer you a choice of Sleeperette•\nservice or roomy berth, congenial lower deck\nlounge-unmatched travel luxury day and night.\nPRINTEO\nIN\nUGA.\n*TRADE MARK, PAN AMERICAN WORLD AIRWAYS, INC.\nWORLD'S MOST EXPERIENCED AIRLINE\nADDRESS\n20\n,489"
    ],
    "millsfield:images_texts_ids": [
      1846756419,
      1846756421
    ],
    "millsfield:similar": {
      "apple/mobileclip_s0": [
        {
          "distance": 0.39022863,
          "id": 1846755407
        },
        {
          "distance": 0.3988159,
          "id": 1846756453
        },
        {
          "distance": 0.4082564,
          "id": 1846755411
        },
        {
          "distance": 0.42101797,
          "id": 1762706675
        },
        {
          "distance": 0.44236028,
          "id": 1762709943
        },
        {
          "distance": 0.4456426,
          "id": 1762706669
        },
        {
          "distance": 0.44612613,
          "id": 1762706687
        },
        {
          "distance": 0.45183355,
          "id": 1762706701
        },
        {
          "distance": 0.4521275,
          "id": 1762703515
        },
        {
          "distance": 0.45254326,
          "id": 1762712381
        }
      ],
      "apple/mobileclip_s1": [
        {
          "distance": 0.25546074,
          "id": 1846756453
        },
        {
          "distance": 0.2630337,
          "id": 1846755407
        },
        {
          "distance": 0.26311272,
          "id": 1846755411
        },
        {
          "distance": 0.33803773,
          "id": 1846756237
        },
        {
          "distance": 0.34667513,
          "id": 1846755629
        },
        {
          "distance": 0.34876496,
          "id": 1762711409
        },
        {
          "distance": 0.35112864,
          "id": 1762711467
        },
        {
          "distance": 0.3517191,
          "id": 1762712579
        },
        {
          "distance": 0.35346988,
          "id": 1846756519
        },
        {
          "distance": 0.35893932,
          "id": 1846755715
        }
      ],
      "apple/mobileclip_s2": [
        {
          "distance": 0.38337976,
          "id": 1846756453
        },
        {
          "distance": 0.40570104,
          "id": 1846755407
        },
        {
          "distance": 0.40741685,
          "id": 1846755411
        },
        {
          "distance": 0.4872588,
          "id": 1762706669
        },
        {
          "distance": 0.5073687,
          "id": 1762706675
        },
        {
          "distance": 0.51286656,
          "id": 1846755647
        },
        {
          "distance": 0.5177236,
          "id": 1846756381
        },
        {
          "distance": 0.52428377,
          "id": 1846756223
        },
        {
          "distance": 0.5243287,
          "id": 1846756353
        },
        {
          "distance": 0.5255159,
          "id": 1846757075
        }
      ]
    },
    "millsfield:subcategory_id": 1511213363,
    "mz:is_current": 1,
    "sfomuseum:filename": "489b.jpg",
    "sfomuseum:image_id": 265769,
    "sfomuseum:image_index": 0,
    "sfomuseum:image_type": "studio",
    "sfomuseum:object_id": 233411,
    "sfomuseum:placetype": "image",
    "sfomuseum:primary_image": 0,
    "src:geom": "sfomuseum",
    "wof:belongsto": [
      102527513,
      1159162825,
      102191575,
      85633793,
      102087579,
      85922583,
      1846754769,
      85688637,
      1159160869
    ],
    "wof:country": "XY",
    "wof:created": 1680078832,
    "wof:depicts": [
      1846754769,
      1159284989,
      1159289651,
      1159293593
    ],
    "wof:geomhash": "ed7c2ab3547fc3916b5edc33488deaa7",
    "wof:hierarchy": [
      {
        "building_id": -1,
        "campus_id": 102527513,
        "collection_id": 1159162825,
        "concourse_id": 1159162825,
        "continent_id": 102191575,
        "country_id": 85633793,
        "county_id": 102087579,
        "custom_id": 1846756421,
        "image_id": 1846756421,
        "locality_id": 85922583,
        "neighbourhood_id": -1,
        "object_id": 1846754769,
        "region_id": 85688637,
        "wing_id": 1159160869
      }
    ],
    "wof:id": 1846756421,
    "wof:lastmodified": 1788451659,
    "wof:name": "postcard: Pan American World Airways, Boeing 377 Stratocruiser",
    "wof:parent_id": 1846754769,
    "wof:placetype": "custom",
    "wof:placetype_alt": [
      "image"
    ],
    "wof:repo": "sfomuseum-data-media-collection",
    "wof:superseded_by": [],
    "wof:supersedes": []
  },
  "bbox": [
    -122.386472,
    37.616105,
    -122.385834,
    37.616611
  ],
  "geometry": {"type":"Polygon","coordinates":[[[-122.386472,37.616318],[-122.386435,37.616233],[-122.386376,37.616178],[-122.386301,37.616131],[-122.386161,37.616105],[-122.386022,37.616131],[-122.385914,37.616186],[-122.385855,37.616267],[-122.385834,37.616369],[-122.385871,37.616467],[-122.385941,37.616543],[-122.386054,37.616603],[-122.386183,37.616611],[-122.386306,37.616573],[-122.386419,37.616509],[-122.386467,37.616411],[-122.386472,37.616318]]]}
}
