{
  "id": 1527855987,
  "type": "Feature",
  "properties": {
    "date:cessation_lower": "1915-01-01",
    "date:cessation_upper": "1915-12-31",
    "date:inception_lower": "1915-01-01",
    "date:inception_upper": "1915-12-31",
    "edtf:cessation": "1915~",
    "edtf:date": "1915~",
    "edtf:inception": "1915~",
    "geom:area": 0,
    "geom:bbox": "-122.386155,37.616358,-122.386155,37.616358",
    "geom:latitude": 37.616358,
    "geom:longitude": -122.386155,
    "iso:country": "XX",
    "media:fingerprint": "ca4c155ea401451084708b737a4333bc6606407f",
    "media:imagehash_avg": "a:ffe1d1f0c08181f9",
    "media:imagehash_diff": "d:0f13119111131317",
    "media:medium": "image",
    "media:mimetype": "image/tiff",
    "media:properties": {
      "sizes": {
        "b": {
          "extension": "jpg",
          "height": 768,
          "mimetype": "image/jpeg",
          "secret": "Z3L9z0GEGUN1Xzab3GUlAlVxMCzwgzZB",
          "width": 522
        },
        "c": {
          "extension": "jpg",
          "height": 600,
          "mimetype": "image/jpeg",
          "secret": "Z3L9z0GEGUN1Xzab3GUlAlVxMCzwgzZB",
          "width": 408
        },
        "dc": {
          "extension": "jpg",
          "height": 600,
          "mimetype": "image/jpeg",
          "secret": "Z3L9z0GEGUN1Xzab3GUlAlVxMCzwgzZB",
          "width": 408
        },
        "ds": {
          "extension": "jpg",
          "height": 320,
          "mimetype": "image/jpeg",
          "secret": "Z3L9z0GEGUN1Xzab3GUlAlVxMCzwgzZB",
          "width": 320
        },
        "k": {
          "extension": "jpg",
          "height": 1536,
          "mimetype": "image/jpeg",
          "secret": "Z3L9z0GEGUN1Xzab3GUlAlVxMCzwgzZB",
          "width": 1045
        },
        "n": {
          "extension": "jpg",
          "height": 240,
          "mimetype": "image/jpeg",
          "secret": "Z3L9z0GEGUN1Xzab3GUlAlVxMCzwgzZB",
          "width": 163
        },
        "o": {
          "extension": "jpg",
          "height": 3031,
          "mimetype": "image/jpeg",
          "secret": "dA8BehCgVOPMPsWbVOl8tOVw3MHYTsY5",
          "width": 2063
        },
        "s": {
          "extension": "jpg",
          "height": 320,
          "mimetype": "image/jpeg",
          "secret": "Z3L9z0GEGUN1Xzab3GUlAlVxMCzwgzZB",
          "width": 320
        },
        "z": {
          "extension": "jpg",
          "height": 480,
          "mimetype": "image/jpeg",
          "secret": "Z3L9z0GEGUN1Xzab3GUlAlVxMCzwgzZB",
          "width": 326
        }
      }
    },
    "media:source": "sfomuseum",
    "media:status_id": 1,
    "media:uri_template": "https://static.sfomuseum.org/media/152/785/598/7/1527855987_{secret}_{label}.{extension}",
    "millsfield:category_id": 1511214209,
    "millsfield:collection_id": 1511214207,
    "millsfield:images_colors": [
      {
        "hex": "#54513a",
        "name": "#54513a",
        "reference": "marekm4"
      },
      {
        "hex": "#556b2f",
        "name": "darkolivegreen",
        "reference": "css4"
      },
      {
        "hex": "#414a4c",
        "name": "Outer Space",
        "reference": "crayola"
      },
      {
        "hex": "#928c72",
        "name": "#928c72",
        "reference": "marekm4"
      },
      {
        "hex": "#808080",
        "name": "grey",
        "reference": "css4"
      },
      {
        "hex": "#9f8170",
        "name": "Beaver",
        "reference": "crayola"
      },
      {
        "hex": "#c0baa5",
        "name": "#c0baa5",
        "reference": "marekm4"
      },
      {
        "hex": "#c0c0c0",
        "name": "silver",
        "reference": "css4"
      },
      {
        "hex": "#cdc5c2",
        "name": "Silver",
        "reference": "crayola"
      },
      {
        "hex": "#827d64",
        "name": "#827d64",
        "reference": "marekm4"
      },
      {
        "hex": "#8a795d",
        "name": "Shadow",
        "reference": "crayola"
      }
    ],
    "millsfield:similar": {
      "apple/mobileclip_s0": [
        {
          "distance": 0.604169,
          "id": 1847515377
        },
        {
          "distance": 0.62350756,
          "id": 1527855989
        },
        {
          "distance": 0.6695354,
          "id": 1897882061
        },
        {
          "distance": 0.6772253,
          "id": 1913736507
        },
        {
          "distance": 0.68687755,
          "id": 1897082263
        },
        {
          "distance": 0.6900341,
          "id": 1897713267
        },
        {
          "distance": 0.69631445,
          "id": 1527852905
        },
        {
          "distance": 0.70248944,
          "id": 1527855985
        },
        {
          "distance": 0.7145219,
          "id": 1813516277
        },
        {
          "distance": 0.71650267,
          "id": 1763443603
        }
      ],
      "apple/mobileclip_s1": [
        {
          "distance": 0.45946229,
          "id": 1897082263
        },
        {
          "distance": 0.48958173,
          "id": 1897872169
        },
        {
          "distance": 0.4967753,
          "id": 1881041523
        },
        {
          "distance": 0.4968213,
          "id": 1847515377
        },
        {
          "distance": 0.51060617,
          "id": 1897882061
        },
        {
          "distance": 0.519701,
          "id": 1527855989
        },
        {
          "distance": 0.5210697,
          "id": 1913736507
        },
        {
          "distance": 0.5230443,
          "id": 1527821211
        },
        {
          "distance": 0.5252152,
          "id": 2014997961
        },
        {
          "distance": 0.5287904,
          "id": 1527821323
        }
      ],
      "apple/mobileclip_s2": [
        {
          "distance": 0.6381655,
          "id": 1897082263
        },
        {
          "distance": 0.6951214,
          "id": 1847515377
        },
        {
          "distance": 0.69966024,
          "id": 1897872169
        },
        {
          "distance": 0.70425516,
          "id": 1527855989
        },
        {
          "distance": 0.70507956,
          "id": 1881041523
        },
        {
          "distance": 0.7181641,
          "id": 1897872175
        },
        {
          "distance": 0.7242355,
          "id": 1847515409
        },
        {
          "distance": 0.72682685,
          "id": 1527822147
        },
        {
          "distance": 0.7321004,
          "id": 1527855985
        },
        {
          "distance": 0.73598796,
          "id": 1527821211
        }
      ]
    },
    "millsfield:subcategory_id": 1511213367,
    "mz:hierarchy_label": 1,
    "mz:is_current": -1,
    "sfomuseum:filename": "100540.tif",
    "sfomuseum:image_id": 100540,
    "sfomuseum:image_index": 5,
    "sfomuseum:image_type": "studio",
    "sfomuseum:object_id": 110315,
    "sfomuseum:placetype": "image",
    "sfomuseum:primary_image": 1,
    "src:geom": "sfomuseum",
    "wof:belongsto": [
      102527513,
      1511213367,
      1511214277,
      102191575,
      85922583,
      85688637,
      1511214203,
      102087579,
      1511214209,
      85633793,
      1511942851
    ],
    "wof:breaches": [],
    "wof:country": "XX",
    "wof:created": 1578955065,
    "wof:depicts": [
      1511942851
    ],
    "wof:geomhash": "bd906905ce4be6c0651c90b0fc24804c",
    "wof:hierarchy": [
      {
        "arcade_id": 1511213367,
        "building_id": 1511214277,
        "campus_id": 102527513,
        "concourse_id": 1511214209,
        "continent_id": 102191575,
        "country_id": 85633793,
        "county_id": 102087579,
        "custom_id": 1527855987,
        "image_id": 1527855987,
        "locality_id": 85922583,
        "media_id": 1527855987,
        "neighbourhood_id": -1,
        "region_id": 85688637,
        "venue_id": 1511942851,
        "wing_id": 1511214203
      }
    ],
    "wof:id": 1527855987,
    "wof:lastmodified": 1788450251,
    "wof:name": "photograph: San Francisco Bay Area, men with magnifying glass",
    "wof:parent_id": 1511942851,
    "wof:placetype": "custom",
    "wof:placetype_alt": [
      "image"
    ],
    "wof:repo": "sfomuseum-data-media-collection",
    "wof:superseded_by": [],
    "wof:supersedes": [],
    "wof:tags": []
  },
  "bbox": [
    -122.386155,
    37.616358,
    -122.386155,
    37.616358
  ],
  "geometry": {"type":"Point","coordinates":[-122.386155,37.616358]}
}
