{
  "id": 1763138445,
  "type": "Feature",
  "properties": {
    "date:cessation_lower": "2008-01-01",
    "date:cessation_upper": "2008-12-31",
    "date:inception_lower": "2008-01-01",
    "date:inception_upper": "2008-12-31",
    "edtf:cessation": "2008",
    "edtf:inception": "2008",
    "geom:area": 2.477324999997507e-7,
    "geom:bbox": "-122.386472,37.616105,-122.385834,37.616611",
    "geom:latitude": 37.61635756125121,
    "geom:longitude": -122.38615532866096,
    "media:fingerprint": "cd53c926caa057632cbc4271b58ac2ebf0e25afd",
    "media:imagehash_avg": "a:3e7b0bc7f7f7c383",
    "media:imagehash_diff": "d:f8f2b2aeecc60f0f",
    "media:imagetext": "Blue 100\njetBlue\n. . ...\nOuis 100th A320\nT/elBle",
    "media:imagetext_created": 1787960728,
    "media:imagetext_source": "com.apple.visionkit.VNImageRequestHandler#Version 26.6.2 (Build 25G83)",
    "media:mimetype": "image/tiff",
    "media:properties": {
      "sizes": {
        "b": {
          "extension": "jpg",
          "height": 768,
          "mimetype": "image/jpeg",
          "secret": "CqUwO4q6xE1HuMeieqPCWtodWvJhdgFQ",
          "width": 965
        },
        "c": {
          "extension": "jpg",
          "height": 600,
          "mimetype": "image/jpeg",
          "secret": "CqUwO4q6xE1HuMeieqPCWtodWvJhdgFQ",
          "width": 754
        },
        "dc": {
          "extension": "jpg",
          "height": 600,
          "mimetype": "image/jpeg",
          "secret": "CqUwO4q6xE1HuMeieqPCWtodWvJhdgFQ",
          "width": 754
        },
        "ds": {
          "extension": "jpg",
          "height": 320,
          "mimetype": "image/jpeg",
          "secret": "CqUwO4q6xE1HuMeieqPCWtodWvJhdgFQ",
          "width": 320
        },
        "k": {
          "extension": "jpg",
          "height": 1536,
          "mimetype": "image/jpeg",
          "secret": "CqUwO4q6xE1HuMeieqPCWtodWvJhdgFQ",
          "width": 1931
        },
        "n": {
          "extension": "jpg",
          "height": 240,
          "mimetype": "image/jpeg",
          "secret": "CqUwO4q6xE1HuMeieqPCWtodWvJhdgFQ",
          "width": 301
        },
        "o": {
          "extension": "jpg",
          "height": 1667,
          "mimetype": "image/jpeg",
          "secret": "BWJlX3sW2eHfHopvrWO5bzy0ruriQktl",
          "width": 2096
        },
        "s": {
          "extension": "jpg",
          "height": 320,
          "mimetype": "image/jpeg",
          "secret": "CqUwO4q6xE1HuMeieqPCWtodWvJhdgFQ",
          "width": 320
        },
        "z": {
          "extension": "jpg",
          "height": 480,
          "mimetype": "image/jpeg",
          "secret": "CqUwO4q6xE1HuMeieqPCWtodWvJhdgFQ",
          "width": 603
        }
      }
    },
    "media:source": "sfomuseum",
    "media:status_id": 1,
    "media:uri_template": "https://static.sfomuseum.org/media/176/313/844/5/1763138445_{secret}_{label}.{extension}",
    "millsfield:aircraft_id": [
      1159289409
    ],
    "millsfield:airline_id": [
      1159284583
    ],
    "millsfield:category_id": 1511214235,
    "millsfield:collection_id": 1511214203,
    "millsfield:company_id": [
      1159293829
    ],
    "millsfield:images_colors": [
      {
        "hex": "#b7b7b6",
        "name": "#b7b7b6",
        "reference": "marekm4"
      },
      {
        "hex": "#c0c0c0",
        "name": "silver",
        "reference": "css4"
      },
      {
        "hex": "#b0b7c6",
        "name": "Cadet Blue",
        "reference": "crayola"
      },
      {
        "hex": "#504742",
        "name": "#504742",
        "reference": "marekm4"
      },
      {
        "hex": "#2f4f4f",
        "name": "darkslategrey",
        "reference": "css4"
      },
      {
        "hex": "#414a4c",
        "name": "Outer Space",
        "reference": "crayola"
      }
    ],
    "millsfield:images_texts": [
      "Blue 100\nJetBlue\nOuis 100th A320\nN655JB\n•••\nAIRBUS A320\nwww.jetblue.com\ndetBlue",
      "Blue 100\njetBlue\n. . ...\nOuis 100th A320\nT/elBle",
      "jetBlue\n00,00\nN655JB\njetBlue\n... . .\nOur 100thA320\nBlue 100",
      "Or 00V6A320,"
    ],
    "millsfield:images_texts_ids": [
      1763138443,
      1763138445,
      1763138449,
      1763138451
    ],
    "millsfield:similar": {
      "apple/mobileclip_s0": [
        {
          "distance": 0.22057867,
          "id": 1763138449
        },
        {
          "distance": 0.3672661,
          "id": 1763138443
        },
        {
          "distance": 0.37512457,
          "id": 1763138451
        },
        {
          "distance": 0.40034968,
          "id": 1763145397
        },
        {
          "distance": 0.4100808,
          "id": 1763137031
        },
        {
          "distance": 0.41187853,
          "id": 1763137045
        },
        {
          "distance": 0.4130439,
          "id": 1763137073
        },
        {
          "distance": 0.4189104,
          "id": 1880255183
        },
        {
          "distance": 0.42114386,
          "id": 1763144949
        },
        {
          "distance": 0.42365873,
          "id": 1763137049
        }
      ],
      "apple/mobileclip_s1": [
        {
          "distance": 0.12721992,
          "id": 1763138449
        },
        {
          "distance": 0.2128317,
          "id": 1763138443
        },
        {
          "distance": 0.22996472,
          "id": 1763138451
        },
        {
          "distance": 0.29231244,
          "id": 1763138405
        },
        {
          "distance": 0.30403447,
          "id": 1763138409
        },
        {
          "distance": 0.30649778,
          "id": 1763137049
        },
        {
          "distance": 0.3078322,
          "id": 1763144949
        },
        {
          "distance": 0.31152058,
          "id": 1763138447
        },
        {
          "distance": 0.31527892,
          "id": 1763144257
        },
        {
          "distance": 0.31774482,
          "id": 1763110405
        }
      ],
      "apple/mobileclip_s2": [
        {
          "distance": 0.15149532,
          "id": 1763138449
        },
        {
          "distance": 0.25775763,
          "id": 1763138443
        },
        {
          "distance": 0.3264998,
          "id": 1763138451
        },
        {
          "distance": 0.38344812,
          "id": 1763110403
        },
        {
          "distance": 0.38946742,
          "id": 1763144257
        },
        {
          "distance": 0.3947186,
          "id": 1763138447
        },
        {
          "distance": 0.40267348,
          "id": 1763137049
        },
        {
          "distance": 0.40333617,
          "id": 1763110405
        },
        {
          "distance": 0.4069409,
          "id": 1763279711
        },
        {
          "distance": 0.41067323,
          "id": 1880440333
        }
      ]
    },
    "millsfield:subcategory_id": 1511213161,
    "mz:is_current": 1,
    "sfomuseum:filename": "2009.036.011ab_02.tif",
    "sfomuseum:image_id": 163340,
    "sfomuseum:image_index": 5,
    "sfomuseum:image_type": "studio",
    "sfomuseum:object_id": 97063,
    "sfomuseum:placetype": "image",
    "sfomuseum:primary_image": 0,
    "src:geom": "sfomuseum",
    "wof:belongsto": [
      102527513,
      1159162825,
      102191575,
      85633793,
      102087579,
      85922583,
      1763137925,
      85688637,
      1159160869
    ],
    "wof:country": "XY",
    "wof:created": 1645605615,
    "wof:depicts": [
      1159293829,
      1159284583,
      1159287011,
      1763137925,
      1159289409
    ],
    "wof:geomhash": "ed7c2ab3547fc3916b5edc33488deaa7",
    "wof:hierarchy": [
      {
        "building_id": -1,
        "campus_id": 102527513,
        "collection_id": 1159162825,
        "concourse_id": 1159162825,
        "continent_id": 102191575,
        "country_id": 85633793,
        "county_id": 102087579,
        "custom_id": 1763138445,
        "image_id": 1763138445,
        "locality_id": 85922583,
        "neighbourhood_id": -1,
        "object_id": 1763137925,
        "region_id": 85688637,
        "wing_id": 1159160869
      }
    ],
    "wof:id": 1763138445,
    "wof:lastmodified": 1788450934,
    "wof:name": "model airplane: JetBlue Airways, Airbus A320",
    "wof:parent_id": 1763137925,
    "wof:placetype": "custom",
    "wof:placetype_alt": [
      "image"
    ],
    "wof:repo": "sfomuseum-data-media-collection",
    "wof:superseded_by": [],
    "wof:supersedes": []
  },
  "bbox": [
    -122.386472,
    37.616105,
    -122.385834,
    37.616611
  ],
  "geometry": {"type":"Polygon","coordinates":[[[-122.386472,37.616318],[-122.386435,37.616233],[-122.386376,37.616178],[-122.386301,37.616131],[-122.386161,37.616105],[-122.386022,37.616131],[-122.385914,37.616186],[-122.385855,37.616267],[-122.385834,37.616369],[-122.385871,37.616467],[-122.385941,37.616543],[-122.386054,37.616603],[-122.386183,37.616611],[-122.386306,37.616573],[-122.386419,37.616509],[-122.386467,37.616411],[-122.386472,37.616318]]]}
}
