{
  "id": 1527822597,
  "type": "Feature",
  "properties": {
    "date:cessation_lower": "1960-01-01",
    "date:cessation_upper": "1960-12-31",
    "date:inception_lower": "1960-01-01",
    "date:inception_upper": "1960-12-31",
    "edtf:cessation": "1960",
    "edtf:date": "1960",
    "edtf:inception": "1960",
    "geom:area": 0,
    "geom:bbox": "-122.386155,37.616358,-122.386155,37.616358",
    "geom:latitude": 37.616358,
    "geom:longitude": -122.386155,
    "iso:country": "US",
    "media:fingerprint": "4fcb63d0d256fbd26eefbab9fea93d2785b40878",
    "media:imagehash_avg": "a:0c0c000000feffff",
    "media:imagehash_diff": "d:787898e939f8f0f0",
    "media:medium": "image",
    "media:mimetype": "image/tiff",
    "media:properties": {
      "sizes": {
        "b": {
          "extension": "jpg",
          "height": 768,
          "mimetype": "image/jpeg",
          "secret": "MHUxFHg72NZCaobVN6DMQE2NP5XCm7Gp",
          "width": 981
        },
        "c": {
          "extension": "jpg",
          "height": 600,
          "mimetype": "image/jpeg",
          "secret": "MHUxFHg72NZCaobVN6DMQE2NP5XCm7Gp",
          "width": 767
        },
        "dc": {
          "extension": "jpg",
          "height": 600,
          "mimetype": "image/jpeg",
          "secret": "MHUxFHg72NZCaobVN6DMQE2NP5XCm7Gp",
          "width": 767
        },
        "ds": {
          "extension": "jpg",
          "height": 320,
          "mimetype": "image/jpeg",
          "secret": "MHUxFHg72NZCaobVN6DMQE2NP5XCm7Gp",
          "width": 320
        },
        "k": {
          "extension": "jpg",
          "height": 1536,
          "mimetype": "image/jpeg",
          "secret": "MHUxFHg72NZCaobVN6DMQE2NP5XCm7Gp",
          "width": 1963
        },
        "n": {
          "extension": "jpg",
          "height": 240,
          "mimetype": "image/jpeg",
          "secret": "MHUxFHg72NZCaobVN6DMQE2NP5XCm7Gp",
          "width": 306
        },
        "o": {
          "extension": "jpg",
          "height": 2154,
          "mimetype": "image/jpeg",
          "secret": "W4wjNJqMxgEBr6L6CpuQsAeUaAidrAuC",
          "width": 2754
        },
        "s": {
          "extension": "jpg",
          "height": 320,
          "mimetype": "image/jpeg",
          "secret": "MHUxFHg72NZCaobVN6DMQE2NP5XCm7Gp",
          "width": 320
        },
        "z": {
          "extension": "jpg",
          "height": 480,
          "mimetype": "image/jpeg",
          "secret": "MHUxFHg72NZCaobVN6DMQE2NP5XCm7Gp",
          "width": 613
        }
      }
    },
    "media:source": "sfomuseum",
    "media:status_id": 1,
    "media:uri_template": "https://static.sfomuseum.org/media/152/782/259/7/1527822597_{secret}_{label}.{extension}",
    "millsfield:airport_id": [
      102527513
    ],
    "millsfield:category_id": 1511214209,
    "millsfield:collection_id": 1511214207,
    "millsfield:images_colors": [
      {
        "hex": "#444444",
        "name": "#444444",
        "reference": "marekm4"
      },
      {
        "hex": "#2f4f4f",
        "name": "darkslategrey",
        "reference": "css4"
      },
      {
        "hex": "#414a4c",
        "name": "Outer Space",
        "reference": "crayola"
      },
      {
        "hex": "#b6b6b6",
        "name": "#b6b6b6",
        "reference": "marekm4"
      },
      {
        "hex": "#c0c0c0",
        "name": "silver",
        "reference": "css4"
      },
      {
        "hex": "#b0b7c6",
        "name": "Cadet Blue",
        "reference": "crayola"
      }
    ],
    "millsfield:similar": {
      "apple/mobileclip_s0": [
        {
          "distance": 0.4969722,
          "id": 1527822119
        },
        {
          "distance": 0.54608935,
          "id": 1527822965
        },
        {
          "distance": 0.5548715,
          "id": 1527822061
        },
        {
          "distance": 0.5627425,
          "id": 1527823191
        },
        {
          "distance": 0.5645982,
          "id": 1527826921
        },
        {
          "distance": 0.56733304,
          "id": 1527823173
        },
        {
          "distance": 0.5778793,
          "id": 1527823185
        },
        {
          "distance": 0.57940876,
          "id": 1527822395
        },
        {
          "distance": 0.58428085,
          "id": 1527823171
        },
        {
          "distance": 0.5877695,
          "id": 1527822393
        }
      ],
      "apple/mobileclip_s1": [
        {
          "distance": 0.44932663,
          "id": 1527823003
        },
        {
          "distance": 0.4605522,
          "id": 1527822119
        },
        {
          "distance": 0.4631769,
          "id": 1527822949
        },
        {
          "distance": 0.46332443,
          "id": 1527822961
        },
        {
          "distance": 0.46353424,
          "id": 1527822395
        },
        {
          "distance": 0.46506584,
          "id": 1527826809
        },
        {
          "distance": 0.46717152,
          "id": 1527823005
        },
        {
          "distance": 0.47102696,
          "id": 1527826921
        },
        {
          "distance": 0.471322,
          "id": 1763388277
        },
        {
          "distance": 0.47520852,
          "id": 1762891009
        }
      ],
      "apple/mobileclip_s2": [
        {
          "distance": 0.59667075,
          "id": 1527822119
        },
        {
          "distance": 0.60062915,
          "id": 1527823003
        },
        {
          "distance": 0.6495535,
          "id": 1763441301
        },
        {
          "distance": 0.6657755,
          "id": 1527822949
        },
        {
          "distance": 0.6683225,
          "id": 1846809239
        },
        {
          "distance": 0.6716957,
          "id": 1527824165
        },
        {
          "distance": 0.67250484,
          "id": 1527826443
        },
        {
          "distance": 0.6809509,
          "id": 1762891219
        },
        {
          "distance": 0.6837198,
          "id": 1527822997
        },
        {
          "distance": 0.6865928,
          "id": 1763388257
        }
      ]
    },
    "millsfield:subcategory_id": 1511213801,
    "mz:hierarchy_label": 1,
    "mz:is_current": -1,
    "sfomuseum:filename": "40819.tif",
    "sfomuseum:image_id": 40819,
    "sfomuseum:image_index": 5,
    "sfomuseum:image_type": "studio",
    "sfomuseum:object_id": 114592,
    "sfomuseum:placetype": "image",
    "sfomuseum:primary_image": 1,
    "src:geom": "sfomuseum",
    "wof:belongsto": [
      1511214209,
      1511944503,
      102527513,
      102191575,
      85633793,
      1511213801,
      85922583,
      102087579,
      1511214277,
      1511214203,
      85688637
    ],
    "wof:breaches": [],
    "wof:country": "US",
    "wof:created": 1578949771,
    "wof:depicts": [
      102527513,
      1511944503
    ],
    "wof:geomhash": "bd906905ce4be6c0651c90b0fc24804c",
    "wof:hierarchy": [
      {
        "arcade_id": 1511213801,
        "building_id": 1511214277,
        "campus_id": 102527513,
        "concourse_id": 1511214209,
        "continent_id": 102191575,
        "country_id": 85633793,
        "county_id": 102087579,
        "custom_id": 1527822597,
        "image_id": 1527822597,
        "locality_id": 85922583,
        "media_id": 1527822597,
        "neighbourhood_id": -1,
        "region_id": 85688637,
        "venue_id": 1511944503,
        "wing_id": 1511214203
      }
    ],
    "wof:id": 1527822597,
    "wof:lastmodified": 1788449761,
    "wof:name": "negative: San Francisco International Airport (SFO), cargo operations",
    "wof:parent_id": 1511944503,
    "wof:placetype": "custom",
    "wof:placetype_alt": [
      "image"
    ],
    "wof:repo": "sfomuseum-data-media-collection",
    "wof:superseded_by": [],
    "wof:supersedes": [],
    "wof:tags": []
  },
  "bbox": [
    -122.386155,
    37.616358,
    -122.386155,
    37.616358
  ],
  "geometry": {"type":"Point","coordinates":[-122.386155,37.616358]}
}
