{
  "id": 1881101343,
  "type": "Feature",
  "properties": {
    "date:cessation_lower": "1970-08-01",
    "date:cessation_upper": "1970-08-31",
    "date:inception_lower": "1970-05-01",
    "date:inception_upper": "1970-05-31",
    "edtf:cessation": "1970-08",
    "edtf:inception": "1970-05",
    "geom:area": 2.477324999997507e-7,
    "geom:bbox": "-122.386472,37.616105,-122.385834,37.616611",
    "geom:latitude": 37.61635756125121,
    "geom:longitude": -122.38615532866096,
    "media:fingerprint": "a61baaf634fb76936442c2c7333fe640434665cb",
    "media:imagehash_avg": "a:00000c3c0c0fffff",
    "media:imagehash_diff": "d:f8f8f0e1f81bd8f8",
    "media:imagetext": "•D••0.\nЧМЕТ\nSpirit of Gamma\n721-200",
    "media:imagetext_created": 1787970493,
    "media:imagetext_source": "com.apple.visionkit.VNImageRequestHandler#Version 26.6.2 (Build 25G83)",
    "media:mimetype": "image/tiff",
    "media:properties": {
      "sizes": {
        "b": {
          "extension": "jpg",
          "height": 768,
          "mimetype": "image/jpeg",
          "secret": "fE92YKdN8LqSHunm2DM65Ck0WzdtCUzB",
          "width": 960
        },
        "c": {
          "extension": "jpg",
          "height": 600,
          "mimetype": "image/jpeg",
          "secret": "fE92YKdN8LqSHunm2DM65Ck0WzdtCUzB",
          "width": 750
        },
        "dc": {
          "extension": "jpg",
          "height": 600,
          "mimetype": "image/jpeg",
          "secret": "fE92YKdN8LqSHunm2DM65Ck0WzdtCUzB",
          "width": 750
        },
        "ds": {
          "extension": "jpg",
          "height": 320,
          "mimetype": "image/jpeg",
          "secret": "fE92YKdN8LqSHunm2DM65Ck0WzdtCUzB",
          "width": 320
        },
        "k": {
          "extension": "jpg",
          "height": 1536,
          "mimetype": "image/jpeg",
          "secret": "fE92YKdN8LqSHunm2DM65Ck0WzdtCUzB",
          "width": 1920
        },
        "n": {
          "extension": "jpg",
          "height": 240,
          "mimetype": "image/jpeg",
          "secret": "fE92YKdN8LqSHunm2DM65Ck0WzdtCUzB",
          "width": 300
        },
        "o": {
          "extension": "jpg",
          "height": 1680,
          "mimetype": "image/jpeg",
          "secret": "NdcYynRpUGdZS3gVEFQuFcZkhnUfq79K",
          "width": 2100
        },
        "s": {
          "extension": "jpg",
          "height": 320,
          "mimetype": "image/jpeg",
          "secret": "fE92YKdN8LqSHunm2DM65Ck0WzdtCUzB",
          "width": 320
        },
        "z": {
          "extension": "jpg",
          "height": 480,
          "mimetype": "image/jpeg",
          "secret": "fE92YKdN8LqSHunm2DM65Ck0WzdtCUzB",
          "width": 600
        }
      }
    },
    "media:source": "sfomuseum",
    "media:status_id": 1,
    "media:uri_template": "https://static.sfomuseum.org/media/188/110/134/3/1881101343_{secret}_{label}.{extension}",
    "millsfield:aircraft_id": [
      1159289789
    ],
    "millsfield:airline_id": [
      1159284507
    ],
    "millsfield:category_id": 1511214235,
    "millsfield:collection_id": 1511214203,
    "millsfield:company_id": [
      1159293593,
      1159289759
    ],
    "millsfield:images_colors": [
      {
        "hex": "#b5b6b9",
        "name": "#b5b6b9",
        "reference": "marekm4"
      },
      {
        "hex": "#c0c0c0",
        "name": "silver",
        "reference": "css4"
      },
      {
        "hex": "#b0b7c6",
        "name": "Cadet Blue",
        "reference": "crayola"
      },
      {
        "hex": "#dcc63f",
        "name": "#dcc63f",
        "reference": "marekm4"
      },
      {
        "hex": "#daa520",
        "name": "goldenrod",
        "reference": "css4"
      },
      {
        "hex": "#ffcf48",
        "name": "Sunglow",
        "reference": "crayola"
      }
    ],
    "millsfield:images_texts": [
      "•D••0.\nЧМЕТ\nSpirit of Gamma\n721-200",
      "N721RW\nHIG ET -IFIEA\nSpirit of Gamma\n727-200",
      "N721RW\n10000\n•googou\nHUGHER ARVEN\nSpirit of Gamma\n727-200",
      "•D••0.\nЧМЕТ\nSpirit of Gamma\n721-200",
      "N721RW\nHIG ET -IFIEA\nSpirit of Gamma\n727-200",
      "N721RW\n10000\n•googou\nHUGHER ARVEN\nSpirit of Gamma\n727-200"
    ],
    "millsfield:images_texts_ids": [
      1881101343,
      1881101345,
      1881101347,
      1896922483,
      1896922487,
      1896922489
    ],
    "millsfield:similar": {
      "apple/mobileclip_s0": [
        {
          "distance": 0.39874,
          "id": 1763137355
        },
        {
          "distance": 0.41862434,
          "id": 1880255087
        },
        {
          "distance": 0.42419755,
          "id": 1881101347
        },
        {
          "distance": 0.42419755,
          "id": 1896922489
        },
        {
          "distance": 0.45619902,
          "id": 1880319261
        },
        {
          "distance": 0.45785883,
          "id": 1881101345
        },
        {
          "distance": 0.45785883,
          "id": 1896922487
        },
        {
          "distance": 0.47573683,
          "id": 1763137247
        },
        {
          "distance": 0.4820877,
          "id": 1880255093
        },
        {
          "distance": 0.50776076,
          "id": 1763137249
        }
      ],
      "apple/mobileclip_s1": [
        {
          "distance": 0.26223096,
          "id": 1763137355
        },
        {
          "distance": 0.2737725,
          "id": 1880255087
        },
        {
          "distance": 0.2817125,
          "id": 1881101345
        },
        {
          "distance": 0.2817125,
          "id": 1896922487
        },
        {
          "distance": 0.3006897,
          "id": 1881101347
        },
        {
          "distance": 0.3006897,
          "id": 1896922489
        },
        {
          "distance": 0.3256401,
          "id": 1880319261
        },
        {
          "distance": 0.34272128,
          "id": 1880255095
        },
        {
          "distance": 0.3433591,
          "id": 1880319263
        },
        {
          "distance": 0.348065,
          "id": 1880319259
        }
      ],
      "apple/mobileclip_s2": [
        {
          "distance": 0.31698155,
          "id": 1880255087
        },
        {
          "distance": 0.32552648,
          "id": 1881101345
        },
        {
          "distance": 0.32552648,
          "id": 1896922487
        },
        {
          "distance": 0.33303708,
          "id": 1881101347
        },
        {
          "distance": 0.33303708,
          "id": 1896922489
        },
        {
          "distance": 0.34124324,
          "id": 1763137355
        },
        {
          "distance": 0.3929123,
          "id": 1880255095
        },
        {
          "distance": 0.41276947,
          "id": 1763137365
        },
        {
          "distance": 0.424229,
          "id": 1880255093
        },
        {
          "distance": 0.42855978,
          "id": 1880255089
        }
      ]
    },
    "millsfield:subcategory_id": 1511213161,
    "mz:is_current": 1,
    "sfomuseum:filename": "2022.110.033ab_1.tif",
    "sfomuseum:image_id": 273610,
    "sfomuseum:image_index": 0,
    "sfomuseum:image_type": "studio",
    "sfomuseum:object_id": 232149,
    "sfomuseum:placetype": "image",
    "sfomuseum:primary_image": 0,
    "src:geom": "sfomuseum",
    "wof:belongsto": [
      102527513,
      1159162825,
      102191575,
      85633793,
      102087579,
      85922583,
      1881101287,
      85688637,
      1159160869
    ],
    "wof:country": "XY",
    "wof:created": 1702110695,
    "wof:depicts": [
      1159289789,
      1159293593,
      1159289759,
      1159284507,
      1159288859,
      1881101287
    ],
    "wof:geomhash": "ed7c2ab3547fc3916b5edc33488deaa7",
    "wof:hierarchy": [
      {
        "building_id": -1,
        "campus_id": 102527513,
        "collection_id": 1159162825,
        "concourse_id": 1159162825,
        "continent_id": 102191575,
        "country_id": 85633793,
        "county_id": 102087579,
        "custom_id": 1881101343,
        "image_id": 1881101343,
        "locality_id": 85922583,
        "neighbourhood_id": -1,
        "object_id": 1881101287,
        "region_id": 85688637,
        "wing_id": 1159160869
      }
    ],
    "wof:id": 1881101343,
    "wof:lastmodified": 1788451993,
    "wof:name": "model airplane: Hughes Airwest, Boeing 727-200",
    "wof:parent_id": 1881101287,
    "wof:placetype": "custom",
    "wof:placetype_alt": [
      "image"
    ],
    "wof:repo": "sfomuseum-data-media-collection",
    "wof:superseded_by": [],
    "wof:supersedes": []
  },
  "bbox": [
    -122.386472,
    37.616105,
    -122.385834,
    37.616611
  ],
  "geometry": {"type":"Polygon","coordinates":[[[-122.386472,37.616318],[-122.386435,37.616233],[-122.386376,37.616178],[-122.386301,37.616131],[-122.386161,37.616105],[-122.386022,37.616131],[-122.385914,37.616186],[-122.385855,37.616267],[-122.385834,37.616369],[-122.385871,37.616467],[-122.385941,37.616543],[-122.386054,37.616603],[-122.386183,37.616611],[-122.386306,37.616573],[-122.386419,37.616509],[-122.386467,37.616411],[-122.386472,37.616318]]]}
}
