{
  "id": 1762708439,
  "type": "Feature",
  "properties": {
    "date:cessation_lower": "1950-01-01",
    "date:cessation_upper": "1959-12-31",
    "date:inception_lower": "1950-01-01",
    "date:inception_upper": "1959-12-31",
    "edtf:cessation": "195X",
    "edtf:inception": "195X",
    "geom:area": 2.477324999997507e-7,
    "geom:bbox": "-122.386472,37.616105,-122.385834,37.616611",
    "geom:latitude": 37.61635756125121,
    "geom:longitude": -122.38615532866096,
    "iso:country": "US",
    "media:fingerprint": "0ec4c4a049bc0e0599059ea0a60d68bd3fbf78eb",
    "media:imagehash_avg": "a:9f0c00f1f1f3f1ff",
    "media:imagehash_diff": "d:3939796363476379",
    "media:imagetext": "*\nDISTRIBUTED BY SOUTHWEST POST CARD CO., BOX 685, ALBUQUERQUE,\nA-31-ADMINISTRATION BUILDING\nMUNICIPAL AIRPORT\nALBUQUERQUE, NEW MEXICO\nAlbuquerque's $1,000,000 Municipal airport\nis the largest commercial airport in the Ü. S\nIt lies on the mesa overlooking the city at an\naltitude of 5300 feet with the Sandia Moun-\ntains as a background for the beautiful Ad-\nministration Building of typically Spanish\ndesign.\nEG\nS.\nP.\nT.\nFF.)\nPLACE\nONE CENT\nSTAMP\nHERE\n9A-H1263\nU\nPOST CARD\nPro Vile Henning,\nGENUINE CURTEICH CHICAGO \"C.T. ART\nLangyagen\naloss\nSweden\n22X\nS.166.1764",
    "media:imagetext_created": 1787957368,
    "media:imagetext_source": "com.apple.visionkit.VNImageRequestHandler#Version 26.6.2 (Build 25G83)",
    "media:mimetype": "image/tiff",
    "media:properties": {
      "sizes": {
        "b": {
          "extension": "jpg",
          "height": 671,
          "mimetype": "image/jpeg",
          "secret": "NVtmZEes8a9nH62gfMcPOXP4uyErhyFM",
          "width": 1023
        },
        "c": {
          "extension": "jpg",
          "height": 524,
          "mimetype": "image/jpeg",
          "secret": "NVtmZEes8a9nH62gfMcPOXP4uyErhyFM",
          "width": 800
        },
        "dc": {
          "extension": "jpg",
          "height": 524,
          "mimetype": "image/jpeg",
          "secret": "NVtmZEes8a9nH62gfMcPOXP4uyErhyFM",
          "width": 800
        },
        "ds": {
          "extension": "jpg",
          "height": 320,
          "mimetype": "image/jpeg",
          "secret": "NVtmZEes8a9nH62gfMcPOXP4uyErhyFM",
          "width": 320
        },
        "k": {
          "extension": "jpg",
          "height": 1343,
          "mimetype": "image/jpeg",
          "secret": "NVtmZEes8a9nH62gfMcPOXP4uyErhyFM",
          "width": 2047
        },
        "n": {
          "extension": "jpg",
          "height": 209,
          "mimetype": "image/jpeg",
          "secret": "NVtmZEes8a9nH62gfMcPOXP4uyErhyFM",
          "width": 320
        },
        "o": {
          "extension": "jpg",
          "height": 1108,
          "mimetype": "image/jpeg",
          "secret": "ax35jTuYisgGlji8BqcWZHuboR8F2bC5",
          "width": 1689
        },
        "s": {
          "extension": "jpg",
          "height": 320,
          "mimetype": "image/jpeg",
          "secret": "NVtmZEes8a9nH62gfMcPOXP4uyErhyFM",
          "width": 320
        },
        "z": {
          "extension": "jpg",
          "height": 419,
          "mimetype": "image/jpeg",
          "secret": "NVtmZEes8a9nH62gfMcPOXP4uyErhyFM",
          "width": 640
        }
      }
    },
    "media:source": "sfomuseum",
    "media:status_id": 1,
    "media:uri_template": "https://static.sfomuseum.org/media/176/270/843/9/1762708439_{secret}_{label}.{extension}",
    "millsfield:aircraft_id": [
      1159290417
    ],
    "millsfield:airline_id": [
      1159286385
    ],
    "millsfield:airport_id": [
      102529173
    ],
    "millsfield:category_id": 1511214215,
    "millsfield:collection_id": 1511214207,
    "millsfield:company_id": [],
    "millsfield:images_colors": [
      {
        "hex": "#dac8a0",
        "name": "#dac8a0",
        "reference": "marekm4"
      },
      {
        "hex": "#d2b48c",
        "name": "tan",
        "reference": "css4"
      },
      {
        "hex": "#e7c697",
        "name": "Gold",
        "reference": "crayola"
      },
      {
        "hex": "#bda675",
        "name": "#bda675",
        "reference": "marekm4"
      },
      {
        "hex": "#bdb76b",
        "name": "darkkhaki",
        "reference": "css4"
      },
      {
        "hex": "#bab86c",
        "name": "Olive Green",
        "reference": "crayola"
      },
      {
        "hex": "#4e4c60",
        "name": "#4e4c60",
        "reference": "marekm4"
      },
      {
        "hex": "#2f4f4f",
        "name": "darkslategrey",
        "reference": "css4"
      },
      {
        "hex": "#414a4c",
        "name": "Outer Space",
        "reference": "crayola"
      }
    ],
    "millsfield:images_texts": [
      "WA\n+ 5-\n91777\nMIT TIT",
      "*\nDISTRIBUTED BY SOUTHWEST POST CARD CO., BOX 685, ALBUQUERQUE,\nA-31-ADMINISTRATION BUILDING\nMUNICIPAL AIRPORT\nALBUQUERQUE, NEW MEXICO\nAlbuquerque's $1,000,000 Municipal airport\nis the largest commercial airport in the Ü. S\nIt lies on the mesa overlooking the city at an\naltitude of 5300 feet with the Sandia Moun-\ntains as a background for the beautiful Ad-\nministration Building of typically Spanish\ndesign.\nEG\nS.\nP.\nT.\nFF.)\nPLACE\nONE CENT\nSTAMP\nHERE\n9A-H1263\nU\nPOST CARD\nPro Vile Henning,\nGENUINE CURTEICH CHICAGO \"C.T. ART\nLangyagen\naloss\nSweden\n22X\nS.166.1764"
    ],
    "millsfield:images_texts_ids": [
      1762708435,
      1762708439
    ],
    "millsfield:similar": {
      "apple/mobileclip_s0": [
        {
          "distance": 0.44739324,
          "id": 1762710755
        },
        {
          "distance": 0.4596112,
          "id": 1762706387
        },
        {
          "distance": 0.46644837,
          "id": 1762706597
        },
        {
          "distance": 0.47115907,
          "id": 1762708753
        },
        {
          "distance": 0.47543982,
          "id": 1762711187
        },
        {
          "distance": 0.47602502,
          "id": 1846756133
        },
        {
          "distance": 0.47927493,
          "id": 1762709167
        },
        {
          "distance": 0.4794032,
          "id": 1846705551
        },
        {
          "distance": 0.4807026,
          "id": 1762704499
        },
        {
          "distance": 0.48096296,
          "id": 1762708461
        }
      ],
      "apple/mobileclip_s1": [
        {
          "distance": 0.30998528,
          "id": 1762708443
        },
        {
          "distance": 0.35205585,
          "id": 1762712105
        },
        {
          "distance": 0.35603276,
          "id": 1846756133
        },
        {
          "distance": 0.35985595,
          "id": 1762711187
        },
        {
          "distance": 0.3614134,
          "id": 1762710755
        },
        {
          "distance": 0.36181337,
          "id": 1762709455
        },
        {
          "distance": 0.36483765,
          "id": 1846705551
        },
        {
          "distance": 0.36657462,
          "id": 1762704971
        },
        {
          "distance": 0.3691876,
          "id": 1762710395
        },
        {
          "distance": 0.36973706,
          "id": 1846756601
        }
      ],
      "apple/mobileclip_s2": [
        {
          "distance": 0.4552218,
          "id": 1762708443
        },
        {
          "distance": 0.5037292,
          "id": 1762711161
        },
        {
          "distance": 0.5097664,
          "id": 1846705965
        },
        {
          "distance": 0.51143545,
          "id": 1762708461
        },
        {
          "distance": 0.5136801,
          "id": 1762710755
        },
        {
          "distance": 0.5184596,
          "id": 1762704971
        },
        {
          "distance": 0.5198338,
          "id": 1846705969
        },
        {
          "distance": 0.52084804,
          "id": 1762711197
        },
        {
          "distance": 0.52184516,
          "id": 1762710015
        },
        {
          "distance": 0.5248913,
          "id": 1729565675
        }
      ]
    },
    "millsfield:subcategory_id": 1511213363,
    "mz:is_current": 1,
    "sfomuseum:filename": "2015.166.1764_bk.tif",
    "sfomuseum:image_id": 155854,
    "sfomuseum:image_index": 5,
    "sfomuseum:image_type": "studio",
    "sfomuseum:object_id": 181525,
    "sfomuseum:placetype": "image",
    "sfomuseum:primary_image": 0,
    "src:geom": "sfomuseum",
    "wof:belongsto": [
      102527513,
      1159162825,
      102191575,
      85633793,
      102087579,
      85922583,
      1762684039,
      85688637,
      1159160869
    ],
    "wof:country": "US",
    "wof:created": 1641349406,
    "wof:depicts": [
      1159286385,
      102529173,
      1159287299,
      1762684039,
      1159290417
    ],
    "wof:geomhash": "ed7c2ab3547fc3916b5edc33488deaa7",
    "wof:hierarchy": [
      {
        "building_id": -1,
        "campus_id": 102527513,
        "collection_id": 1159162825,
        "concourse_id": 1159162825,
        "continent_id": 102191575,
        "country_id": 85633793,
        "county_id": 102087579,
        "custom_id": 1762708439,
        "image_id": 1762708439,
        "locality_id": 85922583,
        "neighbourhood_id": -1,
        "object_id": 1762684039,
        "region_id": 85688637,
        "wing_id": 1159160869
      }
    ],
    "wof:id": 1762708439,
    "wof:lastmodified": 1788450581,
    "wof:name": "postcard: Albuquerque Municipal Airport, Transcontinental \u0026 Western Air (TWA), Douglas DC-3",
    "wof:parent_id": 1762684039,
    "wof:placetype": "custom",
    "wof:placetype_alt": [
      "image"
    ],
    "wof:repo": "sfomuseum-data-media-collection",
    "wof:superseded_by": [],
    "wof:supersedes": []
  },
  "bbox": [
    -122.386472,
    37.616105,
    -122.385834,
    37.616611
  ],
  "geometry": {"type":"Polygon","coordinates":[[[-122.386472,37.616318],[-122.386435,37.616233],[-122.386376,37.616178],[-122.386301,37.616131],[-122.386161,37.616105],[-122.386022,37.616131],[-122.385914,37.616186],[-122.385855,37.616267],[-122.385834,37.616369],[-122.385871,37.616467],[-122.385941,37.616543],[-122.386054,37.616603],[-122.386183,37.616611],[-122.386306,37.616573],[-122.386419,37.616509],[-122.386467,37.616411],[-122.386472,37.616318]]]}
}
