{
  "id": 1527835675,
  "type": "Feature",
  "properties": {
    "date:cessation_lower": "1977-01-01",
    "date:cessation_upper": "1977-12-31",
    "date:inception_lower": "1977-01-01",
    "date:inception_upper": "1977-12-31",
    "edtf:cessation": "1977",
    "edtf:date": "1977",
    "edtf:inception": "1977",
    "geom:area": 0,
    "geom:bbox": "-122.386155,37.616358,-122.386155,37.616358",
    "geom:latitude": 37.616358,
    "geom:longitude": -122.386155,
    "iso:country": "XX",
    "media:fingerprint": "13e974762144ce95dddf34a329cc44c41434f906",
    "media:imagehash_avg": "a:850081efffefe7ff",
    "media:imagehash_diff": "d:4d474f1e9e8f8e1c",
    "media:imagetext": "PACIFIC SOUTHWEST AIRLINES\nPSA\nFLIGHT SCHEDULE\nEFFECTIVE JANUARY 3, 1977\nOT 092\ncatch us!\nSacramento\nSand •Oakland\n• Lake\nFrancisco • Stockton\n¿Tahoe\n• San Jose\n• Fresno\nHollywood/\nBurbank\n•\n• Los Angeles\n• Ontario\nLong Beach\n• San Diego\nPSA\ncountry\nINDEX - PAGE 2\nSchedule subject to change without notice.",
    "media:imagetext_created": 1787949922,
    "media:imagetext_source": "com.apple.visionkit.VNImageRequestHandler#Version 26.6.2 (Build 25G83)",
    "media:medium": "image",
    "media:mimetype": "image/tiff",
    "media:properties": {
      "sizes": {
        "b": {
          "extension": "jpg",
          "height": 768,
          "mimetype": "image/jpeg",
          "secret": "Laeio87IstCYdauqiTYlHzMKWLZrndVA",
          "width": 340
        },
        "c": {
          "extension": "jpg",
          "height": 600,
          "mimetype": "image/jpeg",
          "secret": "Laeio87IstCYdauqiTYlHzMKWLZrndVA",
          "width": 265
        },
        "dc": {
          "extension": "jpg",
          "height": 600,
          "mimetype": "image/jpeg",
          "secret": "Laeio87IstCYdauqiTYlHzMKWLZrndVA",
          "width": 265
        },
        "ds": {
          "extension": "jpg",
          "height": 320,
          "mimetype": "image/jpeg",
          "secret": "Laeio87IstCYdauqiTYlHzMKWLZrndVA",
          "width": 320
        },
        "k": {
          "extension": "jpg",
          "height": 1536,
          "mimetype": "image/jpeg",
          "secret": "Laeio87IstCYdauqiTYlHzMKWLZrndVA",
          "width": 680
        },
        "n": {
          "extension": "jpg",
          "height": 240,
          "mimetype": "image/jpeg",
          "secret": "Laeio87IstCYdauqiTYlHzMKWLZrndVA",
          "width": 106
        },
        "o": {
          "extension": "jpg",
          "height": 2748,
          "mimetype": "image/jpeg",
          "secret": "rUqQuV1afu8l9bSwLd2v6bnlpyJxH6ju",
          "width": 1218
        },
        "s": {
          "extension": "jpg",
          "height": 320,
          "mimetype": "image/jpeg",
          "secret": "Laeio87IstCYdauqiTYlHzMKWLZrndVA",
          "width": 320
        },
        "z": {
          "extension": "jpg",
          "height": 480,
          "mimetype": "image/jpeg",
          "secret": "Laeio87IstCYdauqiTYlHzMKWLZrndVA",
          "width": 212
        }
      }
    },
    "media:source": "sfomuseum",
    "media:status_id": 1,
    "media:uri_template": "https://static.sfomuseum.org/media/152/783/567/5/1527835675_{secret}_{label}.{extension}",
    "millsfield:airline_id": [
      1159284973
    ],
    "millsfield:category_id": 1511214223,
    "millsfield:collection_id": 1511214207,
    "millsfield:company_id": [
      1159286629
    ],
    "millsfield:images_colors": [
      {
        "hex": "#efe6d6",
        "name": "#efe6d6",
        "reference": "marekm4"
      },
      {
        "hex": "#faebd7",
        "name": "antiquewhite",
        "reference": "css4"
      },
      {
        "hex": "#efdecd",
        "name": "Almond",
        "reference": "crayola"
      },
      {
        "hex": "#d20d22",
        "name": "#d20d22",
        "reference": "marekm4"
      },
      {
        "hex": "#dc143c",
        "name": "crimson",
        "reference": "css4"
      },
      {
        "hex": "#ee204d",
        "name": "Red",
        "reference": "crayola"
      },
      {
        "hex": "#171717",
        "name": "#171717",
        "reference": "marekm4"
      },
      {
        "hex": "#000000",
        "name": "black",
        "reference": "css4"
      },
      {
        "hex": "#000000",
        "name": "Black",
        "reference": "crayola"
      }
    ],
    "millsfield:images_texts": [
      "PACIFIC SOUTHWEST AIRLINES\nPSA\nFLIGHT SCHEDULE\nEFFECTIVE JANUARY 3, 1977\nOT 092\ncatch us!\nSacramento\nSand •Oakland\n• Lake\nFrancisco • Stockton\n¿Tahoe\n• San Jose\n• Fresno\nHollywood/\nBurbank\n•\n• Los Angeles\n• Ontario\nLong Beach\n• San Diego\nPSA\ncountry\nINDEX - PAGE 2\nSchedule subject to change without notice."
    ],
    "millsfield:images_texts_ids": [
      1527835675
    ],
    "millsfield:similar": {
      "apple/mobileclip_s0": [
        {
          "distance": 0.6169993,
          "id": 1527850491
        },
        {
          "distance": 0.6298914,
          "id": 1527842863
        },
        {
          "distance": 0.631014,
          "id": 1527843089
        },
        {
          "distance": 0.6315535,
          "id": 1527850373
        },
        {
          "distance": 0.6359418,
          "id": 1762700593
        },
        {
          "distance": 0.6373791,
          "id": 1527850473
        },
        {
          "distance": 0.64393353,
          "id": 1527842875
        },
        {
          "distance": 0.64541024,
          "id": 1762715393
        },
        {
          "distance": 0.65023834,
          "id": 1762700591
        },
        {
          "distance": 0.6525875,
          "id": 1527850799
        }
      ],
      "apple/mobileclip_s1": [
        {
          "distance": 0.47654036,
          "id": 1527842837
        },
        {
          "distance": 0.49343985,
          "id": 1762700591
        },
        {
          "distance": 0.50151014,
          "id": 1527842863
        },
        {
          "distance": 0.50345916,
          "id": 1527843089
        },
        {
          "distance": 0.50432986,
          "id": 1527839481
        },
        {
          "distance": 0.5045562,
          "id": 1762700593
        },
        {
          "distance": 0.5046959,
          "id": 1762715387
        },
        {
          "distance": 0.50720453,
          "id": 1527838827
        },
        {
          "distance": 0.5080696,
          "id": 1527839125
        },
        {
          "distance": 0.5100164,
          "id": 1527842913
        }
      ],
      "apple/mobileclip_s2": [
        {
          "distance": 0.631453,
          "id": 1762700591
        },
        {
          "distance": 0.6461201,
          "id": 1762715387
        },
        {
          "distance": 0.6539379,
          "id": 1527843089
        },
        {
          "distance": 0.65678775,
          "id": 1762700593
        },
        {
          "distance": 0.66102976,
          "id": 1527842875
        },
        {
          "distance": 0.663717,
          "id": 1527842861
        },
        {
          "distance": 0.66621494,
          "id": 1762700583
        },
        {
          "distance": 0.6690516,
          "id": 1527842837
        },
        {
          "distance": 0.67089015,
          "id": 1762715391
        },
        {
          "distance": 0.67675656,
          "id": 1527842877
        }
      ]
    },
    "millsfield:subcategory_id": 1511213425,
    "mz:hierarchy_label": 1,
    "mz:is_current": -1,
    "sfomuseum:filename": "63978.tif",
    "sfomuseum:image_id": 63978,
    "sfomuseum:image_index": 5,
    "sfomuseum:image_type": "studio",
    "sfomuseum:object_id": 98086,
    "sfomuseum:placetype": "image",
    "sfomuseum:primary_image": 1,
    "src:geom": "sfomuseum",
    "wof:belongsto": [
      1511214223,
      1511937019,
      102527513,
      102191575,
      85633793,
      1511213425,
      85922583,
      102087579,
      1511214277,
      1511214203,
      85688637
    ],
    "wof:breaches": [],
    "wof:country": "XX",
    "wof:created": 1578951808,
    "wof:depicts": [
      1511937019,
      1159286629,
      1159284973
    ],
    "wof:geomhash": "bd906905ce4be6c0651c90b0fc24804c",
    "wof:hierarchy": [
      {
        "arcade_id": 1511213425,
        "building_id": 1511214277,
        "campus_id": 102527513,
        "concourse_id": 1511214223,
        "continent_id": 102191575,
        "country_id": 85633793,
        "county_id": 102087579,
        "custom_id": 1527835675,
        "image_id": 1527835675,
        "locality_id": 85922583,
        "media_id": 1527835675,
        "neighbourhood_id": -1,
        "region_id": 85688637,
        "venue_id": 1511937019,
        "wing_id": 1511214203
      }
    ],
    "wof:id": 1527835675,
    "wof:lastmodified": 1788449940,
    "wof:name": "timetable: Pacific Southwest Airlines (PSA)",
    "wof:parent_id": 1511937019,
    "wof:placetype": "custom",
    "wof:placetype_alt": [
      "image"
    ],
    "wof:repo": "sfomuseum-data-media-collection",
    "wof:superseded_by": [],
    "wof:supersedes": [],
    "wof:tags": []
  },
  "bbox": [
    -122.386155,
    37.616358,
    -122.386155,
    37.616358
  ],
  "geometry": {"type":"Point","coordinates":[-122.386155,37.616358]}
}
