{
  "id": 1796484831,
  "type": "Feature",
  "properties": {
    "date:cessation_lower": "1970-01-01",
    "date:cessation_upper": "1979-12-31",
    "date:inception_lower": "1970-01-01",
    "date:inception_upper": "1979-12-31",
    "edtf:cessation": "197X",
    "edtf:inception": "197X",
    "geom:area": 2.477324999997507e-7,
    "geom:bbox": "-122.386472,37.616105,-122.385834,37.616611",
    "geom:latitude": 37.61635756125121,
    "geom:longitude": -122.38615532866096,
    "media:fingerprint": "6fcc4ff8b45124be01fda84fbd3d3c25974d187f",
    "media:imagehash_avg": "a:ffffff7f21020000",
    "media:imagehash_diff": "d:f898c0eecfa6f3e1",
    "media:mimetype": "image/tiff",
    "media:properties": {
      "sizes": {
        "b": {
          "extension": "jpg",
          "height": 768,
          "mimetype": "image/jpeg",
          "secret": "GeLzcDp0DcyEc7wXMehVNUXKqjbue7dv",
          "width": 965
        },
        "c": {
          "extension": "jpg",
          "height": 600,
          "mimetype": "image/jpeg",
          "secret": "GeLzcDp0DcyEc7wXMehVNUXKqjbue7dv",
          "width": 753
        },
        "dc": {
          "extension": "jpg",
          "height": 600,
          "mimetype": "image/jpeg",
          "secret": "GeLzcDp0DcyEc7wXMehVNUXKqjbue7dv",
          "width": 753
        },
        "ds": {
          "extension": "jpg",
          "height": 320,
          "mimetype": "image/jpeg",
          "secret": "GeLzcDp0DcyEc7wXMehVNUXKqjbue7dv",
          "width": 320
        },
        "k": {
          "extension": "jpg",
          "height": 1536,
          "mimetype": "image/jpeg",
          "secret": "GeLzcDp0DcyEc7wXMehVNUXKqjbue7dv",
          "width": 1930
        },
        "n": {
          "extension": "jpg",
          "height": 240,
          "mimetype": "image/jpeg",
          "secret": "GeLzcDp0DcyEc7wXMehVNUXKqjbue7dv",
          "width": 301
        },
        "o": {
          "extension": "jpg",
          "height": 1668,
          "mimetype": "image/jpeg",
          "secret": "rNv5f3NG8vRLoDmjugqFE4ehiZwIu5wg",
          "width": 2096
        },
        "s": {
          "extension": "jpg",
          "height": 320,
          "mimetype": "image/jpeg",
          "secret": "GeLzcDp0DcyEc7wXMehVNUXKqjbue7dv",
          "width": 320
        },
        "z": {
          "extension": "jpg",
          "height": 480,
          "mimetype": "image/jpeg",
          "secret": "GeLzcDp0DcyEc7wXMehVNUXKqjbue7dv",
          "width": 603
        }
      }
    },
    "media:source": "sfomuseum",
    "media:status_id": 1,
    "media:uri_template": "https://static.sfomuseum.org/media/179/648/483/1/1796484831_{secret}_{label}.{extension}",
    "millsfield:airline_id": [
      1159284309
    ],
    "millsfield:category_id": 1746152551,
    "millsfield:collection_id": 1511214203,
    "millsfield:company_id": [
      1159287349
    ],
    "millsfield:images_colors": [
      {
        "hex": "#a3a29e",
        "name": "#a3a29e",
        "reference": "marekm4"
      },
      {
        "hex": "#a9a9a9",
        "name": "darkgrey",
        "reference": "css4"
      },
      {
        "hex": "#979aaa",
        "name": "Manatee",
        "reference": "crayola"
      },
      {
        "hex": "#5a5653",
        "name": "#5a5653",
        "reference": "marekm4"
      },
      {
        "hex": "#696969",
        "name": "dimgrey",
        "reference": "css4"
      },
      {
        "hex": "#6e5160",
        "name": "Eggplant",
        "reference": "crayola"
      }
    ],
    "millsfield:similar": {
      "apple/mobileclip_s0": [
        {
          "distance": 0.16050473,
          "id": 1796472439
        },
        {
          "distance": 0.27128035,
          "id": 1796472307
        },
        {
          "distance": 0.2723063,
          "id": 1796527801
        },
        {
          "distance": 0.27567357,
          "id": 1796476701
        },
        {
          "distance": 0.28380513,
          "id": 1796527759
        },
        {
          "distance": 0.2839898,
          "id": 1796589413
        },
        {
          "distance": 0.28716135,
          "id": 1796506417
        },
        {
          "distance": 0.28836244,
          "id": 1897762441
        },
        {
          "distance": 0.2889558,
          "id": 1897762445
        },
        {
          "distance": 0.291566,
          "id": 1796454763
        }
      ],
      "apple/mobileclip_s1": [
        {
          "distance": 0.11175856,
          "id": 1796472439
        },
        {
          "distance": 0.20303258,
          "id": 1897762441
        },
        {
          "distance": 0.20896919,
          "id": 1796454735
        },
        {
          "distance": 0.21649483,
          "id": 1796454785
        },
        {
          "distance": 0.22033587,
          "id": 1763372663
        },
        {
          "distance": 0.22232611,
          "id": 1897762435
        },
        {
          "distance": 0.22458005,
          "id": 1796472463
        },
        {
          "distance": 0.22636847,
          "id": 1796465111
        },
        {
          "distance": 0.22664198,
          "id": 1897762445
        },
        {
          "distance": 0.22709307,
          "id": 1796472429
        }
      ],
      "apple/mobileclip_s2": [
        {
          "distance": 0.18230782,
          "id": 1796472439
        },
        {
          "distance": 0.25468063,
          "id": 1796527783
        },
        {
          "distance": 0.26975045,
          "id": 1796527785
        },
        {
          "distance": 0.2697632,
          "id": 1897762441
        },
        {
          "distance": 0.27365923,
          "id": 1763513077
        },
        {
          "distance": 0.27400368,
          "id": 1796527789
        },
        {
          "distance": 0.2856255,
          "id": 1763372559
        },
        {
          "distance": 0.28620565,
          "id": 1763372557
        },
        {
          "distance": 0.286219,
          "id": 1763372555
        },
        {
          "distance": 0.28788826,
          "id": 1796472373
        }
      ]
    },
    "millsfield:subcategory_id": 1511213417,
    "mz:is_current": 1,
    "sfomuseum:filename": "106995.tif",
    "sfomuseum:image_id": 106995,
    "sfomuseum:image_index": 5,
    "sfomuseum:image_type": "studio",
    "sfomuseum:object_id": 80751,
    "sfomuseum:placetype": "image",
    "sfomuseum:primary_image": 1,
    "src:geom": "sfomuseum",
    "wof:belongsto": [
      102527513,
      1159162825,
      102191575,
      85633793,
      102087579,
      85922583,
      1796484613,
      85688637,
      1159160869
    ],
    "wof:country": "XY",
    "wof:created": 1666684217,
    "wof:depicts": [
      1159287349,
      1796484613,
      1159284309
    ],
    "wof:geomhash": "ed7c2ab3547fc3916b5edc33488deaa7",
    "wof:hierarchy": [
      {
        "building_id": -1,
        "campus_id": 102527513,
        "collection_id": 1159162825,
        "concourse_id": 1159162825,
        "continent_id": 102191575,
        "country_id": 85633793,
        "county_id": 102087579,
        "custom_id": 1796484831,
        "image_id": 1796484831,
        "locality_id": 85922583,
        "neighbourhood_id": -1,
        "object_id": 1796484613,
        "region_id": 85688637,
        "wing_id": 1159160869
      }
    ],
    "wof:id": 1796484831,
    "wof:lastmodified": 1788451546,
    "wof:name": "knife: Eastern Air Lines",
    "wof:parent_id": 1796484613,
    "wof:placetype": "custom",
    "wof:placetype_alt": [
      "image"
    ],
    "wof:repo": "sfomuseum-data-media-collection",
    "wof:superseded_by": [],
    "wof:supersedes": []
  },
  "bbox": [
    -122.386472,
    37.616105,
    -122.385834,
    37.616611
  ],
  "geometry": {"type":"Polygon","coordinates":[[[-122.386472,37.616318],[-122.386435,37.616233],[-122.386376,37.616178],[-122.386301,37.616131],[-122.386161,37.616105],[-122.386022,37.616131],[-122.385914,37.616186],[-122.385855,37.616267],[-122.385834,37.616369],[-122.385871,37.616467],[-122.385941,37.616543],[-122.386054,37.616603],[-122.386183,37.616611],[-122.386306,37.616573],[-122.386419,37.616509],[-122.386467,37.616411],[-122.386472,37.616318]]]}
}
