{
  "id": 1880201543,
  "type": "Feature",
  "properties": {
    "date:cessation_lower": "1933-12-05",
    "date:cessation_upper": "1933-12-05",
    "date:inception_lower": "1933-12-05",
    "date:inception_upper": "1933-12-05",
    "edtf:cessation": "1933-12-05",
    "edtf:inception": "1933-12-05",
    "geom:area": 2.477324999997507e-7,
    "geom:bbox": "-122.386472,37.616105,-122.385834,37.616611",
    "geom:latitude": 37.61635756125121,
    "geom:longitude": -122.38615532866096,
    "media:fingerprint": "b4b89b2a50ecec49978a7054f01015164614a7c1",
    "media:imagehash_avg": "a:ff818181818081ff",
    "media:imagehash_diff": "d:715b75754365254d",
    "media:imagetext": "LEc 54 33\nFearest Debs\nI saw Hamice off on the boat this\nmorning and turned awar, with a\nCump in my throat and an ache\nin my heart.\nIs nt it terrible to\nthat your plans which you countd\non face thronge - of course you know\nor you poor kid it is a wors\ndis apportment than for mr. Leat\nlear plean dont fal\nr caun I can stand it all\nriget\nan e napponent ur for se\nthe children. Qle dai\nike urri\nto sair a two dolars and ass o\nthe tkings\nin St. Louis\nyour last lettu te. ste. I hopr\nsome to me let o\nAbont Oct 254 had not reached\nyou that fist lith in which",
    "media:imagetext_created": 1787968146,
    "media:imagetext_source": "com.apple.visionkit.VNImageRequestHandler#Version 26.6.2 (Build 25G83)",
    "media:mimetype": "image/tiff",
    "media:properties": {
      "sizes": {
        "b": {
          "extension": "jpg",
          "height": 768,
          "mimetype": "image/jpeg",
          "secret": "3HSUtXi5MeyYBHlj8gYJkriamFVTKtsv",
          "width": 593
        },
        "c": {
          "extension": "jpg",
          "height": 600,
          "mimetype": "image/jpeg",
          "secret": "3HSUtXi5MeyYBHlj8gYJkriamFVTKtsv",
          "width": 463
        },
        "dc": {
          "extension": "jpg",
          "height": 600,
          "mimetype": "image/jpeg",
          "secret": "3HSUtXi5MeyYBHlj8gYJkriamFVTKtsv",
          "width": 463
        },
        "ds": {
          "extension": "jpg",
          "height": 320,
          "mimetype": "image/jpeg",
          "secret": "3HSUtXi5MeyYBHlj8gYJkriamFVTKtsv",
          "width": 320
        },
        "k": {
          "extension": "jpg",
          "height": 1536,
          "mimetype": "image/jpeg",
          "secret": "3HSUtXi5MeyYBHlj8gYJkriamFVTKtsv",
          "width": 1186
        },
        "n": {
          "extension": "jpg",
          "height": 240,
          "mimetype": "image/jpeg",
          "secret": "3HSUtXi5MeyYBHlj8gYJkriamFVTKtsv",
          "width": 185
        },
        "o": {
          "extension": "jpg",
          "height": 2000,
          "mimetype": "image/jpeg",
          "secret": "DiKUcZovBjVPhgG2evm0p9qQ4u6P4b9Z",
          "width": 1545
        },
        "s": {
          "extension": "jpg",
          "height": 320,
          "mimetype": "image/jpeg",
          "secret": "3HSUtXi5MeyYBHlj8gYJkriamFVTKtsv",
          "width": 320
        },
        "z": {
          "extension": "jpg",
          "height": 480,
          "mimetype": "image/jpeg",
          "secret": "3HSUtXi5MeyYBHlj8gYJkriamFVTKtsv",
          "width": 370
        }
      }
    },
    "media:source": "sfomuseum",
    "media:status_id": 1,
    "media:uri_template": "https://static.sfomuseum.org/media/188/020/154/3/1880201543_{secret}_{label}.{extension}",
    "millsfield:airline_id": [
      1159284181,
      1159284991
    ],
    "millsfield:category_id": 1511214251,
    "millsfield:collection_id": 1511214207,
    "millsfield:company_id": [
      1159286839
    ],
    "millsfield:exhibition_ids": [
      1880431449,
      1914632769,
      1947305539,
      1880380113,
      1914632783,
      1947305535
    ],
    "millsfield:images_colors": [
      {
        "hex": "#e6d8b4",
        "name": "#e6d8b4",
        "reference": "marekm4"
      },
      {
        "hex": "#f5deb3",
        "name": "wheat",
        "reference": "css4"
      },
      {
        "hex": "#efcdb8",
        "name": "Desert Sand",
        "reference": "crayola"
      },
      {
        "hex": "#363022",
        "name": "#363022",
        "reference": "marekm4"
      },
      {
        "hex": "#2f4f4f",
        "name": "darkslategrey",
        "reference": "css4"
      },
      {
        "hex": "#414a4c",
        "name": "Outer Space",
        "reference": "crayola"
      }
    ],
    "millsfield:images_texts": [
      "LEc 54 33\nFearest Debs\nI saw Hamice off on the boat this\nmorning and turned awar, with a\nCump in my throat and an ache\nin my heart.\nIs nt it terrible to\nthat your plans which you countd\non face thronge - of course you know\nor you poor kid it is a wors\ndis apportment than for mr. Leat\nlear plean dont fal\nr caun I can stand it all\nriget\nan e napponent ur for se\nthe children. Qle dai\nike urri\nto sair a two dolars and ass o\nthe tkings\nin St. Louis\nyour last lettu te. ste. I hopr\nsome to me let o\nAbont Oct 254 had not reached\nyou that fist lith in which",
      "I told you definite, that 9d tr\ncoming\nhome.\nAlsa as 9 sai\nlast night that the amatur\nradio\ndid not reach you.\nIm workin; tonight - working.\nhard to prent any public hraring\non the accident. The news papu.\na demanding\none and so is the\nm of C. t hair to apprar anxions\nto har one - but Dibs just\nbituren you and o an\nhearing will bring out reacte,\nwore con so much quitt\nit wored be the ind of the whole\nshow. Thats street confantice.\nLater. must clon now, hair just had\na light dann and an gong back to the\noffier. Gside from worry o free fine and fit.\nAle my lor\nBix"
    ],
    "millsfield:images_texts_ids": [
      1880201543,
      1880201545
    ],
    "millsfield:on_view": 0,
    "millsfield:similar": {
      "apple/mobileclip_s0": [
        {
          "distance": 0.2541554,
          "id": 1913802305
        },
        {
          "distance": 0.2643794,
          "id": 1913800561
        },
        {
          "distance": 0.2770761,
          "id": 1913801943
        },
        {
          "distance": 0.2791708,
          "id": 1913800355
        },
        {
          "distance": 0.29070383,
          "id": 1913801209
        },
        {
          "distance": 0.29269928,
          "id": 1913801493
        },
        {
          "distance": 0.2938898,
          "id": 1913800439
        },
        {
          "distance": 0.29542938,
          "id": 1913801945
        },
        {
          "distance": 0.2954643,
          "id": 1913802061
        },
        {
          "distance": 0.29673812,
          "id": 1913801601
        }
      ],
      "apple/mobileclip_s1": [
        {
          "distance": 0.24599785,
          "id": 1913800085
        },
        {
          "distance": 0.2667354,
          "id": 1913800249
        },
        {
          "distance": 0.26854274,
          "id": 1913802299
        },
        {
          "distance": 0.27193564,
          "id": 1913801547
        },
        {
          "distance": 0.27212688,
          "id": 1913800231
        },
        {
          "distance": 0.27242243,
          "id": 1913801597
        },
        {
          "distance": 0.27309704,
          "id": 1913800859
        },
        {
          "distance": 0.2732884,
          "id": 1913800207
        },
        {
          "distance": 0.2737943,
          "id": 1913768941
        },
        {
          "distance": 0.27523986,
          "id": 1880201545
        }
      ],
      "apple/mobileclip_s2": [
        {
          "distance": 0.3702689,
          "id": 1913801507
        },
        {
          "distance": 0.37935615,
          "id": 1913800385
        },
        {
          "distance": 0.38231742,
          "id": 1913800561
        },
        {
          "distance": 0.38865137,
          "id": 1913802305
        },
        {
          "distance": 0.3914345,
          "id": 1913800279
        },
        {
          "distance": 0.39656875,
          "id": 1913800567
        },
        {
          "distance": 0.39662617,
          "id": 1913768975
        },
        {
          "distance": 0.39756954,
          "id": 1913800321
        },
        {
          "distance": 0.3990363,
          "id": 1913800307
        },
        {
          "distance": 0.3993647,
          "id": 1880201545
        }
      ]
    },
    "millsfield:subcategory_id": 1511213489,
    "mz:is_current": 1,
    "sfomuseum:filename": "2019.121.0799a.tif",
    "sfomuseum:image_id": 225695,
    "sfomuseum:image_index": 5,
    "sfomuseum:image_type": "studio",
    "sfomuseum:object_id": 211147,
    "sfomuseum:placetype": "image",
    "sfomuseum:primary_image": 1,
    "src:geom": "sfomuseum",
    "wof:belongsto": [
      102527513,
      1159162825,
      102191575,
      85633793,
      102087579,
      85922583,
      1880201435,
      85688637,
      1159160869
    ],
    "wof:country": "XY",
    "wof:created": 1692952226,
    "wof:depicts": [
      1159286839,
      1880201435,
      1159284181,
      1159284991
    ],
    "wof:geomhash": "ed7c2ab3547fc3916b5edc33488deaa7",
    "wof:hierarchy": [
      {
        "building_id": -1,
        "campus_id": 102527513,
        "collection_id": 1159162825,
        "concourse_id": 1159162825,
        "continent_id": 102191575,
        "country_id": 85633793,
        "county_id": 102087579,
        "custom_id": 1880201543,
        "image_id": 1880201543,
        "locality_id": 85922583,
        "neighbourhood_id": -1,
        "object_id": 1880201435,
        "region_id": 85688637,
        "wing_id": 1159160869
      }
    ],
    "wof:id": 1880201543,
    "wof:lastmodified": 1788451739,
    "wof:name": "correspondence: Harold M. Bixby to Debby Bixby",
    "wof:parent_id": 1880201435,
    "wof:placetype": "custom",
    "wof:placetype_alt": [
      "image"
    ],
    "wof:repo": "sfomuseum-data-media-collection",
    "wof:superseded_by": [],
    "wof:supersedes": []
  },
  "bbox": [
    -122.386472,
    37.616105,
    -122.385834,
    37.616611
  ],
  "geometry": {"type":"Polygon","coordinates":[[[-122.386472,37.616318],[-122.386435,37.616233],[-122.386376,37.616178],[-122.386301,37.616131],[-122.386161,37.616105],[-122.386022,37.616131],[-122.385914,37.616186],[-122.385855,37.616267],[-122.385834,37.616369],[-122.385871,37.616467],[-122.385941,37.616543],[-122.386054,37.616603],[-122.386183,37.616611],[-122.386306,37.616573],[-122.386419,37.616509],[-122.386467,37.616411],[-122.386472,37.616318]]]}
}
