{
  "id": 1763445493,
  "type": "Feature",
  "properties": {
    "date:cessation_lower": "1937-10-17",
    "date:cessation_upper": "1937-10-17",
    "date:inception_lower": "1937-10-17",
    "date:inception_upper": "1937-10-17",
    "edtf:cessation": "1937-10-17",
    "edtf:inception": "1937-10-17",
    "geom:area": 2.477324999997507e-7,
    "geom:bbox": "-122.386472,37.616105,-122.385834,37.616611",
    "geom:latitude": 37.61635756125121,
    "geom:longitude": -122.38615532866096,
    "media:fingerprint": "fce35f2ee7788fce1d41064f774b20f248dc2158",
    "media:imagehash_avg": "a:ffc3e3c3c3f3e3ff",
    "media:imagehash_diff": "d:1707070717230b3b",
    "media:imagetext": "Sm-maint\nElre\nMiami Herald\nFLORIDA'S MOST IMPORTANT\nSUNDAY\nMORNNG\nOCTOBER\nPAN AMERICAN\nAIRWAYS\nAnnIUERSARy\nin miamI\nServing:\nCuba\nWest Indies\nMexico\nCentral and\nSouth America\nAlaska\nHawaii\nPhilippines\nChina\nBermuda\n1322 i",
    "media:imagetext_created": 1787963305,
    "media:imagetext_source": "com.apple.visionkit.VNImageRequestHandler#Version 26.6.2 (Build 25G83)",
    "media:mimetype": "image/tiff",
    "media:properties": {
      "sizes": {
        "b": {
          "extension": "jpg",
          "height": 768,
          "mimetype": "image/jpeg",
          "secret": "Dpx6bKnrDvxjaKwa8sz3BlVC6IaLKyW6",
          "width": 965
        },
        "c": {
          "extension": "jpg",
          "height": 600,
          "mimetype": "image/jpeg",
          "secret": "Dpx6bKnrDvxjaKwa8sz3BlVC6IaLKyW6",
          "width": 754
        },
        "dc": {
          "extension": "jpg",
          "height": 600,
          "mimetype": "image/jpeg",
          "secret": "Dpx6bKnrDvxjaKwa8sz3BlVC6IaLKyW6",
          "width": 754
        },
        "ds": {
          "extension": "jpg",
          "height": 320,
          "mimetype": "image/jpeg",
          "secret": "Dpx6bKnrDvxjaKwa8sz3BlVC6IaLKyW6",
          "width": 320
        },
        "k": {
          "extension": "jpg",
          "height": 1536,
          "mimetype": "image/jpeg",
          "secret": "Dpx6bKnrDvxjaKwa8sz3BlVC6IaLKyW6",
          "width": 1931
        },
        "n": {
          "extension": "jpg",
          "height": 240,
          "mimetype": "image/jpeg",
          "secret": "Dpx6bKnrDvxjaKwa8sz3BlVC6IaLKyW6",
          "width": 301
        },
        "o": {
          "extension": "jpg",
          "height": 1667,
          "mimetype": "image/jpeg",
          "secret": "3YS8JRzRQw8jampgLPkMlumEyNsMAr9G",
          "width": 2096
        },
        "s": {
          "extension": "jpg",
          "height": 320,
          "mimetype": "image/jpeg",
          "secret": "Dpx6bKnrDvxjaKwa8sz3BlVC6IaLKyW6",
          "width": 320
        },
        "z": {
          "extension": "jpg",
          "height": 480,
          "mimetype": "image/jpeg",
          "secret": "Dpx6bKnrDvxjaKwa8sz3BlVC6IaLKyW6",
          "width": 603
        }
      }
    },
    "media:source": "sfomuseum",
    "media:status_id": 1,
    "media:uri_template": "https://static.sfomuseum.org/media/176/344/549/3/1763445493_{secret}_{label}.{extension}",
    "millsfield:airline_id": [
      1159284991
    ],
    "millsfield:category_id": 1511214233,
    "millsfield:collection_id": 1511214207,
    "millsfield:company_id": [
      1159286839
    ],
    "millsfield:images_colors": [
      {
        "hex": "#aea9a5",
        "name": "#aea9a5",
        "reference": "marekm4"
      },
      {
        "hex": "#a9a9a9",
        "name": "darkgrey",
        "reference": "css4"
      },
      {
        "hex": "#979aaa",
        "name": "Manatee",
        "reference": "crayola"
      },
      {
        "hex": "#a75051",
        "name": "#a75051",
        "reference": "marekm4"
      },
      {
        "hex": "#a0522d",
        "name": "sienna",
        "reference": "css4"
      },
      {
        "hex": "#bf4f51",
        "name": "Bittersweet Shimmer",
        "reference": "crayola"
      },
      {
        "hex": "#5f4a43",
        "name": "#5f4a43",
        "reference": "marekm4"
      },
      {
        "hex": "#556b2f",
        "name": "darkolivegreen",
        "reference": "css4"
      },
      {
        "hex": "#414a4c",
        "name": "Outer Space",
        "reference": "crayola"
      },
      {
        "hex": "#ae9479",
        "name": "#ae9479",
        "reference": "marekm4"
      },
      {
        "hex": "#bc8f8f",
        "name": "rosybrown",
        "reference": "css4"
      },
      {
        "hex": "#9f8170",
        "name": "Beaver",
        "reference": "crayola"
      }
    ],
    "millsfield:images_texts": [
      "Sm-maint\nElre\nMiami Herald\nFLORIDA'S MOST IMPORTANT\nSUNDAY\nMORNNG\nOCTOBER\nPAN AMERICAN\nAIRWAYS\nAnnIUERSARy\nin miamI\nServing:\nCuba\nWest Indies\nMexico\nCentral and\nSouth America\nAlaska\nHawaii\nPhilippines\nChina\nBermuda\n1322 i"
    ],
    "millsfield:images_texts_ids": [
      1763445493
    ],
    "millsfield:similar": {
      "apple/mobileclip_s0": [
        {
          "distance": 0.61936164,
          "id": 1763379817
        },
        {
          "distance": 0.6344228,
          "id": 1763503993
        },
        {
          "distance": 0.6371259,
          "id": 1763379659
        },
        {
          "distance": 0.6382068,
          "id": 1763456127
        },
        {
          "distance": 0.650436,
          "id": 1762701025
        },
        {
          "distance": 0.65438604,
          "id": 1762701027
        },
        {
          "distance": 0.6565637,
          "id": 1527855103
        },
        {
          "distance": 0.6566876,
          "id": 1762896287
        },
        {
          "distance": 0.66143405,
          "id": 1527840309
        },
        {
          "distance": 0.6636072,
          "id": 1762701569
        }
      ],
      "apple/mobileclip_s1": [
        {
          "distance": 0.42996097,
          "id": 1763388575
        },
        {
          "distance": 0.45368624,
          "id": 1763588909
        },
        {
          "distance": 0.47422984,
          "id": 1763456115
        },
        {
          "distance": 0.47534707,
          "id": 1762892099
        },
        {
          "distance": 0.477637,
          "id": 1763456127
        },
        {
          "distance": 0.48068634,
          "id": 1763388339
        },
        {
          "distance": 0.4808021,
          "id": 1527829199
        },
        {
          "distance": 0.48171774,
          "id": 1763503997
        },
        {
          "distance": 0.48458716,
          "id": 1763503993
        },
        {
          "distance": 0.48581582,
          "id": 1527856367
        }
      ],
      "apple/mobileclip_s2": [
        {
          "distance": 0.6324094,
          "id": 1527829199
        },
        {
          "distance": 0.6512717,
          "id": 1763388575
        },
        {
          "distance": 0.65208894,
          "id": 1527856367
        },
        {
          "distance": 0.65495074,
          "id": 1527856363
        },
        {
          "distance": 0.67489374,
          "id": 1763388241
        },
        {
          "distance": 0.6772129,
          "id": 1763588909
        },
        {
          "distance": 0.6803461,
          "id": 1527854817
        },
        {
          "distance": 0.6816112,
          "id": 1762701569
        },
        {
          "distance": 0.68368644,
          "id": 1931110417
        },
        {
          "distance": 0.68440163,
          "id": 1763503993
        }
      ]
    },
    "millsfield:subcategory_id": 1511213233,
    "mz:is_current": 1,
    "sfomuseum:filename": "2012.149.1080_1.tif",
    "sfomuseum:image_id": 135338,
    "sfomuseum:image_index": 5,
    "sfomuseum:image_type": "studio",
    "sfomuseum:object_id": 138224,
    "sfomuseum:placetype": "image",
    "sfomuseum:primary_image": 1,
    "src:geom": "sfomuseum",
    "wof:belongsto": [
      102527513,
      1159162825,
      102191575,
      85633793,
      102087579,
      85922583,
      1762888633,
      85688637,
      1159160869
    ],
    "wof:country": "XY",
    "wof:created": 1649405044,
    "wof:depicts": [
      1159286839,
      1762888633,
      1159284991
    ],
    "wof:geomhash": "ed7c2ab3547fc3916b5edc33488deaa7",
    "wof:hierarchy": [
      {
        "building_id": -1,
        "campus_id": 102527513,
        "collection_id": 1159162825,
        "concourse_id": 1159162825,
        "continent_id": 102191575,
        "country_id": 85633793,
        "county_id": 102087579,
        "custom_id": 1763445493,
        "image_id": 1763445493,
        "locality_id": 85922583,
        "neighbourhood_id": -1,
        "object_id": 1762888633,
        "region_id": 85688637,
        "wing_id": 1159160869
      }
    ],
    "wof:id": 1763445493,
    "wof:lastmodified": 1788451209,
    "wof:name": "newspaper section: “Pan American Airways / 9th anniversary in Miami” [Miami Herald, October 17, 1937]",
    "wof:parent_id": 1762888633,
    "wof:placetype": "custom",
    "wof:placetype_alt": [
      "image"
    ],
    "wof:repo": "sfomuseum-data-media-collection",
    "wof:superseded_by": [],
    "wof:supersedes": []
  },
  "bbox": [
    -122.386472,
    37.616105,
    -122.385834,
    37.616611
  ],
  "geometry": {"type":"Polygon","coordinates":[[[-122.386472,37.616318],[-122.386435,37.616233],[-122.386376,37.616178],[-122.386301,37.616131],[-122.386161,37.616105],[-122.386022,37.616131],[-122.385914,37.616186],[-122.385855,37.616267],[-122.385834,37.616369],[-122.385871,37.616467],[-122.385941,37.616543],[-122.386054,37.616603],[-122.386183,37.616611],[-122.386306,37.616573],[-122.386419,37.616509],[-122.386467,37.616411],[-122.386472,37.616318]]]}
}
