{
  "id": 1527843853,
  "type": "Feature",
  "properties": {
    "date:cessation_lower": "1970-01-01",
    "date:cessation_upper": "1979-12-31",
    "date:inception_lower": "1970-01-01",
    "date:inception_upper": "1979-12-31",
    "edtf:cessation": "197X",
    "edtf:date": "197x",
    "edtf:inception": "197X",
    "geom:area": 0,
    "geom:bbox": "-122.386155,37.616358,-122.386155,37.616358",
    "geom:latitude": 37.616358,
    "geom:longitude": -122.386155,
    "iso:country": "XX",
    "media:fingerprint": "e2e826d5dffca9d2a7a37aa5056c4f65d454a50b",
    "media:imagehash_avg": "a:ffffffdf87000080",
    "media:imagehash_diff": "d:2515b6327c69710b",
    "media:imagetext": "• CATHAY PACIFIC",
    "media:imagetext_created": 1787951556,
    "media:imagetext_source": "com.apple.visionkit.VNImageRequestHandler#Version 26.6.2 (Build 25G83)",
    "media:medium": "image",
    "media:mimetype": "image/tiff",
    "media:properties": {
      "sizes": {
        "b": {
          "extension": "jpg",
          "height": 768,
          "mimetype": "image/jpeg",
          "secret": "LwyWvxwybWMsw8hNynyf83RftEtBKNPO",
          "width": 518
        },
        "c": {
          "extension": "jpg",
          "height": 600,
          "mimetype": "image/jpeg",
          "secret": "LwyWvxwybWMsw8hNynyf83RftEtBKNPO",
          "width": 404
        },
        "dc": {
          "extension": "jpg",
          "height": 600,
          "mimetype": "image/jpeg",
          "secret": "LwyWvxwybWMsw8hNynyf83RftEtBKNPO",
          "width": 404
        },
        "ds": {
          "extension": "jpg",
          "height": 320,
          "mimetype": "image/jpeg",
          "secret": "LwyWvxwybWMsw8hNynyf83RftEtBKNPO",
          "width": 320
        },
        "k": {
          "extension": "jpg",
          "height": 1536,
          "mimetype": "image/jpeg",
          "secret": "LwyWvxwybWMsw8hNynyf83RftEtBKNPO",
          "width": 1036
        },
        "n": {
          "extension": "jpg",
          "height": 240,
          "mimetype": "image/jpeg",
          "secret": "LwyWvxwybWMsw8hNynyf83RftEtBKNPO",
          "width": 161
        },
        "o": {
          "extension": "jpg",
          "height": 3346,
          "mimetype": "image/jpeg",
          "secret": "e6JWQXHR46gabQwbWlqudKnNUMKj8UwF",
          "width": 2258
        },
        "s": {
          "extension": "jpg",
          "height": 320,
          "mimetype": "image/jpeg",
          "secret": "LwyWvxwybWMsw8hNynyf83RftEtBKNPO",
          "width": 320
        },
        "z": {
          "extension": "jpg",
          "height": 480,
          "mimetype": "image/jpeg",
          "secret": "LwyWvxwybWMsw8hNynyf83RftEtBKNPO",
          "width": 323
        }
      }
    },
    "media:source": "sfomuseum",
    "media:status_id": 1,
    "media:uri_template": "https://static.sfomuseum.org/media/152/784/385/3/1527843853_{secret}_{label}.{extension}",
    "millsfield:airline_id": [
      1159284127
    ],
    "millsfield:category_id": 1762671311,
    "millsfield:collection_id": 1511214207,
    "millsfield:company_id": [
      1159286837
    ],
    "millsfield:images_colors": [
      {
        "hex": "#a7a82e",
        "name": "#a7a82e",
        "reference": "marekm4"
      },
      {
        "hex": "#9acd32",
        "name": "yellowgreen",
        "reference": "css4"
      },
      {
        "hex": "#9c7c38",
        "name": "Metallic Sunburst",
        "reference": "crayola"
      },
      {
        "hex": "#13132e",
        "name": "#13132e",
        "reference": "marekm4"
      },
      {
        "hex": "#000000",
        "name": "black",
        "reference": "css4"
      },
      {
        "hex": "#000000",
        "name": "Black",
        "reference": "crayola"
      },
      {
        "hex": "#0122d4",
        "name": "#0122d4",
        "reference": "marekm4"
      },
      {
        "hex": "#0000cd",
        "name": "mediumblue",
        "reference": "css4"
      },
      {
        "hex": "#324ab2",
        "name": "Violet Blue",
        "reference": "crayola"
      },
      {
        "hex": "#976705",
        "name": "#976705",
        "reference": "marekm4"
      },
      {
        "hex": "#808000",
        "name": "olive",
        "reference": "css4"
      },
      {
        "hex": "#c46210",
        "name": "Alloy Orange",
        "reference": "crayola"
      }
    ],
    "millsfield:images_texts": [
      "• CATHAY PACIFIC",
      "Menu\nMenu\nDJAKARTA - KUALA LUMPUR\nPERTH - DJAKARTA\nLUNCH\nFULL BREAKFAST\nChilled Fruit Juice\nCereal\nFruit Compote\nChicken a la Reine\nGrilled Mushrooms\nGrilled Tomato\nCroissant, Roll\nMarmalade\nJasmine, Ceylon, Japanese Green Teas\nCoffee\n***\nAppetizer\nTomato Vinaigrette\n* bi Na Ne\n1% *\nÁ Ki\n* ti\nEntree\nCreamed Chicken Pancake\n7070-2\n77L-\nDessert\nChocolate Mousse\n4740\n· *77\nJasmine, Ceylon, Japanese Green Teas\nCoffee\n7*77\n307 EY\n1A EY/CX 770\n2006.034.086"
    ],
    "millsfield:images_texts_ids": [
      1527843853,
      1527843857
    ],
    "millsfield:similar": {
      "apple/mobileclip_s0": [
        {
          "distance": 0.6514215,
          "id": 1527842395
        },
        {
          "distance": 0.666565,
          "id": 1779503023
        },
        {
          "distance": 0.6668562,
          "id": 1527842309
        },
        {
          "distance": 0.66854227,
          "id": 1527847555
        },
        {
          "distance": 0.67186207,
          "id": 1763241151
        },
        {
          "distance": 0.6728466,
          "id": 1527842303
        },
        {
          "distance": 0.6764095,
          "id": 1763241153
        },
        {
          "distance": 0.68155515,
          "id": 1527842175
        },
        {
          "distance": 0.68242466,
          "id": 1527842311
        },
        {
          "distance": 0.70094645,
          "id": 1527842299
        }
      ],
      "apple/mobileclip_s1": [
        {
          "distance": 0.5394904,
          "id": 1763241151
        },
        {
          "distance": 0.5494118,
          "id": 1763205001
        },
        {
          "distance": 0.54989135,
          "id": 1527848567
        },
        {
          "distance": 0.5512335,
          "id": 1762699345
        },
        {
          "distance": 0.55192196,
          "id": 1527823385
        },
        {
          "distance": 0.554673,
          "id": 1779502913
        },
        {
          "distance": 0.5600941,
          "id": 1863469559
        },
        {
          "distance": 0.5619784,
          "id": 1527847547
        },
        {
          "distance": 0.5621435,
          "id": 1527842301
        },
        {
          "distance": 0.56393147,
          "id": 1527842303
        }
      ],
      "apple/mobileclip_s2": [
        {
          "distance": 0.7273932,
          "id": 1763205001
        },
        {
          "distance": 0.74746925,
          "id": 1527823385
        },
        {
          "distance": 0.77693087,
          "id": 1763241553
        },
        {
          "distance": 0.79150385,
          "id": 1763204843
        },
        {
          "distance": 0.7989447,
          "id": 1763205099
        },
        {
          "distance": 0.80344987,
          "id": 1527842299
        },
        {
          "distance": 0.80514324,
          "id": 1527841919
        },
        {
          "distance": 0.8086279,
          "id": 1763204997
        },
        {
          "distance": 0.81735235,
          "id": 1863469559
        },
        {
          "distance": 0.81740546,
          "id": 1779503023
        }
      ]
    },
    "millsfield:subcategory_id": 1511213567,
    "mz:hierarchy_label": 1,
    "mz:is_current": -1,
    "sfomuseum:filename": "68709.tif",
    "sfomuseum:image_id": 68709,
    "sfomuseum:image_index": 5,
    "sfomuseum:image_type": "studio",
    "sfomuseum:object_id": 80514,
    "sfomuseum:placetype": "image",
    "sfomuseum:primary_image": 1,
    "src:geom": "sfomuseum",
    "wof:belongsto": [
      1511927683,
      102527513,
      102191575,
      85633793,
      85922583,
      102087579,
      1511214277,
      85688637
    ],
    "wof:breaches": [],
    "wof:country": "XX",
    "wof:created": 1578953107,
    "wof:depicts": [
      1511927683,
      1159284127,
      1159286837
    ],
    "wof:geomhash": "bd906905ce4be6c0651c90b0fc24804c",
    "wof:hierarchy": [
      {
        "building_id": 1511214277,
        "campus_id": 102527513,
        "continent_id": 102191575,
        "country_id": 85633793,
        "county_id": 102087579,
        "custom_id": 1527843853,
        "image_id": 1527843853,
        "locality_id": 85922583,
        "media_id": 1527843853,
        "neighbourhood_id": -1,
        "region_id": 85688637,
        "venue_id": 1511927683
      }
    ],
    "wof:id": 1527843853,
    "wof:lastmodified": 1788450073,
    "wof:name": "menu: Cathay Pacific Airways",
    "wof:parent_id": 1511927683,
    "wof:placetype": "custom",
    "wof:placetype_alt": [
      "image"
    ],
    "wof:repo": "sfomuseum-data-media-collection",
    "wof:superseded_by": [],
    "wof:supersedes": [],
    "wof:tags": []
  },
  "bbox": [
    -122.386155,
    37.616358,
    -122.386155,
    37.616358
  ],
  "geometry": {"type":"Point","coordinates":[-122.386155,37.616358]}
}
