{
  "id": 1779590613,
  "type": "Feature",
  "properties": {
    "date:cessation_lower": "1980-01-01",
    "date:cessation_upper": "1989-12-31",
    "date:inception_lower": "1980-01-01",
    "date:inception_upper": "1989-12-31",
    "edtf:cessation": "198X",
    "edtf:inception": "198X",
    "geom:area": 2.477324999997507e-7,
    "geom:bbox": "-122.386472,37.616105,-122.385834,37.616611",
    "geom:latitude": 37.61635756125121,
    "geom:longitude": -122.38615532866096,
    "media:fingerprint": "b88f7830a27d7fb6b118a2802eb92b8274ce82ef",
    "media:imagehash_avg": "a:3e7efee666420000",
    "media:imagehash_diff": "d:f8f8d4cccc8eccc0",
    "media:mimetype": "image/tiff",
    "media:properties": {
      "sizes": {
        "b": {
          "extension": "jpg",
          "height": 768,
          "mimetype": "image/jpeg",
          "secret": "NOjAv3OayhuTB5TXtIZA8FykPLRN2X7d",
          "width": 965
        },
        "c": {
          "extension": "jpg",
          "height": 600,
          "mimetype": "image/jpeg",
          "secret": "NOjAv3OayhuTB5TXtIZA8FykPLRN2X7d",
          "width": 754
        },
        "dc": {
          "extension": "jpg",
          "height": 600,
          "mimetype": "image/jpeg",
          "secret": "NOjAv3OayhuTB5TXtIZA8FykPLRN2X7d",
          "width": 754
        },
        "ds": {
          "extension": "jpg",
          "height": 320,
          "mimetype": "image/jpeg",
          "secret": "NOjAv3OayhuTB5TXtIZA8FykPLRN2X7d",
          "width": 320
        },
        "k": {
          "extension": "jpg",
          "height": 1536,
          "mimetype": "image/jpeg",
          "secret": "NOjAv3OayhuTB5TXtIZA8FykPLRN2X7d",
          "width": 1931
        },
        "n": {
          "extension": "jpg",
          "height": 240,
          "mimetype": "image/jpeg",
          "secret": "NOjAv3OayhuTB5TXtIZA8FykPLRN2X7d",
          "width": 301
        },
        "o": {
          "extension": "jpg",
          "height": 1667,
          "mimetype": "image/jpeg",
          "secret": "5kml6zGQ89YL4xkUzXh7Q2Az5qrLUspD",
          "width": 2096
        },
        "s": {
          "extension": "jpg",
          "height": 320,
          "mimetype": "image/jpeg",
          "secret": "NOjAv3OayhuTB5TXtIZA8FykPLRN2X7d",
          "width": 320
        },
        "z": {
          "extension": "jpg",
          "height": 480,
          "mimetype": "image/jpeg",
          "secret": "NOjAv3OayhuTB5TXtIZA8FykPLRN2X7d",
          "width": 603
        }
      }
    },
    "media:source": "sfomuseum",
    "media:status_id": 1,
    "media:uri_template": "https://static.sfomuseum.org/media/177/959/061/3/1779590613_{secret}_{label}.{extension}",
    "millsfield:airline_id": [
      1159283649
    ],
    "millsfield:category_id": 1511214225,
    "millsfield:collection_id": 1511214203,
    "millsfield:company_id": [
      1159287863
    ],
    "millsfield:images_colors": [
      {
        "hex": "#a9a8a7",
        "name": "#a9a8a7",
        "reference": "marekm4"
      },
      {
        "hex": "#a9a9a9",
        "name": "darkgrey",
        "reference": "css4"
      },
      {
        "hex": "#979aaa",
        "name": "Manatee",
        "reference": "crayola"
      },
      {
        "hex": "#343131",
        "name": "#343131",
        "reference": "marekm4"
      },
      {
        "hex": "#2f4f4f",
        "name": "darkslategrey",
        "reference": "css4"
      },
      {
        "hex": "#414a4c",
        "name": "Outer Space",
        "reference": "crayola"
      }
    ],
    "millsfield:images_texts": [
      "ONI"
    ],
    "millsfield:images_texts_ids": [
      1779590661
    ],
    "millsfield:similar": {
      "apple/mobileclip_s0": [
        {
          "distance": 0.26443395,
          "id": 1779565997
        },
        {
          "distance": 0.37884432,
          "id": 1796414205
        },
        {
          "distance": 0.39829415,
          "id": 1863471045
        },
        {
          "distance": 0.40382326,
          "id": 1796229703
        },
        {
          "distance": 0.4096675,
          "id": 1779566045
        },
        {
          "distance": 0.4142934,
          "id": 1779566039
        },
        {
          "distance": 0.41484454,
          "id": 1779565993
        },
        {
          "distance": 0.4161393,
          "id": 1796335955
        },
        {
          "distance": 0.41694844,
          "id": 1796444637
        },
        {
          "distance": 0.42054886,
          "id": 1779489907
        }
      ],
      "apple/mobileclip_s1": [
        {
          "distance": 0.2103475,
          "id": 1779565997
        },
        {
          "distance": 0.27042028,
          "id": 1796414205
        },
        {
          "distance": 0.27432272,
          "id": 1779590661
        },
        {
          "distance": 0.29446167,
          "id": 1796444481
        },
        {
          "distance": 0.29586813,
          "id": 1763373095
        },
        {
          "distance": 0.30258086,
          "id": 1779566039
        },
        {
          "distance": 0.30364197,
          "id": 1796414253
        },
        {
          "distance": 0.31363952,
          "id": 1863470663
        },
        {
          "distance": 0.32000872,
          "id": 1780379719
        },
        {
          "distance": 0.3206541,
          "id": 1863471045
        }
      ],
      "apple/mobileclip_s2": [
        {
          "distance": 0.3004089,
          "id": 1779565997
        },
        {
          "distance": 0.36755762,
          "id": 1796414205
        },
        {
          "distance": 0.3955315,
          "id": 1779590661
        },
        {
          "distance": 0.42780283,
          "id": 1763379237
        },
        {
          "distance": 0.4516412,
          "id": 1779566039
        },
        {
          "distance": 0.45695782,
          "id": 1796414221
        },
        {
          "distance": 0.45937732,
          "id": 1796229709
        },
        {
          "distance": 0.46798155,
          "id": 1796414281
        },
        {
          "distance": 0.47287118,
          "id": 1863470663
        },
        {
          "distance": 0.4737429,
          "id": 1779489907
        }
      ]
    },
    "millsfield:subcategory_id": 1511213595,
    "mz:is_current": 1,
    "sfomuseum:filename": "109229.tif",
    "sfomuseum:image_id": 109229,
    "sfomuseum:image_index": 5,
    "sfomuseum:image_type": "studio",
    "sfomuseum:object_id": 98856,
    "sfomuseum:placetype": "image",
    "sfomuseum:primary_image": 0,
    "src:geom": "sfomuseum",
    "wof:belongsto": [
      102527513,
      1159162825,
      102191575,
      85633793,
      102087579,
      85922583,
      1779590525,
      85688637,
      1159160869
    ],
    "wof:country": "XY",
    "wof:created": 1654329659,
    "wof:depicts": [
      1159287863,
      1779590525,
      1159283649
    ],
    "wof:geomhash": "ed7c2ab3547fc3916b5edc33488deaa7",
    "wof:hierarchy": [
      {
        "building_id": -1,
        "campus_id": 102527513,
        "collection_id": 1159162825,
        "concourse_id": 1159162825,
        "continent_id": 102191575,
        "country_id": 85633793,
        "county_id": 102087579,
        "custom_id": 1779590613,
        "image_id": 1779590613,
        "locality_id": 85922583,
        "neighbourhood_id": -1,
        "object_id": 1779590525,
        "region_id": 85688637,
        "wing_id": 1159160869
      }
    ],
    "wof:id": 1779590613,
    "wof:lastmodified": 1788451322,
    "wof:name": "flight officer cap badge: Air India",
    "wof:parent_id": 1779590525,
    "wof:placetype": "custom",
    "wof:placetype_alt": [
      "image"
    ],
    "wof:repo": "sfomuseum-data-media-collection",
    "wof:superseded_by": [],
    "wof:supersedes": []
  },
  "bbox": [
    -122.386472,
    37.616105,
    -122.385834,
    37.616611
  ],
  "geometry": {"type":"Polygon","coordinates":[[[-122.386472,37.616318],[-122.386435,37.616233],[-122.386376,37.616178],[-122.386301,37.616131],[-122.386161,37.616105],[-122.386022,37.616131],[-122.385914,37.616186],[-122.385855,37.616267],[-122.385834,37.616369],[-122.385871,37.616467],[-122.385941,37.616543],[-122.386054,37.616603],[-122.386183,37.616611],[-122.386306,37.616573],[-122.386419,37.616509],[-122.386467,37.616411],[-122.386472,37.616318]]]}
}
