{
  "id": 1880440385,
  "type": "Feature",
  "properties": {
    "date:cessation_lower": "1986-01-01",
    "date:cessation_upper": "1986-12-31",
    "date:inception_lower": "1986-01-01",
    "date:inception_upper": "1986-12-31",
    "edtf:cessation": "1986~",
    "edtf:inception": "1986~",
    "geom:area": 2.477324999997507e-7,
    "geom:bbox": "-122.386472,37.616105,-122.385834,37.616611",
    "geom:latitude": 37.61635756125121,
    "geom:longitude": -122.38615532866096,
    "media:fingerprint": "f6c5c4afbf3df66b3eccc6ac97a5a4bea3ceb756",
    "media:imagehash_avg": "a:187efdf9e3e3c3ff",
    "media:imagehash_diff": "d:f0f0c5610f070f8f",
    "media:imagetext": "DELTA\n9961 - 1961\nЗМІННОКЗАКОЗ\n6 lears\nDELTA\nN10:10",
    "media:imagetext_created": 1787969407,
    "media:imagetext_source": "com.apple.visionkit.VNImageRequestHandler#Version 26.6.2 (Build 25G83)",
    "media:mimetype": "image/tiff",
    "media:properties": {
      "sizes": {
        "b": {
          "extension": "jpg",
          "height": 768,
          "mimetype": "image/jpeg",
          "secret": "DBwZFiaeMOE7DhkoUyrWTDAcrvD5fc6n",
          "width": 960
        },
        "c": {
          "extension": "jpg",
          "height": 600,
          "mimetype": "image/jpeg",
          "secret": "DBwZFiaeMOE7DhkoUyrWTDAcrvD5fc6n",
          "width": 750
        },
        "dc": {
          "extension": "jpg",
          "height": 600,
          "mimetype": "image/jpeg",
          "secret": "DBwZFiaeMOE7DhkoUyrWTDAcrvD5fc6n",
          "width": 750
        },
        "ds": {
          "extension": "jpg",
          "height": 320,
          "mimetype": "image/jpeg",
          "secret": "DBwZFiaeMOE7DhkoUyrWTDAcrvD5fc6n",
          "width": 320
        },
        "k": {
          "extension": "jpg",
          "height": 1536,
          "mimetype": "image/jpeg",
          "secret": "DBwZFiaeMOE7DhkoUyrWTDAcrvD5fc6n",
          "width": 1920
        },
        "n": {
          "extension": "jpg",
          "height": 240,
          "mimetype": "image/jpeg",
          "secret": "DBwZFiaeMOE7DhkoUyrWTDAcrvD5fc6n",
          "width": 300
        },
        "o": {
          "extension": "jpg",
          "height": 1680,
          "mimetype": "image/jpeg",
          "secret": "LIpQPln08nSFdu8JGBhHwplJXBUeqRBx",
          "width": 2100
        },
        "s": {
          "extension": "jpg",
          "height": 320,
          "mimetype": "image/jpeg",
          "secret": "DBwZFiaeMOE7DhkoUyrWTDAcrvD5fc6n",
          "width": 320
        },
        "z": {
          "extension": "jpg",
          "height": 480,
          "mimetype": "image/jpeg",
          "secret": "DBwZFiaeMOE7DhkoUyrWTDAcrvD5fc6n",
          "width": 600
        }
      }
    },
    "media:source": "sfomuseum",
    "media:status_id": 1,
    "media:uri_template": "https://static.sfomuseum.org/media/188/044/038/5/1880440385_{secret}_{label}.{extension}",
    "millsfield:aircraft_id": [
      1159291129
    ],
    "millsfield:airline_id": [
      1159284261
    ],
    "millsfield:category_id": 1511214235,
    "millsfield:collection_id": 1511214203,
    "millsfield:company_id": [
      1159293697
    ],
    "millsfield:exhibition_ids": [
      1159160467
    ],
    "millsfield:has_coloring_book": 1,
    "millsfield:images_colors": [
      {
        "hex": "#c4c6ca",
        "name": "#c4c6ca",
        "reference": "marekm4"
      },
      {
        "hex": "#c0c0c0",
        "name": "silver",
        "reference": "css4"
      },
      {
        "hex": "#cdc5c2",
        "name": "Silver",
        "reference": "crayola"
      },
      {
        "hex": "#2e2c2e",
        "name": "#2e2c2e",
        "reference": "marekm4"
      },
      {
        "hex": "#2f4f4f",
        "name": "darkslategrey",
        "reference": "css4"
      },
      {
        "hex": "#414a4c",
        "name": "Outer Space",
        "reference": "crayola"
      }
    ],
    "millsfield:images_texts": [
      "COMMEMORATING\nYears\nof Service to\nSan\nFrancisco\n1961 - 1986",
      "DELTA\n9961 - 1961\nЗМІННОКЗАКОЗ\n6 lears\nDELTA\nN10:10",
      "DELTA\nCONNEVORATING\nYears\nof Service 10\nFrancisco\n1986",
      "DELTA\nD\nCOMMEMORATING\nYears\nService\nFrancisco\nE\nLTA\nBELTA"
    ],
    "millsfield:images_texts_ids": [
      1763138057,
      1880440385,
      1880440387,
      1880440391
    ],
    "millsfield:on_view": 0,
    "millsfield:similar": {
      "apple/mobileclip_s0": [
        {
          "distance": 0.37434295,
          "id": 1880255005
        },
        {
          "distance": 0.39680266,
          "id": 1763110065
        },
        {
          "distance": 0.3991169,
          "id": 1763110073
        },
        {
          "distance": 0.4078968,
          "id": 1880255009
        },
        {
          "distance": 0.41252273,
          "id": 1763110059
        },
        {
          "distance": 0.42018667,
          "id": 1763110079
        },
        {
          "distance": 0.42426923,
          "id": 1880440391
        },
        {
          "distance": 0.43258438,
          "id": 1763110075
        },
        {
          "distance": 0.43549794,
          "id": 1763110061
        },
        {
          "distance": 0.44366255,
          "id": 1880255013
        }
      ],
      "apple/mobileclip_s1": [
        {
          "distance": 0.21582721,
          "id": 1880255009
        },
        {
          "distance": 0.23658542,
          "id": 1880255005
        },
        {
          "distance": 0.23897415,
          "id": 1763110073
        },
        {
          "distance": 0.27492094,
          "id": 1763110079
        },
        {
          "distance": 0.29373944,
          "id": 1763110061
        },
        {
          "distance": 0.29819226,
          "id": 1880255013
        },
        {
          "distance": 0.30146992,
          "id": 1763110065
        },
        {
          "distance": 0.30898473,
          "id": 1763110075
        },
        {
          "distance": 0.32096192,
          "id": 1880440391
        },
        {
          "distance": 0.3253434,
          "id": 1763110059
        }
      ],
      "apple/mobileclip_s2": [
        {
          "distance": 0.25408432,
          "id": 1763110073
        },
        {
          "distance": 0.2697594,
          "id": 1880255009
        },
        {
          "distance": 0.2789175,
          "id": 1880255005
        },
        {
          "distance": 0.28016824,
          "id": 1763110065
        },
        {
          "distance": 0.29537496,
          "id": 1763110079
        },
        {
          "distance": 0.31502187,
          "id": 1763110075
        },
        {
          "distance": 0.33899388,
          "id": 1763138057
        },
        {
          "distance": 0.33907336,
          "id": 1763110059
        },
        {
          "distance": 0.34985998,
          "id": 1763110061
        },
        {
          "distance": 0.35807112,
          "id": 1880255013
        }
      ]
    },
    "millsfield:subcategory_id": 1511213161,
    "mz:is_current": 1,
    "sfomuseum:filename": "2007.034.008ab_1.tif",
    "sfomuseum:image_id": 271818,
    "sfomuseum:image_index": 0,
    "sfomuseum:image_type": "studio",
    "sfomuseum:object_id": 85143,
    "sfomuseum:placetype": "image",
    "sfomuseum:primary_image": 1,
    "src:geom": "sfomuseum",
    "wof:belongsto": [
      102527513,
      1159162825,
      102191575,
      85633793,
      102087579,
      85922583,
      1763137969,
      85688637,
      1159160869
    ],
    "wof:country": "XY",
    "wof:created": 1695197937,
    "wof:depicts": [
      1159293697,
      1763137969,
      1159284261,
      1159291129
    ],
    "wof:geomhash": "ed7c2ab3547fc3916b5edc33488deaa7",
    "wof:hierarchy": [
      {
        "building_id": -1,
        "campus_id": 102527513,
        "collection_id": 1159162825,
        "concourse_id": 1159162825,
        "continent_id": 102191575,
        "country_id": 85633793,
        "county_id": 102087579,
        "custom_id": 1880440385,
        "image_id": 1880440385,
        "locality_id": 85922583,
        "neighbourhood_id": -1,
        "object_id": 1763137969,
        "region_id": 85688637,
        "wing_id": 1159160869
      }
    ],
    "wof:id": 1880440385,
    "wof:lastmodified": 1788451872,
    "wof:name": "model airplane: Delta Air Lines, Lockheed L-1011 TriStar",
    "wof:parent_id": 1763137969,
    "wof:placetype": "custom",
    "wof:placetype_alt": [
      "image"
    ],
    "wof:repo": "sfomuseum-data-media-collection",
    "wof:superseded_by": [],
    "wof:supersedes": []
  },
  "bbox": [
    -122.386472,
    37.616105,
    -122.385834,
    37.616611
  ],
  "geometry": {"type":"Polygon","coordinates":[[[-122.386472,37.616318],[-122.386435,37.616233],[-122.386376,37.616178],[-122.386301,37.616131],[-122.386161,37.616105],[-122.386022,37.616131],[-122.385914,37.616186],[-122.385855,37.616267],[-122.385834,37.616369],[-122.385871,37.616467],[-122.385941,37.616543],[-122.386054,37.616603],[-122.386183,37.616611],[-122.386306,37.616573],[-122.386419,37.616509],[-122.386467,37.616411],[-122.386472,37.616318]]]}
}
