{
  "id": 1897762601,
  "type": "Feature",
  "properties": {
    "date:cessation_lower": "2017-01-01",
    "date:cessation_upper": "2017-12-31",
    "date:inception_lower": "2017-01-01",
    "date:inception_upper": "2017-12-31",
    "edtf:cessation": "2017~",
    "edtf:inception": "2017~",
    "geom:area": 2.477324999997507e-7,
    "geom:bbox": "-122.386472,37.616105,-122.385834,37.616611",
    "geom:latitude": 37.61635756125121,
    "geom:longitude": -122.38615532866096,
    "media:fingerprint": "44c3f89a6350ba175c095eaa5c3ac012068db881",
    "media:imagehash_avg": "a:f0e0f0fef0c0c0c0",
    "media:imagehash_diff": "d:0103c3e0c44f0303",
    "media:imagetext": "CHINA\nAIRLINES\nBone China\nCB8140",
    "media:imagetext_created": 1787971219,
    "media:imagetext_source": "com.apple.visionkit.VNImageRequestHandler#Version 26.6.2 (Build 25G83)",
    "media:mimetype": "image/jpeg",
    "media:properties": {
      "sizes": {
        "b": {
          "extension": "jpg",
          "height": 528,
          "mimetype": "image/jpeg",
          "secret": "XNsHG1SWumDogeBkT28XYWUJL6PFX20k",
          "width": 1024
        },
        "c": {
          "extension": "jpg",
          "height": 412,
          "mimetype": "image/jpeg",
          "secret": "XNsHG1SWumDogeBkT28XYWUJL6PFX20k",
          "width": 800
        },
        "dc": {
          "extension": "jpg",
          "height": 412,
          "mimetype": "image/jpeg",
          "secret": "XNsHG1SWumDogeBkT28XYWUJL6PFX20k",
          "width": 800
        },
        "ds": {
          "extension": "jpg",
          "height": 320,
          "mimetype": "image/jpeg",
          "secret": "XNsHG1SWumDogeBkT28XYWUJL6PFX20k",
          "width": 320
        },
        "k": {
          "extension": "jpg",
          "height": 1056,
          "mimetype": "image/jpeg",
          "secret": "XNsHG1SWumDogeBkT28XYWUJL6PFX20k",
          "width": 2048
        },
        "n": {
          "extension": "jpg",
          "height": 165,
          "mimetype": "image/jpeg",
          "secret": "XNsHG1SWumDogeBkT28XYWUJL6PFX20k",
          "width": 320
        },
        "o": {
          "extension": "jpg",
          "height": 1567,
          "mimetype": "image/jpeg",
          "secret": "8WkK6HlE47lXy6D0A9sB9qMRJ3iJ9eRO",
          "width": 3039
        },
        "s": {
          "extension": "jpg",
          "height": 320,
          "mimetype": "image/jpeg",
          "secret": "XNsHG1SWumDogeBkT28XYWUJL6PFX20k",
          "width": 320
        },
        "z": {
          "extension": "jpg",
          "height": 330,
          "mimetype": "image/jpeg",
          "secret": "XNsHG1SWumDogeBkT28XYWUJL6PFX20k",
          "width": 640
        }
      }
    },
    "media:source": "sfomuseum",
    "media:status_id": 1,
    "media:uri_template": "https://static.sfomuseum.org/media/189/776/260/1/1897762601_{secret}_{label}.{extension}",
    "millsfield:airline_id": [
      1159284153
    ],
    "millsfield:category_id": 1746152551,
    "millsfield:collection_id": 1511214203,
    "millsfield:company_id": [
      1159288057
    ],
    "millsfield:images_colors": [
      {
        "hex": "#a2a199",
        "name": "#a2a199",
        "reference": "marekm4"
      },
      {
        "hex": "#a9a9a9",
        "name": "darkgrey",
        "reference": "css4"
      },
      {
        "hex": "#979aaa",
        "name": "Manatee",
        "reference": "crayola"
      },
      {
        "hex": "#706f6b",
        "name": "#706f6b",
        "reference": "marekm4"
      },
      {
        "hex": "#696969",
        "name": "dimgrey",
        "reference": "css4"
      },
      {
        "hex": "#757575",
        "name": "Sonic Silver",
        "reference": "crayola"
      },
      {
        "hex": "#85837d",
        "name": "#85837d",
        "reference": "marekm4"
      },
      {
        "hex": "#808080",
        "name": "grey",
        "reference": "css4"
      }
    ],
    "millsfield:images_texts": [
      "CHINA\nAIRLINES\nBone China\nCB8140"
    ],
    "millsfield:images_texts_ids": [
      1897762601
    ],
    "millsfield:similar": {
      "apple/mobileclip_s0": [
        {
          "distance": 0.3297378,
          "id": 1897762603
        },
        {
          "distance": 0.45283458,
          "id": 1897762693
        },
        {
          "distance": 0.50520355,
          "id": 1897762605
        },
        {
          "distance": 0.6287109,
          "id": 1897762697
        },
        {
          "distance": 0.6433724,
          "id": 1897762713
        },
        {
          "distance": 0.6437751,
          "id": 1897762745
        },
        {
          "distance": 0.65228903,
          "id": 1897762711
        },
        {
          "distance": 0.6531723,
          "id": 1897762607
        },
        {
          "distance": 0.678289,
          "id": 1796506477
        },
        {
          "distance": 0.683232,
          "id": 1796506473
        }
      ],
      "apple/mobileclip_s1": [
        {
          "distance": 0.21002853,
          "id": 1897762603
        },
        {
          "distance": 0.3085388,
          "id": 1897762693
        },
        {
          "distance": 0.37020358,
          "id": 1897762605
        },
        {
          "distance": 0.42002004,
          "id": 1897762631
        },
        {
          "distance": 0.45530578,
          "id": 1897762607
        },
        {
          "distance": 0.45647904,
          "id": 1897762697
        },
        {
          "distance": 0.47593322,
          "id": 1897762713
        },
        {
          "distance": 0.52229315,
          "id": 1897762701
        },
        {
          "distance": 0.52496964,
          "id": 1897762711
        },
        {
          "distance": 0.5296232,
          "id": 1796506473
        }
      ],
      "apple/mobileclip_s2": [
        {
          "distance": 0.37309903,
          "id": 1897762603
        },
        {
          "distance": 0.49642277,
          "id": 1897762693
        },
        {
          "distance": 0.5307991,
          "id": 1897762605
        },
        {
          "distance": 0.6107123,
          "id": 1897762697
        },
        {
          "distance": 0.641121,
          "id": 1897762631
        },
        {
          "distance": 0.6555875,
          "id": 1897762607
        },
        {
          "distance": 0.6775501,
          "id": 1897762713
        },
        {
          "distance": 0.7045873,
          "id": 1897762701
        },
        {
          "distance": 0.7125669,
          "id": 1897762641
        },
        {
          "distance": 0.71519715,
          "id": 1897762637
        }
      ]
    },
    "millsfield:subcategory_id": 1511213417,
    "mz:is_current": 1,
    "sfomuseum:filename": "IMG_1839.jpg",
    "sfomuseum:image_id": 226615,
    "sfomuseum:image_index": 0,
    "sfomuseum:image_type": "studio",
    "sfomuseum:object_id": 219986,
    "sfomuseum:placetype": "image",
    "sfomuseum:primary_image": 0,
    "src:geom": "sfomuseum",
    "wof:belongsto": [
      102527513,
      1159162825,
      102191575,
      85633793,
      102087579,
      85922583,
      1746271079,
      85688637,
      1159160869
    ],
    "wof:country": "XY",
    "wof:created": 1711611237,
    "wof:depicts": [
      1159288057,
      1746271079,
      1159284153
    ],
    "wof:geomhash": "ed7c2ab3547fc3916b5edc33488deaa7",
    "wof:hierarchy": [
      {
        "building_id": -1,
        "campus_id": 102527513,
        "collection_id": 1159162825,
        "concourse_id": 1159162825,
        "continent_id": 102191575,
        "country_id": 85633793,
        "county_id": 102087579,
        "custom_id": 1897762601,
        "image_id": 1897762601,
        "locality_id": 85922583,
        "neighbourhood_id": -1,
        "object_id": 1746271079,
        "region_id": 85688637,
        "wing_id": 1159160869
      }
    ],
    "wof:id": 1897762601,
    "wof:lastmodified": 1788452087,
    "wof:name": "soup spoon: China Airlines",
    "wof:parent_id": 1746271079,
    "wof:placetype": "custom",
    "wof:placetype_alt": [
      "image"
    ],
    "wof:repo": "sfomuseum-data-media-collection",
    "wof:superseded_by": [],
    "wof:supersedes": []
  },
  "bbox": [
    -122.386472,
    37.616105,
    -122.385834,
    37.616611
  ],
  "geometry": {"type":"Polygon","coordinates":[[[-122.386472,37.616318],[-122.386435,37.616233],[-122.386376,37.616178],[-122.386301,37.616131],[-122.386161,37.616105],[-122.386022,37.616131],[-122.385914,37.616186],[-122.385855,37.616267],[-122.385834,37.616369],[-122.385871,37.616467],[-122.385941,37.616543],[-122.386054,37.616603],[-122.386183,37.616611],[-122.386306,37.616573],[-122.386419,37.616509],[-122.386467,37.616411],[-122.386472,37.616318]]]}
}
