{
  "id": 1762708603,
  "type": "Feature",
  "properties": {
    "date:cessation_lower": "1970-01-01",
    "date:cessation_upper": "1979-12-31",
    "date:inception_lower": "1970-01-01",
    "date:inception_upper": "1979-12-31",
    "edtf:cessation": "197X",
    "edtf:inception": "197X",
    "geom:area": 2.477324999997507e-7,
    "geom:bbox": "-122.386472,37.616105,-122.385834,37.616611",
    "geom:latitude": 37.61635756125121,
    "geom:longitude": -122.38615532866096,
    "media:fingerprint": "2cae71d1a867adf7c4a2db77c8748222f6ec032b",
    "media:imagehash_avg": "a:fff987ffff000000",
    "media:imagehash_diff": "d:75636f6d4d691519",
    "media:mimetype": "image/tiff",
    "media:properties": {
      "sizes": {
        "b": {
          "extension": "jpg",
          "height": 768,
          "mimetype": "image/jpeg",
          "secret": "hD4O31Kf8nCRwcAnmufrg7bknVd52QUm",
          "width": 545
        },
        "c": {
          "extension": "jpg",
          "height": 600,
          "mimetype": "image/jpeg",
          "secret": "hD4O31Kf8nCRwcAnmufrg7bknVd52QUm",
          "width": 426
        },
        "dc": {
          "extension": "jpg",
          "height": 600,
          "mimetype": "image/jpeg",
          "secret": "hD4O31Kf8nCRwcAnmufrg7bknVd52QUm",
          "width": 426
        },
        "ds": {
          "extension": "jpg",
          "height": 320,
          "mimetype": "image/jpeg",
          "secret": "hD4O31Kf8nCRwcAnmufrg7bknVd52QUm",
          "width": 320
        },
        "k": {
          "extension": "jpg",
          "height": 1536,
          "mimetype": "image/jpeg",
          "secret": "hD4O31Kf8nCRwcAnmufrg7bknVd52QUm",
          "width": 1091
        },
        "n": {
          "extension": "jpg",
          "height": 240,
          "mimetype": "image/jpeg",
          "secret": "hD4O31Kf8nCRwcAnmufrg7bknVd52QUm",
          "width": 170
        },
        "o": {
          "extension": "jpg",
          "height": 1795,
          "mimetype": "image/jpeg",
          "secret": "pQEX29bgx9V5xI6ONS0K68fXAisjijwj",
          "width": 1276
        },
        "s": {
          "extension": "jpg",
          "height": 320,
          "mimetype": "image/jpeg",
          "secret": "hD4O31Kf8nCRwcAnmufrg7bknVd52QUm",
          "width": 320
        },
        "z": {
          "extension": "jpg",
          "height": 480,
          "mimetype": "image/jpeg",
          "secret": "hD4O31Kf8nCRwcAnmufrg7bknVd52QUm",
          "width": 341
        }
      }
    },
    "media:source": "sfomuseum",
    "media:status_id": 1,
    "media:uri_template": "https://static.sfomuseum.org/media/176/270/860/3/1762708603_{secret}_{label}.{extension}",
    "millsfield:aircraft_id": [
      1159289759
    ],
    "millsfield:airline_id": [
      1159284711
    ],
    "millsfield:category_id": 1511214215,
    "millsfield:collection_id": 1511214207,
    "millsfield:company_id": [
      1159293593
    ],
    "millsfield:images_colors": [
      {
        "hex": "#afa89e",
        "name": "#afa89e",
        "reference": "marekm4"
      },
      {
        "hex": "#a9a9a9",
        "name": "darkgrey",
        "reference": "css4"
      },
      {
        "hex": "#979aaa",
        "name": "Manatee",
        "reference": "crayola"
      },
      {
        "hex": "#2c2112",
        "name": "#2c2112",
        "reference": "marekm4"
      },
      {
        "hex": "#000000",
        "name": "black",
        "reference": "css4"
      },
      {
        "hex": "#000000",
        "name": "Black",
        "reference": "crayola"
      },
      {
        "hex": "#945f28",
        "name": "#945f28",
        "reference": "marekm4"
      },
      {
        "hex": "#a0522d",
        "name": "sienna",
        "reference": "css4"
      },
      {
        "hex": "#9c7c38",
        "name": "Metallic Sunburst",
        "reference": "crayola"
      },
      {
        "hex": "#788690",
        "name": "#788690",
        "reference": "marekm4"
      },
      {
        "hex": "#778899",
        "name": "lightslategrey",
        "reference": "css4"
      },
      {
        "hex": "#95918c",
        "name": "Gray",
        "reference": "crayola"
      },
      {
        "hex": "#ae8f64",
        "name": "#ae8f64",
        "reference": "marekm4"
      },
      {
        "hex": "#bdb76b",
        "name": "darkkhaki",
        "reference": "css4"
      },
      {
        "hex": "#9f8170",
        "name": "Beaver",
        "reference": "crayola"
      }
    ],
    "millsfield:images_texts": [
      "• Lufthansa\nEuropa Jet\nPrinted in Germany\nWbg. 452 051\n135/1164/OTEL\n2015.166.0913"
    ],
    "millsfield:images_texts_ids": [
      1762708605
    ],
    "millsfield:similar": {
      "apple/mobileclip_s0": [
        {
          "distance": 0.534578,
          "id": 1762705723
        },
        {
          "distance": 0.566628,
          "id": 1762712803
        },
        {
          "distance": 0.56951493,
          "id": 1762703687
        },
        {
          "distance": 0.57057744,
          "id": 1762703897
        },
        {
          "distance": 0.5713282,
          "id": 1762704397
        },
        {
          "distance": 0.57391214,
          "id": 1762706897
        },
        {
          "distance": 0.5742542,
          "id": 1762713145
        },
        {
          "distance": 0.5780395,
          "id": 1762709003
        },
        {
          "distance": 0.57869697,
          "id": 1762898219
        },
        {
          "distance": 0.5809119,
          "id": 1762703387
        }
      ],
      "apple/mobileclip_s1": [
        {
          "distance": 0.36744112,
          "id": 1762705723
        },
        {
          "distance": 0.37865305,
          "id": 1762705799
        },
        {
          "distance": 0.3795905,
          "id": 1762706897
        },
        {
          "distance": 0.38910443,
          "id": 1762898219
        },
        {
          "distance": 0.39469784,
          "id": 1762712689
        },
        {
          "distance": 0.39817882,
          "id": 1762705803
        },
        {
          "distance": 0.39825553,
          "id": 1762708755
        },
        {
          "distance": 0.40147978,
          "id": 2014997817
        },
        {
          "distance": 0.4018217,
          "id": 1762895705
        },
        {
          "distance": 0.40192664,
          "id": 1762703189
        }
      ],
      "apple/mobileclip_s2": [
        {
          "distance": 0.48189434,
          "id": 1762705723
        },
        {
          "distance": 0.5454168,
          "id": 1762702981
        },
        {
          "distance": 0.546426,
          "id": 1762711037
        },
        {
          "distance": 0.54801995,
          "id": 1762703387
        },
        {
          "distance": 0.54970306,
          "id": 1762712689
        },
        {
          "distance": 0.55165845,
          "id": 1914622707
        },
        {
          "distance": 0.55239224,
          "id": 1930979253
        },
        {
          "distance": 0.55596346,
          "id": 1762705799
        },
        {
          "distance": 0.5560236,
          "id": 1762898219
        },
        {
          "distance": 0.55824804,
          "id": 1762709003
        }
      ]
    },
    "millsfield:subcategory_id": 1511213363,
    "mz:is_current": 1,
    "sfomuseum:filename": "2015.166.0993_ft.tif",
    "sfomuseum:image_id": 157607,
    "sfomuseum:image_index": 5,
    "sfomuseum:image_type": "studio",
    "sfomuseum:object_id": 180610,
    "sfomuseum:placetype": "image",
    "sfomuseum:primary_image": 1,
    "src:geom": "sfomuseum",
    "wof:belongsto": [
      102527513,
      1159162825,
      102191575,
      85633793,
      102087579,
      85922583,
      1762691881,
      85688637,
      1159160869
    ],
    "wof:country": "XY",
    "wof:created": 1641349462,
    "wof:depicts": [
      1159284711,
      1159289759,
      1159293593,
      1159288215,
      1762691881
    ],
    "wof:geomhash": "ed7c2ab3547fc3916b5edc33488deaa7",
    "wof:hierarchy": [
      {
        "building_id": -1,
        "campus_id": 102527513,
        "collection_id": 1159162825,
        "concourse_id": 1159162825,
        "continent_id": 102191575,
        "country_id": 85633793,
        "county_id": 102087579,
        "custom_id": 1762708603,
        "image_id": 1762708603,
        "locality_id": 85922583,
        "neighbourhood_id": -1,
        "object_id": 1762691881,
        "region_id": 85688637,
        "wing_id": 1159160869
      }
    ],
    "wof:id": 1762708603,
    "wof:lastmodified": 1788450585,
    "wof:name": "postcard: Lufthansa, Boeing 727",
    "wof:parent_id": 1762691881,
    "wof:placetype": "custom",
    "wof:placetype_alt": [
      "image"
    ],
    "wof:repo": "sfomuseum-data-media-collection",
    "wof:superseded_by": [],
    "wof:supersedes": []
  },
  "bbox": [
    -122.386472,
    37.616105,
    -122.385834,
    37.616611
  ],
  "geometry": {"type":"Polygon","coordinates":[[[-122.386472,37.616318],[-122.386435,37.616233],[-122.386376,37.616178],[-122.386301,37.616131],[-122.386161,37.616105],[-122.386022,37.616131],[-122.385914,37.616186],[-122.385855,37.616267],[-122.385834,37.616369],[-122.385871,37.616467],[-122.385941,37.616543],[-122.386054,37.616603],[-122.386183,37.616611],[-122.386306,37.616573],[-122.386419,37.616509],[-122.386467,37.616411],[-122.386472,37.616318]]]}
}
