{
  "id": 1880245927,
  "type": "Feature",
  "properties": {
    "date:cessation_lower": "2015-01-01",
    "date:cessation_upper": "2015-12-31",
    "date:inception_lower": "2015-01-01",
    "date:inception_upper": "2015-12-31",
    "edtf:cessation": "2015~",
    "edtf:inception": "2015~",
    "geom:area": 2.477324999997507e-7,
    "geom:bbox": "-122.386472,37.616105,-122.385834,37.616611",
    "geom:latitude": 37.61635756125121,
    "geom:longitude": -122.38615532866096,
    "media:fingerprint": "b9ca3b5609d2d13397e4d9b85cfd6c7c63c6ddbc",
    "media:imagehash_avg": "a:ffffffed00000000",
    "media:imagehash_diff": "d:a6910f9b89002030",
    "media:imagetext": "contents\nmay be under\npressure\nSTATIC PORT\nDO NOTPHIN RED LINE MUST BE\nSMOOTH AND CLEAN\n_RVSIR. - EXTRA CRITICAL AREA\nSEE SRM 53-00-11",
    "media:imagetext_created": 1787968290,
    "media:imagetext_source": "com.apple.visionkit.VNImageRequestHandler#Version 26.6.2 (Build 25G83)",
    "media:mimetype": "image/jpeg",
    "media:properties": {
      "sizes": {
        "b": {
          "extension": "jpg",
          "height": 768,
          "mimetype": "image/jpeg",
          "secret": "E0WijEVfsj3okec3Hg76Swtosfc8cALG",
          "width": 1024
        },
        "c": {
          "extension": "jpg",
          "height": 600,
          "mimetype": "image/jpeg",
          "secret": "E0WijEVfsj3okec3Hg76Swtosfc8cALG",
          "width": 800
        },
        "dc": {
          "extension": "jpg",
          "height": 600,
          "mimetype": "image/jpeg",
          "secret": "E0WijEVfsj3okec3Hg76Swtosfc8cALG",
          "width": 800
        },
        "ds": {
          "extension": "jpg",
          "height": 320,
          "mimetype": "image/jpeg",
          "secret": "E0WijEVfsj3okec3Hg76Swtosfc8cALG",
          "width": 320
        },
        "k": {
          "extension": "jpg",
          "height": 1536,
          "mimetype": "image/jpeg",
          "secret": "E0WijEVfsj3okec3Hg76Swtosfc8cALG",
          "width": 2048
        },
        "n": {
          "extension": "jpg",
          "height": 240,
          "mimetype": "image/jpeg",
          "secret": "E0WijEVfsj3okec3Hg76Swtosfc8cALG",
          "width": 320
        },
        "o": {
          "extension": "jpg",
          "height": 3024,
          "mimetype": "image/jpeg",
          "secret": "1MvNTdYx7Iu8PQhp8zhIBXd8DlqVuSt3",
          "width": 4032
        },
        "s": {
          "extension": "jpg",
          "height": 320,
          "mimetype": "image/jpeg",
          "secret": "E0WijEVfsj3okec3Hg76Swtosfc8cALG",
          "width": 320
        },
        "z": {
          "extension": "jpg",
          "height": 480,
          "mimetype": "image/jpeg",
          "secret": "E0WijEVfsj3okec3Hg76Swtosfc8cALG",
          "width": 640
        }
      }
    },
    "media:source": "sfomuseum",
    "media:status_id": 1,
    "media:uri_template": "https://static.sfomuseum.org/media/188/024/592/7/1880245927_{secret}_{label}.{extension}",
    "millsfield:aircraft_id": [
      1159289407
    ],
    "millsfield:airline_id": [
      1159285481
    ],
    "millsfield:category_id": 1511214209,
    "millsfield:collection_id": 1511214207,
    "millsfield:company_id": [
      1159293829
    ],
    "millsfield:images_colors": [
      {
        "hex": "#40403d",
        "name": "#40403d",
        "reference": "marekm4"
      },
      {
        "hex": "#2f4f4f",
        "name": "darkslategrey",
        "reference": "css4"
      },
      {
        "hex": "#414a4c",
        "name": "Outer Space",
        "reference": "crayola"
      },
      {
        "hex": "#b2b7bf",
        "name": "#b2b7bf",
        "reference": "marekm4"
      },
      {
        "hex": "#c0c0c0",
        "name": "silver",
        "reference": "css4"
      },
      {
        "hex": "#b0b7c6",
        "name": "Cadet Blue",
        "reference": "crayola"
      }
    ],
    "millsfield:images_texts": [
      "contents\nmay be under\npressure\nSTATIC PORT\nDO NOTPHIN RED LINE MUST BE\nSMOOTH AND CLEAN\n_RVSIR. - EXTRA CRITICAL AREA\nSEE SRM 53-00-11"
    ],
    "millsfield:images_texts_ids": [
      1880245927
    ],
    "millsfield:similar": {
      "apple/mobileclip_s0": [
        {
          "distance": 0.60226685,
          "id": 1880245897
        },
        {
          "distance": 0.62941676,
          "id": 1880245891
        },
        {
          "distance": 0.6306625,
          "id": 1880245965
        },
        {
          "distance": 0.63992095,
          "id": 1880246053
        },
        {
          "distance": 0.64856726,
          "id": 1880245915
        },
        {
          "distance": 0.65577644,
          "id": 1880245929
        },
        {
          "distance": 0.65861833,
          "id": 1880245951
        },
        {
          "distance": 0.6713564,
          "id": 1762891941
        },
        {
          "distance": 0.67683417,
          "id": 1763442921
        },
        {
          "distance": 0.6780767,
          "id": 1880245923
        }
      ],
      "apple/mobileclip_s1": [
        {
          "distance": 0.44517285,
          "id": 1880245965
        },
        {
          "distance": 0.4583663,
          "id": 1880246053
        },
        {
          "distance": 0.4585165,
          "id": 1880245897
        },
        {
          "distance": 0.47157952,
          "id": 1880245929
        },
        {
          "distance": 0.47323677,
          "id": 1880245923
        },
        {
          "distance": 0.48150954,
          "id": 1880246037
        },
        {
          "distance": 0.4957922,
          "id": 1880245891
        },
        {
          "distance": 0.50411046,
          "id": 1880245829
        },
        {
          "distance": 0.5082584,
          "id": 1880245903
        },
        {
          "distance": 0.5210733,
          "id": 1880245979
        }
      ],
      "apple/mobileclip_s2": [
        {
          "distance": 0.6370439,
          "id": 1880246053
        },
        {
          "distance": 0.6751385,
          "id": 1880246037
        },
        {
          "distance": 0.67516786,
          "id": 1880245897
        },
        {
          "distance": 0.7033834,
          "id": 1880245965
        },
        {
          "distance": 0.7135708,
          "id": 1880245891
        },
        {
          "distance": 0.7142711,
          "id": 1880245923
        },
        {
          "distance": 0.7166635,
          "id": 1880245951
        },
        {
          "distance": 0.7244729,
          "id": 1880245929
        },
        {
          "distance": 0.74848944,
          "id": 1880245907
        },
        {
          "distance": 0.75853854,
          "id": 1880246001
        }
      ]
    },
    "millsfield:subcategory_id": 1511213245,
    "mz:is_current": 1,
    "sfomuseum:filename": "2018.139.031.jpg",
    "sfomuseum:image_id": 201470,
    "sfomuseum:image_index": 5,
    "sfomuseum:image_type": "studio",
    "sfomuseum:object_id": 201058,
    "sfomuseum:placetype": "image",
    "sfomuseum:primary_image": 1,
    "src:geom": "sfomuseum",
    "wof:belongsto": [
      102527513,
      1159162825,
      102191575,
      85633793,
      102087579,
      85922583,
      1880245385,
      85688637,
      1159160869
    ],
    "wof:country": "XY",
    "wof:created": 1693339940,
    "wof:depicts": [
      1880245385,
      1159285481,
      1159289407,
      1159293829,
      1159288091
    ],
    "wof:geomhash": "ed7c2ab3547fc3916b5edc33488deaa7",
    "wof:hierarchy": [
      {
        "building_id": -1,
        "campus_id": 102527513,
        "collection_id": 1159162825,
        "concourse_id": 1159162825,
        "continent_id": 102191575,
        "country_id": 85633793,
        "county_id": 102087579,
        "custom_id": 1880245927,
        "image_id": 1880245927,
        "locality_id": 85922583,
        "neighbourhood_id": -1,
        "object_id": 1880245385,
        "region_id": 85688637,
        "wing_id": 1159160869
      }
    ],
    "wof:id": 1880245927,
    "wof:lastmodified": 1788451758,
    "wof:name": "digital photograph: Virgin America, Airbus A319-112",
    "wof:parent_id": 1880245385,
    "wof:placetype": "custom",
    "wof:placetype_alt": [
      "image"
    ],
    "wof:repo": "sfomuseum-data-media-collection",
    "wof:superseded_by": [],
    "wof:supersedes": []
  },
  "bbox": [
    -122.386472,
    37.616105,
    -122.385834,
    37.616611
  ],
  "geometry": {"type":"Polygon","coordinates":[[[-122.386472,37.616318],[-122.386435,37.616233],[-122.386376,37.616178],[-122.386301,37.616131],[-122.386161,37.616105],[-122.386022,37.616131],[-122.385914,37.616186],[-122.385855,37.616267],[-122.385834,37.616369],[-122.385871,37.616467],[-122.385941,37.616543],[-122.386054,37.616603],[-122.386183,37.616611],[-122.386306,37.616573],[-122.386419,37.616509],[-122.386467,37.616411],[-122.386472,37.616318]]]}
}
