{
  "id": 2014998001,
  "type": "Feature",
  "properties": {
    "date:cessation_lower": "1939-01-01",
    "date:cessation_upper": "1939-12-31",
    "date:inception_lower": "1939-01-01",
    "date:inception_upper": "1939-12-31",
    "edtf:cessation": "1939",
    "edtf:inception": "1939",
    "geom:area": 2.475047457570636e-7,
    "geom:bbox": "-122.386472,37.616105,-122.385834,37.616611",
    "geom:latitude": 37.61635747477365,
    "geom:longitude": -122.38615540108617,
    "media:fingerprint": "f296ddca6add2189d3b5bc1d08e59ec5ab6eb626",
    "media:imagehash_avg": "a:ff8100000001ffff",
    "media:imagehash_diff": "d:4f4b5329094b6107",
    "media:imagetext": "AIRWAYS OBSERVERS, who were\naugural flight of F.A.M.-18, Northern Route, are shown entering the \"Yankee Clipper\"\nJune 24, 1939. Passenger at right (carrying coat and hat and waving) is Charles P.\nGraddick, Superintendent of Air Mail Service, Postoffice Department, Washington,\nwho was an observer on the initial flight. Graddick's numerous contributions to the\ndevelopment of a widespread and efficient service are well known in air mail circles.",
    "media:imagetext_created": 1787975844,
    "media:imagetext_source": "com.apple.visionkit.VNImageRequestHandler#Version 26.6.2 (Build 25G83)",
    "media:mimetype": "image/tiff",
    "media:properties": {
      "colours": null,
      "sizes": {
        "b": {
          "extension": "jpg",
          "height": 219,
          "mimetype": "image/jpeg",
          "secret": "oYZSsReFcC2MslRDRnXIbmQSgmJ58rWp",
          "width": 1023
        },
        "c": {
          "extension": "jpg",
          "height": 171,
          "mimetype": "image/jpeg",
          "secret": "oYZSsReFcC2MslRDRnXIbmQSgmJ58rWp",
          "width": 800
        },
        "dc": {
          "extension": "jpg",
          "height": 171,
          "mimetype": "image/jpeg",
          "secret": "oYZSsReFcC2MslRDRnXIbmQSgmJ58rWp",
          "width": 800
        },
        "ds": {
          "extension": "jpg",
          "height": 171,
          "mimetype": "image/jpeg",
          "secret": "oYZSsReFcC2MslRDRnXIbmQSgmJ58rWp",
          "width": 800
        },
        "k": {
          "extension": "jpg",
          "height": 439,
          "mimetype": "image/jpeg",
          "secret": "oYZSsReFcC2MslRDRnXIbmQSgmJ58rWp",
          "width": 2047
        },
        "n": {
          "extension": "jpg",
          "height": 68,
          "mimetype": "image/jpeg",
          "secret": "oYZSsReFcC2MslRDRnXIbmQSgmJ58rWp",
          "width": 320
        },
        "o": {
          "extension": "jpg",
          "height": 360,
          "mimetype": "image/jpeg",
          "secret": "SRu8wBCGD3C6ey4pHSPvPTQ6N0p6KJT4",
          "width": 1677
        },
        "s": {
          "extension": "jpg",
          "height": 171,
          "mimetype": "image/jpeg",
          "secret": "oYZSsReFcC2MslRDRnXIbmQSgmJ58rWp",
          "width": 800
        },
        "z": {
          "extension": "jpg",
          "height": 137,
          "mimetype": "image/jpeg",
          "secret": "oYZSsReFcC2MslRDRnXIbmQSgmJ58rWp",
          "width": 640
        }
      }
    },
    "media:source": "sfomuseum",
    "media:status_id": 1,
    "media:uri_template": "https://static.sfomuseum.org/media/201/499/800/1/2014998001_{secret}_{label}.{extention}",
    "millsfield:aircraft_id": [
      1159289633
    ],
    "millsfield:airline_id": [
      1159284991
    ],
    "millsfield:category_id": 1511214209,
    "millsfield:collection_id": 1511214207,
    "millsfield:company_id": [
      1159293593
    ],
    "millsfield:images_colors": [
      {
        "hex": "#ded3bd",
        "name": "#ded3bd",
        "reference": "marekm4"
      },
      {
        "hex": "#d3d3d3",
        "name": "lightgrey",
        "reference": "css4"
      },
      {
        "hex": "#efcdb8",
        "name": "Desert Sand",
        "reference": "crayola"
      },
      {
        "hex": "#211d12",
        "name": "#211d12",
        "reference": "marekm4"
      },
      {
        "hex": "#000000",
        "name": "black",
        "reference": "css4"
      },
      {
        "hex": "#000000",
        "name": "Black",
        "reference": "crayola"
      },
      {
        "hex": "#9a9072",
        "name": "#9a9072",
        "reference": "marekm4"
      },
      {
        "hex": "#808080",
        "name": "grey",
        "reference": "css4"
      },
      {
        "hex": "#9f8170",
        "name": "Beaver",
        "reference": "crayola"
      }
    ],
    "millsfield:images_texts": [
      "2 PAN AMERICAN AIRWAYS SYSTEM.\n{ICAN",
      "AIRWAYS OBSERVERS, who were\naugural flight of F.A.M.-18, Northern Route, are shown entering the \"Yankee Clipper\"\nJune 24, 1939. Passenger at right (carrying coat and hat and waving) is Charles P.\nGraddick, Superintendent of Air Mail Service, Postoffice Department, Washington,\nwho was an observer on the initial flight. Graddick's numerous contributions to the\ndevelopment of a widespread and efficient service are well known in air mail circles."
    ],
    "millsfield:images_texts_ids": [
      2014997939,
      2014998001
    ],
    "millsfield:similar": {
      "apple/mobileclip_s0": [
        {
          "distance": 0.66707504,
          "id": 1762707905
        },
        {
          "distance": 0.66774756,
          "id": 1762707147
        },
        {
          "distance": 0.6759038,
          "id": 1762707901
        },
        {
          "distance": 0.6814406,
          "id": 1762703809
        },
        {
          "distance": 0.68217117,
          "id": 1762710341
        },
        {
          "distance": 0.6866038,
          "id": 1762713707
        },
        {
          "distance": 0.69647634,
          "id": 1762709665
        },
        {
          "distance": 0.70018154,
          "id": 1762704185
        },
        {
          "distance": 0.7031763,
          "id": 1846705595
        },
        {
          "distance": 0.7032463,
          "id": 1762707225
        }
      ],
      "apple/mobileclip_s1": [
        {
          "distance": 0.50576574,
          "id": 1762704185
        },
        {
          "distance": 0.51303154,
          "id": 1762710143
        },
        {
          "distance": 0.5148167,
          "id": 1762710139
        },
        {
          "distance": 0.51589143,
          "id": 1762706953
        },
        {
          "distance": 0.51707554,
          "id": 1762704551
        },
        {
          "distance": 0.5171878,
          "id": 1762710499
        },
        {
          "distance": 0.52141976,
          "id": 1762713067
        },
        {
          "distance": 0.52408856,
          "id": 1762712331
        },
        {
          "distance": 0.52938807,
          "id": 1527849277
        },
        {
          "distance": 0.53216386,
          "id": 1763196245
        }
      ],
      "apple/mobileclip_s2": [
        {
          "distance": 0.68509674,
          "id": 1763196245
        },
        {
          "distance": 0.69468486,
          "id": 1527854347
        },
        {
          "distance": 0.7150372,
          "id": 1762710139
        },
        {
          "distance": 0.7296847,
          "id": 1762704185
        },
        {
          "distance": 0.7403423,
          "id": 2014997685
        },
        {
          "distance": 0.7445576,
          "id": 1847486181
        },
        {
          "distance": 0.74526525,
          "id": 1846755953
        },
        {
          "distance": 0.75071174,
          "id": 1762707147
        },
        {
          "distance": 0.7576979,
          "id": 1763249393
        },
        {
          "distance": 0.7580371,
          "id": 1813567649
        }
      ]
    },
    "millsfield:subcategory_id": 1511213367,
    "mz:is_current": 1,
    "sfomuseum:filename": "2018.112.0589b.tif",
    "sfomuseum:image_id": 206829,
    "sfomuseum:image_index": 5,
    "sfomuseum:image_type": "studio",
    "sfomuseum:object_id": 199924,
    "sfomuseum:placetype": "image",
    "sfomuseum:primary_image": 0,
    "src:geom": "sfomuseum",
    "wof:belongsto": [
      102527513,
      1159162825,
      102191575,
      85633793,
      102087579,
      85922583,
      2014997177,
      85688637,
      1159160869
    ],
    "wof:country": "XY",
    "wof:created": 1773263578,
    "wof:depicts": [
      1159289633,
      1159293593,
      2014997177,
      1159284991
    ],
    "wof:geomhash": "c281b9d9eefc83b5710e64b9d646067d",
    "wof:hierarchy": [
      {
        "building_id": -1,
        "campus_id": 102527513,
        "collection_id": 1159162825,
        "concourse_id": 1159162825,
        "continent_id": 102191575,
        "country_id": 85633793,
        "county_id": 102087579,
        "custom_id": 2014998001,
        "locality_id": 85922583,
        "neighbourhood_id": -1,
        "object_id": 2014997177,
        "region_id": 85688637,
        "wing_id": 1159160869
      }
    ],
    "wof:id": 2014998001,
    "wof:lastmodified": 1788452649,
    "wof:name": "photograph: Pan American Airways System, Boeing 314 Yankee Clipper",
    "wof:parent_id": 2014997177,
    "wof:placetype": "custom",
    "wof:repo": "sfomuseum-data-media-collection",
    "wof:superseded_by": [],
    "wof:supersedes": []
  },
  "bbox": [
    -122.38647222518921,
    37.6161053594541,
    -122.38583385944366,
    37.61661101879963
  ],
  "geometry": {"type":"Polygon","coordinates":[[[-122.38647222518921,37.61631782178288],[-122.386434674263,37.61623283692423],[-122.38637566566466,37.61617759671399],[-122.38630056381224,37.6161308549656],[-122.38616108894348,37.6161053594541],[-122.38602161407469,37.6161308549656],[-122.38591432571411,37.61618609521055],[-122.38585531711577,37.61626683087935],[-122.38583385944366,37.61636881265146],[-122.38587141036987,37.61646654505181],[-122.38594114780425,37.61654303118856],[-122.38605380058287,37.61660252035167],[-122.38618254661559,37.61661101879963],[-122.3863059282303,37.61657277577607],[-122.3864185810089,37.61650903735973],[-122.3864668607712,37.61641130501523],[-122.38647222518921,37.61631782178288]]]}
}
