{
  "id": 1527849193,
  "type": "Feature",
  "properties": {
    "date:cessation_lower": "1979-01-01",
    "date:cessation_upper": "1979-12-31",
    "date:inception_lower": "1979-01-01",
    "date:inception_upper": "1979-12-31",
    "edtf:cessation": "1979",
    "edtf:date": "1979",
    "edtf:inception": "1979",
    "geom:area": 0,
    "geom:bbox": "-122.386155,37.616358,-122.386155,37.616358",
    "geom:latitude": 37.616358,
    "geom:longitude": -122.386155,
    "iso:country": "XX",
    "media:fingerprint": "f182cd6596240e8ca59326df7ad524745f326a7d",
    "media:imagehash_avg": "a:c100d0fffff960fc",
    "media:imagehash_diff": "d:0f233391c941c9c9",
    "media:imagetext": "SEATS BELTS - CINTURON DE SEGURIDAD - CEINTURE DE SURETE\nKEEP SEAT BELTS FASTENED WHILE SEATED\nMIENTRAS ESTE SENTADO ABROCHE SU CINTURON\nATTACHEZ VOS CEINTURES QUAND ASSIS\nWINDOW EXITS\nVENTANAS DE SALIDA\nFENETRES DE SORTIE\nNO SMOKING:\nIN DESIGNATED SECTION OF EACH CABIN AT ANY TIME\nIN LAVATORY AT ANY TIME\nWHEN NO SMOKING LIGHT IS ON\nWHEN OXYGEN IS IN USE\nNO FUME:\nEN LA SECCIONES DESIGNADAS DE LA CABINA\nEN LOS CUARTOS SANITARIOS\nCUANDO LA SEÑAL DE NO FUMAR APAREZCA\nCUANDO EL OXYGENO ESTE EN USO\nVEUILLEZ NE PAS FUMER:\nDANS LA SECTION INDIQUEE DE CHAQUE CABINE EN\nTOUT TEMPS\nDANS LES LAVABOS EN TOUT TEMPS\nQUAND LA LUMIERE \"VEUILLEZ NE PAS FUMER\"\nEST ALLUMEE\nPENDANT L'UTILISATION DE L'OXYGENE\nTAKE OFF AND LANDING\nDESPEGUE Y ATERRIZAJE\nDECOLLAGE ET ATTERRISSAGE\nLAND EVACUATION\nEVACUACION EN TIERRA\nEVACUATION D'URGENCE AU SOL\nSEAT BACK IN UP POSITION\nANTANTO AN PONCION VERTICA\nSIEGE EN POSITION VERTICALE\nLOCK TRAV IN LIP POSITION\nPONGA LA BANDEJA HACIA\nARRIBA Y CIERRELA\nSINSA TARSTSSA\nPOSITION VERTICALE\nDOOR EXITS\nPUERTAS DE SALIDA\nPORTES DE SORTIE\nSTOW LUGGAGE UNDER SEAT\nCOLOQUE EQUIPAJE BAJO SU ASIENTO\nPLACEZ VOS RAGAGES COLIS ES SIEGE\nOXYGEN - OXYGENO - OXYGENE\nBRACE POSITION\nPOSICION EN CASO DE EMERGENCIA\nPOSITION EN CAS D'URGENCE\nFLOTATION SEAT CUSHIONS\nCOJIN DE FLOTACION\nCOUSSIN FLOTTEUR",
    "media:imagetext_created": 1787952733,
    "media:imagetext_source": "com.apple.visionkit.VNImageRequestHandler#Version 26.6.2 (Build 25G83)",
    "media:medium": "image",
    "media:mimetype": "image/tiff",
    "media:properties": {
      "sizes": {
        "b": {
          "extension": "jpg",
          "height": 555,
          "mimetype": "image/jpeg",
          "secret": "kQXRSBaDTO2ofuPpme8wOK0VWGCVrloJ",
          "width": 1024
        },
        "c": {
          "extension": "jpg",
          "height": 434,
          "mimetype": "image/jpeg",
          "secret": "kQXRSBaDTO2ofuPpme8wOK0VWGCVrloJ",
          "width": 800
        },
        "dc": {
          "extension": "jpg",
          "height": 434,
          "mimetype": "image/jpeg",
          "secret": "kQXRSBaDTO2ofuPpme8wOK0VWGCVrloJ",
          "width": 800
        },
        "ds": {
          "extension": "jpg",
          "height": 320,
          "mimetype": "image/jpeg",
          "secret": "kQXRSBaDTO2ofuPpme8wOK0VWGCVrloJ",
          "width": 320
        },
        "k": {
          "extension": "jpg",
          "height": 1111,
          "mimetype": "image/jpeg",
          "secret": "kQXRSBaDTO2ofuPpme8wOK0VWGCVrloJ",
          "width": 2048
        },
        "n": {
          "extension": "jpg",
          "height": 173,
          "mimetype": "image/jpeg",
          "secret": "kQXRSBaDTO2ofuPpme8wOK0VWGCVrloJ",
          "width": 320
        },
        "o": {
          "extension": "jpg",
          "height": 2623,
          "mimetype": "image/jpeg",
          "secret": "7ovWoYuKigwdstcajq29kTV4KakLMhwV",
          "width": 4831
        },
        "s": {
          "extension": "jpg",
          "height": 320,
          "mimetype": "image/jpeg",
          "secret": "kQXRSBaDTO2ofuPpme8wOK0VWGCVrloJ",
          "width": 320
        },
        "z": {
          "extension": "jpg",
          "height": 347,
          "mimetype": "image/jpeg",
          "secret": "kQXRSBaDTO2ofuPpme8wOK0VWGCVrloJ",
          "width": 640
        }
      }
    },
    "media:source": "sfomuseum",
    "media:status_id": 1,
    "media:uri_template": "https://static.sfomuseum.org/media/152/784/919/3/1527849193_{secret}_{label}.{extension}",
    "millsfield:aircraft_id": [
      1159289789
    ],
    "millsfield:airline_id": [
      1159284261
    ],
    "millsfield:category_id": 1762671311,
    "millsfield:collection_id": 1511214207,
    "millsfield:company_id": [
      1159293593,
      1159289759
    ],
    "millsfield:images_colors": [
      {
        "hex": "#ddd9cd",
        "name": "#ddd9cd",
        "reference": "marekm4"
      },
      {
        "hex": "#d3d3d3",
        "name": "lightgrey",
        "reference": "css4"
      },
      {
        "hex": "#dbd7d2",
        "name": "Timberwolf",
        "reference": "crayola"
      },
      {
        "hex": "#c5241e",
        "name": "#c5241e",
        "reference": "marekm4"
      },
      {
        "hex": "#b22222",
        "name": "firebrick",
        "reference": "css4"
      },
      {
        "hex": "#9c2542",
        "name": "Big Dip O' Ruby",
        "reference": "crayola"
      },
      {
        "hex": "#373028",
        "name": "#373028",
        "reference": "marekm4"
      },
      {
        "hex": "#2f4f4f",
        "name": "darkslategrey",
        "reference": "css4"
      },
      {
        "hex": "#414a4c",
        "name": "Outer Space",
        "reference": "crayola"
      },
      {
        "hex": "#7896b4",
        "name": "#7896b4",
        "reference": "marekm4"
      },
      {
        "hex": "#778899",
        "name": "lightslategrey",
        "reference": "css4"
      },
      {
        "hex": "#6699cc",
        "name": "Blue Gray",
        "reference": "crayola"
      }
    ],
    "millsfield:images_texts": [
      "LIFE VESTS\nCHALECOS SAL VAVIDAS\nGILETS DE SAUVETAGE\nB-727-200 SERIES\nSECURE ROPES TO WING\nAMARRE LAS SOGAS AL ALA\nFIXEZ LES CABLES AUX AILES\nRAFTS 3, 4 AND 5 WINDOW EXITS\nBOTES SALVAVIDAS 3. 4. Y5 - VENTANAS DE EMERGENCIA\nCANOTS DE SAUVETAGE 3, 4, \u0026 5 - FENETRES DE SORTIE\nSECURE LINE TO ROPE AND PULL TO INFLATE\nAMARRE LA LINEA A LA SOGA Y HALE PARA INFLAR\nFIXEZ LA CORDE AU CABLE ET TIREZ POUR GONFLER\nPULL TAB AND REMOVE\nVEST FROM PACKAGE\nTIRE DE LA CINTA Y\nREMUEVA EL CHALECO\nTIREZ LA PATTE ET\nRETIREZ LE GILET DE\nSAUVETAGE DU PAQUET\nPASSENGER SAFETY\nINFORMATION\nWATER EVACUATION\nEVACUACION EN AGUA\nEVACUATION EN MER\nCORTE LA LINEA\nCOUPEZ LA CORDE\nAFTER LEAVING AIRCRAFT,\nPULL TABS TO INFLATE\nDESPUES DE SALIR DE EL\n→ AVION, TIRE DE LAS\nCINTAS PARA INFLAR\nAPRES AVOIR QUITTE\nL'AVION TIREZ LES\nPATTES POUR GONFLER\nORAL INFLATION TUBES\nTUBOS PARA INFLAR CON LA BOCA\nTUBES ORAUX POUR GONFLER\nRAFTS 1 AND 2 DOOR EXITS\nBOTES SALVAVIDAS 1 Y 2 PUERTAS DE EMERGENCIA\nCANOTS DE SAUVETAGE 1 \u0026 2 - PORTES DE SORTIE\n• EXIT\nSECURE LINE TO AIRCRAFT\nAMARRE LA LINEA AL AVION\nFIXEZ LA CORDE A L'AVION\nPULL LINE TO INFLATE\nTIRE DE LA LINEA PARA INFLAR\nTIREZ LA CORDE POUR GONFLER\nFOR YOUR SAFETY PLEASE STUDY THIS CARD. THERE\nIS LITTLE LIKELIHOOD WE WILL ENCOUNTER A SITUA-\nTION REQUIRING EMERGENCY PREPARATIONS HOW-\nEVER IT IS A GOOD PRACTICE TO BE ACQUAINTED\nWITH THE SAFETY FEATURES WE HAVE PROVIDED\nFOR YOU ON THIS AIRCRAFT.\nPARA SU SEGURIDAD, FAVOR DE ESTUDIAR ESTA\nTARJETA. LA POSIBILIDAD DE CONFRONTAR UNA\nEMERGENCIA ES MINIMA,\nSIN EMBARGO ES PRO-\nVECHOSO ESTAR FAMILIARIZADO CON LAS MEDIDAS\nDE SEGURIDAD QUE SE PROVEEN PARA USTED EN\nEL AVION.\nPOUR VOTRE SECURITE, VEUILLEZ ETUDIER CETTE\nCARTE. IL EST PEU PROBABLE QUE LES CIRCONS-\nTANCES EXIGENT DE RECOURIR AUX MESURES DE\nSECURITE.\nMAIS\nEST BON D'EN PRENDRE\nCONNAISSANCE.\nIF DARK PULL CENTER TAB TO ACTIVATE LIGHT\nSI ESTA OBSCURO TIRE DE LA CINTA DE EL\nCENTRO PARA ACTIVAR LA LINTERNA\nS'IL FAIT NOIR, TIREZ LA PATTE\nCENTRALE POUR ALLUMER LA LUMIERE\nPLÉASE DO NOT REMOVE THIS CARD FROM AIRCRAFT\nPOR FAVOR NO LLEVARSE ESTA TARJETA DEL AVION\nVEUILLEZ LAISSER CETTE CARTE A BORD DE L'AVION\nForm 0412 - 80365 Card 6-79\nPrinted in U.S.A.\n2002/27.229\nDELTA\nAIR\nLINE",
      "SEATS BELTS - CINTURON DE SEGURIDAD - CEINTURE DE SURETE\nKEEP SEAT BELTS FASTENED WHILE SEATED\nMIENTRAS ESTE SENTADO ABROCHE SU CINTURON\nATTACHEZ VOS CEINTURES QUAND ASSIS\nWINDOW EXITS\nVENTANAS DE SALIDA\nFENETRES DE SORTIE\nNO SMOKING:\nIN DESIGNATED SECTION OF EACH CABIN AT ANY TIME\nIN LAVATORY AT ANY TIME\nWHEN NO SMOKING LIGHT IS ON\nWHEN OXYGEN IS IN USE\nNO FUME:\nEN LA SECCIONES DESIGNADAS DE LA CABINA\nEN LOS CUARTOS SANITARIOS\nCUANDO LA SEÑAL DE NO FUMAR APAREZCA\nCUANDO EL OXYGENO ESTE EN USO\nVEUILLEZ NE PAS FUMER:\nDANS LA SECTION INDIQUEE DE CHAQUE CABINE EN\nTOUT TEMPS\nDANS LES LAVABOS EN TOUT TEMPS\nQUAND LA LUMIERE \"VEUILLEZ NE PAS FUMER\"\nEST ALLUMEE\nPENDANT L'UTILISATION DE L'OXYGENE\nTAKE OFF AND LANDING\nDESPEGUE Y ATERRIZAJE\nDECOLLAGE ET ATTERRISSAGE\nLAND EVACUATION\nEVACUACION EN TIERRA\nEVACUATION D'URGENCE AU SOL\nSEAT BACK IN UP POSITION\nANTANTO AN PONCION VERTICA\nSIEGE EN POSITION VERTICALE\nLOCK TRAV IN LIP POSITION\nPONGA LA BANDEJA HACIA\nARRIBA Y CIERRELA\nSINSA TARSTSSA\nPOSITION VERTICALE\nDOOR EXITS\nPUERTAS DE SALIDA\nPORTES DE SORTIE\nSTOW LUGGAGE UNDER SEAT\nCOLOQUE EQUIPAJE BAJO SU ASIENTO\nPLACEZ VOS RAGAGES COLIS ES SIEGE\nOXYGEN - OXYGENO - OXYGENE\nBRACE POSITION\nPOSICION EN CASO DE EMERGENCIA\nPOSITION EN CAS D'URGENCE\nFLOTATION SEAT CUSHIONS\nCOJIN DE FLOTACION\nCOUSSIN FLOTTEUR",
      "LIFE VESTS\nCHALECOS SALVAVIDAS\nGILETS DE SAUVETAGE\nPULL TAB AND REMOVE\nVEST FROM PACKAGE\nTIRE DE LA CINTA Y\nREMUEVA EL CHALECO\nTIREZ LA PATTE ET\nRETIREZ LE GILET DE\nSAUVETAGE DU PAQUET\nAFTER LEAVING AIRCRAFT,\nPULL TABS TO INFLATE\nDESPUES DE SALIR DE EL\nAVION, TIRE DE LAS\n›CINTAS PARA INFLAR\nAPRES AVOIR QUITTE\nL'AVION TIREZ LES\nPATTES POUR GONFLER\nORAL INFLATION TUBES\nTUBOS PARA INFLAR CON LA BOCA\nTUBES ORAUX POUR GONFLER\nIF DARK PULL CENTER TAB TO ACTIVATE LIGHT\nSI ESTA OBSCURO TIRE DE LA CINTA DE EL\nCENTRO PARA ACTIVAR LA LINTERNA\nS'IL FAIT NOIR, TIREZ LA PATTE\nCENTRALE POUR ALLUMER LA LUMIERE\nPLEASE DO NOT REMOVE THIS CARD FROM AIRCRAFT\nPOR FAVOR NO LLEVARSE ESTA TARJETA DEL AVION\nVEUILLEZ LAISSER CETTE CARTE A BORD DE L'AVION\nForm 0412 - 80365 Card 6-79\nPrinted in U.S.A.\n2002.127.229"
    ],
    "millsfield:images_texts_ids": [
      1527849191,
      1527849193,
      1527849195
    ],
    "millsfield:similar": {
      "apple/mobileclip_s0": [
        {
          "distance": 0.15099579,
          "id": 1914489083
        },
        {
          "distance": 0.39883742,
          "id": 1914489101
        },
        {
          "distance": 0.47229546,
          "id": 1914489079
        },
        {
          "distance": 0.4935959,
          "id": 1930979183
        },
        {
          "distance": 0.49848264,
          "id": 1930979165
        },
        {
          "distance": 0.49876857,
          "id": 1762894649
        },
        {
          "distance": 0.5061188,
          "id": 1527850171
        },
        {
          "distance": 0.50807863,
          "id": 1813192739
        },
        {
          "distance": 0.50918746,
          "id": 1914489131
        },
        {
          "distance": 0.5103923,
          "id": 1527849191
        }
      ],
      "apple/mobileclip_s1": [
        {
          "distance": 0.08837868,
          "id": 1914489083
        },
        {
          "distance": 0.27936077,
          "id": 1762894069
        },
        {
          "distance": 0.2989575,
          "id": 1914489101
        },
        {
          "distance": 0.31011486,
          "id": 1914489093
        },
        {
          "distance": 0.31379873,
          "id": 1930979165
        },
        {
          "distance": 0.32522023,
          "id": 1914489203
        },
        {
          "distance": 0.3254303,
          "id": 1914489087
        },
        {
          "distance": 0.32546014,
          "id": 1931109855
        },
        {
          "distance": 0.3271065,
          "id": 1931096549
        },
        {
          "distance": 0.32713482,
          "id": 1914489167
        }
      ],
      "apple/mobileclip_s2": [
        {
          "distance": 0.12536864,
          "id": 1914489083
        },
        {
          "distance": 0.27903527,
          "id": 1914489101
        },
        {
          "distance": 0.44875658,
          "id": 1914489093
        },
        {
          "distance": 0.45837685,
          "id": 1914489087
        },
        {
          "distance": 0.46865404,
          "id": 1930979165
        },
        {
          "distance": 0.47040114,
          "id": 1914430867
        },
        {
          "distance": 0.474513,
          "id": 1762894069
        },
        {
          "distance": 0.47558224,
          "id": 1931122669
        },
        {
          "distance": 0.4791266,
          "id": 1914580093
        },
        {
          "distance": 0.48121595,
          "id": 1930979183
        }
      ]
    },
    "millsfield:subcategory_id": 1511213703,
    "mz:hierarchy_label": 1,
    "mz:is_current": -1,
    "sfomuseum:filename": "74838.tif",
    "sfomuseum:image_id": 74838,
    "sfomuseum:image_index": 5,
    "sfomuseum:image_type": "studio",
    "sfomuseum:object_id": 68799,
    "sfomuseum:placetype": "image",
    "sfomuseum:primary_image": 0,
    "src:geom": "sfomuseum",
    "wof:belongsto": [
      1511214243,
      1511924015,
      102527513,
      102191575,
      85633793,
      1511213703,
      85922583,
      102087579,
      1511214277,
      1511214203,
      85688637
    ],
    "wof:breaches": [],
    "wof:country": "XX",
    "wof:created": 1578953982,
    "wof:depicts": [
      1159284261,
      1511924015,
      1159289789,
      1159287931,
      1159293593,
      1159289759
    ],
    "wof:geomhash": "bd906905ce4be6c0651c90b0fc24804c",
    "wof:hierarchy": [
      {
        "arcade_id": 1511213703,
        "building_id": 1511214277,
        "campus_id": 102527513,
        "concourse_id": 1511214243,
        "continent_id": 102191575,
        "country_id": 85633793,
        "county_id": 102087579,
        "custom_id": 1527849193,
        "image_id": 1527849193,
        "locality_id": 85922583,
        "media_id": 1527849193,
        "neighbourhood_id": -1,
        "region_id": 85688637,
        "venue_id": 1511924015,
        "wing_id": 1511214203
      }
    ],
    "wof:id": 1527849193,
    "wof:lastmodified": 1788214497,
    "wof:name": "safety information card: Delta Air Lines, Boeing 727-200",
    "wof:parent_id": 1511924015,
    "wof:placetype": "custom",
    "wof:placetype_alt": [
      "image"
    ],
    "wof:repo": "sfomuseum-data-media-collection",
    "wof:superseded_by": [],
    "wof:supersedes": [],
    "wof:tags": []
  },
  "bbox": [
    -122.386155,
    37.616358,
    -122.386155,
    37.616358
  ],
  "geometry": {"type":"Point","coordinates":[-122.386155,37.616358]}
}
