{
  "id": 1880713235,
  "type": "Feature",
  "properties": {
    "date:cessation_lower": "1980-01-01",
    "date:cessation_upper": "1989-12-31",
    "date:inception_lower": "1980-01-01",
    "date:inception_upper": "1989-12-31",
    "edtf:cessation": "198X",
    "edtf:inception": "198X",
    "geom:area": 2.477324999997507e-7,
    "geom:bbox": "-122.386472,37.616105,-122.385834,37.616611",
    "geom:latitude": 37.61635756125121,
    "geom:longitude": -122.38615532866096,
    "media:fingerprint": "431d0df16482cb84b09ed488c65da3b5eec64ede",
    "media:imagehash_avg": "a:ffff7e3c18180000",
    "media:imagehash_diff": "d:f4d4d4f0f0f0e8f0",
    "media:imagetext": "",
    "media:mimetype": "image/tiff",
    "media:properties": {
      "sizes": {
        "b": {
          "extension": "jpg",
          "height": 768,
          "mimetype": "image/jpeg",
          "secret": "iNqn5DfmBlSQdR7azodEgudLNJc9Jg7t",
          "width": 960
        },
        "c": {
          "extension": "jpg",
          "height": 600,
          "mimetype": "image/jpeg",
          "secret": "iNqn5DfmBlSQdR7azodEgudLNJc9Jg7t",
          "width": 750
        },
        "dc": {
          "extension": "jpg",
          "height": 600,
          "mimetype": "image/jpeg",
          "secret": "iNqn5DfmBlSQdR7azodEgudLNJc9Jg7t",
          "width": 750
        },
        "ds": {
          "extension": "jpg",
          "height": 320,
          "mimetype": "image/jpeg",
          "secret": "iNqn5DfmBlSQdR7azodEgudLNJc9Jg7t",
          "width": 320
        },
        "k": {
          "extension": "jpg",
          "height": 1536,
          "mimetype": "image/jpeg",
          "secret": "iNqn5DfmBlSQdR7azodEgudLNJc9Jg7t",
          "width": 1920
        },
        "n": {
          "extension": "jpg",
          "height": 240,
          "mimetype": "image/jpeg",
          "secret": "iNqn5DfmBlSQdR7azodEgudLNJc9Jg7t",
          "width": 300
        },
        "o": {
          "extension": "jpg",
          "height": 1600,
          "mimetype": "image/jpeg",
          "secret": "07yH9NaweiFs5P3Fc9lG91gAM37y7oGj",
          "width": 2000
        },
        "s": {
          "extension": "jpg",
          "height": 320,
          "mimetype": "image/jpeg",
          "secret": "iNqn5DfmBlSQdR7azodEgudLNJc9Jg7t",
          "width": 320
        },
        "z": {
          "extension": "jpg",
          "height": 480,
          "mimetype": "image/jpeg",
          "secret": "iNqn5DfmBlSQdR7azodEgudLNJc9Jg7t",
          "width": 600
        }
      }
    },
    "media:source": "sfomuseum",
    "media:status_id": 1,
    "media:uri_template": "https://static.sfomuseum.org/media/188/071/323/5/1880713235_{secret}_{label}.{extension}",
    "millsfield:airline_id": [
      1159284309
    ],
    "millsfield:category_id": 1763416381,
    "millsfield:collection_id": 1511214203,
    "millsfield:company_id": [
      1159287349
    ],
    "millsfield:images_colors": [
      {
        "hex": "#9f9f9b",
        "name": "#9f9f9b",
        "reference": "marekm4"
      },
      {
        "hex": "#a9a9a9",
        "name": "darkgrey",
        "reference": "css4"
      },
      {
        "hex": "#979aaa",
        "name": "Manatee",
        "reference": "crayola"
      }
    ],
    "millsfield:similar": {
      "apple/mobileclip_s0": [
        {
          "distance": 0.40053424,
          "id": 1746679141
        },
        {
          "distance": 0.43386012,
          "id": 1880508021
        },
        {
          "distance": 0.4472859,
          "id": 1880645137
        },
        {
          "distance": 0.4522669,
          "id": 1880332267
        },
        {
          "distance": 0.47560582,
          "id": 1880713237
        },
        {
          "distance": 0.4826433,
          "id": 1880508019
        },
        {
          "distance": 0.50712717,
          "id": 1746777201
        },
        {
          "distance": 0.5206306,
          "id": 2048163725
        },
        {
          "distance": 0.52274644,
          "id": 1880138517
        },
        {
          "distance": 0.5272422,
          "id": 1880369913
        }
      ],
      "apple/mobileclip_s1": [
        {
          "distance": 0.314164,
          "id": 1880332267
        },
        {
          "distance": 0.3175468,
          "id": 1746679141
        },
        {
          "distance": 0.33338287,
          "id": 1880645137
        },
        {
          "distance": 0.337202,
          "id": 1762896619
        },
        {
          "distance": 0.3400024,
          "id": 1880369913
        },
        {
          "distance": 0.34764454,
          "id": 1746679379
        },
        {
          "distance": 0.3587022,
          "id": 1762896621
        },
        {
          "distance": 0.3705641,
          "id": 1880713237
        },
        {
          "distance": 0.3752779,
          "id": 1880138517
        },
        {
          "distance": 0.37750039,
          "id": 1746679381
        }
      ],
      "apple/mobileclip_s2": [
        {
          "distance": 0.38555494,
          "id": 1746679141
        },
        {
          "distance": 0.42781293,
          "id": 1880645137
        },
        {
          "distance": 0.50412077,
          "id": 1762896619
        },
        {
          "distance": 0.5094178,
          "id": 1880369913
        },
        {
          "distance": 0.51850635,
          "id": 1880332267
        },
        {
          "distance": 0.5215634,
          "id": 1779453227
        },
        {
          "distance": 0.5222997,
          "id": 1880138517
        },
        {
          "distance": 0.52886623,
          "id": 1763447333
        },
        {
          "distance": 0.5319425,
          "id": 1746679379
        },
        {
          "distance": 0.5426371,
          "id": 2015344303
        }
      ]
    },
    "millsfield:subcategory_id": 1511213465,
    "mz:is_current": 1,
    "sfomuseum:filename": "2016.141.019_f.tif",
    "sfomuseum:image_id": 245618,
    "sfomuseum:image_index": 5,
    "sfomuseum:image_type": "studio",
    "sfomuseum:object_id": 185007,
    "sfomuseum:placetype": "image",
    "sfomuseum:primary_image": 1,
    "src:geom": "sfomuseum",
    "wof:belongsto": [
      102527513,
      1159162825,
      102191575,
      85633793,
      102087579,
      85922583,
      1880712703,
      85688637,
      1159160869
    ],
    "wof:country": "XY",
    "wof:created": 1697787846,
    "wof:depicts": [
      1880712703,
      1159284309,
      1159287349
    ],
    "wof:geomhash": "ed7c2ab3547fc3916b5edc33488deaa7",
    "wof:hierarchy": [
      {
        "building_id": -1,
        "campus_id": 102527513,
        "collection_id": 1159162825,
        "concourse_id": 1159162825,
        "continent_id": 102191575,
        "country_id": 85633793,
        "county_id": 102087579,
        "custom_id": 1880713235,
        "image_id": 1880713235,
        "locality_id": 85922583,
        "neighbourhood_id": -1,
        "object_id": 1880712703,
        "region_id": 85688637,
        "wing_id": 1159160869
      }
    ],
    "wof:id": 1880713235,
    "wof:lastmodified": 1788451939,
    "wof:name": "flight attendant neck piece: Eastern Air Lines",
    "wof:parent_id": 1880712703,
    "wof:placetype": "custom",
    "wof:placetype_alt": [
      "image"
    ],
    "wof:repo": "sfomuseum-data-media-collection",
    "wof:superseded_by": [],
    "wof:supersedes": []
  },
  "bbox": [
    -122.386472,
    37.616105,
    -122.385834,
    37.616611
  ],
  "geometry": {"type":"Polygon","coordinates":[[[-122.386472,37.616318],[-122.386435,37.616233],[-122.386376,37.616178],[-122.386301,37.616131],[-122.386161,37.616105],[-122.386022,37.616131],[-122.385914,37.616186],[-122.385855,37.616267],[-122.385834,37.616369],[-122.385871,37.616467],[-122.385941,37.616543],[-122.386054,37.616603],[-122.386183,37.616611],[-122.386306,37.616573],[-122.386419,37.616509],[-122.386467,37.616411],[-122.386472,37.616318]]]}
}
