{
  "id": 1746681187,
  "type": "Feature",
  "properties": {
    "date:cessation_lower": "1964-01-01",
    "date:cessation_upper": "1964-12-31",
    "date:inception_lower": "1962-01-01",
    "date:inception_upper": "1962-12-31",
    "edtf:cessation": "1964",
    "edtf:date": "1962",
    "edtf:inception": "1962",
    "geom:area": 0,
    "geom:bbox": "-122.386155,37.616357,-122.386155,37.616357",
    "geom:latitude": 37.616357,
    "geom:longitude": -122.386155,
    "iso:country": "US",
    "media:fingerprint": "156669e52ea8262ed8ae7032aa040b1f55d15afc",
    "media:imagehash_avg": "a:f9fbc1c1c1c1ffff",
    "media:imagehash_diff": "d:0303031b131b0381",
    "media:imagetext": "1995.7101 0\nmanual\nPan Averican\nArways\nWIMT. OSBORNE\nPFA FEO SPO\n707 WARK MAAKL\nLISBOU NET\nN-AMERICAN WORLD AWAYS",
    "media:imagetext_created": 1787955030,
    "media:imagetext_source": "com.apple.visionkit.VNImageRequestHandler#Version 26.6.2 (Build 25G83)",
    "media:mimetype": "image/jpeg",
    "media:properties": {
      "sizes": {
        "b": {
          "extension": "jpg",
          "height": 768,
          "mimetype": "image/jpeg",
          "secret": "Yy18Wnlyh5j42FUgktabUTAhmPJEN04j",
          "width": 576
        },
        "c": {
          "extension": "jpg",
          "height": 600,
          "mimetype": "image/jpeg",
          "secret": "Yy18Wnlyh5j42FUgktabUTAhmPJEN04j",
          "width": 449
        },
        "dc": {
          "extension": "jpg",
          "height": 600,
          "mimetype": "image/jpeg",
          "secret": "Yy18Wnlyh5j42FUgktabUTAhmPJEN04j",
          "width": 449
        },
        "ds": {
          "extension": "jpg",
          "height": 320,
          "mimetype": "image/jpeg",
          "secret": "Yy18Wnlyh5j42FUgktabUTAhmPJEN04j",
          "width": 320
        },
        "k": {
          "extension": "jpg",
          "height": 1536,
          "mimetype": "image/jpeg",
          "secret": "Yy18Wnlyh5j42FUgktabUTAhmPJEN04j",
          "width": 1152
        },
        "n": {
          "extension": "jpg",
          "height": 240,
          "mimetype": "image/jpeg",
          "secret": "Yy18Wnlyh5j42FUgktabUTAhmPJEN04j",
          "width": 180
        },
        "o": {
          "extension": "jpg",
          "height": 2272,
          "mimetype": "image/jpeg",
          "secret": "R7dp64qBlbHvU6yuYrDewk47eFfjofYg",
          "width": 1704
        },
        "s": {
          "extension": "jpg",
          "height": 320,
          "mimetype": "image/jpeg",
          "secret": "Yy18Wnlyh5j42FUgktabUTAhmPJEN04j",
          "width": 320
        },
        "z": {
          "extension": "jpg",
          "height": 480,
          "mimetype": "image/jpeg",
          "secret": "Yy18Wnlyh5j42FUgktabUTAhmPJEN04j",
          "width": 360
        }
      }
    },
    "media:source": "sfomuseum",
    "media:status_id": 1,
    "media:uri_template": "https://static.sfomuseum.org/media/174/668/118/7/1746681187_{secret}_{label}.{extension}",
    "millsfield:aircraft_id": [
      1159289653
    ],
    "millsfield:airline_id": [
      1159284989
    ],
    "millsfield:category_id": 1511214239,
    "millsfield:collection_id": 1511214207,
    "millsfield:company_id": [
      1159293593
    ],
    "millsfield:images_colors": [
      {
        "hex": "#d9dbe0",
        "name": "#d9dbe0",
        "reference": "marekm4"
      },
      {
        "hex": "#dcdcdc",
        "name": "gainsboro",
        "reference": "css4"
      },
      {
        "hex": "#dbd7d2",
        "name": "Timberwolf",
        "reference": "crayola"
      },
      {
        "hex": "#3c4046",
        "name": "#3c4046",
        "reference": "marekm4"
      },
      {
        "hex": "#2f4f4f",
        "name": "darkslategrey",
        "reference": "css4"
      },
      {
        "hex": "#414a4c",
        "name": "Outer Space",
        "reference": "crayola"
      }
    ],
    "millsfield:images_texts": [
      "1995.7101 0\nmanual\nPan Averican\nArways\nWIMT. OSBORNE\nPFA FEO SPO\n707 WARK MAAKL\nLISBOU NET\nN-AMERICAN WORLD AWAYS",
      "B707/B720\nDC-8\nAIRCRAFT RADIO\nMANUAL\nRADIO SYSTENS INSPROTION FOLLOWING LIGHTNING STRIKES\nGENBRAL\nOPERATIONAL CHECK OF RADIO SYSTEMS FOLLOWING A\nDICHINING STRIKE\nLISPBCTION OF SYSTEM AFFECTED BY LIGHINING STRIKE\nThe faito installations must be thoroughly checked whenever an aireraft\nhad had a lightning strike or severe static discharge.\nThe extent of\nthe tespection will depend upon the cireumstances surrounding the\nIne ideat.\nThe rightierew should be de-briefed with regard to the conditions\nxiating during and after the strike. Ref. OD Manual publ. 45.21.10\n* the light crew 1a unevelable, the aircraft log should be read care\nBully to extrect whatever information is aveilable.\nA visual eberk fron the ground of all antennas, radome, static\ndischargers, etc.,\nhas cocured.\nFust be made to determine 1f any physical damage\nmast be made ly a quittled\nnechanic or flight crew member, per\nPart 2 or this publication.\nIt ell redio systems operate normally and\nIt • radio alden ual-function vas reported by the flight crew or\ndetected durlog the operstional check, a detalled inspection of the\naffected oyster or systems must be rade per Fart 3 of this publication.\nAfter completion of the required checks an entry must be made in the\nves nade, noting any corrective\nelseratt Log siting that an \"keter Lightning Strike\" Operational Check\nAny component. viten has been ret ed from an airereft as \u0026 result of a\nHightning atolke or statle discharge must have \u0026 Blue Engineering\nEvel untion, Dags on 942-3161 elled out and attached.\nIs a malfunetion exate in a dystem which 1e not required for dispatch\nof the alreraft toon \u0026 partleular atation per Meintenence Manual\npublIcation 1-5-0, repairs may be contInued to enother station provided\nall safety degutrents are ustlafted\n3-26-0\nLANDING GEAR"
    ],
    "millsfield:images_texts_ids": [
      1746681187,
      1897762255
    ],
    "millsfield:similar": {
      "apple/mobileclip_s0": [
        {
          "distance": 0.5670545,
          "id": 1897762255
        },
        {
          "distance": 0.5837315,
          "id": 1881085867
        },
        {
          "distance": 0.5859642,
          "id": 1763456071
        },
        {
          "distance": 0.58680755,
          "id": 1763588821
        },
        {
          "distance": 0.60080546,
          "id": 1880113579
        },
        {
          "distance": 0.6155911,
          "id": 2014778815
        },
        {
          "distance": 0.6271817,
          "id": 1763567011
        },
        {
          "distance": 0.62736034,
          "id": 1913872135
        },
        {
          "distance": 0.63251543,
          "id": 1897762105
        },
        {
          "distance": 0.63636535,
          "id": 1763567057
        }
      ],
      "apple/mobileclip_s1": [
        {
          "distance": 0.469597,
          "id": 1897762255
        },
        {
          "distance": 0.49084303,
          "id": 1763567057
        },
        {
          "distance": 0.49423012,
          "id": 1881085867
        },
        {
          "distance": 0.520002,
          "id": 1746680845
        },
        {
          "distance": 0.52394956,
          "id": 1763588821
        },
        {
          "distance": 0.52582437,
          "id": 1762890733
        },
        {
          "distance": 0.53047603,
          "id": 2014778815
        },
        {
          "distance": 0.5332324,
          "id": 1964106913
        },
        {
          "distance": 0.53394073,
          "id": 1913842289
        },
        {
          "distance": 0.5350872,
          "id": 1881093437
        }
      ],
      "apple/mobileclip_s2": [
        {
          "distance": 0.6182968,
          "id": 1897762255
        },
        {
          "distance": 0.67291975,
          "id": 1763588821
        },
        {
          "distance": 0.687567,
          "id": 1746680845
        },
        {
          "distance": 0.68955284,
          "id": 2014778815
        },
        {
          "distance": 0.690683,
          "id": 1881085867
        },
        {
          "distance": 0.7014015,
          "id": 1763567057
        },
        {
          "distance": 0.71066606,
          "id": 1762896199
        },
        {
          "distance": 0.7158872,
          "id": 1762894047
        },
        {
          "distance": 0.7197774,
          "id": 1897762261
        },
        {
          "distance": 0.73103225,
          "id": 1527850445
        }
      ]
    },
    "millsfield:subcategory_id": 1511213689,
    "mz:is_current": 1,
    "sfomuseum:filename": "1995.71.01o.jpg",
    "sfomuseum:image_id": 172462,
    "sfomuseum:image_index": 0,
    "sfomuseum:image_type": "studio",
    "sfomuseum:object_id": 43447,
    "sfomuseum:placetype": "image",
    "sfomuseum:primary_image": 1,
    "src:geom": "sfomuseum",
    "wof:belongsto": [
      102191575,
      85633793,
      136253057,
      1511907173,
      1511213689,
      1511214277,
      102527513,
      1511214239,
      102087579,
      85922583,
      85688637,
      1511214207
    ],
    "wof:country": "US",
    "wof:created": 1637706471,
    "wof:depicts": [
      1159286839,
      1511907173,
      1159284989,
      1159293593,
      1159289653
    ],
    "wof:geomhash": "30c8a918561c84bb2daa2b97fc7c5353",
    "wof:hierarchy": [
      {
        "continent_id": 102191575,
        "country_id": 85633793,
        "custom_id": 1746681187,
        "empire_id": 136253057,
        "image_id": 1746681187,
        "venue_id": 1511907173
      },
      {
        "arcade_id": 1511213689,
        "building_id": 1511214277,
        "campus_id": 102527513,
        "concourse_id": 1511214239,
        "continent_id": 102191575,
        "country_id": 85633793,
        "county_id": 102087579,
        "custom_id": 1746681187,
        "image_id": 1746681187,
        "locality_id": 85922583,
        "neighbourhood_id": -1,
        "region_id": 85688637,
        "venue_id": 1511907173,
        "wing_id": 1511214207
      }
    ],
    "wof:id": 1746681187,
    "wof:lastmodified": 1788450350,
    "wof:name": "maintenance manual: Pan American World Airways, Boeing 707-300",
    "wof:parent_id": 1511907173,
    "wof:placetype": "custom",
    "wof:placetype_alt": [
      "image"
    ],
    "wof:repo": "sfomuseum-data-media-collection",
    "wof:superseded_by": [],
    "wof:supersedes": []
  },
  "bbox": [
    -122.386155,
    37.616357,
    -122.386155,
    37.616357
  ],
  "geometry": {"type":"Point","coordinates":[-122.386155,37.616357]}
}
