{
  "id": 1527833409,
  "type": "Feature",
  "properties": {
    "date:cessation_lower": "1964-04-26",
    "date:cessation_upper": "1964-04-26",
    "date:inception_lower": "1964-04-26",
    "date:inception_upper": "1964-04-26",
    "edtf:cessation": "1964-04-26",
    "edtf:date": "1964-04-26",
    "edtf:inception": "1964-04-26",
    "geom:area": 0,
    "geom:bbox": "-122.386155,37.616358,-122.386155,37.616358",
    "geom:latitude": 37.616358,
    "geom:longitude": -122.386155,
    "iso:country": "XX",
    "media:fingerprint": "5f22db615f04b6a0522f1f0525a8aec4b94ceaf7",
    "media:imagehash_avg": "a:00fa78f8fefeff00",
    "media:imagehash_diff": "d:06c6e2f2d4862679",
    "media:imagetext": "ARUBA.\n27. IV.64\nAAJESTAD\n*\n2012.149.1286",
    "media:imagetext_created": 1787949592,
    "media:imagetext_source": "com.apple.visionkit.VNImageRequestHandler#Version 26.6.2 (Build 25G83)",
    "media:medium": "image",
    "media:mimetype": "image/tiff",
    "media:properties": {
      "sizes": {
        "b": {
          "extension": "jpg",
          "height": 558,
          "mimetype": "image/jpeg",
          "secret": "3s3oNjZhMJnTE2cYmkm0JKStezs1MKMH",
          "width": 1024
        },
        "c": {
          "extension": "jpg",
          "height": 436,
          "mimetype": "image/jpeg",
          "secret": "3s3oNjZhMJnTE2cYmkm0JKStezs1MKMH",
          "width": 800
        },
        "dc": {
          "extension": "jpg",
          "height": 436,
          "mimetype": "image/jpeg",
          "secret": "3s3oNjZhMJnTE2cYmkm0JKStezs1MKMH",
          "width": 800
        },
        "ds": {
          "extension": "jpg",
          "height": 320,
          "mimetype": "image/jpeg",
          "secret": "3s3oNjZhMJnTE2cYmkm0JKStezs1MKMH",
          "width": 320
        },
        "k": {
          "extension": "jpg",
          "height": 1116,
          "mimetype": "image/jpeg",
          "secret": "3s3oNjZhMJnTE2cYmkm0JKStezs1MKMH",
          "width": 2048
        },
        "n": {
          "extension": "jpg",
          "height": 174,
          "mimetype": "image/jpeg",
          "secret": "3s3oNjZhMJnTE2cYmkm0JKStezs1MKMH",
          "width": 320
        },
        "o": {
          "extension": "jpg",
          "height": 1068,
          "mimetype": "image/jpeg",
          "secret": "0M4bf1ILlZhp0Kc2KgINpUd7sqAO0Zns",
          "width": 1959
        },
        "s": {
          "extension": "jpg",
          "height": 320,
          "mimetype": "image/jpeg",
          "secret": "3s3oNjZhMJnTE2cYmkm0JKStezs1MKMH",
          "width": 320
        },
        "z": {
          "extension": "jpg",
          "height": 348,
          "mimetype": "image/jpeg",
          "secret": "3s3oNjZhMJnTE2cYmkm0JKStezs1MKMH",
          "width": 640
        }
      }
    },
    "media:source": "sfomuseum",
    "media:status_id": 1,
    "media:uri_template": "https://static.sfomuseum.org/media/152/783/340/9/1527833409_{secret}_{label}.{extension}",
    "millsfield:airline_id": [
      1159284989
    ],
    "millsfield:category_id": 1511214215,
    "millsfield:collection_id": 1511214207,
    "millsfield:company_id": [
      1159286839
    ],
    "millsfield:images_colors": [
      {
        "hex": "#d8d1c2",
        "name": "#d8d1c2",
        "reference": "marekm4"
      },
      {
        "hex": "#d3d3d3",
        "name": "lightgrey",
        "reference": "css4"
      },
      {
        "hex": "#cdc5c2",
        "name": "Silver",
        "reference": "crayola"
      },
      {
        "hex": "#21285a",
        "name": "#21285a",
        "reference": "marekm4"
      },
      {
        "hex": "#191970",
        "name": "midnightblue",
        "reference": "css4"
      },
      {
        "hex": "#1a4876",
        "name": "Midnight Blue",
        "reference": "crayola"
      },
      {
        "hex": "#b21b0e",
        "name": "#b21b0e",
        "reference": "marekm4"
      },
      {
        "hex": "#b22222",
        "name": "firebrick",
        "reference": "css4"
      },
      {
        "hex": "#9c2542",
        "name": "Big Dip O' Ruby",
        "reference": "crayola"
      }
    ],
    "millsfield:images_texts": [
      "NEW YORK\nPAN AM\nFIRST\nAIRMAIL\nFLIGHT\nNEW YORK-ARUBA\nARUBA ~ CURAÇAO\nMYORA,\nNE\n(APR 26\n10 GA\nU.S. AIR MAIL\nVIA AIR MAIL\nOSCAR H. FATOUT\n4000 ₴\n5TH ST\nLONG BEACH\nCALIF\n90814",
      "ARUBA.\n27. IV.64\nAAJESTAD\n*\n2012.149.1286"
    ],
    "millsfield:images_texts_ids": [
      1527833407,
      1527833409
    ],
    "millsfield:similar": {
      "apple/mobileclip_s0": [
        {
          "distance": 0.35778037,
          "id": 1527833305
        },
        {
          "distance": 0.41152653,
          "id": 1527833405
        },
        {
          "distance": 0.424915,
          "id": 1527828985
        },
        {
          "distance": 0.43127885,
          "id": 1527830147
        },
        {
          "distance": 0.433759,
          "id": 1527832765
        },
        {
          "distance": 0.4402524,
          "id": 1527829909
        },
        {
          "distance": 0.44995987,
          "id": 1527829799
        },
        {
          "distance": 0.45124504,
          "id": 1527833573
        },
        {
          "distance": 0.45393687,
          "id": 1527829905
        },
        {
          "distance": 0.45396948,
          "id": 1527829853
        }
      ],
      "apple/mobileclip_s1": [
        {
          "distance": 0.34295863,
          "id": 1527833153
        },
        {
          "distance": 0.3488076,
          "id": 1527833197
        },
        {
          "distance": 0.35195595,
          "id": 1527833145
        },
        {
          "distance": 0.35240373,
          "id": 1527833237
        },
        {
          "distance": 0.35334796,
          "id": 1527834055
        },
        {
          "distance": 0.35381237,
          "id": 1527833139
        },
        {
          "distance": 0.35452124,
          "id": 1527833037
        },
        {
          "distance": 0.3572241,
          "id": 1527833573
        },
        {
          "distance": 0.35849842,
          "id": 1527829969
        },
        {
          "distance": 0.3600741,
          "id": 1527830169
        }
      ],
      "apple/mobileclip_s2": [
        {
          "distance": 0.49307293,
          "id": 1527829813
        },
        {
          "distance": 0.49886358,
          "id": 1527833579
        },
        {
          "distance": 0.50771755,
          "id": 1527833573
        },
        {
          "distance": 0.51102775,
          "id": 1527834347
        },
        {
          "distance": 0.51445836,
          "id": 1527833509
        },
        {
          "distance": 0.5179298,
          "id": 1527833305
        },
        {
          "distance": 0.52006996,
          "id": 1527833037
        },
        {
          "distance": 0.52236956,
          "id": 1527834381
        },
        {
          "distance": 0.5231727,
          "id": 1527833015
        },
        {
          "distance": 0.52557,
          "id": 1527820243
        }
      ]
    },
    "millsfield:subcategory_id": 1511213159,
    "mz:hierarchy_label": 1,
    "mz:is_current": -1,
    "sfomuseum:filename": "62479.tif",
    "sfomuseum:image_id": 62479,
    "sfomuseum:image_index": 5,
    "sfomuseum:image_type": "studio",
    "sfomuseum:object_id": 139250,
    "sfomuseum:placetype": "image",
    "sfomuseum:primary_image": 0,
    "src:geom": "sfomuseum",
    "wof:belongsto": [
      1511214215,
      1511953797,
      102527513,
      102191575,
      85633793,
      1511213159,
      85922583,
      102087579,
      1511214277,
      1511214203,
      85688637
    ],
    "wof:breaches": [],
    "wof:country": "XX",
    "wof:created": 1578951457,
    "wof:depicts": [
      1159284989,
      1511953797,
      1159286839
    ],
    "wof:geomhash": "bd906905ce4be6c0651c90b0fc24804c",
    "wof:hierarchy": [
      {
        "arcade_id": 1511213159,
        "building_id": 1511214277,
        "campus_id": 102527513,
        "concourse_id": 1511214215,
        "continent_id": 102191575,
        "country_id": 85633793,
        "county_id": 102087579,
        "custom_id": 1527833409,
        "image_id": 1527833409,
        "locality_id": 85922583,
        "media_id": 1527833409,
        "neighbourhood_id": -1,
        "region_id": 85688637,
        "venue_id": 1511953797,
        "wing_id": 1511214203
      }
    ],
    "wof:id": 1527833409,
    "wof:lastmodified": 1788449907,
    "wof:name": "airmail flight cover: Pan American World Airways, New York - Aruba route",
    "wof:parent_id": 1511953797,
    "wof:placetype": "custom",
    "wof:placetype_alt": [
      "image"
    ],
    "wof:repo": "sfomuseum-data-media-collection",
    "wof:superseded_by": [],
    "wof:supersedes": [],
    "wof:tags": []
  },
  "bbox": [
    -122.386155,
    37.616358,
    -122.386155,
    37.616358
  ],
  "geometry": {"type":"Point","coordinates":[-122.386155,37.616358]}
}
