{
  "id": 1527848385,
  "type": "Feature",
  "properties": {
    "date:cessation_lower": "1950-01-01",
    "date:cessation_upper": "1950-12-31",
    "date:inception_lower": "1950-01-01",
    "date:inception_upper": "1950-12-31",
    "edtf:cessation": "1950~",
    "edtf:date": "1950~",
    "edtf:inception": "1950~",
    "geom:area": 0,
    "geom:bbox": "-122.386155,37.616358,-122.386155,37.616358",
    "geom:latitude": 37.616358,
    "geom:longitude": -122.386155,
    "iso:country": "XX",
    "media:fingerprint": "c877ce27e4f6a0a64880bfa8b1620e0ff07f4daa",
    "media:imagehash_avg": "a:f8f8f8f8f8f8ffff",
    "media:imagehash_diff": "d:5155517173011155",
    "media:imagetext": "Regular Services between Canada, United States, Hawaii, Fiji, New Zealand, Australia\nSCHEDULE-SOUTHBOUND\nAirport\nLocal\nStandard\nime\nEvery\nSun.\nAustralian\nAlter-\nnate\nThurs.\nVANCOUVER\nSAN FRANCISCO\nHONOLULU\nCANTON IS.\nVancouver\nOakland\nLv. 12.30 p.m.\nAr.\n4.30 p.m.\n8.00 p.m.\nJohn Rodgers\nAr.\n6.00 a.m.\nLv.\n9.00 p.m.\nTopham\nAr.\n5.30 a.m.\nLv.\n6.30 a.m.\nINTERNATIONAL DATE LINE\nNandi*\nMon.\nFri.\nTues.\nSat.\nWed\nSun.\nAUCKLAND, N.Z.\nWhenuapai!\nSYDNEY, Australia... Mascot\nLv. 12.00 m'dn.\nAr.\n6.30 a.m.\nAr.\n8.30 a.m.\nThurs.\nMon.\n*Nandi Airport is 17 miles from Lautoka and 130 miles from\nSuva (the capital of Fiji).\nOne day is lost crossing the international Date Line Southbound.\nSCHEDULE-NORTHBOUND\nAirport\nLocal\nSYDNEY, Australia.\nAmate Rar\nService\nAlter-\nnate\nWed\nAUCKLAND, N.Z.\nFIJI\nCANTON IS.\nHONOLULU\nSAN FRANCISCO.\nVANCOUVER\nMascot\nLv. 8.00 p.m.\nEvery\nSun.\nWhenuapai\nLv. 11.45 p.m.\nNandi*\nAr. 8.00 a.m.*\nMon.\nLy.\n9.00 p.m.\nINTERNATIONAL DATE LINE\n| Topham\nMon.\nLv.\nJohn Roders\nAr.\nLv.\nOakland\nAr.\n5.30 a.m.\n4.30 p.m.\n7.30 p.m.\n9.30 a.m.\nTues.\nWed.\nLy.\nVancouver\nAr.\n3.00 p.m.\n*N.Z. flights arrive Fili, 6.15 a.m.\nOne day is gained crossing the International Date Line\nThurs.\nThurs.\nFri.\nSat.\nN.Z.\nSero.\nAlter-\nпотЕ\nFri.\nSat.\nSun.\nMon.\nTues.\nSerr\nAlter.\nWad.\nThurs.\nThurs.\nFri.\nSat.\nPASSENGER FARES-Subject to change without notice\nTO\nSydney\nAuckland\nNandi, Fiji\nCanton Island\nHonolulu\nSan Francisco\nVancouver\nVANCOUVER\nSingle\nReturn\n685.00\n634.00\n509.00\n397.00\n170.00\n1,139.00\n915.00\n714.00\n306.00\n45.00\nSAN FRANCISCO\nSingle\nReturn\n640.00\n1,152.00\n589.00\n1,059.00\n464.00\n835.00\n352.00\n634.00\n125.00\n224.00\nFrom\nHONOLULU\nSingle\nReturn\n534.00\n962.00\n483.00\n870.00\n358.00\n646.00\n246.00\n445.00\n125.00\n224.00\n45.00\n80.00\nNOTE\n(a) Transportation and Head Tax to be added where applicable.\n(b) Fares quoted in U.S. and/or Canadian currency.\nAIR CARGO AND EXCESS BAGGAGE RATES\n(SUBTECT TO CHANGE WITHOUT NOTICE)\nTO\nPeon\nVANCOUVER\nSydney\nAuckland\nNandi, Fili\nCanton Island\nHonolulu\nSan Francisco\nVancouver\n00 cu. in\n2.80\n2.80\n2.16\n1.72\n1.04\n0.24\nCharre\n5.60\n5.60\n432\n3.44\n2.08\n0.48\nProm\nSAN FRANCISCO\nMin.\nharas\n2.52\n2.52\n1.88\n1.44\n0,89\n5.04\n5.04\n3.76\n2.88\n1.60\n0.24\n0.48\nProm\nHONOLULU\nPer Ib. or\nMin.\nCharge\n1.72\n1.72\n3 44\n3.44\n2.08\n0.64\n-\n0.80\n1.04\n1.28\n-\n1.60\n2.08\nNOTE: 50 Cents valuation charge is applied to all consignment of cargo\nor luggage for each $200 value.\nAir Cargo charges based on weight or measurement-whichever\nis the greater.\nU.S.S.R.\nTRANS-PACIFIC\nAIR ROUTE\nCANADA\nVANCOUVER\nSAN FRANCISCO\nCHINA\nPa oi fio\n- NEW GUINEA\nAUSTRALIA\nSYDNEY\nFLI\nAUCKLAND\nNEW\nZEALAND\nHONOLULU\nCANTON ISLAND\nOcean\nAIR MAIL-Mail carried in accordance\nwith Post Office regulations.\nFLYING TIMES\nSudner-Nandi\nAuckland-Nandi\nNandi-Canton Island\nAnton Toland Tilla\nHonolulu-San Francisco\nSan Francisco-Vancouver\nDISTANCES\nAuckland-Nandi\nNandi-Canton Island\nHonolulu-San Francisco ..\nCon Pronmero Voncouver\nSydney-Vancouver\nhour\n6½\n6½\n1980 miles\n1272\n1011\n2428\n792\n0201\nBritish Commonwealth\nPacific Airlines\nHead Office: A.P.A. Building, 53 Martin Place\nSYDNEY, AUSTRALIA\nTelephone BW 2741",
    "media:imagetext_created": 1787952577,
    "media:imagetext_source": "com.apple.visionkit.VNImageRequestHandler#Version 26.6.2 (Build 25G83)",
    "media:medium": "image",
    "media:mimetype": "image/tiff",
    "media:properties": {
      "sizes": {
        "b": {
          "extension": "jpg",
          "height": 579,
          "mimetype": "image/jpeg",
          "secret": "pywULTYbyngWNMB6r2CP9yX9aLRAvs6l",
          "width": 1024
        },
        "c": {
          "extension": "jpg",
          "height": 452,
          "mimetype": "image/jpeg",
          "secret": "pywULTYbyngWNMB6r2CP9yX9aLRAvs6l",
          "width": 800
        },
        "dc": {
          "extension": "jpg",
          "height": 452,
          "mimetype": "image/jpeg",
          "secret": "pywULTYbyngWNMB6r2CP9yX9aLRAvs6l",
          "width": 800
        },
        "ds": {
          "extension": "jpg",
          "height": 320,
          "mimetype": "image/jpeg",
          "secret": "pywULTYbyngWNMB6r2CP9yX9aLRAvs6l",
          "width": 320
        },
        "k": {
          "extension": "jpg",
          "height": 1158,
          "mimetype": "image/jpeg",
          "secret": "pywULTYbyngWNMB6r2CP9yX9aLRAvs6l",
          "width": 2048
        },
        "n": {
          "extension": "jpg",
          "height": 181,
          "mimetype": "image/jpeg",
          "secret": "pywULTYbyngWNMB6r2CP9yX9aLRAvs6l",
          "width": 320
        },
        "o": {
          "extension": "jpg",
          "height": 1827,
          "mimetype": "image/jpeg",
          "secret": "6YeXUPWH130r5ASc5UveONb0sAY0vCkS",
          "width": 3229
        },
        "s": {
          "extension": "jpg",
          "height": 320,
          "mimetype": "image/jpeg",
          "secret": "pywULTYbyngWNMB6r2CP9yX9aLRAvs6l",
          "width": 320
        },
        "z": {
          "extension": "jpg",
          "height": 362,
          "mimetype": "image/jpeg",
          "secret": "pywULTYbyngWNMB6r2CP9yX9aLRAvs6l",
          "width": 640
        }
      }
    },
    "media:source": "sfomuseum",
    "media:status_id": 1,
    "media:uri_template": "https://static.sfomuseum.org/media/152/784/838/5/1527848385_{secret}_{label}.{extension}",
    "millsfield:airline_id": [
      1159284025
    ],
    "millsfield:category_id": 1511214223,
    "millsfield:collection_id": 1511214207,
    "millsfield:company_id": [
      1159286739
    ],
    "millsfield:images_colors": [
      {
        "hex": "#e5d7bc",
        "name": "#e5d7bc",
        "reference": "marekm4"
      },
      {
        "hex": "#f5deb3",
        "name": "wheat",
        "reference": "css4"
      },
      {
        "hex": "#efcdb8",
        "name": "Desert Sand",
        "reference": "crayola"
      },
      {
        "hex": "#103154",
        "name": "#103154",
        "reference": "marekm4"
      },
      {
        "hex": "#191970",
        "name": "midnightblue",
        "reference": "css4"
      },
      {
        "hex": "#1a4876",
        "name": "Midnight Blue",
        "reference": "crayola"
      },
      {
        "hex": "#0a4e85",
        "name": "#0a4e85",
        "reference": "marekm4"
      },
      {
        "hex": "#008080",
        "name": "teal",
        "reference": "css4"
      }
    ],
    "millsfield:images_texts": [
      "BCPA\nTrans-Pacific Time Table\nPASSENGER\nFARES AND\nAIR CARGO RATES\nAustralia will\nwelcome you••\nNew Zealand\nthrill you",
      "Regular Services between Canada, United States, Hawaii, Fiji, New Zealand, Australia\nSCHEDULE-SOUTHBOUND\nAirport\nLocal\nStandard\nime\nEvery\nSun.\nAustralian\nAlter-\nnate\nThurs.\nVANCOUVER\nSAN FRANCISCO\nHONOLULU\nCANTON IS.\nVancouver\nOakland\nLv. 12.30 p.m.\nAr.\n4.30 p.m.\n8.00 p.m.\nJohn Rodgers\nAr.\n6.00 a.m.\nLv.\n9.00 p.m.\nTopham\nAr.\n5.30 a.m.\nLv.\n6.30 a.m.\nINTERNATIONAL DATE LINE\nNandi*\nMon.\nFri.\nTues.\nSat.\nWed\nSun.\nAUCKLAND, N.Z.\nWhenuapai!\nSYDNEY, Australia... Mascot\nLv. 12.00 m'dn.\nAr.\n6.30 a.m.\nAr.\n8.30 a.m.\nThurs.\nMon.\n*Nandi Airport is 17 miles from Lautoka and 130 miles from\nSuva (the capital of Fiji).\nOne day is lost crossing the international Date Line Southbound.\nSCHEDULE-NORTHBOUND\nAirport\nLocal\nSYDNEY, Australia.\nAmate Rar\nService\nAlter-\nnate\nWed\nAUCKLAND, N.Z.\nFIJI\nCANTON IS.\nHONOLULU\nSAN FRANCISCO.\nVANCOUVER\nMascot\nLv. 8.00 p.m.\nEvery\nSun.\nWhenuapai\nLv. 11.45 p.m.\nNandi*\nAr. 8.00 a.m.*\nMon.\nLy.\n9.00 p.m.\nINTERNATIONAL DATE LINE\n| Topham\nMon.\nLv.\nJohn Roders\nAr.\nLv.\nOakland\nAr.\n5.30 a.m.\n4.30 p.m.\n7.30 p.m.\n9.30 a.m.\nTues.\nWed.\nLy.\nVancouver\nAr.\n3.00 p.m.\n*N.Z. flights arrive Fili, 6.15 a.m.\nOne day is gained crossing the International Date Line\nThurs.\nThurs.\nFri.\nSat.\nN.Z.\nSero.\nAlter-\nпотЕ\nFri.\nSat.\nSun.\nMon.\nTues.\nSerr\nAlter.\nWad.\nThurs.\nThurs.\nFri.\nSat.\nPASSENGER FARES-Subject to change without notice\nTO\nSydney\nAuckland\nNandi, Fiji\nCanton Island\nHonolulu\nSan Francisco\nVancouver\nVANCOUVER\nSingle\nReturn\n685.00\n634.00\n509.00\n397.00\n170.00\n1,139.00\n915.00\n714.00\n306.00\n45.00\nSAN FRANCISCO\nSingle\nReturn\n640.00\n1,152.00\n589.00\n1,059.00\n464.00\n835.00\n352.00\n634.00\n125.00\n224.00\nFrom\nHONOLULU\nSingle\nReturn\n534.00\n962.00\n483.00\n870.00\n358.00\n646.00\n246.00\n445.00\n125.00\n224.00\n45.00\n80.00\nNOTE\n(a) Transportation and Head Tax to be added where applicable.\n(b) Fares quoted in U.S. and/or Canadian currency.\nAIR CARGO AND EXCESS BAGGAGE RATES\n(SUBTECT TO CHANGE WITHOUT NOTICE)\nTO\nPeon\nVANCOUVER\nSydney\nAuckland\nNandi, Fili\nCanton Island\nHonolulu\nSan Francisco\nVancouver\n00 cu. in\n2.80\n2.80\n2.16\n1.72\n1.04\n0.24\nCharre\n5.60\n5.60\n432\n3.44\n2.08\n0.48\nProm\nSAN FRANCISCO\nMin.\nharas\n2.52\n2.52\n1.88\n1.44\n0,89\n5.04\n5.04\n3.76\n2.88\n1.60\n0.24\n0.48\nProm\nHONOLULU\nPer Ib. or\nMin.\nCharge\n1.72\n1.72\n3 44\n3.44\n2.08\n0.64\n-\n0.80\n1.04\n1.28\n-\n1.60\n2.08\nNOTE: 50 Cents valuation charge is applied to all consignment of cargo\nor luggage for each $200 value.\nAir Cargo charges based on weight or measurement-whichever\nis the greater.\nU.S.S.R.\nTRANS-PACIFIC\nAIR ROUTE\nCANADA\nVANCOUVER\nSAN FRANCISCO\nCHINA\nPa oi fio\n- NEW GUINEA\nAUSTRALIA\nSYDNEY\nFLI\nAUCKLAND\nNEW\nZEALAND\nHONOLULU\nCANTON ISLAND\nOcean\nAIR MAIL-Mail carried in accordance\nwith Post Office regulations.\nFLYING TIMES\nSudner-Nandi\nAuckland-Nandi\nNandi-Canton Island\nAnton Toland Tilla\nHonolulu-San Francisco\nSan Francisco-Vancouver\nDISTANCES\nAuckland-Nandi\nNandi-Canton Island\nHonolulu-San Francisco ..\nCon Pronmero Voncouver\nSydney-Vancouver\nhour\n6½\n6½\n1980 miles\n1272\n1011\n2428\n792\n0201\nBritish Commonwealth\nPacific Airlines\nHead Office: A.P.A. Building, 53 Martin Place\nSYDNEY, AUSTRALIA\nTelephone BW 2741"
    ],
    "millsfield:images_texts_ids": [
      1527844377,
      1527848385
    ],
    "millsfield:similar": {
      "apple/mobileclip_s0": [
        {
          "distance": 0.4822633,
          "id": 1527847871
        },
        {
          "distance": 0.50829726,
          "id": 1527850427
        },
        {
          "distance": 0.5365848,
          "id": 1527851153
        },
        {
          "distance": 0.5488089,
          "id": 1527850609
        },
        {
          "distance": 0.55123645,
          "id": 1527847885
        },
        {
          "distance": 0.5583096,
          "id": 1763248985
        },
        {
          "distance": 0.5665887,
          "id": 1527853831
        },
        {
          "distance": 0.56881374,
          "id": 1527851541
        },
        {
          "distance": 0.56946695,
          "id": 1527845655
        },
        {
          "distance": 0.5746371,
          "id": 1527847879
        }
      ],
      "apple/mobileclip_s1": [
        {
          "distance": 0.37423766,
          "id": 1527850427
        },
        {
          "distance": 0.37454808,
          "id": 1527851541
        },
        {
          "distance": 0.37937343,
          "id": 1527847871
        },
        {
          "distance": 0.3952104,
          "id": 1527851309
        },
        {
          "distance": 0.3986625,
          "id": 1527851177
        },
        {
          "distance": 0.40236598,
          "id": 1527851153
        },
        {
          "distance": 0.40308273,
          "id": 1763248983
        },
        {
          "distance": 0.4058953,
          "id": 1527846355
        },
        {
          "distance": 0.40850163,
          "id": 1527851411
        },
        {
          "distance": 0.41317493,
          "id": 1527845655
        }
      ],
      "apple/mobileclip_s2": [
        {
          "distance": 0.54414064,
          "id": 1527847871
        },
        {
          "distance": 0.5873178,
          "id": 1527845655
        },
        {
          "distance": 0.58994526,
          "id": 1527848369
        },
        {
          "distance": 0.58994526,
          "id": 1763196159
        },
        {
          "distance": 0.59031206,
          "id": 1527851243
        },
        {
          "distance": 0.5944258,
          "id": 1527850427
        },
        {
          "distance": 0.5964905,
          "id": 1527851309
        },
        {
          "distance": 0.5974228,
          "id": 1527847885
        },
        {
          "distance": 0.5980786,
          "id": 1527850517
        },
        {
          "distance": 0.5982808,
          "id": 1762698059
        }
      ]
    },
    "millsfield:subcategory_id": 1511213425,
    "mz:hierarchy_label": 1,
    "mz:is_current": -1,
    "sfomuseum:filename": "72432.tif",
    "sfomuseum:image_id": 72432,
    "sfomuseum:image_index": 5,
    "sfomuseum:image_type": "studio",
    "sfomuseum:object_id": 98437,
    "sfomuseum:placetype": "image",
    "sfomuseum:primary_image": 0,
    "src:geom": "sfomuseum",
    "wof:belongsto": [
      1511214223,
      1511937791,
      102527513,
      102191575,
      85633793,
      1511213425,
      85922583,
      102087579,
      1511214277,
      1511214203,
      85688637
    ],
    "wof:breaches": [],
    "wof:country": "XX",
    "wof:created": 1578953839,
    "wof:depicts": [
      1511937791,
      1159284025,
      1159286739
    ],
    "wof:geomhash": "bd906905ce4be6c0651c90b0fc24804c",
    "wof:hierarchy": [
      {
        "arcade_id": 1511213425,
        "building_id": 1511214277,
        "campus_id": 102527513,
        "concourse_id": 1511214223,
        "continent_id": 102191575,
        "country_id": 85633793,
        "county_id": 102087579,
        "custom_id": 1527848385,
        "image_id": 1527848385,
        "locality_id": 85922583,
        "media_id": 1527848385,
        "neighbourhood_id": -1,
        "region_id": 85688637,
        "venue_id": 1511937791,
        "wing_id": 1511214203
      }
    ],
    "wof:id": 1527848385,
    "wof:lastmodified": 1788450144,
    "wof:name": "timetable: British Commonwealth Pacific Airlines (BCPA), Trans-Pacific routes",
    "wof:parent_id": 1511937791,
    "wof:placetype": "custom",
    "wof:placetype_alt": [
      "image"
    ],
    "wof:repo": "sfomuseum-data-media-collection",
    "wof:superseded_by": [],
    "wof:supersedes": [],
    "wof:tags": []
  },
  "bbox": [
    -122.386155,
    37.616358,
    -122.386155,
    37.616358
  ],
  "geometry": {"type":"Point","coordinates":[-122.386155,37.616358]}
}
