{
  "id": 2048167477,
  "type": "Feature",
  "properties": {
    "date:cessation_lower": "1970-04-01",
    "date:cessation_upper": "1970-04-30",
    "date:inception_lower": "1970-01-01",
    "date:inception_upper": "1970-01-31",
    "edtf:cessation": "1970-04",
    "edtf:inception": "1970-01",
    "geom:area": 2.475047457570636e-7,
    "geom:bbox": "-122.386472,37.616105,-122.385834,37.616611",
    "geom:latitude": 37.61635747477365,
    "geom:longitude": -122.38615540108617,
    "media:fingerprint": "ba76f17258a9c550d1ce1702acd1758f838a7a15",
    "media:imagehash_avg": "a:003c3c3c3c3c3c00",
    "media:imagehash_diff": "d:c46060606868680a",
    "media:imagetext": "United",
    "media:imagetext_created": 1787976491,
    "media:imagetext_source": "com.apple.visionkit.VNImageRequestHandler#Version 26.6.2 (Build 25G83)",
    "media:mimetype": "image/jpeg",
    "media:properties": {
      "colours": null,
      "sizes": {
        "b": {
          "extension": "jpg",
          "height": 767,
          "mimetype": "image/jpeg",
          "secret": "SEOeg8Uyu4rpnixU9wK9KsiEY90kEBDL",
          "width": 959
        },
        "c": {
          "extension": "jpg",
          "height": 600,
          "mimetype": "image/jpeg",
          "secret": "SEOeg8Uyu4rpnixU9wK9KsiEY90kEBDL",
          "width": 750
        },
        "dc": {
          "extension": "jpg",
          "height": 320,
          "mimetype": "image/jpeg",
          "secret": "SEOeg8Uyu4rpnixU9wK9KsiEY90kEBDL",
          "width": 320
        },
        "ds": {
          "extension": "jpg",
          "height": 320,
          "mimetype": "image/jpeg",
          "secret": "SEOeg8Uyu4rpnixU9wK9KsiEY90kEBDL",
          "width": 320
        },
        "k": {
          "extension": "jpg",
          "height": 1535,
          "mimetype": "image/jpeg",
          "secret": "SEOeg8Uyu4rpnixU9wK9KsiEY90kEBDL",
          "width": 1919
        },
        "n": {
          "extension": "jpg",
          "height": 240,
          "mimetype": "image/jpeg",
          "secret": "SEOeg8Uyu4rpnixU9wK9KsiEY90kEBDL",
          "width": 300
        },
        "o": {
          "extension": "jpg",
          "height": 2472,
          "mimetype": "image/jpeg",
          "secret": "g4WiYpMqCEPgD45xSfF6NGUAbhj4QeUa",
          "width": 3090
        },
        "s": {
          "extension": "jpg",
          "height": 320,
          "mimetype": "image/jpeg",
          "secret": "SEOeg8Uyu4rpnixU9wK9KsiEY90kEBDL",
          "width": 320
        },
        "z": {
          "extension": "jpg",
          "height": 480,
          "mimetype": "image/jpeg",
          "secret": "SEOeg8Uyu4rpnixU9wK9KsiEY90kEBDL",
          "width": 600
        }
      }
    },
    "media:source": "sfomuseum",
    "media:status_id": 1,
    "media:uri_template": "https://static.sfomuseum.org/media/204/816/747/7/2048167477_{secret}_{label}.{extention}",
    "millsfield:airline_id": [
      1159285415
    ],
    "millsfield:category_id": 1746152533,
    "millsfield:collection_id": 1511214203,
    "millsfield:company_id": [
      1159288779
    ],
    "millsfield:images_colors": [
      {
        "hex": "#c1beb9",
        "name": "#c1beb9",
        "reference": "marekm4"
      },
      {
        "hex": "#c0c0c0",
        "name": "silver",
        "reference": "css4"
      },
      {
        "hex": "#cdc5c2",
        "name": "Silver",
        "reference": "crayola"
      }
    ],
    "millsfield:images_texts": [
      "United"
    ],
    "millsfield:images_texts_ids": [
      2048167477
    ],
    "millsfield:similar": {
      "apple/mobileclip_s0": [
        {
          "distance": 0.16041426,
          "id": 2048167481
        },
        {
          "distance": 0.18233128,
          "id": 2048167475
        },
        {
          "distance": 0.22086623,
          "id": 2048167479
        },
        {
          "distance": 0.39117533,
          "id": 2015174815
        },
        {
          "distance": 0.43817163,
          "id": 2048167517
        },
        {
          "distance": 0.45251614,
          "id": 2048167525
        },
        {
          "distance": 0.46203977,
          "id": 1527856223
        },
        {
          "distance": 0.47906685,
          "id": 2048167523
        },
        {
          "distance": 0.48660687,
          "id": 2048167531
        },
        {
          "distance": 0.4954329,
          "id": 2048167555
        }
      ],
      "apple/mobileclip_s1": [
        {
          "distance": 0.12419722,
          "id": 2048167481
        },
        {
          "distance": 0.16109626,
          "id": 2048167479
        },
        {
          "distance": 0.16224137,
          "id": 2048167475
        },
        {
          "distance": 0.34569412,
          "id": 2048167555
        },
        {
          "distance": 0.35191804,
          "id": 1779969133
        },
        {
          "distance": 0.35228306,
          "id": 1779969135
        },
        {
          "distance": 0.35567135,
          "id": 2015174815
        },
        {
          "distance": 0.36996308,
          "id": 1779969093
        },
        {
          "distance": 0.37925062,
          "id": 1527856223
        },
        {
          "distance": 0.3912487,
          "id": 1527856233
        }
      ],
      "apple/mobileclip_s2": [
        {
          "distance": 0.1533394,
          "id": 2048167475
        },
        {
          "distance": 0.15348852,
          "id": 2048167481
        },
        {
          "distance": 0.16355824,
          "id": 2048167479
        },
        {
          "distance": 0.46061295,
          "id": 2015174815
        },
        {
          "distance": 0.465828,
          "id": 2048167549
        },
        {
          "distance": 0.49866834,
          "id": 2048167555
        },
        {
          "distance": 0.508421,
          "id": 1796455227
        },
        {
          "distance": 0.50976783,
          "id": 1796455221
        },
        {
          "distance": 0.5128253,
          "id": 1779969133
        },
        {
          "distance": 0.5129686,
          "id": 1779969135
        }
      ]
    },
    "millsfield:subcategory_id": 1511213839,
    "mz:is_current": 1,
    "sfomuseum:filename": "2024.100.1871.jpg",
    "sfomuseum:image_id": 293987,
    "sfomuseum:image_index": 0,
    "sfomuseum:image_type": "studio",
    "sfomuseum:object_id": 249847,
    "sfomuseum:placetype": "image",
    "sfomuseum:primary_image": 1,
    "src:geom": "sfomuseum",
    "wof:belongsto": [
      102527513,
      1159162825,
      102191575,
      85633793,
      102087579,
      85922583,
      2048162021,
      85688637,
      1159160869
    ],
    "wof:country": "XY",
    "wof:created": 1787815627,
    "wof:depicts": [
      2048162021,
      1159285415,
      1159288779
    ],
    "wof:geomhash": "c281b9d9eefc83b5710e64b9d646067d",
    "wof:hierarchy": [
      {
        "building_id": -1,
        "campus_id": 102527513,
        "collection_id": 1159162825,
        "concourse_id": 1159162825,
        "continent_id": 102191575,
        "country_id": 85633793,
        "county_id": 102087579,
        "custom_id": 2048167477,
        "locality_id": 85922583,
        "neighbourhood_id": -1,
        "object_id": 2048162021,
        "region_id": 85688637,
        "wing_id": 1159160869
      }
    ],
    "wof:id": 2048167477,
    "wof:lastmodified": 1788452767,
    "wof:name": "cocktail napkin: United Air Lines",
    "wof:parent_id": 2048162021,
    "wof:placetype": "custom",
    "wof:repo": "sfomuseum-data-media-collection",
    "wof:superseded_by": [],
    "wof:supersedes": []
  },
  "bbox": [
    -122.38647222518921,
    37.6161053594541,
    -122.38583385944366,
    37.61661101879963
  ],
  "geometry": {"type":"Polygon","coordinates":[[[-122.38647222518921,37.61631782178288],[-122.386434674263,37.61623283692423],[-122.38637566566466,37.61617759671399],[-122.38630056381224,37.6161308549656],[-122.38616108894348,37.6161053594541],[-122.38602161407469,37.6161308549656],[-122.38591432571411,37.61618609521055],[-122.38585531711577,37.61626683087935],[-122.38583385944366,37.61636881265146],[-122.38587141036987,37.61646654505181],[-122.38594114780425,37.61654303118856],[-122.38605380058287,37.61660252035167],[-122.38618254661559,37.61661101879963],[-122.3863059282303,37.61657277577607],[-122.3864185810089,37.61650903735973],[-122.3864668607712,37.61641130501523],[-122.38647222518921,37.61631782178288]]]}
}
