{
  "id": 1527822093,
  "type": "Feature",
  "properties": {
    "date:cessation_lower": "1960-01-01",
    "date:cessation_upper": "1960-12-31",
    "date:inception_lower": "1960-01-01",
    "date:inception_upper": "1960-12-31",
    "edtf:cessation": "1960",
    "edtf:date": "1960",
    "edtf:inception": "1960",
    "geom:area": 0,
    "geom:bbox": "-122.386155,37.616358,-122.386155,37.616358",
    "geom:latitude": 37.616358,
    "geom:longitude": -122.386155,
    "iso:country": "US",
    "media:fingerprint": "1d3f8e981b49eee9083a1c02af45dd1dfe3eb2ea",
    "media:imagehash_avg": "a:f0fc3c3f3f1d040e",
    "media:imagehash_diff": "d:008078f8f8f9e8f8",
    "media:medium": "image",
    "media:mimetype": "image/tiff",
    "media:properties": {
      "sizes": {
        "b": {
          "extension": "jpg",
          "height": 768,
          "mimetype": "image/jpeg",
          "secret": "mzG0PQwqfjW4rBaIJ5ML3BRECEqpW969",
          "width": 980
        },
        "c": {
          "extension": "jpg",
          "height": 600,
          "mimetype": "image/jpeg",
          "secret": "mzG0PQwqfjW4rBaIJ5ML3BRECEqpW969",
          "width": 766
        },
        "dc": {
          "extension": "jpg",
          "height": 600,
          "mimetype": "image/jpeg",
          "secret": "mzG0PQwqfjW4rBaIJ5ML3BRECEqpW969",
          "width": 766
        },
        "ds": {
          "extension": "jpg",
          "height": 320,
          "mimetype": "image/jpeg",
          "secret": "mzG0PQwqfjW4rBaIJ5ML3BRECEqpW969",
          "width": 320
        },
        "k": {
          "extension": "jpg",
          "height": 1536,
          "mimetype": "image/jpeg",
          "secret": "mzG0PQwqfjW4rBaIJ5ML3BRECEqpW969",
          "width": 1961
        },
        "n": {
          "extension": "jpg",
          "height": 240,
          "mimetype": "image/jpeg",
          "secret": "mzG0PQwqfjW4rBaIJ5ML3BRECEqpW969",
          "width": 306
        },
        "o": {
          "extension": "jpg",
          "height": 2168,
          "mimetype": "image/jpeg",
          "secret": "3h8d7YsE1QL9bEehaRdIOtoz0aBSPmJP",
          "width": 2768
        },
        "s": {
          "extension": "jpg",
          "height": 320,
          "mimetype": "image/jpeg",
          "secret": "mzG0PQwqfjW4rBaIJ5ML3BRECEqpW969",
          "width": 320
        },
        "z": {
          "extension": "jpg",
          "height": 480,
          "mimetype": "image/jpeg",
          "secret": "mzG0PQwqfjW4rBaIJ5ML3BRECEqpW969",
          "width": 612
        }
      }
    },
    "media:source": "sfomuseum",
    "media:status_id": 1,
    "media:uri_template": "https://static.sfomuseum.org/media/152/782/209/3/1527822093_{secret}_{label}.{extension}",
    "millsfield:airport_id": [
      102527513
    ],
    "millsfield:category_id": 1511214209,
    "millsfield:collection_id": 1511214207,
    "millsfield:images_colors": [
      {
        "hex": "#5c5c5c",
        "name": "#5c5c5c",
        "reference": "marekm4"
      },
      {
        "hex": "#696969",
        "name": "dimgrey",
        "reference": "css4"
      },
      {
        "hex": "#6e5160",
        "name": "Eggplant",
        "reference": "crayola"
      },
      {
        "hex": "#a2a2a2",
        "name": "#a2a2a2",
        "reference": "marekm4"
      },
      {
        "hex": "#a9a9a9",
        "name": "darkgrey",
        "reference": "css4"
      },
      {
        "hex": "#979aaa",
        "name": "Manatee",
        "reference": "crayola"
      }
    ],
    "millsfield:similar": {
      "apple/mobileclip_s0": [
        {
          "distance": 0.23836312,
          "id": 1762891259
        },
        {
          "distance": 0.29955927,
          "id": 1762891265
        },
        {
          "distance": 0.31881166,
          "id": 1527822125
        },
        {
          "distance": 0.4475381,
          "id": 1527824625
        },
        {
          "distance": 0.44849667,
          "id": 1527822923
        },
        {
          "distance": 0.45685852,
          "id": 1527824333
        },
        {
          "distance": 0.48235655,
          "id": 1527824389
        },
        {
          "distance": 0.4853166,
          "id": 1527824301
        },
        {
          "distance": 0.4966146,
          "id": 1527822651
        },
        {
          "distance": 0.49963292,
          "id": 1527823329
        }
      ],
      "apple/mobileclip_s1": [
        {
          "distance": 0.116674535,
          "id": 1762891259
        },
        {
          "distance": 0.20340548,
          "id": 1527822125
        },
        {
          "distance": 0.21206337,
          "id": 1762891265
        },
        {
          "distance": 0.25854632,
          "id": 1527824625
        },
        {
          "distance": 0.25941798,
          "id": 1527823313
        },
        {
          "distance": 0.26454192,
          "id": 1527824389
        },
        {
          "distance": 0.26468047,
          "id": 1527823945
        },
        {
          "distance": 0.27943817,
          "id": 1527823193
        },
        {
          "distance": 0.28273022,
          "id": 1527824327
        },
        {
          "distance": 0.28277335,
          "id": 1527823937
        }
      ],
      "apple/mobileclip_s2": [
        {
          "distance": 0.14307365,
          "id": 1762891259
        },
        {
          "distance": 0.1900999,
          "id": 1527822125
        },
        {
          "distance": 0.20341282,
          "id": 1762891265
        },
        {
          "distance": 0.26132113,
          "id": 1527824389
        },
        {
          "distance": 0.27390644,
          "id": 1527824625
        },
        {
          "distance": 0.31338686,
          "id": 1527822923
        },
        {
          "distance": 0.34713328,
          "id": 1527823193
        },
        {
          "distance": 0.35005927,
          "id": 1527821545
        },
        {
          "distance": 0.35650733,
          "id": 1762891323
        },
        {
          "distance": 0.36213484,
          "id": 1527824629
        }
      ]
    },
    "millsfield:subcategory_id": 1511213801,
    "mz:hierarchy_label": 1,
    "mz:is_current": -1,
    "sfomuseum:filename": "40199.tif",
    "sfomuseum:image_id": 40199,
    "sfomuseum:image_index": 5,
    "sfomuseum:image_type": "studio",
    "sfomuseum:object_id": 114353,
    "sfomuseum:placetype": "image",
    "sfomuseum:primary_image": 1,
    "src:geom": "sfomuseum",
    "wof:belongsto": [
      1511214209,
      1511944015,
      102527513,
      102191575,
      85633793,
      1511213801,
      85922583,
      102087579,
      1511214277,
      1511214203,
      85688637
    ],
    "wof:breaches": [],
    "wof:country": "US",
    "wof:created": 1578949684,
    "wof:depicts": [
      1511944015,
      102527513
    ],
    "wof:geomhash": "bd906905ce4be6c0651c90b0fc24804c",
    "wof:hierarchy": [
      {
        "arcade_id": 1511213801,
        "building_id": 1511214277,
        "campus_id": 102527513,
        "concourse_id": 1511214209,
        "continent_id": 102191575,
        "country_id": 85633793,
        "county_id": 102087579,
        "custom_id": 1527822093,
        "image_id": 1527822093,
        "locality_id": 85922583,
        "media_id": 1527822093,
        "neighbourhood_id": -1,
        "region_id": 85688637,
        "venue_id": 1511944015,
        "wing_id": 1511214203
      }
    ],
    "wof:id": 1527822093,
    "wof:lastmodified": 1788449754,
    "wof:name": "negative: San Francisco International Airport (SFO), aerial",
    "wof:parent_id": 1511944015,
    "wof:placetype": "custom",
    "wof:placetype_alt": [
      "image"
    ],
    "wof:repo": "sfomuseum-data-media-collection",
    "wof:superseded_by": [],
    "wof:supersedes": [],
    "wof:tags": []
  },
  "bbox": [
    -122.386155,
    37.616358,
    -122.386155,
    37.616358
  ],
  "geometry": {"type":"Point","coordinates":[-122.386155,37.616358]}
}
