{
  "id": 1746682957,
  "type": "Feature",
  "properties": {
    "date:cessation_lower": "2014-01-01",
    "date:cessation_upper": "2014-12-31",
    "date:inception_lower": "2014-01-01",
    "date:inception_upper": "2014-12-31",
    "edtf:cessation": "2014~",
    "edtf:inception": "2014~",
    "geom:area": 2.477324999997507e-7,
    "geom:bbox": "-122.386472,37.616105,-122.385834,37.616611",
    "geom:latitude": 37.61635756125121,
    "geom:longitude": -122.38615532866096,
    "media:fingerprint": "8b8a8c5b4b463b7450c1ee08038c52b8980ebc75",
    "media:imagehash_avg": "a:000000ffff81ffff",
    "media:imagehash_diff": "d:806070ecf033f0f0",
    "media:mimetype": "image/jpeg",
    "media:properties": {
      "sizes": {
        "b": {
          "extension": "jpg",
          "height": 768,
          "mimetype": "image/jpeg",
          "secret": "fVCjr879WkILKhXWRo16oReuW1AeJERK",
          "width": 1023
        },
        "c": {
          "extension": "jpg",
          "height": 600,
          "mimetype": "image/jpeg",
          "secret": "fVCjr879WkILKhXWRo16oReuW1AeJERK",
          "width": 799
        },
        "dc": {
          "extension": "jpg",
          "height": 600,
          "mimetype": "image/jpeg",
          "secret": "fVCjr879WkILKhXWRo16oReuW1AeJERK",
          "width": 799
        },
        "ds": {
          "extension": "jpg",
          "height": 320,
          "mimetype": "image/jpeg",
          "secret": "fVCjr879WkILKhXWRo16oReuW1AeJERK",
          "width": 320
        },
        "k": {
          "extension": "jpg",
          "height": 1536,
          "mimetype": "image/jpeg",
          "secret": "fVCjr879WkILKhXWRo16oReuW1AeJERK",
          "width": 2047
        },
        "n": {
          "extension": "jpg",
          "height": 240,
          "mimetype": "image/jpeg",
          "secret": "fVCjr879WkILKhXWRo16oReuW1AeJERK",
          "width": 319
        },
        "o": {
          "extension": "jpg",
          "height": 2642,
          "mimetype": "image/jpeg",
          "secret": "WgryV9gS5zljUuqu3Q3j75ezael4MXNa",
          "width": 3522
        },
        "s": {
          "extension": "jpg",
          "height": 320,
          "mimetype": "image/jpeg",
          "secret": "fVCjr879WkILKhXWRo16oReuW1AeJERK",
          "width": 320
        },
        "z": {
          "extension": "jpg",
          "height": 480,
          "mimetype": "image/jpeg",
          "secret": "fVCjr879WkILKhXWRo16oReuW1AeJERK",
          "width": 639
        }
      }
    },
    "media:source": "sfomuseum",
    "media:status_id": 1,
    "media:uri_template": "https://static.sfomuseum.org/media/174/668/295/7/1746682957_{secret}_{label}.{extension}",
    "millsfield:airline_id": [
      1159285639
    ],
    "millsfield:category_id": 1746152551,
    "millsfield:collection_id": 1511214203,
    "millsfield:company_id": [
      1159287133
    ],
    "millsfield:images_colors": [
      {
        "hex": "#aeadaa",
        "name": "#aeadaa",
        "reference": "marekm4"
      },
      {
        "hex": "#a9a9a9",
        "name": "darkgrey",
        "reference": "css4"
      },
      {
        "hex": "#b0b7c6",
        "name": "Cadet Blue",
        "reference": "crayola"
      },
      {
        "hex": "#626261",
        "name": "#626261",
        "reference": "marekm4"
      },
      {
        "hex": "#696969",
        "name": "dimgrey",
        "reference": "css4"
      },
      {
        "hex": "#6e5160",
        "name": "Eggplant",
        "reference": "crayola"
      }
    ],
    "millsfield:similar": {
      "apple/mobileclip_s0": [
        {
          "distance": 0.3708866,
          "id": 1746682961
        },
        {
          "distance": 0.45530635,
          "id": 2015174549
        },
        {
          "distance": 0.5453289,
          "id": 1746682959
        },
        {
          "distance": 0.5649966,
          "id": 1897762767
        },
        {
          "distance": 0.5671922,
          "id": 1746682877
        },
        {
          "distance": 0.568412,
          "id": 1746682859
        },
        {
          "distance": 0.5720489,
          "id": 1746682779
        },
        {
          "distance": 0.58474267,
          "id": 1746682895
        },
        {
          "distance": 0.5873871,
          "id": 1780028017
        },
        {
          "distance": 0.5911241,
          "id": 1931123121
        }
      ],
      "apple/mobileclip_s1": [
        {
          "distance": 0.239871,
          "id": 1746682961
        },
        {
          "distance": 0.34290037,
          "id": 2015174549
        },
        {
          "distance": 0.36403376,
          "id": 1746682779
        },
        {
          "distance": 0.3722682,
          "id": 1746682783
        },
        {
          "distance": 0.38884103,
          "id": 1931122975
        },
        {
          "distance": 0.39020997,
          "id": 1897762767
        },
        {
          "distance": 0.39436442,
          "id": 1746682859
        },
        {
          "distance": 0.39677966,
          "id": 1880236681
        },
        {
          "distance": 0.4035168,
          "id": 1746682679
        },
        {
          "distance": 0.40428853,
          "id": 2015174665
        }
      ],
      "apple/mobileclip_s2": [
        {
          "distance": 0.28484395,
          "id": 1746682961
        },
        {
          "distance": 0.4367569,
          "id": 2015174549
        },
        {
          "distance": 0.45235044,
          "id": 1746682783
        },
        {
          "distance": 0.46593487,
          "id": 1746682779
        },
        {
          "distance": 0.49282613,
          "id": 1746682859
        },
        {
          "distance": 0.501664,
          "id": 1897762767
        },
        {
          "distance": 0.5154865,
          "id": 1746682959
        },
        {
          "distance": 0.52244955,
          "id": 1746682881
        },
        {
          "distance": 0.52299106,
          "id": 1746682679
        },
        {
          "distance": 0.52526397,
          "id": 1746682877
        }
      ]
    },
    "millsfield:subcategory_id": 1746152563,
    "mz:is_current": 1,
    "sfomuseum:filename": "IMG_1408.jpg",
    "sfomuseum:image_id": 229833,
    "sfomuseum:image_index": 0,
    "sfomuseum:image_type": "studio",
    "sfomuseum:object_id": 220208,
    "sfomuseum:placetype": "image",
    "sfomuseum:primary_image": 1,
    "src:geom": "sfomuseum",
    "wof:belongsto": [
      102527513,
      1159162825,
      102191575,
      85633793,
      102087579,
      85922583,
      1746272431,
      85688637,
      1159160869
    ],
    "wof:country": "XY",
    "wof:created": 1637706911,
    "wof:depicts": [
      1746272431,
      1159287133,
      1159285639
    ],
    "wof:geomhash": "ed7c2ab3547fc3916b5edc33488deaa7",
    "wof:hierarchy": [
      {
        "building_id": -1,
        "campus_id": 102527513,
        "collection_id": 1159162825,
        "concourse_id": 1159162825,
        "continent_id": 102191575,
        "country_id": 85633793,
        "county_id": 102087579,
        "custom_id": 1746682957,
        "image_id": 1746682957,
        "locality_id": 85922583,
        "neighbourhood_id": -1,
        "object_id": 1746272431,
        "region_id": 85688637,
        "wing_id": 1159160869
      }
    ],
    "wof:id": 1746682957,
    "wof:lastmodified": 1788450368,
    "wof:name": "side dish: Thai Airways",
    "wof:parent_id": 1746272431,
    "wof:placetype": "custom",
    "wof:placetype_alt": [
      "image"
    ],
    "wof:repo": "sfomuseum-data-media-collection",
    "wof:superseded_by": [],
    "wof:supersedes": []
  },
  "bbox": [
    -122.386472,
    37.616105,
    -122.385834,
    37.616611
  ],
  "geometry": {"type":"Polygon","coordinates":[[[-122.386472,37.616318],[-122.386435,37.616233],[-122.386376,37.616178],[-122.386301,37.616131],[-122.386161,37.616105],[-122.386022,37.616131],[-122.385914,37.616186],[-122.385855,37.616267],[-122.385834,37.616369],[-122.385871,37.616467],[-122.385941,37.616543],[-122.386054,37.616603],[-122.386183,37.616611],[-122.386306,37.616573],[-122.386419,37.616509],[-122.386467,37.616411],[-122.386472,37.616318]]]}
}
