{
  "id": 1527830221,
  "type": "Feature",
  "properties": {
    "date:cessation_lower": "1929-03-10",
    "date:cessation_upper": "1929-03-10",
    "date:inception_lower": "1929-03-10",
    "date:inception_upper": "1929-03-10",
    "edtf:cessation": "1929-03-10",
    "edtf:date": "1929-03-10",
    "edtf:inception": "1929-03-10",
    "geom:area": 0,
    "geom:bbox": "-122.386155,37.616358,-122.386155,37.616358",
    "geom:latitude": 37.616358,
    "geom:longitude": -122.386155,
    "iso:country": "XX",
    "media:fingerprint": "82b5028496ba872b43563ed94ee02e7f1bc413d3",
    "media:imagehash_avg": "a:c08183bbbebebf80",
    "media:imagehash_diff": "d:1372667278687436",
    "media:imagetext": "OMAR 29.1 16)\n2011.1",
    "media:imagetext_created": 1787949241,
    "media:imagetext_source": "com.apple.visionkit.VNImageRequestHandler#Version 26.6.2 (Build 25G83)",
    "media:medium": "image",
    "media:mimetype": "image/tiff",
    "media:properties": {
      "sizes": {
        "b": {
          "extension": "jpg",
          "height": 580,
          "mimetype": "image/jpeg",
          "secret": "qeF8T1AwNMBTFwpjM9GRvkzhuGbAvtN6",
          "width": 1024
        },
        "c": {
          "extension": "jpg",
          "height": 453,
          "mimetype": "image/jpeg",
          "secret": "qeF8T1AwNMBTFwpjM9GRvkzhuGbAvtN6",
          "width": 800
        },
        "dc": {
          "extension": "jpg",
          "height": 453,
          "mimetype": "image/jpeg",
          "secret": "qeF8T1AwNMBTFwpjM9GRvkzhuGbAvtN6",
          "width": 800
        },
        "ds": {
          "extension": "jpg",
          "height": 320,
          "mimetype": "image/jpeg",
          "secret": "qeF8T1AwNMBTFwpjM9GRvkzhuGbAvtN6",
          "width": 320
        },
        "k": {
          "extension": "jpg",
          "height": 1160,
          "mimetype": "image/jpeg",
          "secret": "qeF8T1AwNMBTFwpjM9GRvkzhuGbAvtN6",
          "width": 2048
        },
        "n": {
          "extension": "jpg",
          "height": 181,
          "mimetype": "image/jpeg",
          "secret": "qeF8T1AwNMBTFwpjM9GRvkzhuGbAvtN6",
          "width": 320
        },
        "o": {
          "extension": "jpg",
          "height": 1169,
          "mimetype": "image/jpeg",
          "secret": "1hJsbrMdDFmiFkAmBOUl8HNVd1NEUDbD",
          "width": 2063
        },
        "s": {
          "extension": "jpg",
          "height": 320,
          "mimetype": "image/jpeg",
          "secret": "qeF8T1AwNMBTFwpjM9GRvkzhuGbAvtN6",
          "width": 320
        },
        "z": {
          "extension": "jpg",
          "height": 362,
          "mimetype": "image/jpeg",
          "secret": "qeF8T1AwNMBTFwpjM9GRvkzhuGbAvtN6",
          "width": 640
        }
      }
    },
    "media:source": "sfomuseum",
    "media:status_id": 1,
    "media:uri_template": "https://static.sfomuseum.org/media/152/783/022/1/1527830221_{secret}_{label}.{extension}",
    "millsfield:category_id": 1511214215,
    "millsfield:collection_id": 1511214207,
    "millsfield:images_colors": [
      {
        "hex": "#efe8d4",
        "name": "#efe8d4",
        "reference": "marekm4"
      },
      {
        "hex": "#faebd7",
        "name": "antiquewhite",
        "reference": "css4"
      },
      {
        "hex": "#efdecd",
        "name": "Almond",
        "reference": "crayola"
      },
      {
        "hex": "#232a4d",
        "name": "#232a4d",
        "reference": "marekm4"
      },
      {
        "hex": "#2f4f4f",
        "name": "darkslategrey",
        "reference": "css4"
      },
      {
        "hex": "#414a4c",
        "name": "Outer Space",
        "reference": "crayola"
      },
      {
        "hex": "#c7251c",
        "name": "#c7251c",
        "reference": "marekm4"
      },
      {
        "hex": "#b22222",
        "name": "firebrick",
        "reference": "css4"
      },
      {
        "hex": "#9c2542",
        "name": "Big Dip O' Ruby",
        "reference": "crayola"
      }
    ],
    "millsfield:images_texts": [
      "WNSL\nBRO\nMAR 13\nM\n1929\nTEX\nAIR\n5\n5\nVIA AIR MAIL\nAiR MALLE\nFIRST FLIGHTS\nINTERNATIONAL FA.M. 8\nBROWNSVILLE @MEXICO CITY\nE. Nickles,\nc/o Postmaster,\nMexico City, Mexico.",
      "OMAR 29.1 16)\n2011.1"
    ],
    "millsfield:images_texts_ids": [
      1527830219,
      1527830221
    ],
    "millsfield:similar": {
      "apple/mobileclip_s0": [
        {
          "distance": 0.36368316,
          "id": 1527830215
        },
        {
          "distance": 0.36758986,
          "id": 1527829357
        },
        {
          "distance": 0.3691473,
          "id": 1527829813
        },
        {
          "distance": 0.3774826,
          "id": 1527833157
        },
        {
          "distance": 0.3792608,
          "id": 1527829977
        },
        {
          "distance": 0.38493124,
          "id": 1527833555
        },
        {
          "distance": 0.3862745,
          "id": 1527833165
        },
        {
          "distance": 0.3902761,
          "id": 1527833579
        },
        {
          "distance": 0.39053497,
          "id": 1527829909
        },
        {
          "distance": 0.39093676,
          "id": 1527834057
        }
      ],
      "apple/mobileclip_s1": [
        {
          "distance": 0.14639771,
          "id": 1527830215
        },
        {
          "distance": 0.23011376,
          "id": 1527829969
        },
        {
          "distance": 0.23063236,
          "id": 1527833197
        },
        {
          "distance": 0.23618977,
          "id": 1527833153
        },
        {
          "distance": 0.23619811,
          "id": 1527833037
        },
        {
          "distance": 0.23725204,
          "id": 1527829339
        },
        {
          "distance": 0.23976722,
          "id": 1527819899
        },
        {
          "distance": 0.2401736,
          "id": 1527833237
        },
        {
          "distance": 0.24299185,
          "id": 1527820657
        },
        {
          "distance": 0.24480323,
          "id": 1527830169
        }
      ],
      "apple/mobileclip_s2": [
        {
          "distance": 0.29718107,
          "id": 1527829909
        },
        {
          "distance": 0.3093319,
          "id": 1527830209
        },
        {
          "distance": 0.32387826,
          "id": 1527820107
        },
        {
          "distance": 0.32582855,
          "id": 1527819899
        },
        {
          "distance": 0.33165434,
          "id": 1527852201
        },
        {
          "distance": 0.33850282,
          "id": 1527833145
        },
        {
          "distance": 0.33915436,
          "id": 1527829813
        },
        {
          "distance": 0.3393966,
          "id": 1527829819
        },
        {
          "distance": 0.34115887,
          "id": 1527829591
        },
        {
          "distance": 0.34142977,
          "id": 1527829537
        }
      ]
    },
    "millsfield:subcategory_id": 1511213159,
    "mz:hierarchy_label": 1,
    "mz:is_current": -1,
    "sfomuseum:filename": "49212.tif",
    "sfomuseum:image_id": 49212,
    "sfomuseum:image_index": 5,
    "sfomuseum:image_type": "studio",
    "sfomuseum:object_id": 115272,
    "sfomuseum:placetype": "image",
    "sfomuseum:primary_image": 0,
    "src:geom": "sfomuseum",
    "wof:belongsto": [
      85922583,
      85688637,
      1511214277,
      102527513,
      1511214215,
      85633793,
      1511213159,
      1511945881,
      1511214203,
      102191575,
      102087579
    ],
    "wof:breaches": [],
    "wof:country": "XX",
    "wof:created": 1578950964,
    "wof:depicts": [
      1511945881
    ],
    "wof:geomhash": "bd906905ce4be6c0651c90b0fc24804c",
    "wof:hierarchy": [
      {
        "arcade_id": 1511213159,
        "building_id": 1511214277,
        "campus_id": 102527513,
        "concourse_id": 1511214215,
        "continent_id": 102191575,
        "country_id": 85633793,
        "county_id": 102087579,
        "custom_id": 1527830221,
        "image_id": 1527830221,
        "locality_id": 85922583,
        "media_id": 1527830221,
        "neighbourhood_id": -1,
        "region_id": 85688637,
        "venue_id": 1511945881,
        "wing_id": 1511214203
      }
    ],
    "wof:id": 1527830221,
    "wof:lastmodified": 1788449873,
    "wof:name": "airmail flight cover: FAM-8, Brownsville - Mexico City route",
    "wof:parent_id": 1511945881,
    "wof:placetype": "custom",
    "wof:placetype_alt": [
      "image"
    ],
    "wof:repo": "sfomuseum-data-media-collection",
    "wof:superseded_by": [],
    "wof:supersedes": [],
    "wof:tags": []
  },
  "bbox": [
    -122.386155,
    37.616358,
    -122.386155,
    37.616358
  ],
  "geometry": {"type":"Point","coordinates":[-122.386155,37.616358]}
}
