{
  "id": 1780288491,
  "type": "Feature",
  "properties": {
    "date:cessation_lower": "2000-01-01",
    "date:cessation_upper": "2009-12-31",
    "date:inception_lower": "2000-01-01",
    "date:inception_upper": "2009-12-31",
    "edtf:cessation": "200X",
    "edtf:inception": "200X",
    "geom:area": 2.477324999997507e-7,
    "geom:bbox": "-122.386472,37.616105,-122.385834,37.616611",
    "geom:latitude": 37.61635756125121,
    "geom:longitude": -122.38615532866096,
    "media:fingerprint": "b7e14fd0f5c425bed4e51ac788351707c4d26dbb",
    "media:imagehash_avg": "a:ffff9f8fe3717c00",
    "media:imagehash_diff": "d:f0f03018c6e3f1f0",
    "media:mimetype": "image/tiff",
    "media:properties": {
      "sizes": {
        "b": {
          "extension": "jpg",
          "height": 768,
          "mimetype": "image/jpeg",
          "secret": "AFrtYqhV3T1XocHjT5JetrMp7UVq0J1i",
          "width": 965
        },
        "c": {
          "extension": "jpg",
          "height": 600,
          "mimetype": "image/jpeg",
          "secret": "AFrtYqhV3T1XocHjT5JetrMp7UVq0J1i",
          "width": 754
        },
        "dc": {
          "extension": "jpg",
          "height": 600,
          "mimetype": "image/jpeg",
          "secret": "AFrtYqhV3T1XocHjT5JetrMp7UVq0J1i",
          "width": 754
        },
        "ds": {
          "extension": "jpg",
          "height": 320,
          "mimetype": "image/jpeg",
          "secret": "AFrtYqhV3T1XocHjT5JetrMp7UVq0J1i",
          "width": 320
        },
        "k": {
          "extension": "jpg",
          "height": 1536,
          "mimetype": "image/jpeg",
          "secret": "AFrtYqhV3T1XocHjT5JetrMp7UVq0J1i",
          "width": 1931
        },
        "n": {
          "extension": "jpg",
          "height": 240,
          "mimetype": "image/jpeg",
          "secret": "AFrtYqhV3T1XocHjT5JetrMp7UVq0J1i",
          "width": 301
        },
        "o": {
          "extension": "jpg",
          "height": 1667,
          "mimetype": "image/jpeg",
          "secret": "zIUSpgsZ61w32xkLdNx1ECQPT0LJI6hE",
          "width": 2096
        },
        "s": {
          "extension": "jpg",
          "height": 320,
          "mimetype": "image/jpeg",
          "secret": "AFrtYqhV3T1XocHjT5JetrMp7UVq0J1i",
          "width": 320
        },
        "z": {
          "extension": "jpg",
          "height": 480,
          "mimetype": "image/jpeg",
          "secret": "AFrtYqhV3T1XocHjT5JetrMp7UVq0J1i",
          "width": 603
        }
      }
    },
    "media:source": "sfomuseum",
    "media:status_id": 1,
    "media:uri_template": "https://static.sfomuseum.org/media/178/028/849/1/1780288491_{secret}_{label}.{extension}",
    "millsfield:airline_id": [
      1159285415
    ],
    "millsfield:category_id": 1746152533,
    "millsfield:collection_id": 1511214203,
    "millsfield:company_id": [
      1159288779
    ],
    "millsfield:images_colors": [
      {
        "hex": "#acacab",
        "name": "#acacab",
        "reference": "marekm4"
      },
      {
        "hex": "#a9a9a9",
        "name": "darkgrey",
        "reference": "css4"
      },
      {
        "hex": "#979aaa",
        "name": "Manatee",
        "reference": "crayola"
      },
      {
        "hex": "#4c4c52",
        "name": "#4c4c52",
        "reference": "marekm4"
      },
      {
        "hex": "#2f4f4f",
        "name": "darkslategrey",
        "reference": "css4"
      },
      {
        "hex": "#414a4c",
        "name": "Outer Space",
        "reference": "crayola"
      }
    ],
    "millsfield:similar": {
      "apple/mobileclip_s0": [
        {
          "distance": 0.1317454,
          "id": 1780288499
        },
        {
          "distance": 0.15017968,
          "id": 1780288493
        },
        {
          "distance": 0.21944852,
          "id": 1780288503
        },
        {
          "distance": 0.22040547,
          "id": 1780288501
        },
        {
          "distance": 0.23096097,
          "id": 1780288325
        },
        {
          "distance": 0.24629578,
          "id": 1780288495
        },
        {
          "distance": 0.3621189,
          "id": 1779937333
        },
        {
          "distance": 0.3718708,
          "id": 1779937225
        },
        {
          "distance": 0.39703918,
          "id": 1779745201
        },
        {
          "distance": 0.39918238,
          "id": 1779744931
        }
      ],
      "apple/mobileclip_s1": [
        {
          "distance": 0.123305544,
          "id": 1780288493
        },
        {
          "distance": 0.124853835,
          "id": 1780288499
        },
        {
          "distance": 0.1815961,
          "id": 1780288501
        },
        {
          "distance": 0.1852069,
          "id": 1780288325
        },
        {
          "distance": 0.19041124,
          "id": 1780288503
        },
        {
          "distance": 0.24596699,
          "id": 1780288495
        },
        {
          "distance": 0.36554065,
          "id": 1779744613
        },
        {
          "distance": 0.3748807,
          "id": 1779744611
        },
        {
          "distance": 0.38804618,
          "id": 1779744931
        },
        {
          "distance": 0.39202464,
          "id": 1779744919
        }
      ],
      "apple/mobileclip_s2": [
        {
          "distance": 0.15658844,
          "id": 1780288493
        },
        {
          "distance": 0.17663726,
          "id": 1780288499
        },
        {
          "distance": 0.20859858,
          "id": 1780288503
        },
        {
          "distance": 0.21808195,
          "id": 1780288501
        },
        {
          "distance": 0.22820339,
          "id": 1780288495
        },
        {
          "distance": 0.2370925,
          "id": 1780288325
        },
        {
          "distance": 0.44381002,
          "id": 1779744611
        },
        {
          "distance": 0.457781,
          "id": 1779937225
        },
        {
          "distance": 0.46970558,
          "id": 1779937365
        },
        {
          "distance": 0.48251396,
          "id": 1779744613
        }
      ]
    },
    "millsfield:subcategory_id": 1511213833,
    "mz:is_current": 1,
    "sfomuseum:filename": "110296.tif",
    "sfomuseum:image_id": 110296,
    "sfomuseum:image_index": 5,
    "sfomuseum:image_type": "studio",
    "sfomuseum:object_id": 81596,
    "sfomuseum:placetype": "image",
    "sfomuseum:primary_image": 1,
    "src:geom": "sfomuseum",
    "wof:belongsto": [
      102527513,
      1159162825,
      102191575,
      85633793,
      102087579,
      85922583,
      1780287761,
      85688637,
      1159160869
    ],
    "wof:country": "XY",
    "wof:created": 1660809561,
    "wof:depicts": [
      1159285415,
      1159288779,
      1780287761
    ],
    "wof:geomhash": "ed7c2ab3547fc3916b5edc33488deaa7",
    "wof:hierarchy": [
      {
        "building_id": -1,
        "campus_id": 102527513,
        "collection_id": 1159162825,
        "concourse_id": 1159162825,
        "continent_id": 102191575,
        "country_id": 85633793,
        "county_id": 102087579,
        "custom_id": 1780288491,
        "image_id": 1780288491,
        "locality_id": 85922583,
        "neighbourhood_id": -1,
        "object_id": 1780287761,
        "region_id": 85688637,
        "wing_id": 1159160869
      }
    ],
    "wof:id": 1780288491,
    "wof:lastmodified": 1788451469,
    "wof:name": "swizzle stick: United Airlines",
    "wof:parent_id": 1780287761,
    "wof:placetype": "custom",
    "wof:placetype_alt": [
      "image"
    ],
    "wof:repo": "sfomuseum-data-media-collection",
    "wof:superseded_by": [],
    "wof:supersedes": []
  },
  "bbox": [
    -122.386472,
    37.616105,
    -122.385834,
    37.616611
  ],
  "geometry": {"type":"Polygon","coordinates":[[[-122.386472,37.616318],[-122.386435,37.616233],[-122.386376,37.616178],[-122.386301,37.616131],[-122.386161,37.616105],[-122.386022,37.616131],[-122.385914,37.616186],[-122.385855,37.616267],[-122.385834,37.616369],[-122.385871,37.616467],[-122.385941,37.616543],[-122.386054,37.616603],[-122.386183,37.616611],[-122.386306,37.616573],[-122.386419,37.616509],[-122.386467,37.616411],[-122.386472,37.616318]]]}
}
