{
  "id": 1762703427,
  "type": "Feature",
  "properties": {
    "date:cessation_lower": "1930-01-01",
    "date:cessation_upper": "1939-12-31",
    "date:inception_lower": "1930-01-01",
    "date:inception_upper": "1939-12-31",
    "edtf:cessation": "193X",
    "edtf:inception": "193X",
    "geom:area": 2.477324999997507e-7,
    "geom:bbox": "-122.386472,37.616105,-122.385834,37.616611",
    "geom:latitude": 37.61635756125121,
    "geom:longitude": -122.38615532866096,
    "media:fingerprint": "7d52e77270ca176afe4e02bdf412f3201773dc27",
    "media:imagehash_avg": "a:9f000d8fffffffff",
    "media:imagehash_diff": "d:3939797969494949",
    "media:imagetext": "3,50\nThe SOUTHERN\nTRANSCONTINENTAL\nThe Fair Weather Route NEW YORK -CALIFORNIA\nAmerican Airlines is the only line that\ncombines the service of the new 14-passen-\nger Douglas and luxurious Condor Sleeper\nPlanes on the Transcontinenial run.\nMESSAGE\n2015.166.0210",
    "media:imagetext_created": 1787956639,
    "media:imagetext_source": "com.apple.visionkit.VNImageRequestHandler#Version 26.6.2 (Build 25G83)",
    "media:mimetype": "image/tiff",
    "media:properties": {
      "sizes": {
        "b": {
          "extension": "jpg",
          "height": 661,
          "mimetype": "image/jpeg",
          "secret": "rmIVp6lpIUZTSVLUmn7fYDqlTjzjTG2I",
          "width": 1024
        },
        "c": {
          "extension": "jpg",
          "height": 516,
          "mimetype": "image/jpeg",
          "secret": "rmIVp6lpIUZTSVLUmn7fYDqlTjzjTG2I",
          "width": 800
        },
        "dc": {
          "extension": "jpg",
          "height": 516,
          "mimetype": "image/jpeg",
          "secret": "rmIVp6lpIUZTSVLUmn7fYDqlTjzjTG2I",
          "width": 800
        },
        "ds": {
          "extension": "jpg",
          "height": 320,
          "mimetype": "image/jpeg",
          "secret": "rmIVp6lpIUZTSVLUmn7fYDqlTjzjTG2I",
          "width": 320
        },
        "k": {
          "extension": "jpg",
          "height": 1322,
          "mimetype": "image/jpeg",
          "secret": "rmIVp6lpIUZTSVLUmn7fYDqlTjzjTG2I",
          "width": 2048
        },
        "n": {
          "extension": "jpg",
          "height": 206,
          "mimetype": "image/jpeg",
          "secret": "rmIVp6lpIUZTSVLUmn7fYDqlTjzjTG2I",
          "width": 320
        },
        "o": {
          "extension": "jpg",
          "height": 1088,
          "mimetype": "image/jpeg",
          "secret": "YJXpnIA3tqN6ML0fzvUWFRml8O4Q187r",
          "width": 1685
        },
        "s": {
          "extension": "jpg",
          "height": 320,
          "mimetype": "image/jpeg",
          "secret": "rmIVp6lpIUZTSVLUmn7fYDqlTjzjTG2I",
          "width": 320
        },
        "z": {
          "extension": "jpg",
          "height": 413,
          "mimetype": "image/jpeg",
          "secret": "rmIVp6lpIUZTSVLUmn7fYDqlTjzjTG2I",
          "width": 640
        }
      }
    },
    "media:source": "sfomuseum",
    "media:status_id": 1,
    "media:uri_template": "https://static.sfomuseum.org/media/176/270/342/7/1762703427_{secret}_{label}.{extension}",
    "millsfield:airline_id": [
      1159283849
    ],
    "millsfield:category_id": 1511214215,
    "millsfield:collection_id": 1511214207,
    "millsfield:company_id": [
      1360700619
    ],
    "millsfield:images_colors": [
      {
        "hex": "#d5c2a1",
        "name": "#d5c2a1",
        "reference": "marekm4"
      },
      {
        "hex": "#d2b48c",
        "name": "tan",
        "reference": "css4"
      },
      {
        "hex": "#e7c697",
        "name": "Gold",
        "reference": "crayola"
      },
      {
        "hex": "#3b3325",
        "name": "#3b3325",
        "reference": "marekm4"
      },
      {
        "hex": "#2f4f4f",
        "name": "darkslategrey",
        "reference": "css4"
      },
      {
        "hex": "#414a4c",
        "name": "Outer Space",
        "reference": "crayola"
      },
      {
        "hex": "#a49272",
        "name": "#a49272",
        "reference": "marekm4"
      },
      {
        "hex": "#bc8f8f",
        "name": "rosybrown",
        "reference": "css4"
      },
      {
        "hex": "#9f8170",
        "name": "Beaver",
        "reference": "crayola"
      }
    ],
    "millsfield:images_texts": [
      "American Airlines operates a fleet of new\n14-passenger Douglas planes, New York-\nChicago and New York-California.",
      "3,50\nThe SOUTHERN\nTRANSCONTINENTAL\nThe Fair Weather Route NEW YORK -CALIFORNIA\nAmerican Airlines is the only line that\ncombines the service of the new 14-passen-\nger Douglas and luxurious Condor Sleeper\nPlanes on the Transcontinenial run.\nMESSAGE\n2015.166.0210"
    ],
    "millsfield:images_texts_ids": [
      1762703423,
      1762703427
    ],
    "millsfield:similar": {
      "apple/mobileclip_s0": [
        {
          "distance": 0.56855494,
          "id": 1762711255
        },
        {
          "distance": 0.56888705,
          "id": 1762712945
        },
        {
          "distance": 0.5750909,
          "id": 1762708919
        },
        {
          "distance": 0.5816958,
          "id": 1762709479
        },
        {
          "distance": 0.58651227,
          "id": 1762711521
        },
        {
          "distance": 0.5871704,
          "id": 1762712381
        },
        {
          "distance": 0.5903803,
          "id": 1762711913
        },
        {
          "distance": 0.5943343,
          "id": 1762712471
        },
        {
          "distance": 0.5959,
          "id": 1762712069
        },
        {
          "distance": 0.5962674,
          "id": 1762713543
        }
      ],
      "apple/mobileclip_s1": [
        {
          "distance": 0.40985864,
          "id": 1762703383
        },
        {
          "distance": 0.43794608,
          "id": 1762711255
        },
        {
          "distance": 0.44229722,
          "id": 1762713161
        },
        {
          "distance": 0.4461362,
          "id": 1762711031
        },
        {
          "distance": 0.4483718,
          "id": 1762712999
        },
        {
          "distance": 0.4488648,
          "id": 1762707203
        },
        {
          "distance": 0.44893688,
          "id": 1762710207
        },
        {
          "distance": 0.4489746,
          "id": 1762711913
        },
        {
          "distance": 0.449188,
          "id": 1762709565
        },
        {
          "distance": 0.44987303,
          "id": 1762708907
        }
      ],
      "apple/mobileclip_s2": [
        {
          "distance": 0.6400718,
          "id": 1762709339
        },
        {
          "distance": 0.65055996,
          "id": 1897762205
        },
        {
          "distance": 0.6513979,
          "id": 1762708315
        },
        {
          "distance": 0.6530082,
          "id": 1913891043
        },
        {
          "distance": 0.6532998,
          "id": 1527848693
        },
        {
          "distance": 0.6535663,
          "id": 1762703383
        },
        {
          "distance": 0.6557405,
          "id": 1931095927
        },
        {
          "distance": 0.66074187,
          "id": 1762709479
        },
        {
          "distance": 0.66103905,
          "id": 1762703917
        },
        {
          "distance": 0.6615672,
          "id": 1762710383
        }
      ]
    },
    "millsfield:subcategory_id": 1511213363,
    "mz:is_current": 1,
    "sfomuseum:filename": "2015.166.0210_reverse.tif",
    "sfomuseum:image_id": 151008,
    "sfomuseum:image_index": 5,
    "sfomuseum:image_type": "studio",
    "sfomuseum:object_id": 179827,
    "sfomuseum:placetype": "image",
    "sfomuseum:primary_image": 0,
    "src:geom": "sfomuseum",
    "wof:belongsto": [
      102527513,
      1159162825,
      102191575,
      85633793,
      102087579,
      85922583,
      1762681643,
      85688637,
      1159160869
    ],
    "wof:country": "XY",
    "wof:created": 1641347532,
    "wof:depicts": [
      1360700619,
      1762681643,
      1159283849
    ],
    "wof:geomhash": "ed7c2ab3547fc3916b5edc33488deaa7",
    "wof:hierarchy": [
      {
        "building_id": -1,
        "campus_id": 102527513,
        "collection_id": 1159162825,
        "concourse_id": 1159162825,
        "continent_id": 102191575,
        "country_id": 85633793,
        "county_id": 102087579,
        "custom_id": 1762703427,
        "image_id": 1762703427,
        "locality_id": 85922583,
        "neighbourhood_id": -1,
        "object_id": 1762681643,
        "region_id": 85688637,
        "wing_id": 1159160869
      }
    ],
    "wof:id": 1762703427,
    "wof:lastmodified": 1788450501,
    "wof:name": "postcard: American Airlines",
    "wof:parent_id": 1762681643,
    "wof:placetype": "custom",
    "wof:placetype_alt": [
      "image"
    ],
    "wof:repo": "sfomuseum-data-media-collection",
    "wof:superseded_by": [],
    "wof:supersedes": []
  },
  "bbox": [
    -122.386472,
    37.616105,
    -122.385834,
    37.616611
  ],
  "geometry": {"type":"Polygon","coordinates":[[[-122.386472,37.616318],[-122.386435,37.616233],[-122.386376,37.616178],[-122.386301,37.616131],[-122.386161,37.616105],[-122.386022,37.616131],[-122.385914,37.616186],[-122.385855,37.616267],[-122.385834,37.616369],[-122.385871,37.616467],[-122.385941,37.616543],[-122.386054,37.616603],[-122.386183,37.616611],[-122.386306,37.616573],[-122.386419,37.616509],[-122.386467,37.616411],[-122.386472,37.616318]]]}
}
