{
  "id": 1846705701,
  "type": "Feature",
  "properties": {
    "date:cessation_lower": "1930-12-01",
    "date:cessation_upper": "1930-12-31",
    "date:inception_lower": "1930-09-01",
    "date:inception_upper": "1930-09-30",
    "edtf:cessation": "1930-12",
    "edtf:inception": "1930-09",
    "geom:area": 2.477324999997507e-7,
    "geom:bbox": "-122.386472,37.616105,-122.385834,37.616611",
    "geom:latitude": 37.61635756125121,
    "geom:longitude": -122.38615532866096,
    "media:fingerprint": "76df0e9920af99acc8862ce78c9808e7219379e1",
    "media:imagehash_avg": "a:007e7e7e7e7e7e00",
    "media:imagehash_diff": "d:d898b8c4c4c0d0c2",
    "media:imagetext": "PHOTO POST CARD\nADDRESS\nKodak-\nPLACE\nSTAMP\nHERE\n-- Paper--",
    "media:imagetext_created": 1787967366,
    "media:imagetext_source": "com.apple.visionkit.VNImageRequestHandler#Version 26.6.2 (Build 25G83)",
    "media:mimetype": "image/jpeg",
    "media:properties": {
      "sizes": {
        "b": {
          "extension": "jpg",
          "height": 692,
          "mimetype": "image/jpeg",
          "secret": "tQAv8ycfeIx8z1ZuquLzesjRCAED4Isx",
          "width": 1024
        },
        "c": {
          "extension": "jpg",
          "height": 540,
          "mimetype": "image/jpeg",
          "secret": "tQAv8ycfeIx8z1ZuquLzesjRCAED4Isx",
          "width": 800
        },
        "dc": {
          "extension": "jpg",
          "height": 540,
          "mimetype": "image/jpeg",
          "secret": "tQAv8ycfeIx8z1ZuquLzesjRCAED4Isx",
          "width": 800
        },
        "ds": {
          "extension": "jpg",
          "height": 320,
          "mimetype": "image/jpeg",
          "secret": "tQAv8ycfeIx8z1ZuquLzesjRCAED4Isx",
          "width": 320
        },
        "k": {
          "extension": "jpg",
          "height": 1384,
          "mimetype": "image/jpeg",
          "secret": "tQAv8ycfeIx8z1ZuquLzesjRCAED4Isx",
          "width": 2048
        },
        "n": {
          "extension": "jpg",
          "height": 216,
          "mimetype": "image/jpeg",
          "secret": "tQAv8ycfeIx8z1ZuquLzesjRCAED4Isx",
          "width": 320
        },
        "o": {
          "extension": "jpg",
          "height": 1161,
          "mimetype": "image/jpeg",
          "secret": "XGwu2xeJvHpCPBmK5EDpqMydETkbZNfR",
          "width": 1718
        },
        "s": {
          "extension": "jpg",
          "height": 320,
          "mimetype": "image/jpeg",
          "secret": "tQAv8ycfeIx8z1ZuquLzesjRCAED4Isx",
          "width": 320
        },
        "z": {
          "extension": "jpg",
          "height": 432,
          "mimetype": "image/jpeg",
          "secret": "tQAv8ycfeIx8z1ZuquLzesjRCAED4Isx",
          "width": 640
        }
      }
    },
    "media:source": "sfomuseum",
    "media:status_id": 1,
    "media:uri_template": "https://static.sfomuseum.org/media/184/670/570/1/1846705701_{secret}_{label}.{extension}",
    "millsfield:aircraft_id": [
      1159291707
    ],
    "millsfield:airline_id": [
      1159284991
    ],
    "millsfield:category_id": 1511214215,
    "millsfield:collection_id": 1511214207,
    "millsfield:company_id": [
      1159293917
    ],
    "millsfield:images_colors": [
      {
        "hex": "#cfc8b0",
        "name": "#cfc8b0",
        "reference": "marekm4"
      },
      {
        "hex": "#c0c0c0",
        "name": "silver",
        "reference": "css4"
      },
      {
        "hex": "#cdc5c2",
        "name": "Silver",
        "reference": "crayola"
      },
      {
        "hex": "#a29574",
        "name": "#a29574",
        "reference": "marekm4"
      },
      {
        "hex": "#bc8f8f",
        "name": "rosybrown",
        "reference": "css4"
      },
      {
        "hex": "#9f8170",
        "name": "Beaver",
        "reference": "crayola"
      }
    ],
    "millsfield:images_texts": [
      "*517",
      "PHOTO POST CARD\nADDRESS\nKodak-\nPLACE\nSTAMP\nHERE\n-- Paper--"
    ],
    "millsfield:images_texts_ids": [
      1846705699,
      1846705701
    ],
    "millsfield:similar": {
      "apple/mobileclip_s0": [
        {
          "distance": 0.2728539,
          "id": 1846706141
        },
        {
          "distance": 0.29006696,
          "id": 1813567817
        },
        {
          "distance": 0.31832588,
          "id": 1846755379
        },
        {
          "distance": 0.32843694,
          "id": 1846706145
        },
        {
          "distance": 0.3307231,
          "id": 1762713269
        },
        {
          "distance": 0.3488714,
          "id": 1762709415
        },
        {
          "distance": 0.35425845,
          "id": 1762711367
        },
        {
          "distance": 0.3544875,
          "id": 1762713273
        },
        {
          "distance": 0.355596,
          "id": 1762713179
        },
        {
          "distance": 0.35814855,
          "id": 1762709059
        }
      ],
      "apple/mobileclip_s1": [
        {
          "distance": 0.14164858,
          "id": 1813567817
        },
        {
          "distance": 0.19931257,
          "id": 1846706141
        },
        {
          "distance": 0.20608398,
          "id": 1846706019
        },
        {
          "distance": 0.2109353,
          "id": 1846706145
        },
        {
          "distance": 0.21384396,
          "id": 1762708943
        },
        {
          "distance": 0.21959619,
          "id": 1762713179
        },
        {
          "distance": 0.21959627,
          "id": 1762704359
        },
        {
          "distance": 0.22240904,
          "id": 1762711367
        },
        {
          "distance": 0.22373319,
          "id": 1762704471
        },
        {
          "distance": 0.22395349,
          "id": 1762709525
        }
      ],
      "apple/mobileclip_s2": [
        {
          "distance": 0.22651795,
          "id": 1846706141
        },
        {
          "distance": 0.23201545,
          "id": 1846706145
        },
        {
          "distance": 0.24760777,
          "id": 1813567817
        },
        {
          "distance": 0.27956888,
          "id": 1846706019
        },
        {
          "distance": 0.29453427,
          "id": 1846755379
        },
        {
          "distance": 0.3090024,
          "id": 1762707787
        },
        {
          "distance": 0.31367102,
          "id": 1762709615
        },
        {
          "distance": 0.3166703,
          "id": 1762711367
        },
        {
          "distance": 0.31692013,
          "id": 1762713269
        },
        {
          "distance": 0.31823575,
          "id": 1762709525
        }
      ]
    },
    "millsfield:subcategory_id": 1511213363,
    "mz:is_current": 1,
    "sfomuseum:filename": "103b.jpg",
    "sfomuseum:image_id": 264997,
    "sfomuseum:image_index": 0,
    "sfomuseum:image_type": "studio",
    "sfomuseum:object_id": 233025,
    "sfomuseum:placetype": "image",
    "sfomuseum:primary_image": 0,
    "src:geom": "sfomuseum",
    "wof:belongsto": [
      102527513,
      1159162825,
      102191575,
      85633793,
      102087579,
      85922583,
      1846705217,
      85688637,
      1159160869
    ],
    "wof:country": "XY",
    "wof:created": 1679559215,
    "wof:depicts": [
      1159293917,
      1846705217,
      1159284991,
      1159286839,
      1159291707
    ],
    "wof:geomhash": "ed7c2ab3547fc3916b5edc33488deaa7",
    "wof:hierarchy": [
      {
        "building_id": -1,
        "campus_id": 102527513,
        "collection_id": 1159162825,
        "concourse_id": 1159162825,
        "continent_id": 102191575,
        "country_id": 85633793,
        "county_id": 102087579,
        "custom_id": 1846705701,
        "image_id": 1846705701,
        "locality_id": 85922583,
        "neighbourhood_id": -1,
        "object_id": 1846705217,
        "region_id": 85688637,
        "wing_id": 1159160869
      }
    ],
    "wof:id": 1846705701,
    "wof:lastmodified": 1788451622,
    "wof:name": "postcard: Pan American Airways, Sikorsky S-43",
    "wof:parent_id": 1846705217,
    "wof:placetype": "custom",
    "wof:placetype_alt": [
      "image"
    ],
    "wof:repo": "sfomuseum-data-media-collection",
    "wof:superseded_by": [],
    "wof:supersedes": []
  },
  "bbox": [
    -122.386472,
    37.616105,
    -122.385834,
    37.616611
  ],
  "geometry": {"type":"Polygon","coordinates":[[[-122.386472,37.616318],[-122.386435,37.616233],[-122.386376,37.616178],[-122.386301,37.616131],[-122.386161,37.616105],[-122.386022,37.616131],[-122.385914,37.616186],[-122.385855,37.616267],[-122.385834,37.616369],[-122.385871,37.616467],[-122.385941,37.616543],[-122.386054,37.616603],[-122.386183,37.616611],[-122.386306,37.616573],[-122.386419,37.616509],[-122.386467,37.616411],[-122.386472,37.616318]]]}
}
