{
  "id": 1913802401,
  "type": "Feature",
  "properties": {
    "date:cessation_lower": "1935-08-21",
    "date:cessation_upper": "1935-08-21",
    "date:inception_lower": "1935-08-21",
    "date:inception_upper": "1935-08-21",
    "edtf:cessation": "1935-08-21",
    "edtf:inception": "1935-08-21",
    "geom:area": 2.477324999997507e-7,
    "geom:bbox": "-122.386472,37.616105,-122.385834,37.616611",
    "geom:latitude": 37.61635756125121,
    "geom:longitude": -122.38615532866096,
    "media:fingerprint": "e038ae65ee76607af9cb4ddd937aac5b62298bc7",
    "media:imagehash_avg": "a:93819181858181bf",
    "media:imagehash_diff": "d:6767634d292b6b6b",
    "media:imagetext": "ou\n- at\n9:159\nam\nerme\nMETROPOLE HOTEL\nSHO\nSHANGHAI, CHINA.\nCABLE ADDRESS: \"METHOTEL\"\nEnsconnerd in\nTELEPHONE: 12500\nmy pink dreasing\ngoon\nwritin;\nto\nYou in the flicker-\ning tivilegst\nthe tetropols beat\nlight.\ngot your en\nai maie thi after-\nan\nnoon\nwith Francis\nlittr anchore. 9\nreturn the cotta\npin heer wick.\nNeon mind abont",
    "media:imagetext_created": 1787972811,
    "media:imagetext_source": "com.apple.visionkit.VNImageRequestHandler#Version 26.6.2 (Build 25G83)",
    "media:mimetype": "image/tiff",
    "media:properties": {
      "sizes": {
        "b": {
          "extension": "jpg",
          "height": 768,
          "mimetype": "image/jpeg",
          "secret": "SoKiCskdAmwbzTwKpsO6khWKarPA2iXW",
          "width": 493
        },
        "c": {
          "extension": "jpg",
          "height": 600,
          "mimetype": "image/jpeg",
          "secret": "SoKiCskdAmwbzTwKpsO6khWKarPA2iXW",
          "width": 385
        },
        "dc": {
          "extension": "jpg",
          "height": 600,
          "mimetype": "image/jpeg",
          "secret": "SoKiCskdAmwbzTwKpsO6khWKarPA2iXW",
          "width": 385
        },
        "ds": {
          "extension": "jpg",
          "height": 320,
          "mimetype": "image/jpeg",
          "secret": "SoKiCskdAmwbzTwKpsO6khWKarPA2iXW",
          "width": 320
        },
        "k": {
          "extension": "jpg",
          "height": 1536,
          "mimetype": "image/jpeg",
          "secret": "SoKiCskdAmwbzTwKpsO6khWKarPA2iXW",
          "width": 986
        },
        "n": {
          "extension": "jpg",
          "height": 240,
          "mimetype": "image/jpeg",
          "secret": "SoKiCskdAmwbzTwKpsO6khWKarPA2iXW",
          "width": 154
        },
        "o": {
          "extension": "jpg",
          "height": 2000,
          "mimetype": "image/jpeg",
          "secret": "Mpg7WsIbzLCiOH1csL4qCVoIZy5umUv1",
          "width": 1285
        },
        "s": {
          "extension": "jpg",
          "height": 320,
          "mimetype": "image/jpeg",
          "secret": "SoKiCskdAmwbzTwKpsO6khWKarPA2iXW",
          "width": 320
        },
        "z": {
          "extension": "jpg",
          "height": 480,
          "mimetype": "image/jpeg",
          "secret": "SoKiCskdAmwbzTwKpsO6khWKarPA2iXW",
          "width": 308
        }
      }
    },
    "media:source": "sfomuseum",
    "media:status_id": 1,
    "media:uri_template": "https://static.sfomuseum.org/media/191/380/240/1/1913802401_{secret}_{label}.{extension}",
    "millsfield:airline_id": [
      1159284991
    ],
    "millsfield:category_id": 1511214251,
    "millsfield:collection_id": 1511214207,
    "millsfield:company_id": [
      1159286839
    ],
    "millsfield:images_colors": [
      {
        "hex": "#e8d9b0",
        "name": "#e8d9b0",
        "reference": "marekm4"
      },
      {
        "hex": "#f5deb3",
        "name": "wheat",
        "reference": "css4"
      },
      {
        "hex": "#efcdb8",
        "name": "Desert Sand",
        "reference": "crayola"
      },
      {
        "hex": "#383527",
        "name": "#383527",
        "reference": "marekm4"
      },
      {
        "hex": "#2f4f4f",
        "name": "darkslategrey",
        "reference": "css4"
      },
      {
        "hex": "#414a4c",
        "name": "Outer Space",
        "reference": "crayola"
      }
    ],
    "millsfield:images_texts": [
      "HAYHOTELS.UIDD)\nMETROPOLE HOTEL\nSHANGHAI, CHINA.\nCABLE ADDRESS:\n\"METHOTEL\"\nWire 8/21\nTELEPHONE: 12500\nDeariat Debs.\nsauled for\nhome gratu day.\nChest\nhustled it to the offer\nwhere is unpacked\nyour stuff and the\namall chesto for\nTies Sharp and\nthen sit Strides\nCheat to his boat.",
      "It was a hectie da\nal around and when\nit was\nJuant to\nfinale, oun\nted at\n9:15 and slept\nuntie 8:15 thei a.m.\nI dont know\nWheth se you wante\nme to hare Starle\ntake -\n• many fur\nhome or not.\nBut in the bax\nI found what?\nblow describen\nthe puce of which\nall greek to\n019.121.09379",
      "an e thefore\nKATHAY HOTELS.UID\nMETROPOLE HOTEL\nSHANGHAI, CHINA.\nCABLE ADDRESS: \" METHOTEL\"\nI am listin\nTELEPHONE: 12500\nthe pluader\nand\nsk that you sand\nme prompte, the\nvalues of same\nso 9 can wirs\nStssle what sums\nto declars. The, an\nin the orde manes\n1. peers of clygr\nlamb? unfainted\n2. Two whits fur\nneck pirces\n3. Fur blanket",
      "4. Doilies (sure in\ngreen clock for\nhus Dran.)\nI know tk at you\nwant e the coil i.\nshippre toat an o\nthat you wants\nsome\nor all of\nthe per preces. of\nI hair sent more\nthan -\nyou wanted\nsant\nyou ee -\nqua\nhair to\ntre\nsade\nto sale them and\nthen \"-\nyou can bu\nmors\nto replace\n2019.12109376",
      "what 9\nshoned\nTHOTELS\nnot\nMETROPOLE HOTEL\nsent.\nSHANGHAI, CHINA\nCABLE AODRESS: \" METHOTEL\"\nVELEPHONE: 12500\nStrale\ndid nt mine\ntaking them. He\nhad lot of room\nand while his\nown loot came\noun\nto #15.00 U.S. 2 am\nsure that Scotchman\nwile find means\nof galing\nthe sm\nthrough custom\nwith out sprudin\nmuch money.\nPleare write to me",
      "guin the\nvalue,\nby numbers ie.\n#, Chapes lambe\nso much\n#2\n2 white fur neck\npiers - so much\nStrile ha.\na list\nand all I need\nto do is wins\nhim the numbus\nane prices.\nIf you\ndont remimber -\nit is our underdandi\nthat he wise let\nthe customs man fix\n201912.0937c",
      "the\ne values.\nI certame\nKA HAY HOTLISTLD.\nSHO\nMETROPOLE HOTEL\nSHANGHAI, CHINA.\nCABLE ADDRESS: \"METHOTEL\"\nhop that\nTELEPHONE: 12500\nhair nt made a\njon instruction\nbut all 3 can trim\nto remimb was\n\"to sind the fur\nfirers to\n- Caddy.\nTonight 9 quit\nthe offer at 5\noclock -\n- it was a\nhot day-\nand\nwint out to the\nClub to laker a surm",
      "I know you wort\nbler\nme\nlent his.\nSallero was there -\nbut left zare, -\nChill,, Broilles, titen\nand hrs bitch and\nlots of othno. au\nsurens\n9 bowled\nwith Chile and\nBroiles -\nhad a\nswiss chees\non\nRys a balle of\nbeer and then came\nto the hatre when\n2019.121.09372",
      "ou\n- at\n9:159\nam\nerme\nMETROPOLE HOTEL\nSHO\nSHANGHAI, CHINA.\nCABLE ADDRESS: \"METHOTEL\"\nEnsconnerd in\nTELEPHONE: 12500\nmy pink dreasing\ngoon\nwritin;\nto\nYou in the flicker-\ning tivilegst\nthe tetropols beat\nlight.\ngot your en\nai maie thi after-\nan\nnoon\nwith Francis\nlittr anchore. 9\nreturn the cotta\npin heer wick.\nNeon mind abont",
      "the\nChecks. his\nfortes\nwe be able\nto straighten that\nale ont\nwhen she\ngito the bank\nstatiment. I shoned\nnot hair troubled\nyou in the ferat\nplacs. Wont foyrt\nto sane me\nturo\nblank ones\nBronx ville - just in\nCasE.\nIt looks now\nao though 3 won\nbr going\nto Manla",
      "bifore avont the\n10H1\nMETROPOLE HOTEL\nSHANGHAI, CHINA.\nCABLE ADDRESS: \" METHOTEL\"\nTELEPHONE: 12500\nSeptember and\nam\nwondering\nif Francs wont\nwant to Come\ndown her with\nRuth. I. coned\nstay\nwith me at\nthe metropole or\nI conco mor out\nto qur tock with\nher. Then ur coned\nlear by boat for\nmanila abont the",
      "time Ruck saie\nfor home, mayh a\njuw days soner\nor latu degradin,\non schedules and\ncircumstances.\nI cant do muck\nat Ranking braun\ntopay lury this.\nNo dicisions cra\non the most trirae\nanz bring\nmade.\nOf the impo\ndo not change it",
      "ma\nte possibe for\nKAHAYHOTELS ITD!\nme\nMETROPOLE HOTEL\nSHANGHAI, CHINA\nCABLE ADDRESS: \"METHOTEL\"\nCome up\nto\nEPHONE: 12500\nFikini\nas you\nConlo lear here\non the Themsday\nplane a wick\nfrom ton orow ie.\nthe zgth and come\nback\non Suaday,\ntee try. really.\nToday\nDr Raner\nthat the\ntold me\nhite nick baby\nran a tron of",
      "110 for half an\nhour before he\ndied. mayh for got\ngood blood aftin\nau! Hair nt seen\nNick but sint\nflowns. Their was\nno funeral.\nmust go to\nwork on\ntrau Coup\nCones pondena\nnow - loto an e\nlots and lots and\nloto of lor angre-\nYour Bix\n2019\n121.09379"
    ],
    "millsfield:images_texts_ids": [
      1913802383,
      1913802385,
      1913802387,
      1913802389,
      1913802391,
      1913802393,
      1913802395,
      1913802397,
      1913802401,
      1913802403,
      1913802405,
      1913802407,
      1913802409,
      1913802411
    ],
    "millsfield:similar": {
      "apple/mobileclip_s0": [
        {
          "distance": 0.40715322,
          "id": 1913802387
        },
        {
          "distance": 0.4107826,
          "id": 1913800927
        },
        {
          "distance": 0.4173544,
          "id": 1913801467
        },
        {
          "distance": 0.4191283,
          "id": 1913801515
        },
        {
          "distance": 0.42614582,
          "id": 1913799769
        },
        {
          "distance": 0.42636174,
          "id": 1913800951
        },
        {
          "distance": 0.42771414,
          "id": 1913801469
        },
        {
          "distance": 0.42908362,
          "id": 1913802391
        },
        {
          "distance": 0.43394178,
          "id": 1913802627
        },
        {
          "distance": 0.43442973,
          "id": 1913802405
        }
      ],
      "apple/mobileclip_s1": [
        {
          "distance": 0.2913238,
          "id": 1913802593
        },
        {
          "distance": 0.29547596,
          "id": 1913802405
        },
        {
          "distance": 0.2981243,
          "id": 1913800511
        },
        {
          "distance": 0.29824874,
          "id": 1913800273
        },
        {
          "distance": 0.3003616,
          "id": 1913799741
        },
        {
          "distance": 0.30068251,
          "id": 1913800591
        },
        {
          "distance": 0.30131593,
          "id": 1913800687
        },
        {
          "distance": 0.30180997,
          "id": 1846809283
        },
        {
          "distance": 0.30196798,
          "id": 1913802711
        },
        {
          "distance": 0.3049348,
          "id": 1913799813
        }
      ],
      "apple/mobileclip_s2": [
        {
          "distance": 0.4418745,
          "id": 1913800927
        },
        {
          "distance": 0.46113026,
          "id": 1913802405
        },
        {
          "distance": 0.4640193,
          "id": 1913800043
        },
        {
          "distance": 0.46685106,
          "id": 1913802693
        },
        {
          "distance": 0.4740327,
          "id": 1913802683
        },
        {
          "distance": 0.47566,
          "id": 1913802539
        },
        {
          "distance": 0.47588494,
          "id": 1913800513
        },
        {
          "distance": 0.47774553,
          "id": 1913802133
        },
        {
          "distance": 0.47895232,
          "id": 1913802635
        },
        {
          "distance": 0.48199952,
          "id": 1913800933
        }
      ]
    },
    "millsfield:subcategory_id": 1511213489,
    "mz:is_current": 1,
    "sfomuseum:filename": "2019.121.0937e_front.tif",
    "sfomuseum:image_id": 231119,
    "sfomuseum:image_index": 0,
    "sfomuseum:image_type": "studio",
    "sfomuseum:object_id": 211300,
    "sfomuseum:placetype": "image",
    "sfomuseum:primary_image": 0,
    "src:geom": "sfomuseum",
    "wof:belongsto": [
      102527513,
      1159162825,
      102191575,
      85633793,
      102087579,
      85922583,
      1913795205,
      85688637,
      1159160869
    ],
    "wof:country": "XY",
    "wof:created": 1714551917,
    "wof:depicts": [
      1159284991,
      1159286839,
      1913795205
    ],
    "wof:geomhash": "ed7c2ab3547fc3916b5edc33488deaa7",
    "wof:hierarchy": [
      {
        "building_id": -1,
        "campus_id": 102527513,
        "collection_id": 1159162825,
        "concourse_id": 1159162825,
        "continent_id": 102191575,
        "country_id": 85633793,
        "county_id": 102087579,
        "custom_id": 1913802401,
        "image_id": 1913802401,
        "locality_id": 85922583,
        "neighbourhood_id": -1,
        "object_id": 1913795205,
        "region_id": 85688637,
        "wing_id": 1159160869
      }
    ],
    "wof:id": 1913802401,
    "wof:lastmodified": 1788220463,
    "wof:name": "correspondence: Harold M. Bixby to Debby Bixby",
    "wof:parent_id": 1913795205,
    "wof:placetype": "custom",
    "wof:placetype_alt": [
      "image"
    ],
    "wof:repo": "sfomuseum-data-media-collection",
    "wof:superseded_by": [],
    "wof:supersedes": []
  },
  "bbox": [
    -122.386472,
    37.616105,
    -122.385834,
    37.616611
  ],
  "geometry": {"type":"Polygon","coordinates":[[[-122.386472,37.616318],[-122.386435,37.616233],[-122.386376,37.616178],[-122.386301,37.616131],[-122.386161,37.616105],[-122.386022,37.616131],[-122.385914,37.616186],[-122.385855,37.616267],[-122.385834,37.616369],[-122.385871,37.616467],[-122.385941,37.616543],[-122.386054,37.616603],[-122.386183,37.616611],[-122.386306,37.616573],[-122.386419,37.616509],[-122.386467,37.616411],[-122.386472,37.616318]]]}
}
