{
  "id": 1527847845,
  "type": "Feature",
  "properties": {
    "date:cessation_lower": "1970-01-01",
    "date:cessation_upper": "1970-12-31",
    "date:inception_lower": "1970-01-01",
    "date:inception_upper": "1970-12-31",
    "edtf:cessation": "1970",
    "edtf:date": "1970",
    "edtf:inception": "1970",
    "geom:area": 0,
    "geom:bbox": "-122.386155,37.616358,-122.386155,37.616358",
    "geom:latitude": 37.616358,
    "geom:longitude": -122.386155,
    "iso:country": "US",
    "media:fingerprint": "a2305c999a0fbbbd4d07215394099f02c9ca80a4",
    "media:imagehash_avg": "a:ffa0b080a080a0ff",
    "media:imagehash_diff": "d:2164445656545452",
    "media:imagetext": "CONCORD TO:.\nEureka\nFresno\nLake Tahoe\nSacramento\nSalinas\nSan Francisco\nFlight #\n204/824\n204/601\n212/609\n214/711\n204/601\n214/711\n204/401\n202\nSanta Rosa\n206\n208\n210\n212\n214\n216\n212/814\n214/818\nEUREKA TO:\nDepart\n7:30a\n7:30a\n4:15p\n6:00p\n7:30a\n6:00p\n7:30a\n6:30a\n7:30a\n8.30a\n9:30a\n11:30a\n4. 00\n6:00p\n9:05p\n4:15p\n0.00g\nConcord\nFresno\nLake Tahoe\nMerced\nModesto\nReno\nSacramento\nSalinas\nSan Francisco\nSanta Rosa\nUkiah\nFRESNO TO:.\nFlight #\n825/205\n825/601\n809/777\n827/711\n827/309\n827/309\n809/777\n825/601\n827/711\n825/401\n825\n805\noUN\n807\n827\n809\n809\nConcord\nLake Tahoe\nModesto\nNapa\nReno\nSacramento\nFlight #\n604/211\n604/777\n604\n604/211\n604/777\n604\nSalinas\nSan Francisco\n608\n602\n604\nSan Jose\nSanta Rosa\nVisalia\n608\n602\n606\n602/808\n604/812\n606/822\n612\nDepart\n6:30a\n6:30a\n10:05a\n4:30p\n4:30p\n4:30p\n10:05a\n6:30a\n10:05a\n4:30p\n6:30a\n6:30a\n8:30a\n10:05a\n10:05a\n4:30p\n10:05a\n10:05a\nDepart\n12:50p\n12:50p\n12:50p\n12:50p\n12:50p\n12:50p\n6:25p\n10:05a\n12:50p\n1:00p\n6:25p\n10:05a\n6:25p\n10:05a\n12:50p\n6:25p\n11:55a\nArrive\nStops\n9:45a\n9:55a\n6:20p\n8:05p\n8:50a\n8:35a\n6:50a\n8:50a\n9:50a\n11:50a\n4:35p\n6:20p\n9:25p\n5:20p\n7:10p\noc\nRemarks\nFare\nEx Sat/Sun 23.50\nEx Sat/Sun\n19.00\nEx Sat/Sun 19.00\nEx Sat/Tue 18.00\nEx Sat/Sun 12.00\nEx Sat/Tue 12.00\nEx Sat/Sun 16.50\nEx Sat/ Sun\n8.00\nEx Sat/Sun\n8.00\nEx Sat/Sun\n8.00\nSat/ Sunonly 8.00\nEx\nSat/Sun\nEx Sat\n8.00\nDaily\n8.00\n8.00\nEx Sat\n8.00\nEx Sat\nSat only\n15.00\n15.00\nArrive\n8:25a\n9:55a\n3:10p\n8:05p\n7:00p\n7:30p\n3:45p\n8:50a\n2:15p\n7:15p\n8:35a\n7:50a\n10:10a\n12:05p\n11:40a\n5:50p\n11:25a\n10:50a\nStops\nRemarks\nFare\nEx Sat/Sun 23.50\nEx Sat/Sun 31.00\nEx Sat/Tue 28.50\nEx Sat/Tue 28.50\nEx Sat\n29.00\nEx Sat\n27.50\nEx Sat/Tue 34.50\nEx Sat/Sun 24.00\nex sat tue 24.00\nEx Sat/Tue 28.50\nEx Sat/Sun 28.50\nEx Sat/Sun 22.00\nSat only\n22.00\nEx Sat/ Sun\nSun only\n22.00\n22.00\nEx Sat\n22.00\nEx Sat/Sun 21.00\nEx Sat/Sun 15.00\nArrive\n4:05p\n3:10p\n1:30p\n3:40p\n3:45p\n2:15p\n1:55p\n7:20p\n11:20a\n3:00p\n2:45p\n8:10p\n10:50a\n7:10p\n1:00p\n4:00p\n8:55p\n12:15p\nStops\nRemarks\nFare\nEx Sat/Sun 19.00\nEx Sat/Sun 18.50\nEx Sat/Sun 11.00\nEx Sat/Sun 19.50\nEx Sun\n21.50\nEx Sat/Sun 15.00\nSat onlv\nEx Sat\n15.00\n15.00\nEx Sat/Sun 16.00\nEx Sat/Sun 18.50\nSat only\n18.50\nSun only\n18.50\nEx Sat/Sun 13.00\nEx Sat\n13.00\nEx Sat/Sun 23.50\nNG:\nEx Sat/Sun 23.50\nSun only\n23.50\nEx Sat/Sun\n6.00\nLAKE TAHOE TO:\nConcord\nEureka\nFresno\nMerced\nModesto\nReno\nSacramento\nSan Francisco\nSanta Rosa\n777/816\nMERCED TO:\nConcord\nFlight #\nEureka\nLake Tahoe\nModesto\nReno\nSacramento\nSan Francisco\nMODESTO TO:.\nConcord\nEureka\nFresno\nLake Tahoe\nReno\nSacramento\nSan Francisco\nFlight #\n302/205\n310\n302/824\n607\n604/777\n604/777\n604\n302\n304\n604\n308\n310\nNAPA TO:\nFresno\nMerced\nSan Francisco\nStockton\nFlight #\n212/609\n208/303\n208\n210\n212\n212/507\nDepart\n3:20p\n3:20p\n3:20p\n3:20p\n3:20p\n3:20p\n3:20p\n8:15p\n3:20p\n8:15p\n3:20p\nDepart\n6:50a\n7:10p\n6:50a\n11:50a\n6:50a\n11:50a\n3:30p\n7:10p\n11:50a\n6:50a\n11:50a\n6:50a\n11:50a\n3:30p\n7:10p\nDepart\n7:20a\n7:40p\n7:20a\n5:35p\n1:40p\n1.400\n1:40p\n7:20a\n12.2U0\n1:40p\n4:00p\n7:40p\nDepart\n3:50p\n9:30a\n9:30a\n11:05a\n3:50p\n3:50p\nArrive\nStops\n5:50p\n7:30p\n6:15p\n7:00p\n5:25p\n3:45p\n4:35p\n8:55p\n5:20p\n9:40p\n6:45p\nRemarks\nFare\nEx Tue\n18.00\nEx Tue\n28.50\nEx Sat/Tue 18.50\nEx Sat/Tue\n17.50\nEx Sat/Tue\n16.50\nEx Tue\n7.00\nEx Tue\n9.00\nEx Sat/Tue\n9.00\nEx Tue\n17.00\nEx Sat/Tue\n17.00\nEx Sat/Tue 18.00\nArrive Stops\n8:25a\n8:55p\n9:45a\n3:10p\n7:10a\n12:10p\n3:50p\n7:30p\n3:45p\n8:50a\n2:15p\n7:55a\n12:55p\n4:35p\n8:15p\nRemarks\nFare\nEx Sat/Sun 13.50\nEx Sat\n13.50\nEx Sat/Sun 29.00\nEx S/S/Tu\n17.50\nEx Sat/Sun\n8.00\nEx Sun\n8.00\nEx Sat\n8.00\nEx Sat\n8.00\nEx S/S/Tu\n19.50\nEx Sat/Sun 13.00\nEx S/S/Tu\n13.00\nEx Sat/Sun 12.50\nEx Sun\nEx Sat\n12.50\n12.50\nArrive Stops\n8:2ba\n8:55p\n9:45a\n6:15p\n3:10p\n3:45p\n2:15p\n7:55a\n12:55p\n3:00p\n4:35p\n8:15p\nRemarks\nFare\nEx Sat/Sun 12.00\nEx Sat\n12.00\nEx Sat/Sun 27.50\nEx Sat\n11.00\nEx S/S/Tu\n16.50\nEx S/S/Tu\n18.50\nEx Sat/Sun 11.50\nEx Sat/Sun 11.00\n11.00\nEx Sat/Sun 11.00\nEx Sat\nEx Sat\n11.00\n11.00\nArrive Stops\n6:20p\n11:40a\n9:50a\n11:50a\n4:35p\n5:20p\nRemarks\nFare\nEx Sat/Sun 19.50\nEx Sat/Sun 17.00\nEx Sat/ Sun\n8.50\nEx Sat/Sun\nEx Sat\n8.50\n8.50\nEx Sat/Sun 11.00\nRENO TO:\nConcord\nEureka\nFresno\nMerced\nModesto\nSacramento\nSan Francisco\nSanta Rosa\nFlight#\n778/213\n778/826\n778/607\n778/309\n778/607\n778\n778\n778/816\nDepart\n3:55p\n3:55p\n3:55p\n3:55p\n3:55p\n3:55p\n3:55p\n3:55p\nSA\nCRAMENT\nConcord\nEureka\nFresno\nLake Tahoe\nMerced\nModesto\nNapa\nReno\nSan Francisco\nSan Jose\nSanta Rosa\nUkiah\nDepart\n2:55p\n4:45p\n7:35p\n4:45p\n9:00a\n4:55p\n2:30p\n1:25p\n4:45p\n4:55p\n2:25p\n2:30p\n2:10p\n2:25p\n4:45p\n7:35p\n7:35p\n9:05p\n1U.Iva\n7:35p\n2:25p\n4.400\n7:35p\n7:35p\nSALINAS TO:.\nLake Tahoe\nSacramento\nSan Francisco\nSan Jose\nFlight #\n610/777\n611\n610\n611\nDepart\n11:30a\n8:45a\n11:30a\n8:45a\nSAN JOSE TO:\nFresno\nSacramento\nSalinas\nVisalia\nFlight #\n612\n605\n609\n611\n602\n612\nDepart\n11:00a\n4:45p\n5:35p\n9:20a\n11:00a\n11:00a\nArrive Stops\n5:50p\n2\n7:20p\n2\n6:15p\n7:00p\n5:25p\n4:35p\n5:20p\n6:45p\nFare\n20.00\n34.50\n15.00\n22.00\nArrive\nStops\n4:05p\n5:50p\n8:55p\n7:30p\n9:55a\n6:15p\n3:10p\n8:05p\n7:00p\n5:25p\n3:40p\n3:45p\n2:45p\n3:00p\n5:20p\n8:40p\n8:10p\n9:40p\n10:50a\n8:15p\n4:00p\n0.400\n9:00p\n9:30p\nKemarks\nFare\nEx Sat/Sun 12.00\n12.00\nSun only\n12.00\nEx S/S/Tu 24.00\nEx Sat/Sun 15.00\nEx Sat\n15.00\nEx Tue\n9.00\nEx Sat/Tue\n9.00\nEx Sat/Tue 13.00\nEx Sat\n11.50\nEx Sat/Sun 10.00\nEx Tue\n15.00\nSat only\n9.00\nEx Sat/Sun\n9.00\nEx Tue\nEx Sat/Sun\n9.00\n9.00\nSun Only\nEx Sat/Tue\n9.00\n9.00\nEx Sat/Sun 10.50\nEx Sat/Sun 10.50\nEx Sat/Sun 11.00\nex sat/ lue 11.00\nSun only\n11.00\nSun only\n15.50\nArrive Stops\nRemarks\nFare\n3:10p\n2 Ex S/S/Tu 22.50\n10:00a\nEx Sat/Sun 19.00\n12:00n\n0 Ex Sat/Sun 10.50\n9:10a 0\nEx Sat/Sun\n9.00\n11:45a\n5:30p\n6:20p\n10:00a\n11:20a\n12:15p\nKemarKs\nrare\nEx Sat/Sun 13.00\nSun only\n13.00\nEx Sat/Sun 13.00\nEx Sat/Sun 10.50\nEx Sat/Sun\n9.00\nEx Sat/Sun 15.00\nSANTA ROSA TO:\nFlight #\nEureka\n803/824\n810\nFresno\n801/601\n807/603\n815/609\nLake Tahoe\nMerced\n817/711\n805/303\n817/309\nModesto\n805/303\n817/309\nSacramento\n801/601\n817/711|\nSan Francisco\n801\n803\n805\n807\nSan Jose\nStockton\nUkiah\n811\n827\n815\n817\n819\n831\n822\n815\n801/501\n806\n810\n822\nSTOCKTON TO:.\nLake Tahoe\nSacramento\nSan Francisco\nSanta Rosa\nFlight #\n508/711\n508/711\n502\n504\n508\n502/804\nUKIAH TO:\nEureka\nNapa\nSan Francisco\nSanta Rosa\nVISALIA TO:.\nFresno\nModesto\nSacramento\nSan Francisco\nSanta Rosa\nFlight#\n810\n803/207\n803\n809\n825\n803\n809\n811\nFlight#\n604\n604\n604\n604\n604/812\nDepart\n7:35a\n2:55p\n6:40a\n11:10a\n4:10p\n5:30p\n9:40a\n5:30p\n9:40a\n5:30p\n6:40a\n5:30p\n7:35a\n11:10a\n12:35p\n5:30p\n6:55p\n7:20p\n8:20p\n9:05p\n4:10p\n6:40a\n11:15a\n2:55p\n9:05p\nArrive\n9:45a\n4:15p\n9:55a\n12:55p\n6:20p\n8:05p\n11:40a\n7:00p\n12:10p\n7:30p\n8:50a\n7:15p\n7:10a\n8:05a\n11:40a\n12:05p\n1:05p\n3:25p\n4:40p\n6:00p\n7:25p\n7:50p\n8:50p\n10:25p\n5:25p\n8:00a\n11:40a\n3:20p\n9:30p\nStops\nRemarks\nFare\nEx Sat/Sun 21.00\nEx Sat\n21.00\n2 Ex Sat/Sun 23.50\nSat only\n23.50\nEx Sat/Sun 23.50\nEx Sat/Tue 18.00\nEx Sun\n19.00\n19.00\no c\no c\no c\no c\nEx Sun\nEx Sat\n14.50\nEx Sat/Sun 11.00\nEx Sat/Tue 11.00\nEx Sat/Sun\n9.00\nEx Sat/ Sun\n9.00\nEx Sun\nSat/ Sun only 9.00\nEx Sat/Sun\n9.00\nSun only\n9.00\nSat only\nEx\nSat/Sun\n9.00\n9.00\nEx Sat\nEx Sat\n9.00\n9.00\nSat only\nFri only\nSun only\n9.00\nEx Sat/Sun 11.00\nEx Sat/Sun 13.00\nSun only\nEx Sat\nSun only\n7.50\nDepart\n5:30p\n5:30p\n8:10a\n3:25p\n5:30p\n8:10a\n5:30p\nDepart\n3:30p\n7:00a\n7:00a\n11:00a\n12:00n\n9:35p\n7:00a\n11:00a\n12:00n\nDepart\n12:20p\n12:20p\n12:20p\n12:20p\n12:20p\nArrive\nStops\nRemarks\nFare\n8:05p\n2 Ex Sat/Tue 16.00\n7:15p\n1 Ex Sat/Tue\n9.00\n8:40a\n3:55p\nEx Sat/Sun\n9.50\nEx Sat\n6:00p\nEx Sat\n9.50\n9.50\n9:30a\nEx Sat/Sun 13.00\n6:45p\nATTIVe\nStops\n4:15p\n9:20a\n8:05a\n12:05p\n10:25p\n7:25a\n11:25a\n12:25p\nRemarks\nFare\nEx Sat\n15.00\nEx Sat/Sun 10.50\nEx Sat/Sun 16.50\nEx Sat/Sun 16.50\nSun only\nSun only\n16.50\nEx Sat/Sun\n7.50\nEx Sat/Sun\n.50\nSun only\nArrive\nStops\nRemarks\nFare\n12:40p\nEx Sat/ Sun\n6.00\n1:30p\nEx Sat/Sun 13.00\n2:15p\nEx Sat/Sun 17.00\n3:00p\nEx Sat/Sun 22.50\n4:00p\nEx Sat/Sun 24.50",
    "media:imagetext_created": 1787952416,
    "media:imagetext_source": "com.apple.visionkit.VNImageRequestHandler#Version 26.6.2 (Build 25G83)",
    "media:medium": "image",
    "media:mimetype": "image/tiff",
    "media:properties": {
      "sizes": {
        "b": {
          "extension": "jpg",
          "height": 619,
          "mimetype": "image/jpeg",
          "secret": "YfBdkzDg7zOEnVDegeVBRqMGCsfa37P9",
          "width": 1024
        },
        "c": {
          "extension": "jpg",
          "height": 483,
          "mimetype": "image/jpeg",
          "secret": "YfBdkzDg7zOEnVDegeVBRqMGCsfa37P9",
          "width": 800
        },
        "dc": {
          "extension": "jpg",
          "height": 483,
          "mimetype": "image/jpeg",
          "secret": "YfBdkzDg7zOEnVDegeVBRqMGCsfa37P9",
          "width": 800
        },
        "ds": {
          "extension": "jpg",
          "height": 320,
          "mimetype": "image/jpeg",
          "secret": "YfBdkzDg7zOEnVDegeVBRqMGCsfa37P9",
          "width": 320
        },
        "k": {
          "extension": "jpg",
          "height": 1238,
          "mimetype": "image/jpeg",
          "secret": "YfBdkzDg7zOEnVDegeVBRqMGCsfa37P9",
          "width": 2048
        },
        "n": {
          "extension": "jpg",
          "height": 193,
          "mimetype": "image/jpeg",
          "secret": "YfBdkzDg7zOEnVDegeVBRqMGCsfa37P9",
          "width": 320
        },
        "o": {
          "extension": "jpg",
          "height": 1824,
          "mimetype": "image/jpeg",
          "secret": "PjLCl5nQKxk8Q3vzHxX6mgaLHajfZzkt",
          "width": 3015
        },
        "s": {
          "extension": "jpg",
          "height": 320,
          "mimetype": "image/jpeg",
          "secret": "YfBdkzDg7zOEnVDegeVBRqMGCsfa37P9",
          "width": 320
        },
        "z": {
          "extension": "jpg",
          "height": 387,
          "mimetype": "image/jpeg",
          "secret": "YfBdkzDg7zOEnVDegeVBRqMGCsfa37P9",
          "width": 640
        }
      }
    },
    "media:source": "sfomuseum",
    "media:status_id": 1,
    "media:uri_template": "https://static.sfomuseum.org/media/152/784/784/5/1527847845_{secret}_{label}.{extension}",
    "millsfield:airline_id": [
      1159284451
    ],
    "millsfield:airport_id": [
      102527513
    ],
    "millsfield:category_id": 1511214223,
    "millsfield:collection_id": 1511214207,
    "millsfield:company_id": [
      1159288705
    ],
    "millsfield:images_colors": [
      {
        "hex": "#e0d3a7",
        "name": "#e0d3a7",
        "reference": "marekm4"
      },
      {
        "hex": "#eee8aa",
        "name": "palegoldenrod",
        "reference": "css4"
      },
      {
        "hex": "#edd19c",
        "name": "Maize",
        "reference": "crayola"
      },
      {
        "hex": "#4e4821",
        "name": "#4e4821",
        "reference": "marekm4"
      },
      {
        "hex": "#556b2f",
        "name": "darkolivegreen",
        "reference": "css4"
      },
      {
        "hex": "#714b23",
        "name": "Raw Umber",
        "reference": "crayola"
      },
      {
        "hex": "#9e9669",
        "name": "#9e9669",
        "reference": "marekm4"
      },
      {
        "hex": "#808080",
        "name": "grey",
        "reference": "css4"
      },
      {
        "hex": "#9f8170",
        "name": "Beaver",
        "reference": "crayola"
      }
    ],
    "millsfield:images_texts": [
      "GA\nGOLDEN\nPACIFIC\nAIRLINES\nFLIGHT SCHEDULES\nEffective March 1, 1970\n59 25\nHATIOHAL\nAIRPORT",
      "CONCORD TO:.\nFlicht #\nEureka\n~resno\n204/824\n202/600\nLake Tahoe\nSacramento\n214/711\nSalinas\n204/101\n204/401\nSan Francisco\nSanta Rosa\nEUREKA TO:.\n212/814\n214/010\n6:000\nConcord\nFresno\nLake Tahoe\nMerced\nModesto\nReno\nSacramento\nFlight #\n825/205\nDepart\n825/601\n6:30a\n809/777\n6:30\n10000\n827/309\n827/309\n4:30p\n809/777\n4:30p_\n825/601\n10:05a\n827/777\n825/401\nSalinas\nSan Francisco\nSanta Rosa\nUkiah\nFRESNO TO:\nConcord\nLake Tahoe\nModesto\nNapa\nReno\nSacramento\nSalinas\nSan Francisco\nSan Jose\nFlight #\n604/211\n604/777\n604\n604/211\n6047777\n608\n602\nSanta Rosa\nVisalia\n602/808\n612\n1 Ex Sat/Sun 23.50\n7:15р\n6:000\n2000\n8:050\nEx Sat/ Tue 18.00\n4.500\nEx Sat/Tue 12.00\n7:30a\n8:35a\n1 Ex Sat/Sun 16.50\nEx Sat/Sun 8.00\nEx Sat/Sun\n5:20p\n1 Fy Sat\nsat onl\n15.00\nArrive stops\n8:25a\n9:55a\n1 Ex Sat/ Sun 23.50\n2 Ex Sat/sun 31.00\n7:00p\n1 Ex Sat\n7:30p 2 Ex Sat\n27.50\n3:45p 5 Ex Sat/Tue 34.50\n8:50a\n7:15p\n6:30a\n8:30a\nTEx sat/sun 2o.50\n6:30a\n10:05a\n11:25a\nEx Sat/ Sun 21.00\n10:05a\n10:50a 0 EX Sat/Sun 15.00\nDepart\n12:50p\n12:50p\n12:50p\n12:50p\n12:50p\n1250p\n6:25p\n10:05a\n12:50р\n10:05a\n11:55a\nArrive stops\nKemarks\n4:05p 4 Ex Sat/Sun 19.00\n3:10p 2 Ex Sat/Sun 18.50\n1:30p 0 Ex Sat/Sun 11.00\n3:40p_\n3 Ex Sat/Sun 19.50\n3:450 3 EX Sun\n21.50\nExton/Sun 15.00\n7:20p\n11:20a\n3:00р\n15.00\n1 Ex Sat/ Sun 16.00\n2 Ex Sat/Sun 18.50\n10:50a\n18.50\nEx Sat/Sun 13.00\n7:10p_\n• EX Sat\n13.00\n3 Excat/Sun 23.60\n12:15p\n23,50\n0 Ex Sat/Sun 6.00\nLAKE TAHOETO,\nFlight #\nConcord\ncurera\nFresno\nMerced\nModesto\nReno\nsacramento\n777/213\n777/826\n777/607\n777/309\n777/607\nsan Francisco\nSanta Rosa\n780\n777/816\nDepart\nArrive stops\n3:20р\nRemarks\n5:500\n3 Ex Tue\n18.00\n3:20p\n7:30p 3\nEx Tue\n3:20р\n28.50\n6:150 3 EXSat/Tue 18.50\n3:20p\n7:00p 3 Ex Sat/Tue 17.50\n3:20р\n5:250\n2 Ex Sat/Tive 16.50\n3:20p\n3:45p 0 Ex Tue\n3:20р\n4:35p\nEx Tue\n7.00\n8:151\n8:550\n3:20р\n0 Ex Sat/Tue 9.00\nEx Tue\n17.00\n8:15p\n3:20p\n9:40p\n6:45p\nEx Sat/Tue 17.00\n3 Ex Sat/Tue 18.00\nMERCED TO:\nConcord\n302/205\nDepart\n6:50a\nEureka\nLake Tahoe\nModesto\n3091824\n6:50a\n304/777\n11:50a\n6:50a\n11:50a\n310\nReno\nSacramento\n3047777\n7.100\n11150a\n302/101\n6:50a\n11:50a\nSan Francisco\n6:50a\n11:50a\n7:100\nMODESTO TO: _\nConcord\nEureka\nFresno\nLake Tahoe\nReno\nSacramento\nSan Francisco\nright \"\n3021205\nSTU\n302/824\n607\n604/777\n604/777\n604\nvepart\n7:20a\n7:40g\n7:20a\n0.50\n1.400\n1:40p\n1:40p\n7:40p\nNAPA TO:\nDepart\nFresno\nMerced\nSan Francisco\nFlight #\n212/609\n208/303\n9:302\n210\n212\n212/507\nEx Sat/Sun\n8:55p_\nEx Sat\n1350\n9:45a\n3 Ex Sat Sun 29.00\n3:10p 3 Ex S/S/Tu 17.50\n12-10р\nEx Sat/Sun\n8.00\n7:30р\n3:450\n2:15р\n7:55a\n12:55p\n3:15р\nEx S/S/Tu 19.50\nEx Sat/\n'Sun 13.00\nEx S/S/Tu 13.00\nEx Sat/Sun 12.50\nEx Sun\n12.50\nEx Sat\n12.50\nArrive Stops\nkemarks\nrare\n8:25a\nEx Sat/sun\n12.00\n0.000\nEx sal\n12.00\n9:45a 2 Ex Sat/ Sun 27.50\n6:15p 0 Ex Sat\n11.00\n3:10p 2 Ex S/S/Tu 16.50\n3:45p 3 Ex S/S/Tu 18.50\n2:15p 0 Ex Sat/ Sun 11.50\n9+15\n10100\nSat/ Sun\nSat/ Sun 11.00\nEx sat\n11.00\n11.00\nArrive Stops\nRemarks\nEx Sat/ Sun\nFaso\n171408\nex sat/ sun\n17.00\nEx Sat/Sun\nEx Sat/ Sur\nEX Sat\n8.50\n5:20p\nEx Sat/ Sun\nRENO TO:\nconcora\ncureke\nFresno\nMerced\nModesto\nSacramento\nSan Francisco\nSanta Rosa\nFlight #\n778/213\n110/020\n778/607\n110/ JUS\n778/607\n778\n778/816\nSACRAMENTO TO:\nFlight #\nConcord\n00/213\n608/215\n778/826\nEureka\nFresno\nLake Tahoe\nMerced\nModesto\nNapa\nReno\nSan Francisco\nbUT\n778/309\n607\n604/211\n777\nSan Jose\nSanta Rosa\nUkiah\n612\nOUc\n604/812\n778/816\n608/822\nDepart\n3.090\n3:55p\n3.990\n3.00p\n3:55p\n7:35p\n4:45p_\n9:00a\n4:55p\n2200\n4:45p\n4:55p_\n2:25p_\n2:30p_\n2:20р\n4:45р\n10:10a\n2:25р\n4:45р\n7:35p\n7:35p\n5:50p_\n2 Ex Tue\n20.00\nAZUO\n2 EX TUE\n34.50\n2 Ex Sat/Tue 21.50\n\"UUD\n2 Ex Sat/Tue 19.50\n1 Ex Sat/Tue 18.50\n4:35p 0 Ex Tue\n5:20p\n1 Ex Tue\n15.00\n6:45p\n22.00\n2 Ex Sat/Tue 20.00\nArrive stops\n5:000\nKemarks\n12.00\n8:55p\n1 Sun only\n7:30p\n12.00\n2 Ex S/S/Tu 24.00\n9:55a\n6:15p\n0 Ex Sat/Sun 15.00\n\"ex sat\n15.00\n3:10p\n0 Ex Tue\n0 Ex Sat/Tue 9.00\n7:00p\n1 Ex Sat/Tue 13.00\n3:40p\n11.50\n1 Ex Sat/Sun 10.00\n3:45p\nEx Tue\n15.00\nEx Tue\n9.00\n9.00\nex sat sun T0.90\n° Ex Sal/Sun 10.50\n4:00р\nEx Sat/Sun 11.00\n6:45р\nex sat/ Tue\n9:00p_\noun only\n9:30p\n2 Sun only\nSALINAS TO:-\nLake Tanoe\nSacramento\nSan Francisco\nSan Jose\nSAN JOSE TO:\nFresno\nSalinas\nFlight #\n6107777\n611\nFlight #\n605\n609\n602\nDepart\nArrive Stops Remarks\nFare\n11:30a\n3:10p\n2 Ex S/S/ Tu 22.50\n8:45a\n10:00a 1 Ex Sat/Sun 19.00\n11:30a\n8:45a\n12:00n 0 Ex Sat/Sun 10.50\n9:10a 0 Ex Sat/Sun 9.00\nDepart\n9:20a\n11:00a\n11:00a\nArrive Stops\nEx Sat/ Sun\n18.00\n6:20р\n0 Ex Sat/Sun 13.00\n10:00a 0 Ex Sat/Sun 10.50\n11:20a\n0 Ex Sat/Sun 9.00\n12:15р\n1 Ex Sat/Sun 15.00\nSANTA ROSA TO:\nEureka\nFresno\nLake Tahoe\nMerced\nModesto\nSacramento\n803/824\n807/603\n817/711\nDepart\n7:35a\n2.000\n110a\n4:10p\n5:30р\n5200\n817/308\n5:300\nSan Francisco\nArrive\n9:45a\n4:150\nEx Sat/ Sun 21.00\n12:55p\n6:20p\n8:05р_\n2 Ex Sat/Tue 18.00\n18.\n14.50\n14.00\n8:50a\nSan Jose\nStockton\nUkiah\n801/501\n4:10p\n6:40a\n816\n822\n1250\n9:05р\n5:25p\n1 Ex Sat/Sun 11.00\n8:00a\n1 Ex Sat/Sun 13.00\nExs only\n9:30p\nSTOCKTON TO:\nLake Tanoe\nSacramento\nSan Francisco\nSanta Rosa\n508/711\n508/711\n504\n508\n808/808\nDepart\nD.JU\n5:30p\n8:10a\n5:30р\nArrive Stops\n8:05p 2 Ex Sat/Tue 16.00\n7:15p 1 Ex Sat/Tue 9.00\n8:40a\n6:00p\n° Ex Sat/ Sun\n9.50\n9.50\nUKIAH TO:.\nEureka\nNapa\nSan Francisco\nFlight #\n610\n803/207\nSanta Rosa\nDepart\n3:300\nArrive Stops\nRemarks\nFare\n4:190\n19.UU\n9:20a 2 Ex Sat/ Sun 10.50\n12000\n8:05a\n1 Ex Sat/\nSun 16.50\n9.390\n1:05р\n10:25p\nI Sun only\n17:000\n7:25a\n25\n12:00n\n12:25p\nVISALIA TO:-\nFresno\nModesto\nsacramento\nsan Francisco\nsanta nosa\nFlight #\nDepart\n604\n12:20p\n604\n12:20p\n604\n12:20p\n604/812\n12:20p\n12:20p\nArrive\n12:40р\n0 Ex Sat/Sun 6.00\n1:30p_\n2:15p\n1 Ex Sat/Sun 13.00\n2 Ex Sat/Sun 17.00\n3:00p_\n4:00p\n3 Ex Sat/Sun 22.50\n4 Ex Sat/Sun 24.50",
      "Northern California's own\nCommunity Airline\nSome 253 Northern California communities, large\nare now being served by Golden Pacific\nAirlines through sixteen airport cities, from Eureka to\nvisalla. we also livio neno. Nevada.\nOur objective, primarily, is to strengthen the\neconomic and cutural bonds between each orthe\n93 communities and San Francisco At the came\ntime, we also provide regular service between many\net in transi and the tear a cinctions\nour system\nOn Golden Pacific you'll fly the elegant Beech 99\nAirliner te only aircradesioneo specitically Tor\nthis ivoe or service… stast smooth. and uxurious\nAnd all operations are geared to full major airline\nstandards.\nIf you're going to or from any of the 253 GPA\ncommunities in Northern California, served via the\nixteen GPA airport citi\nhe only sensible way is\nthrough the air on Golden Pacific.\nIn our Beech 99s, it's a great new experience.\nGA\nPACIFIC\nAIRLINES\nFLIGHT SCHEDULES\nEffective March 1, 1970\n• UKIAH\n_SANTA\nSAN FRANCISCO\nOAKLAND\nSAN JO\nSALINAS\nSTOCKTON\nFRESNO\nVISALIA\nThe Golden Routes\nof Northern California\nFor Information Call:\nConcord-Buchanan Field\nEureka/Arcata Airport\npal Airport\naRanoint marional Airport\nCoromant Matranslan Minert\nCalinos Municinal Airnort\nSan Francisco International Airnort\nSan lose Municinal Airnort\nSanta Rosa-Sonoma Countv Airport\n(415) 687-6200\nSAN FRANGSCO TO\nFlight #\nconcora\nEureka\nFresno\nLake Tahoe\nMerced\nModesto\nSanta Rosal\nStockton\n826\n711\n607\n507\nDepart\nArrive Stops\nRemarks\no.zUa\nwex bat/ sun oUl\nEx Sat/Sun 22.00\nDaily\n22.00\n/Sun 18.50\nEx Sat\n5:00p\n1:40р\n6:20p\n1 Ens 1080\nFx Tue\n6:40p\n8:05p\nEx Sat/ Tue 17,00\n18303\n11:200 ° ExSat/ Sun 12.50\n6:20p\n9:00a\n3:20p\n6:40р\nEx Sat/Sun 11.00\n11.00\nEx Sat\n11.00\n1 Ex Sat\n11.00\nex sat/sun 6.00\n3:40p\n0 Ex Sat\nEx Sat/ Sun 8,50\n22.00\nSat/Sun\nEx Sat\n7:15p\n0 Ex Sat/Sun 10.50\nEx Sat/ Sun\n4:500\nSat Only\no Sun Only\n9.00\nExeat/sun 9.50\n9.50\n2:15p\n8:300\n9:300\nSun Onl\n16.50\nOAKLAND TO:_\nSchedule to be announced.\nAll fares are one-wav plus tay\nOne day (24 hour) round-trip excursion fare: 25% off\noren under"
    ],
    "millsfield:images_texts_ids": [
      1527839661,
      1527847845,
      1527847847
    ],
    "millsfield:similar": {
      "apple/mobileclip_s0": [
        {
          "distance": 0.3772027,
          "id": 1762698781
        },
        {
          "distance": 0.37742594,
          "id": 1527835731
        },
        {
          "distance": 0.38327178,
          "id": 1762698379
        },
        {
          "distance": 0.38789895,
          "id": 1762698387
        },
        {
          "distance": 0.38836432,
          "id": 1527818707
        },
        {
          "distance": 0.3982672,
          "id": 1527835739
        },
        {
          "distance": 0.40094414,
          "id": 1527839067
        },
        {
          "distance": 0.41230944,
          "id": 1527835735
        },
        {
          "distance": 0.41257587,
          "id": 1762698025
        },
        {
          "distance": 0.41500157,
          "id": 1527845725
        }
      ],
      "apple/mobileclip_s1": [
        {
          "distance": 0.26676324,
          "id": 1527835731
        },
        {
          "distance": 0.27132574,
          "id": 1527848321
        },
        {
          "distance": 0.27627409,
          "id": 1763196603
        },
        {
          "distance": 0.28157696,
          "id": 1527839423
        },
        {
          "distance": 0.28684857,
          "id": 1527835735
        },
        {
          "distance": 0.28746185,
          "id": 1527835739
        },
        {
          "distance": 0.28908738,
          "id": 1762714003
        },
        {
          "distance": 0.29449123,
          "id": 1527851293
        },
        {
          "distance": 0.2961771,
          "id": 1762698037
        },
        {
          "distance": 0.30176452,
          "id": 1762698065
        }
      ],
      "apple/mobileclip_s2": [
        {
          "distance": 0.35710418,
          "id": 1527835731
        },
        {
          "distance": 0.38070914,
          "id": 1527848321
        },
        {
          "distance": 0.3945449,
          "id": 1762698387
        },
        {
          "distance": 0.41167462,
          "id": 1763196603
        },
        {
          "distance": 0.4121225,
          "id": 1762698065
        },
        {
          "distance": 0.41406018,
          "id": 1763241407
        },
        {
          "distance": 0.41928402,
          "id": 1527847831
        },
        {
          "distance": 0.42047796,
          "id": 1762698401
        },
        {
          "distance": 0.42270562,
          "id": 1762698035
        },
        {
          "distance": 0.42293525,
          "id": 1527835739
        }
      ]
    },
    "millsfield:subcategory_id": 1511213425,
    "mz:hierarchy_label": 1,
    "mz:is_current": -1,
    "sfomuseum:filename": "72062.tif",
    "sfomuseum:image_id": 72062,
    "sfomuseum:image_index": 5,
    "sfomuseum:image_type": "studio",
    "sfomuseum:object_id": 97821,
    "sfomuseum:placetype": "image",
    "sfomuseum:primary_image": 0,
    "src:geom": "sfomuseum",
    "wof:belongsto": [
      1511214223,
      1511936441,
      102527513,
      102191575,
      85633793,
      1511213425,
      85922583,
      102087579,
      1511214277,
      1511214203,
      85688637
    ],
    "wof:breaches": [],
    "wof:country": "US",
    "wof:created": 1578953741,
    "wof:depicts": [
      1159284451,
      1159288705,
      1511936441,
      102527513
    ],
    "wof:geomhash": "bd906905ce4be6c0651c90b0fc24804c",
    "wof:hierarchy": [
      {
        "arcade_id": 1511213425,
        "building_id": 1511214277,
        "campus_id": 102527513,
        "concourse_id": 1511214223,
        "continent_id": 102191575,
        "country_id": 85633793,
        "county_id": 102087579,
        "custom_id": 1527847845,
        "image_id": 1527847845,
        "locality_id": 85922583,
        "media_id": 1527847845,
        "neighbourhood_id": -1,
        "region_id": 85688637,
        "venue_id": 1511936441,
        "wing_id": 1511214203
      }
    ],
    "wof:id": 1527847845,
    "wof:lastmodified": 1774079156,
    "wof:name": "timetable: Golden Pacific Airlines",
    "wof:parent_id": 1511936441,
    "wof:placetype": "custom",
    "wof:placetype_alt": [
      "image"
    ],
    "wof:repo": "sfomuseum-data-media-collection",
    "wof:superseded_by": [],
    "wof:supersedes": [],
    "wof:tags": []
  },
  "bbox": [
    -122.386155,
    37.616358,
    -122.386155,
    37.616358
  ],
  "geometry": {"type":"Point","coordinates":[-122.386155,37.616358]}
}
