{
  "id": 1762894857,
  "type": "Feature",
  "properties": {
    "date:cessation_lower": "1979-01-01",
    "date:cessation_upper": "1979-12-31",
    "date:inception_lower": "1979-01-01",
    "date:inception_upper": "1979-12-31",
    "edtf:cessation": "1979",
    "edtf:inception": "1979",
    "geom:area": 2.477324999997507e-7,
    "geom:bbox": "-122.386472,37.616105,-122.385834,37.616611",
    "geom:latitude": 37.61635756125121,
    "geom:longitude": -122.38615532866096,
    "media:fingerprint": "de28049e9918c0af51983dea1c9c77e1dd18da96",
    "media:imagehash_avg": "a:cf017f7f7f0001ff",
    "media:imagehash_diff": "d:9bbbf9b195e9e9d9",
    "media:imagetext": "L-1011\nJust in case:.\nPAN AM\nPAN AM.\nFor the safety of others please do not remove card from airplane\n© Copyrighted 1979 by Interaction Research Corporation\n925-370360",
    "media:imagetext_created": 1787959094,
    "media:imagetext_source": "com.apple.visionkit.VNImageRequestHandler#Version 26.6.2 (Build 25G83)",
    "media:mimetype": "image/tiff",
    "media:properties": {
      "sizes": {
        "b": {
          "extension": "jpg",
          "height": 768,
          "mimetype": "image/jpeg",
          "secret": "0Fy8myQy7XosAJysgMbpKImC0jF8fgXx",
          "width": 352
        },
        "c": {
          "extension": "jpg",
          "height": 600,
          "mimetype": "image/jpeg",
          "secret": "0Fy8myQy7XosAJysgMbpKImC0jF8fgXx",
          "width": 275
        },
        "dc": {
          "extension": "jpg",
          "height": 600,
          "mimetype": "image/jpeg",
          "secret": "0Fy8myQy7XosAJysgMbpKImC0jF8fgXx",
          "width": 275
        },
        "ds": {
          "extension": "jpg",
          "height": 320,
          "mimetype": "image/jpeg",
          "secret": "0Fy8myQy7XosAJysgMbpKImC0jF8fgXx",
          "width": 320
        },
        "k": {
          "extension": "jpg",
          "height": 1536,
          "mimetype": "image/jpeg",
          "secret": "0Fy8myQy7XosAJysgMbpKImC0jF8fgXx",
          "width": 705
        },
        "n": {
          "extension": "jpg",
          "height": 240,
          "mimetype": "image/jpeg",
          "secret": "0Fy8myQy7XosAJysgMbpKImC0jF8fgXx",
          "width": 110
        },
        "o": {
          "extension": "jpg",
          "height": 2000,
          "mimetype": "image/jpeg",
          "secret": "3UvMIhDxneq0uDTJ4IOikXgUwo3TO2g1",
          "width": 919
        },
        "s": {
          "extension": "jpg",
          "height": 320,
          "mimetype": "image/jpeg",
          "secret": "0Fy8myQy7XosAJysgMbpKImC0jF8fgXx",
          "width": 320
        },
        "z": {
          "extension": "jpg",
          "height": 480,
          "mimetype": "image/jpeg",
          "secret": "0Fy8myQy7XosAJysgMbpKImC0jF8fgXx",
          "width": 220
        }
      }
    },
    "media:source": "sfomuseum",
    "media:status_id": 1,
    "media:uri_template": "https://static.sfomuseum.org/media/176/289/485/7/1762894857_{secret}_{label}.{extension}",
    "millsfield:aircraft_id": [
      1159291129
    ],
    "millsfield:airline_id": [
      1159284989
    ],
    "millsfield:category_id": 1762671311,
    "millsfield:collection_id": 1511214207,
    "millsfield:company_id": [
      1159293697
    ],
    "millsfield:images_colors": [
      {
        "hex": "#4b94bc",
        "name": "#4b94bc",
        "reference": "marekm4"
      },
      {
        "hex": "#4682b4",
        "name": "steelblue",
        "reference": "css4"
      },
      {
        "hex": "#6699cc",
        "name": "Blue Gray",
        "reference": "crayola"
      },
      {
        "hex": "#12588f",
        "name": "#12588f",
        "reference": "marekm4"
      },
      {
        "hex": "#008080",
        "name": "teal",
        "reference": "css4"
      },
      {
        "hex": "#2e5894",
        "name": "B'dazzled Blue",
        "reference": "crayola"
      },
      {
        "hex": "#d6d3cb",
        "name": "#d6d3cb",
        "reference": "marekm4"
      },
      {
        "hex": "#d3d3d3",
        "name": "lightgrey",
        "reference": "css4"
      },
      {
        "hex": "#dbd7d2",
        "name": "Timberwolf",
        "reference": "crayola"
      },
      {
        "hex": "#12191f",
        "name": "#12191f",
        "reference": "marekm4"
      },
      {
        "hex": "#000000",
        "name": "black",
        "reference": "css4"
      },
      {
        "hex": "#000000",
        "name": "Black",
        "reference": "crayola"
      }
    ],
    "millsfield:images_texts": [
      "L-1011\nJust in case:.\nPAN AM\nPAN AM.\nFor the safety of others please do not remove card from airplane\n© Copyrighted 1979 by Interaction Research Corporation\n925-370360",
      "EXI\nEXIT\n3\n7\nPUL\n4\n2007.011.065",
      "EXIT\n5\n•)\n2\nEXIT\n...\n3\nEXIT\n4\nEXIT\n2\nSEC\n3",
      "5\nEXI\n2\n3\n4\nEXIT\n1\n2\n3"
    ],
    "millsfield:images_texts_ids": [
      1762894857,
      1762894859,
      1762894861,
      1762894865
    ],
    "millsfield:similar": {
      "apple/mobileclip_s0": [
        {
          "distance": 0.23867732,
          "id": 1762894725
        },
        {
          "distance": 0.3419841,
          "id": 1762894681
        },
        {
          "distance": 0.36438754,
          "id": 1762894695
        },
        {
          "distance": 0.3676614,
          "id": 1931109721
        },
        {
          "distance": 0.36796966,
          "id": 1914580049
        },
        {
          "distance": 0.3858756,
          "id": 1762894703
        },
        {
          "distance": 0.40896782,
          "id": 1914580077
        },
        {
          "distance": 0.4149385,
          "id": 1914580043
        },
        {
          "distance": 0.5473512,
          "id": 1762894843
        },
        {
          "distance": 0.6070451,
          "id": 1762893653
        }
      ],
      "apple/mobileclip_s1": [
        {
          "distance": 0.19993378,
          "id": 1762894725
        },
        {
          "distance": 0.22771391,
          "id": 1914580049
        },
        {
          "distance": 0.27231693,
          "id": 1914580043
        },
        {
          "distance": 0.2762464,
          "id": 1914580077
        },
        {
          "distance": 0.282322,
          "id": 1762894703
        },
        {
          "distance": 0.2913198,
          "id": 1931109721
        },
        {
          "distance": 0.29712817,
          "id": 1762894681
        },
        {
          "distance": 0.30226043,
          "id": 1762894695
        },
        {
          "distance": 0.3599167,
          "id": 1762894843
        },
        {
          "distance": 0.37648687,
          "id": 1762700353
        }
      ],
      "apple/mobileclip_s2": [
        {
          "distance": 0.2154142,
          "id": 1762894725
        },
        {
          "distance": 0.27223173,
          "id": 1931109721
        },
        {
          "distance": 0.31748343,
          "id": 1762894703
        },
        {
          "distance": 0.3187344,
          "id": 1762894681
        },
        {
          "distance": 0.32503498,
          "id": 1762894695
        },
        {
          "distance": 0.32807902,
          "id": 1914580043
        },
        {
          "distance": 0.33125028,
          "id": 1914580049
        },
        {
          "distance": 0.40089688,
          "id": 1914580077
        },
        {
          "distance": 0.40183058,
          "id": 1762894843
        },
        {
          "distance": 0.53653574,
          "id": 1762700353
        }
      ]
    },
    "millsfield:subcategory_id": 1511213703,
    "mz:is_current": 1,
    "sfomuseum:filename": "81714.tif",
    "sfomuseum:image_id": 81714,
    "sfomuseum:image_index": 5,
    "sfomuseum:image_type": "studio",
    "sfomuseum:object_id": 82516,
    "sfomuseum:placetype": "image",
    "sfomuseum:primary_image": 1,
    "src:geom": "sfomuseum",
    "wof:belongsto": [
      102527513,
      1159162825,
      102191575,
      85633793,
      102087579,
      85922583,
      1762830731,
      85688637,
      1159160869
    ],
    "wof:country": "XY",
    "wof:created": 1643414256,
    "wof:depicts": [
      1762830731,
      1159293697,
      1159284989,
      1159291129
    ],
    "wof:geomhash": "ed7c2ab3547fc3916b5edc33488deaa7",
    "wof:hierarchy": [
      {
        "building_id": -1,
        "campus_id": 102527513,
        "collection_id": 1159162825,
        "concourse_id": 1159162825,
        "continent_id": 102191575,
        "country_id": 85633793,
        "county_id": 102087579,
        "custom_id": 1762894857,
        "image_id": 1762894857,
        "locality_id": 85922583,
        "neighbourhood_id": -1,
        "object_id": 1762830731,
        "region_id": 85688637,
        "wing_id": 1159160869
      }
    ],
    "wof:id": 1762894857,
    "wof:lastmodified": 1788450774,
    "wof:name": "safety information card: Pan American World Airways, Lockheed L-1011 TriStar",
    "wof:parent_id": 1762830731,
    "wof:placetype": "custom",
    "wof:placetype_alt": [
      "image"
    ],
    "wof:repo": "sfomuseum-data-media-collection",
    "wof:superseded_by": [],
    "wof:supersedes": []
  },
  "bbox": [
    -122.386472,
    37.616105,
    -122.385834,
    37.616611
  ],
  "geometry": {"type":"Polygon","coordinates":[[[-122.386472,37.616318],[-122.386435,37.616233],[-122.386376,37.616178],[-122.386301,37.616131],[-122.386161,37.616105],[-122.386022,37.616131],[-122.385914,37.616186],[-122.385855,37.616267],[-122.385834,37.616369],[-122.385871,37.616467],[-122.385941,37.616543],[-122.386054,37.616603],[-122.386183,37.616611],[-122.386306,37.616573],[-122.386419,37.616509],[-122.386467,37.616411],[-122.386472,37.616318]]]}
}
