{
  "id": 1846756029,
  "type": "Feature",
  "properties": {
    "date:cessation_lower": "1930-08-01",
    "date:cessation_upper": "1930-08-31",
    "date:inception_lower": "1930-05-01",
    "date:inception_upper": "1930-05-31",
    "edtf:cessation": "1930-08",
    "edtf:inception": "1930-05",
    "geom:area": 2.477324999997507e-7,
    "geom:bbox": "-122.386472,37.616105,-122.385834,37.616611",
    "geom:latitude": 37.61635756125121,
    "geom:longitude": -122.38615532866096,
    "media:fingerprint": "947e4ff82d6328833463b56d48a134e6baddf011",
    "media:imagehash_avg": "a:007e7e7e7e7e5600",
    "media:imagehash_diff": "d:b0b6a8ea8eac94a8",
    "media:imagetext": "MR. FOSTER - MIAMI\nУсв.\n10:0\nClipper Ships at Pan-American Airport\nHAND COLORED\nPOST CARD\nDear krauth have been tuably lazy about uself\nbut sabel said she sauld send yau a lete\nwhile yau wee ni Born, and o wrote It Dovald.\nîn mat see, y you are home yet, huh\ny not, you wiel get the When yuu come.\nI have had a.\nlovely trip, trough Hus\nmasvelane stato, ken liked it, on preman\nAnother\nvisit, but see much:\nthe tram Hope yun köne enaged you wait\naland, and Kept well, and loud home and Don",
    "media:imagetext_created": 1787967512,
    "media:imagetext_source": "com.apple.visionkit.VNImageRequestHandler#Version 26.6.2 (Build 25G83)",
    "media:mimetype": "image/jpeg",
    "media:properties": {
      "sizes": {
        "b": {
          "extension": "jpg",
          "height": 729,
          "mimetype": "image/jpeg",
          "secret": "HZCtbRs1bal9tRDwJD7FZtivyjrju8Gp",
          "width": 1023
        },
        "c": {
          "extension": "jpg",
          "height": 570,
          "mimetype": "image/jpeg",
          "secret": "HZCtbRs1bal9tRDwJD7FZtivyjrju8Gp",
          "width": 800
        },
        "dc": {
          "extension": "jpg",
          "height": 570,
          "mimetype": "image/jpeg",
          "secret": "HZCtbRs1bal9tRDwJD7FZtivyjrju8Gp",
          "width": 800
        },
        "ds": {
          "extension": "jpg",
          "height": 320,
          "mimetype": "image/jpeg",
          "secret": "HZCtbRs1bal9tRDwJD7FZtivyjrju8Gp",
          "width": 320
        },
        "k": {
          "extension": "jpg",
          "height": 1459,
          "mimetype": "image/jpeg",
          "secret": "HZCtbRs1bal9tRDwJD7FZtivyjrju8Gp",
          "width": 2047
        },
        "n": {
          "extension": "jpg",
          "height": 228,
          "mimetype": "image/jpeg",
          "secret": "HZCtbRs1bal9tRDwJD7FZtivyjrju8Gp",
          "width": 320
        },
        "o": {
          "extension": "jpg",
          "height": 1232,
          "mimetype": "image/jpeg",
          "secret": "K7SbpeivtBJXWcDEMskLIBp04YFh9Js2",
          "width": 1729
        },
        "s": {
          "extension": "jpg",
          "height": 320,
          "mimetype": "image/jpeg",
          "secret": "HZCtbRs1bal9tRDwJD7FZtivyjrju8Gp",
          "width": 320
        },
        "z": {
          "extension": "jpg",
          "height": 456,
          "mimetype": "image/jpeg",
          "secret": "HZCtbRs1bal9tRDwJD7FZtivyjrju8Gp",
          "width": 640
        }
      }
    },
    "media:source": "sfomuseum",
    "media:status_id": 1,
    "media:uri_template": "https://static.sfomuseum.org/media/184/675/602/9/1846756029_{secret}_{label}.{extension}",
    "millsfield:aircraft_id": [
      1159291191,
      1159291657
    ],
    "millsfield:airline_id": [
      1159284991
    ],
    "millsfield:airport_id": [
      -1
    ],
    "millsfield:category_id": 1511214215,
    "millsfield:collection_id": 1511214207,
    "millsfield:company_id": [
      1159293917
    ],
    "millsfield:images_colors": [
      {
        "hex": "#d1ceb8",
        "name": "#d1ceb8",
        "reference": "marekm4"
      },
      {
        "hex": "#c0c0c0",
        "name": "silver",
        "reference": "css4"
      },
      {
        "hex": "#cdc5c2",
        "name": "Silver",
        "reference": "crayola"
      },
      {
        "hex": "#5f4524",
        "name": "#5f4524",
        "reference": "marekm4"
      },
      {
        "hex": "#556b2f",
        "name": "darkolivegreen",
        "reference": "css4"
      },
      {
        "hex": "#714b23",
        "name": "Raw Umber",
        "reference": "crayola"
      },
      {
        "hex": "#9c8e6b",
        "name": "#9c8e6b",
        "reference": "marekm4"
      },
      {
        "hex": "#808080",
        "name": "grey",
        "reference": "css4"
      },
      {
        "hex": "#9f8170",
        "name": "Beaver",
        "reference": "crayola"
      }
    ],
    "millsfield:images_texts": [
      "1C 476\n100000,",
      "MR. FOSTER - MIAMI\nУсв.\n10:0\nClipper Ships at Pan-American Airport\nHAND COLORED\nPOST CARD\nDear krauth have been tuably lazy about uself\nbut sabel said she sauld send yau a lete\nwhile yau wee ni Born, and o wrote It Dovald.\nîn mat see, y you are home yet, huh\ny not, you wiel get the When yuu come.\nI have had a.\nlovely trip, trough Hus\nmasvelane stato, ken liked it, on preman\nAnother\nvisit, but see much:\nthe tram Hope yun köne enaged you wait\naland, and Kept well, and loud home and Don"
    ],
    "millsfield:images_texts_ids": [
      1846756027,
      1846756029
    ],
    "millsfield:similar": {
      "apple/mobileclip_s0": [
        {
          "distance": 0.36235812,
          "id": 1846705965
        },
        {
          "distance": 0.3780381,
          "id": 1846756245
        },
        {
          "distance": 0.38889626,
          "id": 1846755397
        },
        {
          "distance": 0.40670618,
          "id": 1846705733
        },
        {
          "distance": 0.41659787,
          "id": 1846705943
        },
        {
          "distance": 0.42646697,
          "id": 2047987731
        },
        {
          "distance": 0.42646697,
          "id": 2048003125
        },
        {
          "distance": 0.42646697,
          "id": 2048073931
        },
        {
          "distance": 0.42646697,
          "id": 2048111129
        },
        {
          "distance": 0.42646697,
          "id": 2048125721
        }
      ],
      "apple/mobileclip_s1": [
        {
          "distance": 0.3033585,
          "id": 1846705965
        },
        {
          "distance": 0.31024307,
          "id": 1846755397
        },
        {
          "distance": 0.3131831,
          "id": 1846705943
        },
        {
          "distance": 0.31356922,
          "id": 2047987731
        },
        {
          "distance": 0.31356922,
          "id": 2048003125
        },
        {
          "distance": 0.31356922,
          "id": 2048046271
        },
        {
          "distance": 0.31356922,
          "id": 2048073931
        },
        {
          "distance": 0.31356922,
          "id": 2048088635
        },
        {
          "distance": 0.31356922,
          "id": 2048111129
        },
        {
          "distance": 0.31356922,
          "id": 2048125721
        }
      ],
      "apple/mobileclip_s2": [
        {
          "distance": 0.40693185,
          "id": 1846705943
        },
        {
          "distance": 0.42750022,
          "id": 1846705965
        },
        {
          "distance": 0.43306568,
          "id": 1846755397
        },
        {
          "distance": 0.44324902,
          "id": 2047987731
        },
        {
          "distance": 0.44324902,
          "id": 2048046271
        },
        {
          "distance": 0.44324902,
          "id": 2048073931
        },
        {
          "distance": 0.44324902,
          "id": 2048111129
        },
        {
          "distance": 0.44324902,
          "id": 2048125721
        },
        {
          "distance": 0.44324902,
          "id": 2048140347
        },
        {
          "distance": 0.44324902,
          "id": 2048153937
        }
      ]
    },
    "millsfield:subcategory_id": 1511213363,
    "mz:is_current": 1,
    "sfomuseum:filename": "402b.jpg",
    "sfomuseum:image_id": 265595,
    "sfomuseum:image_index": 0,
    "sfomuseum:image_type": "studio",
    "sfomuseum:object_id": 233324,
    "sfomuseum:placetype": "image",
    "sfomuseum:primary_image": 0,
    "src:geom": "sfomuseum",
    "wof:belongsto": [
      102527513,
      1159162825,
      102191575,
      85633793,
      102087579,
      85922583,
      1846754207,
      85688637,
      1159160869
    ],
    "wof:country": "XY",
    "wof:created": 1680078748,
    "wof:depicts": [
      1159291191,
      1159291657,
      1159293917,
      1159286839,
      1846754207,
      1159284991
    ],
    "wof:geomhash": "ed7c2ab3547fc3916b5edc33488deaa7",
    "wof:hierarchy": [
      {
        "building_id": -1,
        "campus_id": 102527513,
        "collection_id": 1159162825,
        "concourse_id": 1159162825,
        "continent_id": 102191575,
        "country_id": 85633793,
        "county_id": 102087579,
        "custom_id": 1846756029,
        "image_id": 1846756029,
        "locality_id": 85922583,
        "neighbourhood_id": -1,
        "object_id": 1846754207,
        "region_id": 85688637,
        "wing_id": 1159160869
      }
    ],
    "wof:id": 1846756029,
    "wof:lastmodified": 1788218870,
    "wof:name": "postcard: Pan American Airways, Martin M-130, Sikorsky S-40,  International Pan American Airport",
    "wof:parent_id": 1846754207,
    "wof:placetype": "custom",
    "wof:placetype_alt": [
      "image"
    ],
    "wof:repo": "sfomuseum-data-media-collection",
    "wof:superseded_by": [],
    "wof:supersedes": []
  },
  "bbox": [
    -122.386472,
    37.616105,
    -122.385834,
    37.616611
  ],
  "geometry": {"type":"Polygon","coordinates":[[[-122.386472,37.616318],[-122.386435,37.616233],[-122.386376,37.616178],[-122.386301,37.616131],[-122.386161,37.616105],[-122.386022,37.616131],[-122.385914,37.616186],[-122.385855,37.616267],[-122.385834,37.616369],[-122.385871,37.616467],[-122.385941,37.616543],[-122.386054,37.616603],[-122.386183,37.616611],[-122.386306,37.616573],[-122.386419,37.616509],[-122.386467,37.616411],[-122.386472,37.616318]]]}
}
