{
  "id": 1779744513,
  "type": "Feature",
  "properties": {
    "date:cessation_lower": "1970-01-01",
    "date:cessation_upper": "1979-12-31",
    "date:inception_lower": "1970-01-01",
    "date:inception_upper": "1979-12-31",
    "edtf:cessation": "197X",
    "edtf:inception": "197X",
    "geom:area": 2.477324999997507e-7,
    "geom:bbox": "-122.386472,37.616105,-122.385834,37.616611",
    "geom:latitude": 37.61635756125121,
    "geom:longitude": -122.38615532866096,
    "media:fingerprint": "8adf7a3bb1515ac6930a5baebdb7ba6d342886ff",
    "media:imagehash_avg": "a:3e7e7e7c3c060000",
    "media:imagehash_diff": "d:f8c0c0f0f8fcf0f0",
    "media:imagetext": "Aloha Your spirit Your airline.",
    "media:imagetext_created": 1787964974,
    "media:imagetext_source": "com.apple.visionkit.VNImageRequestHandler#Version 26.6.2 (Build 25G83)",
    "media:mimetype": "image/tiff",
    "media:properties": {
      "sizes": {
        "b": {
          "extension": "jpg",
          "height": 768,
          "mimetype": "image/jpeg",
          "secret": "c9hieUp94iXMvpLCM56vNim1QzZCb6ag",
          "width": 965
        },
        "c": {
          "extension": "jpg",
          "height": 600,
          "mimetype": "image/jpeg",
          "secret": "c9hieUp94iXMvpLCM56vNim1QzZCb6ag",
          "width": 754
        },
        "dc": {
          "extension": "jpg",
          "height": 600,
          "mimetype": "image/jpeg",
          "secret": "c9hieUp94iXMvpLCM56vNim1QzZCb6ag",
          "width": 754
        },
        "ds": {
          "extension": "jpg",
          "height": 320,
          "mimetype": "image/jpeg",
          "secret": "c9hieUp94iXMvpLCM56vNim1QzZCb6ag",
          "width": 320
        },
        "k": {
          "extension": "jpg",
          "height": 1536,
          "mimetype": "image/jpeg",
          "secret": "c9hieUp94iXMvpLCM56vNim1QzZCb6ag",
          "width": 1931
        },
        "n": {
          "extension": "jpg",
          "height": 240,
          "mimetype": "image/jpeg",
          "secret": "c9hieUp94iXMvpLCM56vNim1QzZCb6ag",
          "width": 301
        },
        "o": {
          "extension": "jpg",
          "height": 1667,
          "mimetype": "image/jpeg",
          "secret": "SC0P7yMeQYDxBCSYr1ryuNSshnZWHqej",
          "width": 2096
        },
        "s": {
          "extension": "jpg",
          "height": 320,
          "mimetype": "image/jpeg",
          "secret": "c9hieUp94iXMvpLCM56vNim1QzZCb6ag",
          "width": 320
        },
        "z": {
          "extension": "jpg",
          "height": 480,
          "mimetype": "image/jpeg",
          "secret": "c9hieUp94iXMvpLCM56vNim1QzZCb6ag",
          "width": 603
        }
      }
    },
    "media:source": "sfomuseum",
    "media:status_id": 1,
    "media:uri_template": "https://static.sfomuseum.org/media/177/974/451/3/1779744513_{secret}_{label}.{extension}",
    "millsfield:airline_id": [
      1159283845
    ],
    "millsfield:category_id": 1746152533,
    "millsfield:collection_id": 1511214203,
    "millsfield:company_id": [
      1159286909
    ],
    "millsfield:images_colors": [
      {
        "hex": "#aaabac",
        "name": "#aaabac",
        "reference": "marekm4"
      },
      {
        "hex": "#a9a9a9",
        "name": "darkgrey",
        "reference": "css4"
      },
      {
        "hex": "#979aaa",
        "name": "Manatee",
        "reference": "crayola"
      }
    ],
    "millsfield:images_texts": [
      "Aloha Your spirit Your airline."
    ],
    "millsfield:images_texts_ids": [
      1779744513
    ],
    "millsfield:similar": {
      "apple/mobileclip_s0": [
        {
          "distance": 0.20178643,
          "id": 1779744877
        },
        {
          "distance": 0.22430791,
          "id": 1780288207
        },
        {
          "distance": 0.3128981,
          "id": 1780288871
        },
        {
          "distance": 0.3536628,
          "id": 1780288869
        },
        {
          "distance": 0.3764586,
          "id": 1779744383
        },
        {
          "distance": 0.38179132,
          "id": 1779744381
        },
        {
          "distance": 0.40234268,
          "id": 1779744517
        },
        {
          "distance": 0.42854637,
          "id": 1779744677
        },
        {
          "distance": 0.430036,
          "id": 1779744683
        },
        {
          "distance": 0.43866694,
          "id": 1780288873
        }
      ],
      "apple/mobileclip_s1": [
        {
          "distance": 0.16240308,
          "id": 1780288207
        },
        {
          "distance": 0.1770197,
          "id": 1779744877
        },
        {
          "distance": 0.27279532,
          "id": 1780288871
        },
        {
          "distance": 0.29009557,
          "id": 1780288869
        },
        {
          "distance": 0.3647144,
          "id": 1779744383
        },
        {
          "distance": 0.37916455,
          "id": 1779744381
        },
        {
          "distance": 0.37925452,
          "id": 1779744517
        },
        {
          "distance": 0.3939101,
          "id": 1779744615
        },
        {
          "distance": 0.4076291,
          "id": 1780288873
        },
        {
          "distance": 0.40903684,
          "id": 1779744677
        }
      ],
      "apple/mobileclip_s2": [
        {
          "distance": 0.20238923,
          "id": 1780288207
        },
        {
          "distance": 0.26256502,
          "id": 1779744877
        },
        {
          "distance": 0.32058284,
          "id": 1780288871
        },
        {
          "distance": 0.36801353,
          "id": 1780288869
        },
        {
          "distance": 0.4734712,
          "id": 1779744381
        },
        {
          "distance": 0.48232415,
          "id": 1779744615
        },
        {
          "distance": 0.5070762,
          "id": 1779744517
        },
        {
          "distance": 0.5091288,
          "id": 1779744383
        },
        {
          "distance": 0.516407,
          "id": 1779744687
        },
        {
          "distance": 0.52339935,
          "id": 1780288873
        }
      ]
    },
    "millsfield:subcategory_id": 1511213833,
    "mz:is_current": 1,
    "sfomuseum:filename": "106763.tif",
    "sfomuseum:image_id": 106763,
    "sfomuseum:image_index": 5,
    "sfomuseum:image_type": "studio",
    "sfomuseum:object_id": 79173,
    "sfomuseum:placetype": "image",
    "sfomuseum:primary_image": 1,
    "src:geom": "sfomuseum",
    "wof:belongsto": [
      102527513,
      1159162825,
      102191575,
      85633793,
      102087579,
      85922583,
      1779743661,
      85688637,
      1159160869
    ],
    "wof:country": "XY",
    "wof:created": 1656144721,
    "wof:depicts": [
      1779743661,
      1159283845,
      1159286909
    ],
    "wof:geomhash": "ed7c2ab3547fc3916b5edc33488deaa7",
    "wof:hierarchy": [
      {
        "building_id": -1,
        "campus_id": 102527513,
        "collection_id": 1159162825,
        "concourse_id": 1159162825,
        "continent_id": 102191575,
        "country_id": 85633793,
        "county_id": 102087579,
        "custom_id": 1779744513,
        "image_id": 1779744513,
        "locality_id": 85922583,
        "neighbourhood_id": -1,
        "object_id": 1779743661,
        "region_id": 85688637,
        "wing_id": 1159160869
      }
    ],
    "wof:id": 1779744513,
    "wof:lastmodified": 1788451367,
    "wof:name": "swizzle stick: Aloha Airlines",
    "wof:parent_id": 1779743661,
    "wof:placetype": "custom",
    "wof:placetype_alt": [
      "image"
    ],
    "wof:repo": "sfomuseum-data-media-collection",
    "wof:superseded_by": [],
    "wof:supersedes": []
  },
  "bbox": [
    -122.386472,
    37.616105,
    -122.385834,
    37.616611
  ],
  "geometry": {"type":"Polygon","coordinates":[[[-122.386472,37.616318],[-122.386435,37.616233],[-122.386376,37.616178],[-122.386301,37.616131],[-122.386161,37.616105],[-122.386022,37.616131],[-122.385914,37.616186],[-122.385855,37.616267],[-122.385834,37.616369],[-122.385871,37.616467],[-122.385941,37.616543],[-122.386054,37.616603],[-122.386183,37.616611],[-122.386306,37.616573],[-122.386419,37.616509],[-122.386467,37.616411],[-122.386472,37.616318]]]}
}
