{
  "id": 1746680647,
  "type": "Feature",
  "properties": {
    "date:cessation_lower": "1986-01-01",
    "date:cessation_upper": "1986-12-31",
    "date:inception_lower": "1986-01-01",
    "date:inception_upper": "1986-12-31",
    "edtf:cessation": "1986",
    "edtf:date": "1986",
    "edtf:inception": "1986",
    "geom:area": 0,
    "geom:bbox": "-122.386155,37.616357,-122.386155,37.616357",
    "geom:latitude": 37.616357,
    "geom:longitude": -122.386155,
    "iso:country": "XX",
    "media:fingerprint": "e48002bb04b4da04564cf2c9b86abbaf67679d8f",
    "media:imagehash_avg": "a:8080fefefefefefe",
    "media:imagehash_diff": "d:034e765256504056",
    "media:imagetext": "TWA\nJANUARY 12 - FEBRUARY 28, 1986\nWA TWA T\nTWA TWA\nWA TWA T\nTWA TWA\nWA TWA T\nTWA TWA\nVA IW",
    "media:imagetext_created": 1787954962,
    "media:imagetext_source": "com.apple.visionkit.VNImageRequestHandler#Version 26.6.2 (Build 25G83)",
    "media:mimetype": "image/tiff",
    "media:properties": {
      "sizes": {
        "b": {
          "extension": "jpg",
          "height": 768,
          "mimetype": "image/jpeg",
          "secret": "LXEdW8AyiSLpNvtCdRxFSo0VnZVqtnde",
          "width": 356
        },
        "c": {
          "extension": "jpg",
          "height": 600,
          "mimetype": "image/jpeg",
          "secret": "LXEdW8AyiSLpNvtCdRxFSo0VnZVqtnde",
          "width": 278
        },
        "dc": {
          "extension": "jpg",
          "height": 600,
          "mimetype": "image/jpeg",
          "secret": "LXEdW8AyiSLpNvtCdRxFSo0VnZVqtnde",
          "width": 278
        },
        "ds": {
          "extension": "jpg",
          "height": 320,
          "mimetype": "image/jpeg",
          "secret": "LXEdW8AyiSLpNvtCdRxFSo0VnZVqtnde",
          "width": 320
        },
        "k": {
          "extension": "jpg",
          "height": 1536,
          "mimetype": "image/jpeg",
          "secret": "LXEdW8AyiSLpNvtCdRxFSo0VnZVqtnde",
          "width": 712
        },
        "n": {
          "extension": "jpg",
          "height": 240,
          "mimetype": "image/jpeg",
          "secret": "LXEdW8AyiSLpNvtCdRxFSo0VnZVqtnde",
          "width": 111
        },
        "o": {
          "extension": "jpg",
          "height": 2681,
          "mimetype": "image/jpeg",
          "secret": "c26joJCxN1c5rF4SKe8DX2gaAr5up3We",
          "width": 1243
        },
        "s": {
          "extension": "jpg",
          "height": 320,
          "mimetype": "image/jpeg",
          "secret": "LXEdW8AyiSLpNvtCdRxFSo0VnZVqtnde",
          "width": 320
        },
        "z": {
          "extension": "jpg",
          "height": 480,
          "mimetype": "image/jpeg",
          "secret": "LXEdW8AyiSLpNvtCdRxFSo0VnZVqtnde",
          "width": 222
        }
      }
    },
    "media:source": "sfomuseum",
    "media:status_id": 1,
    "media:uri_template": "https://static.sfomuseum.org/media/174/668/064/7/1746680647_{secret}_{label}.{extension}",
    "millsfield:airline_id": [
      1159285393
    ],
    "millsfield:category_id": 1511214223,
    "millsfield:collection_id": 1511214207,
    "millsfield:company_id": [
      1159287531
    ],
    "millsfield:images_colors": [
      {
        "hex": "#e3d8bf",
        "name": "#e3d8bf",
        "reference": "marekm4"
      },
      {
        "hex": "#f5deb3",
        "name": "wheat",
        "reference": "css4"
      },
      {
        "hex": "#efcdb8",
        "name": "Desert Sand",
        "reference": "crayola"
      },
      {
        "hex": "#ad1616",
        "name": "#ad1616",
        "reference": "marekm4"
      },
      {
        "hex": "#b22222",
        "name": "firebrick",
        "reference": "css4"
      },
      {
        "hex": "#9c2542",
        "name": "Big Dip O' Ruby",
        "reference": "crayola"
      },
      {
        "hex": "#1e2c1a",
        "name": "#1e2c1a",
        "reference": "marekm4"
      },
      {
        "hex": "#000000",
        "name": "black",
        "reference": "css4"
      },
      {
        "hex": "#000000",
        "name": "Black",
        "reference": "crayola"
      }
    ],
    "millsfield:images_texts": [
      "TWA\nJANUARY 12 - FEBRUARY 28, 1986\nWA TWA T\nTWA TWA\nWA TWA T\nTWA TWA\nWA TWA T\nTWA TWA\nVA IW"
    ],
    "millsfield:images_texts_ids": [
      1746680647
    ],
    "millsfield:similar": {
      "apple/mobileclip_s0": [
        {
          "distance": 0.18249357,
          "id": 1746680667
        },
        {
          "distance": 0.211,
          "id": 1527835603
        },
        {
          "distance": 0.26277515,
          "id": 1527835479
        },
        {
          "distance": 0.2746896,
          "id": 1746680511
        },
        {
          "distance": 0.27653632,
          "id": 1746680669
        },
        {
          "distance": 0.27803946,
          "id": 1746680525
        },
        {
          "distance": 0.2962666,
          "id": 1527835559
        },
        {
          "distance": 0.31106424,
          "id": 1527835485
        },
        {
          "distance": 0.31897166,
          "id": 1746680513
        },
        {
          "distance": 0.3202779,
          "id": 1746680521
        }
      ],
      "apple/mobileclip_s1": [
        {
          "distance": 0.19694385,
          "id": 1746680667
        },
        {
          "distance": 0.21078652,
          "id": 1527835479
        },
        {
          "distance": 0.25436026,
          "id": 1527835603
        },
        {
          "distance": 0.255346,
          "id": 1746680669
        },
        {
          "distance": 0.2621413,
          "id": 1527835559
        },
        {
          "distance": 0.26403597,
          "id": 1746680639
        },
        {
          "distance": 0.26790982,
          "id": 1527835485
        },
        {
          "distance": 0.27078062,
          "id": 1746680629
        },
        {
          "distance": 0.27182585,
          "id": 1746680613
        },
        {
          "distance": 0.2771882,
          "id": 1746680515
        }
      ],
      "apple/mobileclip_s2": [
        {
          "distance": 0.2366406,
          "id": 1746680667
        },
        {
          "distance": 0.26871398,
          "id": 1527835479
        },
        {
          "distance": 0.3486625,
          "id": 1779566201
        },
        {
          "distance": 0.36099917,
          "id": 1746680639
        },
        {
          "distance": 0.3661055,
          "id": 1527835485
        },
        {
          "distance": 0.36917484,
          "id": 1746680669
        },
        {
          "distance": 0.39237955,
          "id": 1746680525
        },
        {
          "distance": 0.3987163,
          "id": 1762714705
        },
        {
          "distance": 0.411605,
          "id": 1746680543
        },
        {
          "distance": 0.42030954,
          "id": 1746680613
        }
      ]
    },
    "millsfield:subcategory_id": 1511213425,
    "mz:is_current": 1,
    "sfomuseum:filename": "63867.tif",
    "sfomuseum:image_id": 63867,
    "sfomuseum:image_index": 1,
    "sfomuseum:image_type": "studio",
    "sfomuseum:object_id": 100387,
    "sfomuseum:placetype": "image",
    "sfomuseum:primary_image": 1,
    "src:geom": "sfomuseum",
    "wof:belongsto": [
      1511213425,
      1511214277,
      102527513,
      1511214223,
      102191575,
      85633793,
      102087579,
      85922583,
      85688637,
      1511939697,
      1511214207
    ],
    "wof:country": "XX",
    "wof:created": 1637706332,
    "wof:depicts": [
      1159287531,
      1511939697,
      1159285393
    ],
    "wof:geomhash": "30c8a918561c84bb2daa2b97fc7c5353",
    "wof:hierarchy": [
      {
        "arcade_id": 1511213425,
        "building_id": 1511214277,
        "campus_id": 102527513,
        "concourse_id": 1511214223,
        "continent_id": 102191575,
        "country_id": 85633793,
        "county_id": 102087579,
        "custom_id": 1746680647,
        "image_id": 1746680647,
        "locality_id": 85922583,
        "neighbourhood_id": -1,
        "region_id": 85688637,
        "venue_id": 1511939697,
        "wing_id": 1511214207
      }
    ],
    "wof:id": 1746680647,
    "wof:lastmodified": 1788450341,
    "wof:name": "timetable: TWA (Trans World Airlines)",
    "wof:parent_id": 1511939697,
    "wof:placetype": "custom",
    "wof:placetype_alt": [
      "image"
    ],
    "wof:repo": "sfomuseum-data-media-collection",
    "wof:superseded_by": [],
    "wof:supersedes": []
  },
  "bbox": [
    -122.386155,
    37.616357,
    -122.386155,
    37.616357
  ],
  "geometry": {"type":"Point","coordinates":[-122.386155,37.616357]}
}
