{
  "id": 1746837055,
  "type": "Feature",
  "properties": {
    "date:cessation_lower": "1970-01-01",
    "date:cessation_upper": "1970-12-31",
    "date:inception_lower": "1970-01-01",
    "date:inception_upper": "1970-12-31",
    "edtf:cessation": "1970",
    "edtf:inception": "1970",
    "geom:area": 2.477324999997507e-7,
    "geom:bbox": "-122.386472,37.616105,-122.385834,37.616611",
    "geom:latitude": 37.61635756125121,
    "geom:longitude": -122.38615532866096,
    "media:fingerprint": "7397b3d15b0bd7243cb814485eb56d96831a3cc7",
    "media:imagehash_avg": "a:e074fde0fc30f901",
    "media:imagehash_diff": "d:81a8a981b861c353",
    "media:imagetext": "We\ndeliver\nthe\nword!\nJAPAN AIR LINES",
    "media:imagetext_created": 1787955183,
    "media:imagetext_source": "com.apple.visionkit.VNImageRequestHandler#Version 26.6.2 (Build 25G83)",
    "media:mimetype": "image/tiff",
    "media:properties": {
      "sizes": {
        "b": {
          "extension": "jpg",
          "height": 768,
          "mimetype": "image/jpeg",
          "secret": "rm8Kvmc4wlu0ulV2Y9cw8wMmyaq5vLnF",
          "width": 481
        },
        "c": {
          "extension": "jpg",
          "height": 600,
          "mimetype": "image/jpeg",
          "secret": "rm8Kvmc4wlu0ulV2Y9cw8wMmyaq5vLnF",
          "width": 376
        },
        "dc": {
          "extension": "jpg",
          "height": 600,
          "mimetype": "image/jpeg",
          "secret": "rm8Kvmc4wlu0ulV2Y9cw8wMmyaq5vLnF",
          "width": 376
        },
        "ds": {
          "extension": "jpg",
          "height": 320,
          "mimetype": "image/jpeg",
          "secret": "rm8Kvmc4wlu0ulV2Y9cw8wMmyaq5vLnF",
          "width": 320
        },
        "k": {
          "extension": "jpg",
          "height": 1536,
          "mimetype": "image/jpeg",
          "secret": "rm8Kvmc4wlu0ulV2Y9cw8wMmyaq5vLnF",
          "width": 963
        },
        "n": {
          "extension": "jpg",
          "height": 240,
          "mimetype": "image/jpeg",
          "secret": "rm8Kvmc4wlu0ulV2Y9cw8wMmyaq5vLnF",
          "width": 150
        },
        "o": {
          "extension": "jpg",
          "height": 2200,
          "mimetype": "image/jpeg",
          "secret": "gF6UWkr2Y4lEv5xkLutVqFn4CdkVeR8H",
          "width": 1380
        },
        "s": {
          "extension": "jpg",
          "height": 320,
          "mimetype": "image/jpeg",
          "secret": "rm8Kvmc4wlu0ulV2Y9cw8wMmyaq5vLnF",
          "width": 320
        },
        "z": {
          "extension": "jpg",
          "height": 480,
          "mimetype": "image/jpeg",
          "secret": "rm8Kvmc4wlu0ulV2Y9cw8wMmyaq5vLnF",
          "width": 301
        }
      }
    },
    "media:source": "sfomuseum",
    "media:status_id": 1,
    "media:uri_template": "https://static.sfomuseum.org/media/174/683/705/5/1746837055_{secret}_{label}.{extension}",
    "millsfield:airline_id": [
      1159285785
    ],
    "millsfield:category_id": 1763416373,
    "millsfield:collection_id": 1511214203,
    "millsfield:company_id": [
      1159288505
    ],
    "millsfield:images_colors": [
      {
        "hex": "#372e27",
        "name": "#372e27",
        "reference": "marekm4"
      },
      {
        "hex": "#2f4f4f",
        "name": "darkslategrey",
        "reference": "css4"
      },
      {
        "hex": "#414a4c",
        "name": "Outer Space",
        "reference": "crayola"
      },
      {
        "hex": "#e7e4df",
        "name": "#e7e4df",
        "reference": "marekm4"
      },
      {
        "hex": "#dcdcdc",
        "name": "gainsboro",
        "reference": "css4"
      },
      {
        "hex": "#efdecd",
        "name": "Almond",
        "reference": "crayola"
      },
      {
        "hex": "#ad452c",
        "name": "#ad452c",
        "reference": "marekm4"
      },
      {
        "hex": "#a0522d",
        "name": "sienna",
        "reference": "css4"
      },
      {
        "hex": "#bf4f51",
        "name": "Bittersweet Shimmer",
        "reference": "crayola"
      },
      {
        "hex": "#e4b84d",
        "name": "#e4b84d",
        "reference": "marekm4"
      },
      {
        "hex": "#f4a460",
        "name": "sandybrown",
        "reference": "css4"
      },
      {
        "hex": "#ffae42",
        "name": "Yellow Orange",
        "reference": "crayola"
      }
    ],
    "millsfield:images_texts": [
      "We\ndeliver\nthe\nword!\nJAPAN AIR LINES"
    ],
    "millsfield:images_texts_ids": [
      1746837055
    ],
    "millsfield:similar": {
      "apple/mobileclip_s0": [
        {
          "distance": 0.19415371,
          "id": 1779437645
        },
        {
          "distance": 0.72015876,
          "id": 1527818123
        },
        {
          "distance": 0.7374235,
          "id": 1527847521
        },
        {
          "distance": 0.7422289,
          "id": 1779436707
        },
        {
          "distance": 0.74730736,
          "id": 1527844417
        },
        {
          "distance": 0.7555901,
          "id": 1527846765
        },
        {
          "distance": 0.7577331,
          "id": 1897196831
        },
        {
          "distance": 0.7593138,
          "id": 1779436579
        },
        {
          "distance": 0.76012945,
          "id": 1729565597
        },
        {
          "distance": 0.76420677,
          "id": 1762699253
        }
      ],
      "apple/mobileclip_s1": [
        {
          "distance": 0.18376952,
          "id": 1779437645
        },
        {
          "distance": 0.5337076,
          "id": 1779436579
        },
        {
          "distance": 0.55629885,
          "id": 1779436707
        },
        {
          "distance": 0.5585506,
          "id": 1527844417
        },
        {
          "distance": 0.5734938,
          "id": 1527848707
        },
        {
          "distance": 0.58310014,
          "id": 1763249109
        },
        {
          "distance": 0.58379287,
          "id": 1763241307
        },
        {
          "distance": 0.584816,
          "id": 1527850423
        },
        {
          "distance": 0.5865903,
          "id": 1762700523
        },
        {
          "distance": 0.5900872,
          "id": 1897762285
        }
      ],
      "apple/mobileclip_s2": [
        {
          "distance": 0.18291849,
          "id": 1779437645
        },
        {
          "distance": 0.6698101,
          "id": 1779436579
        },
        {
          "distance": 0.68664503,
          "id": 1779436707
        },
        {
          "distance": 0.7352227,
          "id": 1527850423
        },
        {
          "distance": 0.74688274,
          "id": 1527845147
        },
        {
          "distance": 0.74931675,
          "id": 1527819191
        },
        {
          "distance": 0.7505107,
          "id": 1763381123
        },
        {
          "distance": 0.7540302,
          "id": 1527844417
        },
        {
          "distance": 0.7613689,
          "id": 1746838263
        },
        {
          "distance": 0.7617639,
          "id": 1763388245
        }
      ]
    },
    "millsfield:subcategory_id": 1511213365,
    "mz:is_current": 1,
    "sfomuseum:filename": "38806.tif",
    "sfomuseum:image_id": 38806,
    "sfomuseum:image_index": 5,
    "sfomuseum:image_type": "studio",
    "sfomuseum:object_id": 68645,
    "sfomuseum:placetype": "image",
    "sfomuseum:primary_image": 1,
    "src:geom": "sfomuseum",
    "wof:belongsto": [
      102527513,
      1159162825,
      102191575,
      85633793,
      102087579,
      85922583,
      1746836707,
      85688637,
      1159160869
    ],
    "wof:country": "XY",
    "wof:created": 1639525372,
    "wof:depicts": [
      1159285785,
      1746836707,
      1159285787,
      1159288505
    ],
    "wof:geomhash": "ed7c2ab3547fc3916b5edc33488deaa7",
    "wof:hierarchy": [
      {
        "building_id": -1,
        "campus_id": 102527513,
        "collection_id": 1159162825,
        "concourse_id": 1159162825,
        "continent_id": 102191575,
        "country_id": 85633793,
        "county_id": 102087579,
        "custom_id": 1746837055,
        "image_id": 1746837055,
        "locality_id": 85922583,
        "neighbourhood_id": -1,
        "object_id": 1746836707,
        "region_id": 85688637,
        "wing_id": 1159160869
      }
    ],
    "wof:id": 1746837055,
    "wof:lastmodified": 1788450377,
    "wof:name": "poster: JAL (Japan Air Lines), air cargo",
    "wof:parent_id": 1746836707,
    "wof:placetype": "custom",
    "wof:placetype_alt": [
      "image"
    ],
    "wof:repo": "sfomuseum-data-media-collection",
    "wof:superseded_by": [],
    "wof:supersedes": []
  },
  "bbox": [
    -122.386472,
    37.616105,
    -122.385834,
    37.616611
  ],
  "geometry": {"type":"Polygon","coordinates":[[[-122.386472,37.616318],[-122.386435,37.616233],[-122.386376,37.616178],[-122.386301,37.616131],[-122.386161,37.616105],[-122.386022,37.616131],[-122.385914,37.616186],[-122.385855,37.616267],[-122.385834,37.616369],[-122.385871,37.616467],[-122.385941,37.616543],[-122.386054,37.616603],[-122.386183,37.616611],[-122.386306,37.616573],[-122.386419,37.616509],[-122.386467,37.616411],[-122.386472,37.616318]]]}
}
