{
  "id": 1846705523,
  "type": "Feature",
  "properties": {
    "date:cessation_lower": "1937-01-01",
    "date:cessation_upper": "1937-12-31",
    "date:inception_lower": "1937-01-01",
    "date:inception_upper": "1937-12-31",
    "edtf:cessation": "1937",
    "edtf:inception": "1937",
    "geom:area": 2.477324999997507e-7,
    "geom:bbox": "-122.386472,37.616105,-122.385834,37.616611",
    "geom:latitude": 37.61635756125121,
    "geom:longitude": -122.38615532866096,
    "media:fingerprint": "a52bc1c48b28acc8fa0ed215d72aa3c46f79c38d",
    "media:imagehash_avg": "a:fd808081899fdfff",
    "media:imagehash_diff": "d:5149413359293969",
    "media:imagetext": "15- 010/\nWorld's largest aircraft,\n40 passenger\nClipper Flying Boats,\nthan a pullman\nready for passengers and mail to Havana,\nJamaica\nand South\nAmerica,\nPan-American/\nAinways\nTerminal,\nMiami-\"Aerial Gateway berween\nthe\nAmericas\"\nЛАН\nT-PM\nDear Miss hang\nIm Hung\neng a\nfine tine down\nhere.\nConne\nДуе\n793\nART. COLORTONE,\nMADE ONLY BY\nCURT TEICH 9\nco., INC., CHICAGO,\nU.S.A.\nPOST CARD\nS\nATHIS SPACE FOR ADDRESS OND\nASK YOUR POS\nMiss\nHopper\n420 8. Main St.\nStoverville, n.y.\n1249",
    "media:imagetext_created": 1787967348,
    "media:imagetext_source": "com.apple.visionkit.VNImageRequestHandler#Version 26.6.2 (Build 25G83)",
    "media:mimetype": "image/tiff",
    "media:properties": {
      "sizes": {
        "b": {
          "extension": "jpg",
          "height": 663,
          "mimetype": "image/jpeg",
          "secret": "x5iOLpFjra0kanGk7g83hUWn8gj1l9lH",
          "width": 1024
        },
        "c": {
          "extension": "jpg",
          "height": 518,
          "mimetype": "image/jpeg",
          "secret": "x5iOLpFjra0kanGk7g83hUWn8gj1l9lH",
          "width": 800
        },
        "dc": {
          "extension": "jpg",
          "height": 518,
          "mimetype": "image/jpeg",
          "secret": "x5iOLpFjra0kanGk7g83hUWn8gj1l9lH",
          "width": 800
        },
        "ds": {
          "extension": "jpg",
          "height": 320,
          "mimetype": "image/jpeg",
          "secret": "x5iOLpFjra0kanGk7g83hUWn8gj1l9lH",
          "width": 320
        },
        "k": {
          "extension": "jpg",
          "height": 1327,
          "mimetype": "image/jpeg",
          "secret": "x5iOLpFjra0kanGk7g83hUWn8gj1l9lH",
          "width": 2048
        },
        "n": {
          "extension": "jpg",
          "height": 207,
          "mimetype": "image/jpeg",
          "secret": "x5iOLpFjra0kanGk7g83hUWn8gj1l9lH",
          "width": 320
        },
        "o": {
          "extension": "jpg",
          "height": 1154,
          "mimetype": "image/jpeg",
          "secret": "OF0hqx32JXdyjLXkzLaxKUSv2R6zmA2H",
          "width": 1781
        },
        "s": {
          "extension": "jpg",
          "height": 320,
          "mimetype": "image/jpeg",
          "secret": "x5iOLpFjra0kanGk7g83hUWn8gj1l9lH",
          "width": 320
        },
        "z": {
          "extension": "jpg",
          "height": 414,
          "mimetype": "image/jpeg",
          "secret": "x5iOLpFjra0kanGk7g83hUWn8gj1l9lH",
          "width": 640
        }
      }
    },
    "media:source": "sfomuseum",
    "media:status_id": 1,
    "media:uri_template": "https://static.sfomuseum.org/media/184/670/552/3/1846705523_{secret}_{label}.{extension}",
    "millsfield:aircraft_id": [
      1159291651
    ],
    "millsfield:airline_id": [
      1159284991
    ],
    "millsfield:airport_id": [
      -1
    ],
    "millsfield:category_id": 1511214215,
    "millsfield:collection_id": 1511214207,
    "millsfield:company_id": [
      1159293917
    ],
    "millsfield:images_colors": [
      {
        "hex": "#dfcda8",
        "name": "#dfcda8",
        "reference": "marekm4"
      },
      {
        "hex": "#f5deb3",
        "name": "wheat",
        "reference": "css4"
      },
      {
        "hex": "#edd19c",
        "name": "Maize",
        "reference": "crayola"
      },
      {
        "hex": "#353f31",
        "name": "#353f31",
        "reference": "marekm4"
      },
      {
        "hex": "#2f4f4f",
        "name": "darkslategrey",
        "reference": "css4"
      },
      {
        "hex": "#414a4c",
        "name": "Outer Space",
        "reference": "crayola"
      },
      {
        "hex": "#baa56e",
        "name": "#baa56e",
        "reference": "marekm4"
      },
      {
        "hex": "#bdb76b",
        "name": "darkkhaki",
        "reference": "css4"
      },
      {
        "hex": "#bab86c",
        "name": "Olive Green",
        "reference": "crayola"
      }
    ],
    "millsfield:images_texts": [
      "M-272 FORTY PASSENGER CLIPPER SHIPS AT PAN-AMERICAN INTERNATIONAL AIRPORT, MIAMI, FLORIDA\n4A-H901\nAMERICA'S FINEST AIR PASSENGER TERMINAL\nPHOTO BY W. F. GERECKE",
      "15- 010/\nWorld's largest aircraft,\n40 passenger\nClipper Flying Boats,\nthan a pullman\nready for passengers and mail to Havana,\nJamaica\nand South\nAmerica,\nPan-American/\nAinways\nTerminal,\nMiami-\"Aerial Gateway berween\nthe\nAmericas\"\nЛАН\nT-PM\nDear Miss hang\nIm Hung\neng a\nfine tine down\nhere.\nConne\nДуе\n793\nART. COLORTONE,\nMADE ONLY BY\nCURT TEICH 9\nco., INC., CHICAGO,\nU.S.A.\nPOST CARD\nS\nATHIS SPACE FOR ADDRESS OND\nASK YOUR POS\nMiss\nHopper\n420 8. Main St.\nStoverville, n.y.\n1249"
    ],
    "millsfield:images_texts_ids": [
      1846705521,
      1846705523
    ],
    "millsfield:similar": {
      "apple/mobileclip_s0": [
        {
          "distance": 0.4734343,
          "id": 1846755745
        },
        {
          "distance": 0.47914296,
          "id": 1762709561
        },
        {
          "distance": 0.48257643,
          "id": 1846705541
        },
        {
          "distance": 0.48269102,
          "id": 1846705547
        },
        {
          "distance": 0.48866957,
          "id": 1846755547
        },
        {
          "distance": 0.4948343,
          "id": 1762710701
        },
        {
          "distance": 0.4955466,
          "id": 1846705551
        },
        {
          "distance": 0.49589622,
          "id": 1762710755
        },
        {
          "distance": 0.5014179,
          "id": 1846705565
        },
        {
          "distance": 0.502416,
          "id": 1846755751
        }
      ],
      "apple/mobileclip_s1": [
        {
          "distance": 0.30564776,
          "id": 1762710995
        },
        {
          "distance": 0.34332097,
          "id": 1762713071
        },
        {
          "distance": 0.35364342,
          "id": 1762710359
        },
        {
          "distance": 0.35520175,
          "id": 1762709141
        },
        {
          "distance": 0.359499,
          "id": 1846705565
        },
        {
          "distance": 0.35976833,
          "id": 1762706607
        },
        {
          "distance": 0.36384958,
          "id": 1846755547
        },
        {
          "distance": 0.36720106,
          "id": 1846755745
        },
        {
          "distance": 0.36753714,
          "id": 1762711151
        },
        {
          "distance": 0.36790103,
          "id": 1846756583
        }
      ],
      "apple/mobileclip_s2": [
        {
          "distance": 0.399677,
          "id": 1762704961
        },
        {
          "distance": 0.4083103,
          "id": 1762704787
        },
        {
          "distance": 0.41270924,
          "id": 1762711561
        },
        {
          "distance": 0.41480345,
          "id": 1846705559
        },
        {
          "distance": 0.4208289,
          "id": 1762710859
        },
        {
          "distance": 0.43219212,
          "id": 1846756123
        },
        {
          "distance": 0.4349771,
          "id": 1762709857
        },
        {
          "distance": 0.43734923,
          "id": 1846705565
        },
        {
          "distance": 0.43768308,
          "id": 1846756583
        },
        {
          "distance": 0.43820783,
          "id": 1846756673
        }
      ]
    },
    "millsfield:subcategory_id": 1511213363,
    "mz:is_current": 1,
    "sfomuseum:filename": "2018.112.1249_reverse.tif",
    "sfomuseum:image_id": 221053,
    "sfomuseum:image_index": 5,
    "sfomuseum:image_type": "studio",
    "sfomuseum:object_id": 200710,
    "sfomuseum:placetype": "image",
    "sfomuseum:primary_image": 0,
    "src:geom": "sfomuseum",
    "wof:belongsto": [
      102527513,
      1159162825,
      102191575,
      85633793,
      102087579,
      85922583,
      1846705141,
      85688637,
      1159160869
    ],
    "wof:country": "XY",
    "wof:created": 1679559177,
    "wof:depicts": [
      1159284991,
      1159286839,
      1159291651,
      1159293917,
      1846705141
    ],
    "wof:geomhash": "ed7c2ab3547fc3916b5edc33488deaa7",
    "wof:hierarchy": [
      {
        "building_id": -1,
        "campus_id": 102527513,
        "collection_id": 1159162825,
        "concourse_id": 1159162825,
        "continent_id": 102191575,
        "country_id": 85633793,
        "county_id": 102087579,
        "custom_id": 1846705523,
        "image_id": 1846705523,
        "locality_id": 85922583,
        "neighbourhood_id": -1,
        "object_id": 1846705141,
        "region_id": 85688637,
        "wing_id": 1159160869
      }
    ],
    "wof:id": 1846705523,
    "wof:lastmodified": 1788451618,
    "wof:name": "postcard: Pan American Airways, Sikorsky S-40, Pan Amerian International Airport",
    "wof:parent_id": 1846705141,
    "wof:placetype": "custom",
    "wof:placetype_alt": [
      "image"
    ],
    "wof:repo": "sfomuseum-data-media-collection",
    "wof:superseded_by": [],
    "wof:supersedes": []
  },
  "bbox": [
    -122.386472,
    37.616105,
    -122.385834,
    37.616611
  ],
  "geometry": {"type":"Polygon","coordinates":[[[-122.386472,37.616318],[-122.386435,37.616233],[-122.386376,37.616178],[-122.386301,37.616131],[-122.386161,37.616105],[-122.386022,37.616131],[-122.385914,37.616186],[-122.385855,37.616267],[-122.385834,37.616369],[-122.385871,37.616467],[-122.385941,37.616543],[-122.386054,37.616603],[-122.386183,37.616611],[-122.386306,37.616573],[-122.386419,37.616509],[-122.386467,37.616411],[-122.386472,37.616318]]]}
}
