{
  "id": 1796472195,
  "type": "Feature",
  "properties": {
    "date:cessation_lower": "1970-01-01",
    "date:cessation_upper": "1979-12-31",
    "date:inception_lower": "1970-01-01",
    "date:inception_upper": "1979-12-31",
    "edtf:cessation": "197X",
    "edtf:inception": "197X",
    "geom:area": 2.477324999997507e-7,
    "geom:bbox": "-122.386472,37.616105,-122.385834,37.616611",
    "geom:latitude": 37.61635756125121,
    "geom:longitude": -122.38615532866096,
    "media:fingerprint": "550166e6648f2ed6150ad6185570adf0f22a1f82",
    "media:imagehash_avg": "a:ffff9f9f8c060000",
    "media:imagehash_diff": "d:e0a0302038cca4a0",
    "media:imagetext": "Aer Lingus",
    "media:imagetext_created": 1787966609,
    "media:imagetext_source": "com.apple.visionkit.VNImageRequestHandler#Version 26.6.2 (Build 25G83)",
    "media:mimetype": "image/tiff",
    "media:properties": {
      "sizes": {
        "b": {
          "extension": "jpg",
          "height": 768,
          "mimetype": "image/jpeg",
          "secret": "faLhtY4GST7Y9hc7eMeYF9CX56hEKSur",
          "width": 965
        },
        "c": {
          "extension": "jpg",
          "height": 600,
          "mimetype": "image/jpeg",
          "secret": "faLhtY4GST7Y9hc7eMeYF9CX56hEKSur",
          "width": 753
        },
        "dc": {
          "extension": "jpg",
          "height": 600,
          "mimetype": "image/jpeg",
          "secret": "faLhtY4GST7Y9hc7eMeYF9CX56hEKSur",
          "width": 753
        },
        "ds": {
          "extension": "jpg",
          "height": 320,
          "mimetype": "image/jpeg",
          "secret": "faLhtY4GST7Y9hc7eMeYF9CX56hEKSur",
          "width": 320
        },
        "k": {
          "extension": "jpg",
          "height": 1536,
          "mimetype": "image/jpeg",
          "secret": "faLhtY4GST7Y9hc7eMeYF9CX56hEKSur",
          "width": 1930
        },
        "n": {
          "extension": "jpg",
          "height": 240,
          "mimetype": "image/jpeg",
          "secret": "faLhtY4GST7Y9hc7eMeYF9CX56hEKSur",
          "width": 301
        },
        "o": {
          "extension": "jpg",
          "height": 1668,
          "mimetype": "image/jpeg",
          "secret": "GWqs6JKswsD0KN0jlj4IhQh3mUZu8GSF",
          "width": 2096
        },
        "s": {
          "extension": "jpg",
          "height": 320,
          "mimetype": "image/jpeg",
          "secret": "faLhtY4GST7Y9hc7eMeYF9CX56hEKSur",
          "width": 320
        },
        "z": {
          "extension": "jpg",
          "height": 480,
          "mimetype": "image/jpeg",
          "secret": "faLhtY4GST7Y9hc7eMeYF9CX56hEKSur",
          "width": 603
        }
      }
    },
    "media:source": "sfomuseum",
    "media:status_id": 1,
    "media:uri_template": "https://static.sfomuseum.org/media/179/647/219/5/1796472195_{secret}_{label}.{extension}",
    "millsfield:airline_id": [
      1159283495
    ],
    "millsfield:category_id": 1746152551,
    "millsfield:collection_id": 1511214203,
    "millsfield:company_id": [
      1159288269
    ],
    "millsfield:images_colors": [
      {
        "hex": "#a19e9c",
        "name": "#a19e9c",
        "reference": "marekm4"
      },
      {
        "hex": "#a9a9a9",
        "name": "darkgrey",
        "reference": "css4"
      },
      {
        "hex": "#979aaa",
        "name": "Manatee",
        "reference": "crayola"
      },
      {
        "hex": "#3e3b3a",
        "name": "#3e3b3a",
        "reference": "marekm4"
      },
      {
        "hex": "#2f4f4f",
        "name": "darkslategrey",
        "reference": "css4"
      },
      {
        "hex": "#414a4c",
        "name": "Outer Space",
        "reference": "crayola"
      }
    ],
    "millsfield:images_texts": [
      "Aer Lingus"
    ],
    "millsfield:images_texts_ids": [
      1796472195
    ],
    "millsfield:similar": {
      "apple/mobileclip_s0": [
        {
          "distance": 0.20677343,
          "id": 1796472191
        },
        {
          "distance": 0.27100024,
          "id": 1796506415
        },
        {
          "distance": 0.28308588,
          "id": 1796484867
        },
        {
          "distance": 0.28436393,
          "id": 1796527763
        },
        {
          "distance": 0.2854852,
          "id": 1897762393
        },
        {
          "distance": 0.28566945,
          "id": 1796472475
        },
        {
          "distance": 0.2857002,
          "id": 1796506343
        },
        {
          "distance": 0.2924223,
          "id": 1796503355
        },
        {
          "distance": 0.29342854,
          "id": 1897762395
        },
        {
          "distance": 0.29424226,
          "id": 1796472543
        }
      ],
      "apple/mobileclip_s1": [
        {
          "distance": 0.20908318,
          "id": 1796472191
        },
        {
          "distance": 0.22667897,
          "id": 1796527763
        },
        {
          "distance": 0.23274858,
          "id": 1796506343
        },
        {
          "distance": 0.2338117,
          "id": 1796527765
        },
        {
          "distance": 0.23513736,
          "id": 1796472127
        },
        {
          "distance": 0.23564918,
          "id": 1796527767
        },
        {
          "distance": 0.23759481,
          "id": 1796503485
        },
        {
          "distance": 0.23868817,
          "id": 1796472475
        },
        {
          "distance": 0.2387286,
          "id": 1796484867
        },
        {
          "distance": 0.24309324,
          "id": 1796484869
        }
      ],
      "apple/mobileclip_s2": [
        {
          "distance": 0.3502016,
          "id": 1796472193
        },
        {
          "distance": 0.36356592,
          "id": 1796472191
        },
        {
          "distance": 0.37268773,
          "id": 1796476735
        },
        {
          "distance": 0.37392485,
          "id": 1796527763
        },
        {
          "distance": 0.37424216,
          "id": 1796484867
        },
        {
          "distance": 0.37616464,
          "id": 1796506343
        },
        {
          "distance": 0.37842357,
          "id": 1796472127
        },
        {
          "distance": 0.3795571,
          "id": 1796506649
        },
        {
          "distance": 0.38401422,
          "id": 1796472475
        },
        {
          "distance": 0.391283,
          "id": 1796597131
        }
      ]
    },
    "millsfield:subcategory_id": 1511213417,
    "mz:is_current": 1,
    "sfomuseum:filename": "107706.tif",
    "sfomuseum:image_id": 107706,
    "sfomuseum:image_index": 5,
    "sfomuseum:image_type": "studio",
    "sfomuseum:object_id": 63936,
    "sfomuseum:placetype": "image",
    "sfomuseum:primary_image": 1,
    "src:geom": "sfomuseum",
    "wof:belongsto": [
      102527513,
      1159162825,
      102191575,
      85633793,
      102087579,
      85922583,
      1796472049,
      85688637,
      1159160869
    ],
    "wof:country": "XY",
    "wof:created": 1666338965,
    "wof:depicts": [
      1159288269,
      1796472049,
      1159283495
    ],
    "wof:geomhash": "ed7c2ab3547fc3916b5edc33488deaa7",
    "wof:hierarchy": [
      {
        "building_id": -1,
        "campus_id": 102527513,
        "collection_id": 1159162825,
        "concourse_id": 1159162825,
        "continent_id": 102191575,
        "country_id": 85633793,
        "county_id": 102087579,
        "custom_id": 1796472195,
        "image_id": 1796472195,
        "locality_id": 85922583,
        "neighbourhood_id": -1,
        "object_id": 1796472049,
        "region_id": 85688637,
        "wing_id": 1159160869
      }
    ],
    "wof:id": 1796472195,
    "wof:lastmodified": 1788451531,
    "wof:name": "spoon: Aer Lingus",
    "wof:parent_id": 1796472049,
    "wof:placetype": "custom",
    "wof:placetype_alt": [
      "image"
    ],
    "wof:repo": "sfomuseum-data-media-collection",
    "wof:superseded_by": [],
    "wof:supersedes": []
  },
  "bbox": [
    -122.386472,
    37.616105,
    -122.385834,
    37.616611
  ],
  "geometry": {"type":"Polygon","coordinates":[[[-122.386472,37.616318],[-122.386435,37.616233],[-122.386376,37.616178],[-122.386301,37.616131],[-122.386161,37.616105],[-122.386022,37.616131],[-122.385914,37.616186],[-122.385855,37.616267],[-122.385834,37.616369],[-122.385871,37.616467],[-122.385941,37.616543],[-122.386054,37.616603],[-122.386183,37.616611],[-122.386306,37.616573],[-122.386419,37.616509],[-122.386467,37.616411],[-122.386472,37.616318]]]}
}
