{
  "id": 1863469061,
  "type": "Feature",
  "properties": {
    "date:cessation_lower": "1970-01-01",
    "date:cessation_upper": "1970-12-31",
    "date:inception_lower": "1970-01-01",
    "date:inception_upper": "1970-12-31",
    "edtf:cessation": "1970~",
    "edtf:inception": "1970~",
    "geom:area": 2.477324999997507e-7,
    "geom:bbox": "-122.386472,37.616105,-122.385834,37.616611",
    "geom:latitude": 37.61635756125121,
    "geom:longitude": -122.38615532866096,
    "media:fingerprint": "fe6f31a9d09643aa2946e529981a39c8e553ba0b",
    "media:imagehash_avg": "a:ff8f8191818181ff",
    "media:imagehash_diff": "d:393d717571193d31",
    "media:imagetext": "GERSI\nFLYING TIGER LINE\nI: 000000000 • 800000009-2001\nFLYING TIGER LINE BOEING 707-349C\nINTERCONTINENTAL JET FREIGHTER",
    "media:imagetext_created": 1787967783,
    "media:imagetext_source": "com.apple.visionkit.VNImageRequestHandler#Version 26.6.2 (Build 25G83)",
    "media:mimetype": "image/tiff",
    "media:properties": {
      "sizes": {
        "b": {
          "extension": "jpg",
          "height": 768,
          "mimetype": "image/jpeg",
          "secret": "7WHa46AUDAlHLu1oCrhevSY37fN0J6g8",
          "width": 953
        },
        "c": {
          "extension": "jpg",
          "height": 600,
          "mimetype": "image/jpeg",
          "secret": "7WHa46AUDAlHLu1oCrhevSY37fN0J6g8",
          "width": 744
        },
        "dc": {
          "extension": "jpg",
          "height": 600,
          "mimetype": "image/jpeg",
          "secret": "7WHa46AUDAlHLu1oCrhevSY37fN0J6g8",
          "width": 744
        },
        "ds": {
          "extension": "jpg",
          "height": 320,
          "mimetype": "image/jpeg",
          "secret": "7WHa46AUDAlHLu1oCrhevSY37fN0J6g8",
          "width": 320
        },
        "k": {
          "extension": "jpg",
          "height": 1536,
          "mimetype": "image/jpeg",
          "secret": "7WHa46AUDAlHLu1oCrhevSY37fN0J6g8",
          "width": 1906
        },
        "n": {
          "extension": "jpg",
          "height": 240,
          "mimetype": "image/jpeg",
          "secret": "7WHa46AUDAlHLu1oCrhevSY37fN0J6g8",
          "width": 297
        },
        "o": {
          "extension": "jpg",
          "height": 1611,
          "mimetype": "image/jpeg",
          "secret": "scqY9QPF5F9zBOm4AVR5ZYtmfRg5XpZE",
          "width": 2000
        },
        "s": {
          "extension": "jpg",
          "height": 320,
          "mimetype": "image/jpeg",
          "secret": "7WHa46AUDAlHLu1oCrhevSY37fN0J6g8",
          "width": 320
        },
        "z": {
          "extension": "jpg",
          "height": 480,
          "mimetype": "image/jpeg",
          "secret": "7WHa46AUDAlHLu1oCrhevSY37fN0J6g8",
          "width": 595
        }
      }
    },
    "media:source": "sfomuseum",
    "media:status_id": 1,
    "media:uri_template": "https://static.sfomuseum.org/media/186/346/906/1/1863469061_{secret}_{label}.{extension}",
    "millsfield:aircraft_id": [
      1159289653
    ],
    "millsfield:airline_id": [
      1159284397
    ],
    "millsfield:category_id": 1763416397,
    "millsfield:collection_id": 1511214207,
    "millsfield:company_id": [
      1159293593
    ],
    "millsfield:images_colors": [
      {
        "hex": "#424136",
        "name": "#424136",
        "reference": "marekm4"
      },
      {
        "hex": "#2f4f4f",
        "name": "darkslategrey",
        "reference": "css4"
      },
      {
        "hex": "#414a4c",
        "name": "Outer Space",
        "reference": "crayola"
      },
      {
        "hex": "#e0d6c2",
        "name": "#e0d6c2",
        "reference": "marekm4"
      },
      {
        "hex": "#d3d3d3",
        "name": "lightgrey",
        "reference": "css4"
      },
      {
        "hex": "#dbd7d2",
        "name": "Timberwolf",
        "reference": "crayola"
      },
      {
        "hex": "#8a8777",
        "name": "#8a8777",
        "reference": "marekm4"
      },
      {
        "hex": "#808080",
        "name": "grey",
        "reference": "css4"
      },
      {
        "hex": "#9f8170",
        "name": "Beaver",
        "reference": "crayola"
      }
    ],
    "millsfield:images_texts": [
      "GERSI\nFLYING TIGER LINE\nI: 000000000 • 800000009-2001\nFLYING TIGER LINE BOEING 707-349C\nINTERCONTINENTAL JET FREIGHTER"
    ],
    "millsfield:images_texts_ids": [
      1863469061
    ],
    "millsfield:similar": {
      "apple/mobileclip_s0": [
        {
          "distance": 0.4616048,
          "id": 1762895579
        },
        {
          "distance": 0.48648202,
          "id": 1762895597
        },
        {
          "distance": 0.5163386,
          "id": 2014998061
        },
        {
          "distance": 0.5179091,
          "id": 1762895595
        },
        {
          "distance": 0.5225874,
          "id": 1762895599
        },
        {
          "distance": 0.5241084,
          "id": 1762704283
        },
        {
          "distance": 0.52599037,
          "id": 2014998119
        },
        {
          "distance": 0.5277779,
          "id": 1762895561
        },
        {
          "distance": 0.5303591,
          "id": 1863469605
        },
        {
          "distance": 0.5379251,
          "id": 2014997855
        }
      ],
      "apple/mobileclip_s1": [
        {
          "distance": 0.32414004,
          "id": 1762895579
        },
        {
          "distance": 0.3539795,
          "id": 2014998229
        },
        {
          "distance": 0.37058055,
          "id": 1762895577
        },
        {
          "distance": 0.3860729,
          "id": 1762707463
        },
        {
          "distance": 0.38855913,
          "id": 2014997757
        },
        {
          "distance": 0.3920906,
          "id": 1762895563
        },
        {
          "distance": 0.39443743,
          "id": 2014997741
        },
        {
          "distance": 0.39704418,
          "id": 2014997803
        },
        {
          "distance": 0.3982095,
          "id": 2014998123
        },
        {
          "distance": 0.39934638,
          "id": 2014997735
        }
      ],
      "apple/mobileclip_s2": [
        {
          "distance": 0.49958435,
          "id": 1762895579
        },
        {
          "distance": 0.5113658,
          "id": 1762895561
        },
        {
          "distance": 0.52928025,
          "id": 1762895747
        },
        {
          "distance": 0.532615,
          "id": 1762895563
        },
        {
          "distance": 0.53395766,
          "id": 2014997757
        },
        {
          "distance": 0.5388898,
          "id": 2014998229
        },
        {
          "distance": 0.542904,
          "id": 1897416753
        },
        {
          "distance": 0.55118257,
          "id": 1998537357
        },
        {
          "distance": 0.5522059,
          "id": 1863469057
        },
        {
          "distance": 0.5523942,
          "id": 1863469605
        }
      ]
    },
    "millsfield:subcategory_id": 1511213807,
    "mz:is_current": 1,
    "sfomuseum:filename": "96726.tif",
    "sfomuseum:image_id": 96726,
    "sfomuseum:image_index": 0,
    "sfomuseum:image_type": "studio",
    "sfomuseum:object_id": 152748,
    "sfomuseum:placetype": "image",
    "sfomuseum:primary_image": 1,
    "src:geom": "sfomuseum",
    "wof:belongsto": [
      102527513,
      1159162825,
      102191575,
      85633793,
      102087579,
      85922583,
      1763552609,
      85688637,
      1159160869
    ],
    "wof:country": "XY",
    "wof:created": 1682973338,
    "wof:depicts": [
      1159288207,
      1763552609,
      1159284397,
      1159289653,
      1159293593
    ],
    "wof:geomhash": "ed7c2ab3547fc3916b5edc33488deaa7",
    "wof:hierarchy": [
      {
        "building_id": -1,
        "campus_id": 102527513,
        "collection_id": 1159162825,
        "concourse_id": 1159162825,
        "continent_id": 102191575,
        "country_id": 85633793,
        "county_id": 102087579,
        "custom_id": 1863469061,
        "image_id": 1863469061,
        "locality_id": 85922583,
        "neighbourhood_id": -1,
        "object_id": 1763552609,
        "region_id": 85688637,
        "wing_id": 1159160869
      }
    ],
    "wof:id": 1863469061,
    "wof:lastmodified": 1788451697,
    "wof:name": "promotional print: Flying Tiger Line, Boeing 707-349C",
    "wof:parent_id": 1763552609,
    "wof:placetype": "custom",
    "wof:placetype_alt": [
      "image"
    ],
    "wof:repo": "sfomuseum-data-media-collection",
    "wof:superseded_by": [],
    "wof:supersedes": []
  },
  "bbox": [
    -122.386472,
    37.616105,
    -122.385834,
    37.616611
  ],
  "geometry": {"type":"Polygon","coordinates":[[[-122.386472,37.616318],[-122.386435,37.616233],[-122.386376,37.616178],[-122.386301,37.616131],[-122.386161,37.616105],[-122.386022,37.616131],[-122.385914,37.616186],[-122.385855,37.616267],[-122.385834,37.616369],[-122.385871,37.616467],[-122.385941,37.616543],[-122.386054,37.616603],[-122.386183,37.616611],[-122.386306,37.616573],[-122.386419,37.616509],[-122.386467,37.616411],[-122.386472,37.616318]]]}
}
