{
  "id": 1846756243,
  "type": "Feature",
  "properties": {
    "date:cessation_lower": "1940-01-01",
    "date:cessation_upper": "1949-12-31",
    "date:inception_lower": "1940-01-01",
    "date:inception_upper": "1949-12-31",
    "edtf:cessation": "194X",
    "edtf:inception": "194X",
    "geom:area": 2.477324999997507e-7,
    "geom:bbox": "-122.386472,37.616105,-122.385834,37.616611",
    "geom:latitude": 37.61635756125121,
    "geom:longitude": -122.38615532866096,
    "media:fingerprint": "e834042aae918611ae00e433e138ded516de75fd",
    "media:imagehash_avg": "a:ffffff89818181ff",
    "media:imagehash_diff": "d:5955797b63716145",
    "media:imagetext": "D245: TRANSATLANTIC CLIPPER AT AIRPORT. MIAMI. FLORIDA\nINC\n19604\nhan one\n2 9",
    "media:imagetext_created": 1787967528,
    "media:imagetext_source": "com.apple.visionkit.VNImageRequestHandler#Version 26.6.2 (Build 25G83)",
    "media:mimetype": "image/jpeg",
    "media:properties": {
      "sizes": {
        "b": {
          "extension": "jpg",
          "height": 702,
          "mimetype": "image/jpeg",
          "secret": "U6yw13Slra6wMO4Oo3kYfg9biRKUro5G",
          "width": 1023
        },
        "c": {
          "extension": "jpg",
          "height": 548,
          "mimetype": "image/jpeg",
          "secret": "U6yw13Slra6wMO4Oo3kYfg9biRKUro5G",
          "width": 800
        },
        "dc": {
          "extension": "jpg",
          "height": 548,
          "mimetype": "image/jpeg",
          "secret": "U6yw13Slra6wMO4Oo3kYfg9biRKUro5G",
          "width": 800
        },
        "ds": {
          "extension": "jpg",
          "height": 320,
          "mimetype": "image/jpeg",
          "secret": "U6yw13Slra6wMO4Oo3kYfg9biRKUro5G",
          "width": 320
        },
        "k": {
          "extension": "jpg",
          "height": 1404,
          "mimetype": "image/jpeg",
          "secret": "U6yw13Slra6wMO4Oo3kYfg9biRKUro5G",
          "width": 2047
        },
        "n": {
          "extension": "jpg",
          "height": 219,
          "mimetype": "image/jpeg",
          "secret": "U6yw13Slra6wMO4Oo3kYfg9biRKUro5G",
          "width": 320
        },
        "o": {
          "extension": "jpg",
          "height": 1202,
          "mimetype": "image/jpeg",
          "secret": "4GDGS1gQYyxX2KPBV14dmLr0U9eUm5Qm",
          "width": 1753
        },
        "s": {
          "extension": "jpg",
          "height": 320,
          "mimetype": "image/jpeg",
          "secret": "U6yw13Slra6wMO4Oo3kYfg9biRKUro5G",
          "width": 320
        },
        "z": {
          "extension": "jpg",
          "height": 438,
          "mimetype": "image/jpeg",
          "secret": "U6yw13Slra6wMO4Oo3kYfg9biRKUro5G",
          "width": 640
        }
      }
    },
    "media:source": "sfomuseum",
    "media:status_id": 1,
    "media:uri_template": "https://static.sfomuseum.org/media/184/675/624/3/1846756243_{secret}_{label}.{extension}",
    "millsfield:aircraft_id": [
      1159289623
    ],
    "millsfield:airline_id": [
      1159284991
    ],
    "millsfield:airport_id": [
      -1
    ],
    "millsfield:category_id": 1511214215,
    "millsfield:collection_id": 1511214207,
    "millsfield:company_id": [
      1159293593
    ],
    "millsfield:images_colors": [
      {
        "hex": "#cdd4bc",
        "name": "#cdd4bc",
        "reference": "marekm4"
      },
      {
        "hex": "#d3d3d3",
        "name": "lightgrey",
        "reference": "css4"
      },
      {
        "hex": "#cdc5c2",
        "name": "Silver",
        "reference": "crayola"
      },
      {
        "hex": "#464431",
        "name": "#464431",
        "reference": "marekm4"
      },
      {
        "hex": "#2f4f4f",
        "name": "darkslategrey",
        "reference": "css4"
      },
      {
        "hex": "#414a4c",
        "name": "Outer Space",
        "reference": "crayola"
      },
      {
        "hex": "#929c75",
        "name": "#929c75",
        "reference": "marekm4"
      },
      {
        "hex": "#808080",
        "name": "grey",
        "reference": "css4"
      },
      {
        "hex": "#87a96b",
        "name": "Asparagus",
        "reference": "crayola"
      }
    ],
    "millsfield:images_texts": [
      "D245: TRANSATLANTIC CLIPPER AT AIRPORT. MIAMI. FLORIDA\nINC\n19604\nhan one\n2 9",
      "POST CARD\nPLACE\nSTAMP HERE\nPUB. BY THE DADE COUNTY NEWSDEALERS SUPPLY CO., MIAMI, FLA.\nto watch the chipe the air to emen\nğrm Brenna Cuter, in take ff\nFor Ris de Jamier.\n47130\nTHIS SPACE FOR WRITING\nTHIS SIDE IS FOR THE ADDRESS"
    ],
    "millsfield:images_texts_ids": [
      1846756243,
      1846756245
    ],
    "millsfield:similar": {
      "apple/mobileclip_s0": [
        {
          "distance": 0.41126668,
          "id": 1846756239
        },
        {
          "distance": 0.6007261,
          "id": 1846756109
        },
        {
          "distance": 0.6141595,
          "id": 1846756635
        },
        {
          "distance": 0.62053186,
          "id": 1846757167
        },
        {
          "distance": 0.6245334,
          "id": 1846756203
        },
        {
          "distance": 0.63703424,
          "id": 1846756113
        },
        {
          "distance": 0.63902247,
          "id": 1846756289
        },
        {
          "distance": 0.6433251,
          "id": 1846756301
        },
        {
          "distance": 0.64335024,
          "id": 1846756027
        },
        {
          "distance": 0.6516076,
          "id": 1846706079
        }
      ],
      "apple/mobileclip_s1": [
        {
          "distance": 0.28092825,
          "id": 1846756239
        },
        {
          "distance": 0.40148047,
          "id": 1846756225
        },
        {
          "distance": 0.40171504,
          "id": 1846756109
        },
        {
          "distance": 0.40509894,
          "id": 1846706115
        },
        {
          "distance": 0.41167584,
          "id": 1846756289
        },
        {
          "distance": 0.4142104,
          "id": 1846756203
        },
        {
          "distance": 0.41470468,
          "id": 1729567011
        },
        {
          "distance": 0.41538438,
          "id": 1846705823
        },
        {
          "distance": 0.41558433,
          "id": 1846755983
        },
        {
          "distance": 0.42011437,
          "id": 1846756301
        }
      ],
      "apple/mobileclip_s2": [
        {
          "distance": 0.41971496,
          "id": 1846756239
        },
        {
          "distance": 0.58379465,
          "id": 1846756109
        },
        {
          "distance": 0.60671884,
          "id": 1846756217
        },
        {
          "distance": 0.60757905,
          "id": 1846756013
        },
        {
          "distance": 0.6085171,
          "id": 1846756235
        },
        {
          "distance": 0.62250406,
          "id": 1846756027
        },
        {
          "distance": 0.62348276,
          "id": 1846706079
        },
        {
          "distance": 0.6368402,
          "id": 1846756307
        },
        {
          "distance": 0.64111125,
          "id": 1846706165
        },
        {
          "distance": 0.64176345,
          "id": 1846705585
        }
      ]
    },
    "millsfield:subcategory_id": 1511213363,
    "mz:is_current": 1,
    "sfomuseum:filename": "450a.jpg",
    "sfomuseum:image_id": 265690,
    "sfomuseum:image_index": 0,
    "sfomuseum:image_type": "studio",
    "sfomuseum:object_id": 233372,
    "sfomuseum:placetype": "image",
    "sfomuseum:primary_image": 1,
    "src:geom": "sfomuseum",
    "wof:belongsto": [
      102527513,
      1159162825,
      102191575,
      85633793,
      102087579,
      85922583,
      1846754567,
      85688637,
      1159160869
    ],
    "wof:country": "XY",
    "wof:created": 1680078794,
    "wof:depicts": [
      1159284991,
      1159289623,
      1159293593,
      1846754567
    ],
    "wof:geomhash": "ed7c2ab3547fc3916b5edc33488deaa7",
    "wof:hierarchy": [
      {
        "building_id": -1,
        "campus_id": 102527513,
        "collection_id": 1159162825,
        "concourse_id": 1159162825,
        "continent_id": 102191575,
        "country_id": 85633793,
        "county_id": 102087579,
        "custom_id": 1846756243,
        "image_id": 1846756243,
        "locality_id": 85922583,
        "neighbourhood_id": -1,
        "object_id": 1846754567,
        "region_id": 85688637,
        "wing_id": 1159160869
      }
    ],
    "wof:id": 1846756243,
    "wof:lastmodified": 1788451655,
    "wof:name": "postcard: Pan American Airways, Boeing 314 Atlantic Clipper",
    "wof:parent_id": 1846754567,
    "wof:placetype": "custom",
    "wof:placetype_alt": [
      "image"
    ],
    "wof:repo": "sfomuseum-data-media-collection",
    "wof:superseded_by": [],
    "wof:supersedes": []
  },
  "bbox": [
    -122.386472,
    37.616105,
    -122.385834,
    37.616611
  ],
  "geometry": {"type":"Polygon","coordinates":[[[-122.386472,37.616318],[-122.386435,37.616233],[-122.386376,37.616178],[-122.386301,37.616131],[-122.386161,37.616105],[-122.386022,37.616131],[-122.385914,37.616186],[-122.385855,37.616267],[-122.385834,37.616369],[-122.385871,37.616467],[-122.385941,37.616543],[-122.386054,37.616603],[-122.386183,37.616611],[-122.386306,37.616573],[-122.386419,37.616509],[-122.386467,37.616411],[-122.386472,37.616318]]]}
}
