{
  "id": 1746680429,
  "type": "Feature",
  "properties": {
    "date:cessation_lower": "1935-01-01",
    "date:cessation_upper": "1935-12-31",
    "date:inception_lower": "1935-01-01",
    "date:inception_upper": "1935-12-31",
    "edtf:cessation": "1935~",
    "edtf:date": "1935~",
    "edtf:inception": "1935~",
    "geom:area": 0,
    "geom:bbox": "-122.386155,37.616357,-122.386155,37.616357",
    "geom:latitude": 37.616357,
    "geom:longitude": -122.386155,
    "iso:country": "XX",
    "media:fingerprint": "",
    "media:imagehash_avg": "a:ffe7c08000033f3f",
    "media:imagehash_diff": "d:8b0b0b091a5b6e7d",
    "media:imagetext": "GOY FIGHT\nMystery Story for Girls\nBYROY Jo\nSNELL",
    "media:imagetext_created": 1787954925,
    "media:imagetext_source": "com.apple.visionkit.VNImageRequestHandler#Version 26.6.2 (Build 25G83)",
    "media:mimetype": "image/jpeg",
    "media:properties": {
      "sizes": {}
    },
    "media:source": "sfomuseum",
    "media:status_id": 1,
    "media:uri_template": "https://static.sfomuseum.org/media/174/668/042/9/1746680429_{secret}_{label}.{extension}",
    "millsfield:category_id": 1511214231,
    "millsfield:collection_id": 1511214217,
    "millsfield:exhibition_ids": [
      1159160363
    ],
    "millsfield:images_colors": [
      {
        "hex": "#283226",
        "name": "#283226",
        "reference": "marekm4"
      },
      {
        "hex": "#2f4f4f",
        "name": "darkslategrey",
        "reference": "css4"
      },
      {
        "hex": "#414a4c",
        "name": "Outer Space",
        "reference": "crayola"
      },
      {
        "hex": "#f4e7bb",
        "name": "#f4e7bb",
        "reference": "marekm4"
      },
      {
        "hex": "#f5deb3",
        "name": "wheat",
        "reference": "css4"
      },
      {
        "hex": "#fae7b5",
        "name": "Banana Mania",
        "reference": "crayola"
      },
      {
        "hex": "#a66144",
        "name": "#a66144",
        "reference": "marekm4"
      },
      {
        "hex": "#a0522d",
        "name": "sienna",
        "reference": "css4"
      },
      {
        "hex": "#a5694f",
        "name": "Sepia",
        "reference": "crayola"
      },
      {
        "hex": "#cf996b",
        "name": "#cf996b",
        "reference": "marekm4"
      },
      {
        "hex": "#e9967a",
        "name": "darksalmon",
        "reference": "css4"
      },
      {
        "hex": "#cd9575",
        "name": "Antique Brass",
        "reference": "crayola"
      }
    ],
    "millsfield:images_texts": [
      "GOY FIGHT\nMystery Story for Girls\nBYROY Jo\nSNELL"
    ],
    "millsfield:images_texts_ids": [
      1746680429
    ],
    "millsfield:on_view": 0,
    "millsfield:similar": {
      "apple/mobileclip_s0": [
        {
          "distance": 0.8314696,
          "id": 1746680435
        },
        {
          "distance": 0.86651117,
          "id": 1763249299
        },
        {
          "distance": 0.8759125,
          "id": 1527848869
        },
        {
          "distance": 0.88095677,
          "id": 1762700921
        },
        {
          "distance": 0.8877023,
          "id": 1762702241
        },
        {
          "distance": 0.89490086,
          "id": 1746680433
        },
        {
          "distance": 0.8963704,
          "id": 1746680379
        },
        {
          "distance": 0.8984397,
          "id": 1527821105
        },
        {
          "distance": 0.8992698,
          "id": 1527853263
        },
        {
          "distance": 0.9005427,
          "id": 1527848783
        }
      ],
      "apple/mobileclip_s1": [
        {
          "distance": 0.63747185,
          "id": 1746680379
        },
        {
          "distance": 0.65184903,
          "id": 1746680425
        },
        {
          "distance": 0.65682524,
          "id": 1746680435
        },
        {
          "distance": 0.6633882,
          "id": 1527837053
        },
        {
          "distance": 0.66771066,
          "id": 1746680473
        },
        {
          "distance": 0.6690078,
          "id": 1762893913
        },
        {
          "distance": 0.6702286,
          "id": 1527837185
        },
        {
          "distance": 0.67148024,
          "id": 1527838945
        },
        {
          "distance": 0.680494,
          "id": 1746680389
        },
        {
          "distance": 0.6822892,
          "id": 1527858289
        }
      ],
      "apple/mobileclip_s2": [
        {
          "distance": 0.8955982,
          "id": 1746680379
        },
        {
          "distance": 0.91754365,
          "id": 1527819755
        },
        {
          "distance": 0.91987336,
          "id": 1746680425
        },
        {
          "distance": 0.9209961,
          "id": 1746680435
        },
        {
          "distance": 0.9217496,
          "id": 1527837053
        },
        {
          "distance": 0.92769253,
          "id": 1762893913
        },
        {
          "distance": 0.93751174,
          "id": 1964167523
        },
        {
          "distance": 0.9398082,
          "id": 1746680377
        },
        {
          "distance": 0.94332963,
          "id": 1527838769
        },
        {
          "distance": 0.94494665,
          "id": 1746680921
        }
      ]
    },
    "millsfield:subcategory_id": 1511213325,
    "mz:is_current": 1,
    "sfomuseum:filename": "57545.jpg",
    "sfomuseum:image_id": 57545,
    "sfomuseum:image_index": 0,
    "sfomuseum:image_type": "studio",
    "sfomuseum:object_id": 85545,
    "sfomuseum:placetype": "image",
    "sfomuseum:primary_image": 1,
    "src:geom": "sfomuseum",
    "wof:belongsto": [
      1511213325,
      1511214277,
      102527513,
      1511214231,
      102191575,
      85633793,
      102087579,
      85922583,
      85688637,
      1511929799,
      1511214217
    ],
    "wof:country": "XX",
    "wof:created": 1637706277,
    "wof:depicts": [
      1511929799
    ],
    "wof:geomhash": "30c8a918561c84bb2daa2b97fc7c5353",
    "wof:hierarchy": [
      {
        "arcade_id": 1511213325,
        "building_id": 1511214277,
        "campus_id": 102527513,
        "concourse_id": 1511214231,
        "continent_id": 102191575,
        "country_id": 85633793,
        "county_id": 102087579,
        "custom_id": 1746680429,
        "image_id": 1746680429,
        "locality_id": 85922583,
        "neighbourhood_id": -1,
        "region_id": 85688637,
        "venue_id": 1511929799,
        "wing_id": 1511214217
      }
    ],
    "wof:id": 1746680429,
    "wof:lastmodified": 1788450339,
    "wof:name": "Gypsy flight",
    "wof:parent_id": 1511929799,
    "wof:placetype": "custom",
    "wof:placetype_alt": [
      "image"
    ],
    "wof:repo": "sfomuseum-data-media-collection",
    "wof:superseded_by": [],
    "wof:supersedes": []
  },
  "bbox": [
    -122.386155,
    37.616357,
    -122.386155,
    37.616357
  ],
  "geometry": {"type":"Point","coordinates":[-122.386155,37.616357]}
}
