{
  "id": 1527851177,
  "type": "Feature",
  "properties": {
    "date:cessation_lower": "1955-01-01",
    "date:cessation_upper": "1955-12-31",
    "date:inception_lower": "1955-01-01",
    "date:inception_upper": "1955-12-31",
    "edtf:cessation": "1955",
    "edtf:date": "1955",
    "edtf:inception": "1955",
    "geom:area": 0,
    "geom:bbox": "-122.386155,37.616358,-122.386155,37.616358",
    "geom:latitude": 37.616358,
    "geom:longitude": -122.386155,
    "iso:country": "XX",
    "media:fingerprint": "c25789eeba44de74e251ee82289321530de82ae4",
    "media:imagehash_avg": "a:3f07273f3f03273f",
    "media:imagehash_diff": "d:67574f6f6f4f4f6d",
    "media:imagetext": "CHICAGO\nPHILADELPHI\nWASHINGTON\nNew York\nCiudad Trejillo\nBelem\nVARIG\nAirlines\nRio de Jancino\nSão Paulo\nMontevideo\nBuenos Aines\n- VARIG INTER-AMERICAN ROUTE\n- VARIG SOUTH AMERICAN NETWORK\nUNITED STATES to the CARIBBEAN - SOUTH AMERICA\nWEDNESDAY*\n851\nSATURDAY\n851\nDAY\nTUESDAY\nSATURDAY*\n- FLIGHT NO.\nSUPER-G\nCONSTELLATION\nAIR CRAFT\n850\n850\nSUPER-G CONSTELLATION\nSOUTHBOUND\n10:00\n10:00\nKead Down\nLv.\nArr.\nNEW YORK\nKead Ur\nArr.\n17:00\n17:00\nCIUDAD TRUJILLO\n4:00\n9:30\n11:00\n12:00\n13:00\n4:00\nArr.\nBELEM\nArr.\nLv.\nArr.\nArr.\n11:00\nRIO DE JANEIRO\n13:00\nArr\nLv.\nSAO PAULO\nArr.\n16:00\n18:00\n19:00\n19:50\n16:00\n18:00\n19:00\n19:50\nPORTO ALEGRE\nArr.\nLv.\nArr.\nMONTEVIDEO\nBUENOS AIRES\nArr.\nLv.\nNORTHBOUND\n16:00\n16:00\n9:00\n8:00\n9:00\n8:00\n2:00\n1:00\n2:00\n1:00\n19:30\n18:00\n19:30\n18:00\n17:00\n16:00\n17:00\n16:00\n14:00\n13:00\n14:00\n13:00\n11:00\n10:00\n11:00\nTO.00\n9:10\n9:10\n*To start at a later date.\nLOCAL TIME SHOWN THROUGHOUT\nFARES to the CARIBBEAN — SOUTH AMERICA\nONE WAY\nFIRST CLASS\nROUND TRIP\nTOURIST\nfrom NEW YORK to\nONE WAY\nROUND TRIP\n$127.00\n300.00\n$228.60\n460.00\n540.00\n828.00\n828.00\nCIUDAD TRUJILLO\nBELEM\nRIO DE JANEIRO\nSAO PAULO\n$91.00\n$176.60\n449.00\n386.00\n723.00\n460.00\n516.00\n543.00\n549.00\n386.00\n723.00\n028 80\n977.40\n988.20\nPORTO ALEGRE\nMONTEVIDEO\nBUENOS AIRES\n417.00\n793.00\n448.00\n852.00\n867.00\nFor fares to other points in Brazil, Uruguay, and Argentina consult your Travel Agent or Varig Airlines.\nCONNECTING SERVICES TO THE FOLLOWING\nCITIES: (through VARIG or other carriers)\nCADIRREANI.\nPort au Prince, Cap Haitien, Ponce, Mayaguez, San Juan, St. Thomas, St. Croix,\nKinneton Maniona Rav Curmeno\nBRAZIL:\nRecife, Salvador, Belo Horizonte, Curitiba, Manaus, Fortaleza, Natal, Aracaju,\nMaceio Toâo Passo. Vitória. Santos. and more than 50 other important cities\nMIDNIGHAY.\nARGENTINA:\nPaysandú, Salto, Treinta y Tres, Melo, Punta del Este, Artigas, Rivera.\nEva Perón, Córdoba, Mendoza, Santa Fé, Tucuman, Salta, Rosario, Posadas,\nCorrientes. San Juan. Bariloche.\nGENERAL INFORMATION\nEQUIPMENT: All Varig flights to and from New York\nare flown with four-engined Lockheed Super-G Constel-\nlations, piloted by CAA-licensed crews.\nBAGGAGE: Free baggage allowance is 30 kilos (66 lbs.)\nfor first class, and 20 kilos (44 lbs.) for tourist pas-\nsen aero.\nOvercoats.\numbrellas,\nhandbags and small\ncameras will not be weighed as baggage, but are to be\nmarked with the passenger's name and address. Excess\nweight over free allowance is charged for at 1 percent\nof the first class adult one-way fare per kilo, or 2.2 Ibs.\nCHILDREN: One child under 2 years of age, when accom-\npanied by an adult and not occupying a separate seat,\nis carried at 10 percent of the adult fare. Children over\n2 and under 12 years, or a child under 2 occupying a\nseparate seat, are charged one-half of the applicable\nadult fare. Children may travel alone only under cer-\ntain conditions.\nMEALS: All meals in flight are served free, to both first.!\nclass and tourist passengers.\nSTOPOVER PRIVILEGES: All passengers flying Varig may\nstop at any city enroute, and on the Varig system, if\nspecified in ticket.\nTAXES: Any and all government taxes are in addition\nto Varig fares.\nINSURANCE:\nTrip insurance at low rates is available\nthrough vour travel agent or at any airport.\nRESERVATIONS: Passengers must reconfirm their reser-\nvations at least 72 hours before departure from any\nstopover city.\nDEPARTURES: To facilitate on-time departures, passen-\ngers are requested to be at the airport one hour before\nscheduled take-off time.\nGROUND TRANSPORTATION: Taxicab or limousine serv-\nice is available between downtown scheduled check-in\npoints and airports. This is not a Varig service and is at\npassenger's expense.\nCONNECTIONS: Flight connections via Varig are avail-\nable to all cities with scheduled service.\nYour travel\nagent, or any Varig office, will arrange these connec\ntions for vou.",
    "media:imagetext_created": 1787953169,
    "media:imagetext_source": "com.apple.visionkit.VNImageRequestHandler#Version 26.6.2 (Build 25G83)",
    "media:medium": "image",
    "media:mimetype": "image/tiff",
    "media:properties": {
      "sizes": {
        "b": {
          "extension": "jpg",
          "height": 577,
          "mimetype": "image/jpeg",
          "secret": "RGBRQOyiBTdiaWuZzT0Jpd3AZ6bkXHKk",
          "width": 1024
        },
        "c": {
          "extension": "jpg",
          "height": 451,
          "mimetype": "image/jpeg",
          "secret": "RGBRQOyiBTdiaWuZzT0Jpd3AZ6bkXHKk",
          "width": 800
        },
        "dc": {
          "extension": "jpg",
          "height": 451,
          "mimetype": "image/jpeg",
          "secret": "RGBRQOyiBTdiaWuZzT0Jpd3AZ6bkXHKk",
          "width": 800
        },
        "ds": {
          "extension": "jpg",
          "height": 320,
          "mimetype": "image/jpeg",
          "secret": "RGBRQOyiBTdiaWuZzT0Jpd3AZ6bkXHKk",
          "width": 320
        },
        "k": {
          "extension": "jpg",
          "height": 1154,
          "mimetype": "image/jpeg",
          "secret": "RGBRQOyiBTdiaWuZzT0Jpd3AZ6bkXHKk",
          "width": 2048
        },
        "n": {
          "extension": "jpg",
          "height": 180,
          "mimetype": "image/jpeg",
          "secret": "RGBRQOyiBTdiaWuZzT0Jpd3AZ6bkXHKk",
          "width": 320
        },
        "o": {
          "extension": "jpg",
          "height": 2721,
          "mimetype": "image/jpeg",
          "secret": "d36ekJnXRr06sZTfpE1CcwJZohnwcIHa",
          "width": 4825
        },
        "s": {
          "extension": "jpg",
          "height": 320,
          "mimetype": "image/jpeg",
          "secret": "RGBRQOyiBTdiaWuZzT0Jpd3AZ6bkXHKk",
          "width": 320
        },
        "z": {
          "extension": "jpg",
          "height": 360,
          "mimetype": "image/jpeg",
          "secret": "RGBRQOyiBTdiaWuZzT0Jpd3AZ6bkXHKk",
          "width": 640
        }
      }
    },
    "media:source": "sfomuseum",
    "media:status_id": 1,
    "media:uri_template": "https://static.sfomuseum.org/media/152/785/117/7/1527851177_{secret}_{label}.{extension}",
    "millsfield:aircraft_id": [
      1159291141
    ],
    "millsfield:airline_id": [
      1159285461
    ],
    "millsfield:category_id": 1511214223,
    "millsfield:collection_id": 1511214207,
    "millsfield:company_id": [
      1159293697
    ],
    "millsfield:images_colors": [
      {
        "hex": "#d6dac1",
        "name": "#d6dac1",
        "reference": "marekm4"
      },
      {
        "hex": "#d3d3d3",
        "name": "lightgrey",
        "reference": "css4"
      },
      {
        "hex": "#dbd7d2",
        "name": "Timberwolf",
        "reference": "crayola"
      },
      {
        "hex": "#20886d",
        "name": "#20886d",
        "reference": "marekm4"
      },
      {
        "hex": "#2e8b57",
        "name": "seagreen",
        "reference": "css4"
      },
      {
        "hex": "#17806d",
        "name": "Tropical Rain Forest",
        "reference": "crayola"
      },
      {
        "hex": "#a53209",
        "name": "#a53209",
        "reference": "marekm4"
      },
      {
        "hex": "#b22222",
        "name": "firebrick",
        "reference": "css4"
      },
      {
        "hex": "#c46210",
        "name": "Alloy Orange",
        "reference": "crayola"
      },
      {
        "hex": "#d59374",
        "name": "#d59374",
        "reference": "marekm4"
      },
      {
        "hex": "#e9967a",
        "name": "darksalmon",
        "reference": "css4"
      },
      {
        "hex": "#dd9475",
        "name": "Copper",
        "reference": "crayola"
      },
      {
        "hex": "#2b4233",
        "name": "#2b4233",
        "reference": "marekm4"
      },
      {
        "hex": "#2f4f4f",
        "name": "darkslategrey",
        "reference": "css4"
      },
      {
        "hex": "#414a4c",
        "name": "Outer Space",
        "reference": "crayola"
      }
    ],
    "millsfield:images_texts": [
      "TIMETABLE\nEFFECTIVE AUGUST 5, 1955\nVARIG\nAirlines\nNEW YORK\nSOUTH AMERICA\nvia Lockheed\nSUPER-G\nConstellations",
      "CHICAGO\nPHILADELPHI\nWASHINGTON\nNew York\nCiudad Trejillo\nBelem\nVARIG\nAirlines\nRio de Jancino\nSão Paulo\nMontevideo\nBuenos Aines\n- VARIG INTER-AMERICAN ROUTE\n- VARIG SOUTH AMERICAN NETWORK\nUNITED STATES to the CARIBBEAN - SOUTH AMERICA\nWEDNESDAY*\n851\nSATURDAY\n851\nDAY\nTUESDAY\nSATURDAY*\n- FLIGHT NO.\nSUPER-G\nCONSTELLATION\nAIR CRAFT\n850\n850\nSUPER-G CONSTELLATION\nSOUTHBOUND\n10:00\n10:00\nKead Down\nLv.\nArr.\nNEW YORK\nKead Ur\nArr.\n17:00\n17:00\nCIUDAD TRUJILLO\n4:00\n9:30\n11:00\n12:00\n13:00\n4:00\nArr.\nBELEM\nArr.\nLv.\nArr.\nArr.\n11:00\nRIO DE JANEIRO\n13:00\nArr\nLv.\nSAO PAULO\nArr.\n16:00\n18:00\n19:00\n19:50\n16:00\n18:00\n19:00\n19:50\nPORTO ALEGRE\nArr.\nLv.\nArr.\nMONTEVIDEO\nBUENOS AIRES\nArr.\nLv.\nNORTHBOUND\n16:00\n16:00\n9:00\n8:00\n9:00\n8:00\n2:00\n1:00\n2:00\n1:00\n19:30\n18:00\n19:30\n18:00\n17:00\n16:00\n17:00\n16:00\n14:00\n13:00\n14:00\n13:00\n11:00\n10:00\n11:00\nTO.00\n9:10\n9:10\n*To start at a later date.\nLOCAL TIME SHOWN THROUGHOUT\nFARES to the CARIBBEAN — SOUTH AMERICA\nONE WAY\nFIRST CLASS\nROUND TRIP\nTOURIST\nfrom NEW YORK to\nONE WAY\nROUND TRIP\n$127.00\n300.00\n$228.60\n460.00\n540.00\n828.00\n828.00\nCIUDAD TRUJILLO\nBELEM\nRIO DE JANEIRO\nSAO PAULO\n$91.00\n$176.60\n449.00\n386.00\n723.00\n460.00\n516.00\n543.00\n549.00\n386.00\n723.00\n028 80\n977.40\n988.20\nPORTO ALEGRE\nMONTEVIDEO\nBUENOS AIRES\n417.00\n793.00\n448.00\n852.00\n867.00\nFor fares to other points in Brazil, Uruguay, and Argentina consult your Travel Agent or Varig Airlines.\nCONNECTING SERVICES TO THE FOLLOWING\nCITIES: (through VARIG or other carriers)\nCADIRREANI.\nPort au Prince, Cap Haitien, Ponce, Mayaguez, San Juan, St. Thomas, St. Croix,\nKinneton Maniona Rav Curmeno\nBRAZIL:\nRecife, Salvador, Belo Horizonte, Curitiba, Manaus, Fortaleza, Natal, Aracaju,\nMaceio Toâo Passo. Vitória. Santos. and more than 50 other important cities\nMIDNIGHAY.\nARGENTINA:\nPaysandú, Salto, Treinta y Tres, Melo, Punta del Este, Artigas, Rivera.\nEva Perón, Córdoba, Mendoza, Santa Fé, Tucuman, Salta, Rosario, Posadas,\nCorrientes. San Juan. Bariloche.\nGENERAL INFORMATION\nEQUIPMENT: All Varig flights to and from New York\nare flown with four-engined Lockheed Super-G Constel-\nlations, piloted by CAA-licensed crews.\nBAGGAGE: Free baggage allowance is 30 kilos (66 lbs.)\nfor first class, and 20 kilos (44 lbs.) for tourist pas-\nsen aero.\nOvercoats.\numbrellas,\nhandbags and small\ncameras will not be weighed as baggage, but are to be\nmarked with the passenger's name and address. Excess\nweight over free allowance is charged for at 1 percent\nof the first class adult one-way fare per kilo, or 2.2 Ibs.\nCHILDREN: One child under 2 years of age, when accom-\npanied by an adult and not occupying a separate seat,\nis carried at 10 percent of the adult fare. Children over\n2 and under 12 years, or a child under 2 occupying a\nseparate seat, are charged one-half of the applicable\nadult fare. Children may travel alone only under cer-\ntain conditions.\nMEALS: All meals in flight are served free, to both first.!\nclass and tourist passengers.\nSTOPOVER PRIVILEGES: All passengers flying Varig may\nstop at any city enroute, and on the Varig system, if\nspecified in ticket.\nTAXES: Any and all government taxes are in addition\nto Varig fares.\nINSURANCE:\nTrip insurance at low rates is available\nthrough vour travel agent or at any airport.\nRESERVATIONS: Passengers must reconfirm their reser-\nvations at least 72 hours before departure from any\nstopover city.\nDEPARTURES: To facilitate on-time departures, passen-\ngers are requested to be at the airport one hour before\nscheduled take-off time.\nGROUND TRANSPORTATION: Taxicab or limousine serv-\nice is available between downtown scheduled check-in\npoints and airports. This is not a Varig service and is at\npassenger's expense.\nCONNECTIONS: Flight connections via Varig are avail-\nable to all cities with scheduled service.\nYour travel\nagent, or any Varig office, will arrange these connec\ntions for vou."
    ],
    "millsfield:images_texts_ids": [
      1527842969,
      1527851177
    ],
    "millsfield:similar": {
      "apple/mobileclip_s0": [
        {
          "distance": 0.55352485,
          "id": 1762697733
        },
        {
          "distance": 0.5898294,
          "id": 1527851153
        },
        {
          "distance": 0.5902815,
          "id": 1527848385
        },
        {
          "distance": 0.59045845,
          "id": 1527848421
        },
        {
          "distance": 0.59673506,
          "id": 1527851411
        },
        {
          "distance": 0.6025837,
          "id": 1527850397
        },
        {
          "distance": 0.6039668,
          "id": 1762714859
        },
        {
          "distance": 0.604163,
          "id": 1763241519
        },
        {
          "distance": 0.6051401,
          "id": 1527851243
        },
        {
          "distance": 0.6053926,
          "id": 1763196195
        }
      ],
      "apple/mobileclip_s1": [
        {
          "distance": 0.40180004,
          "id": 1762698169
        },
        {
          "distance": 0.41034824,
          "id": 1527848385
        },
        {
          "distance": 0.43729955,
          "id": 1762698059
        },
        {
          "distance": 0.4454016,
          "id": 1527844085
        },
        {
          "distance": 0.45229307,
          "id": 1527846355
        },
        {
          "distance": 0.45611796,
          "id": 1527858215
        },
        {
          "distance": 0.45913252,
          "id": 1527858217
        },
        {
          "distance": 0.4596302,
          "id": 1527851309
        },
        {
          "distance": 0.4626018,
          "id": 1527855151
        },
        {
          "distance": 0.46331403,
          "id": 1527851541
        }
      ],
      "apple/mobileclip_s2": [
        {
          "distance": 0.5974916,
          "id": 1527848385
        },
        {
          "distance": 0.6180811,
          "id": 1762698059
        },
        {
          "distance": 0.6561246,
          "id": 1527854903
        },
        {
          "distance": 0.66328,
          "id": 1762698169
        },
        {
          "distance": 0.6643024,
          "id": 1527847885
        },
        {
          "distance": 0.66534853,
          "id": 1527851243
        },
        {
          "distance": 0.66924846,
          "id": 1527847871
        },
        {
          "distance": 0.67101675,
          "id": 1527848405
        },
        {
          "distance": 0.6714629,
          "id": 1527850517
        },
        {
          "distance": 0.6757085,
          "id": 1527850489
        }
      ]
    },
    "millsfield:subcategory_id": 1511213425,
    "mz:hierarchy_label": 1,
    "mz:is_current": -1,
    "sfomuseum:filename": "82923.tif",
    "sfomuseum:image_id": 82923,
    "sfomuseum:image_index": 5,
    "sfomuseum:image_type": "studio",
    "sfomuseum:object_id": 98585,
    "sfomuseum:placetype": "image",
    "sfomuseum:primary_image": 0,
    "src:geom": "sfomuseum",
    "wof:belongsto": [
      1511214223,
      1511938103,
      102527513,
      102191575,
      85633793,
      1511213425,
      85922583,
      102087579,
      1511214277,
      1511214203,
      85688637
    ],
    "wof:breaches": [],
    "wof:country": "XX",
    "wof:created": 1578954314,
    "wof:depicts": [
      1511938103,
      1159291141,
      1159293697,
      1159285461
    ],
    "wof:geomhash": "bd906905ce4be6c0651c90b0fc24804c",
    "wof:hierarchy": [
      {
        "arcade_id": 1511213425,
        "building_id": 1511214277,
        "campus_id": 102527513,
        "concourse_id": 1511214223,
        "continent_id": 102191575,
        "country_id": 85633793,
        "county_id": 102087579,
        "custom_id": 1527851177,
        "image_id": 1527851177,
        "locality_id": 85922583,
        "media_id": 1527851177,
        "neighbourhood_id": -1,
        "region_id": 85688637,
        "venue_id": 1511938103,
        "wing_id": 1511214203
      }
    ],
    "wof:id": 1527851177,
    "wof:lastmodified": 1788214566,
    "wof:name": "timetable: VARIG, Lockheed L-1049G Super Constellation",
    "wof:parent_id": 1511938103,
    "wof:placetype": "custom",
    "wof:placetype_alt": [
      "image"
    ],
    "wof:repo": "sfomuseum-data-media-collection",
    "wof:superseded_by": [],
    "wof:supersedes": [],
    "wof:tags": []
  },
  "bbox": [
    -122.386155,
    37.616358,
    -122.386155,
    37.616358
  ],
  "geometry": {"type":"Point","coordinates":[-122.386155,37.616358]}
}
