{
  "id": 1527828331,
  "type": "Feature",
  "properties": {
    "date:cessation_lower": "1974-01-01",
    "date:cessation_upper": "1974-12-31",
    "date:inception_lower": "1974-01-01",
    "date:inception_upper": "1974-12-31",
    "edtf:cessation": "1974",
    "edtf:date": "1974",
    "edtf:inception": "1974",
    "geom:area": 0,
    "geom:bbox": "-122.386155,37.616358,-122.386155,37.616358",
    "geom:latitude": 37.616358,
    "geom:longitude": -122.386155,
    "iso:country": "US",
    "media:fingerprint": "b3b584d2e95d9650a461e770fb3fed21aa2eb355",
    "media:imagehash_avg": "a:fcfce0e1d2800000",
    "media:imagehash_diff": "d:8d1500d29216d4dc",
    "media:imagetext": "GO JOE\nORNIA",
    "media:imagetext_created": 1787948952,
    "media:imagetext_source": "com.apple.visionkit.VNImageRequestHandler#Version 26.6.2 (Build 25G83)",
    "media:medium": "image",
    "media:mimetype": "image/tiff",
    "media:properties": {
      "sizes": {
        "b": {
          "extension": "jpg",
          "height": 666,
          "mimetype": "image/jpeg",
          "secret": "PCyQTSb9wEDm9M0JA8ECzDpgnYWh7iz4",
          "width": 1024
        },
        "c": {
          "extension": "jpg",
          "height": 520,
          "mimetype": "image/jpeg",
          "secret": "PCyQTSb9wEDm9M0JA8ECzDpgnYWh7iz4",
          "width": 800
        },
        "dc": {
          "extension": "jpg",
          "height": 520,
          "mimetype": "image/jpeg",
          "secret": "PCyQTSb9wEDm9M0JA8ECzDpgnYWh7iz4",
          "width": 800
        },
        "ds": {
          "extension": "jpg",
          "height": 320,
          "mimetype": "image/jpeg",
          "secret": "PCyQTSb9wEDm9M0JA8ECzDpgnYWh7iz4",
          "width": 320
        },
        "k": {
          "extension": "jpg",
          "height": 1332,
          "mimetype": "image/jpeg",
          "secret": "PCyQTSb9wEDm9M0JA8ECzDpgnYWh7iz4",
          "width": 2048
        },
        "n": {
          "extension": "jpg",
          "height": 208,
          "mimetype": "image/jpeg",
          "secret": "PCyQTSb9wEDm9M0JA8ECzDpgnYWh7iz4",
          "width": 320
        },
        "o": {
          "extension": "jpg",
          "height": 1062,
          "mimetype": "image/jpeg",
          "secret": "EuNWTBkOUru9A8xfDY1eyIs6OlBISzrV",
          "width": 1632
        },
        "s": {
          "extension": "jpg",
          "height": 320,
          "mimetype": "image/jpeg",
          "secret": "PCyQTSb9wEDm9M0JA8ECzDpgnYWh7iz4",
          "width": 320
        },
        "z": {
          "extension": "jpg",
          "height": 416,
          "mimetype": "image/jpeg",
          "secret": "PCyQTSb9wEDm9M0JA8ECzDpgnYWh7iz4",
          "width": 640
        }
      }
    },
    "media:source": "sfomuseum",
    "media:status_id": 1,
    "media:uri_template": "https://static.sfomuseum.org/media/152/782/833/1/1527828331_{secret}_{label}.{extension}",
    "millsfield:airline_id": [
      1159285413
    ],
    "millsfield:airport_id": [
      102527513
    ],
    "millsfield:category_id": 1511214209,
    "millsfield:collection_id": 1511214207,
    "millsfield:company_id": [
      1159288779
    ],
    "millsfield:images_colors": [
      {
        "hex": "#3e3e3e",
        "name": "#3e3e3e",
        "reference": "marekm4"
      },
      {
        "hex": "#2f4f4f",
        "name": "darkslategrey",
        "reference": "css4"
      },
      {
        "hex": "#414a4c",
        "name": "Outer Space",
        "reference": "crayola"
      },
      {
        "hex": "#acacac",
        "name": "#acacac",
        "reference": "marekm4"
      },
      {
        "hex": "#a9a9a9",
        "name": "darkgrey",
        "reference": "css4"
      },
      {
        "hex": "#979aaa",
        "name": "Manatee",
        "reference": "crayola"
      }
    ],
    "millsfield:images_texts": [
      "GO JOE\nORNIA"
    ],
    "millsfield:images_texts_ids": [
      1527828331
    ],
    "millsfield:similar": {
      "apple/mobileclip_s0": [
        {
          "distance": 0.5101339,
          "id": 1527826009
        },
        {
          "distance": 0.53685313,
          "id": 1527828333
        },
        {
          "distance": 0.5442847,
          "id": 1527827227
        },
        {
          "distance": 0.55865055,
          "id": 1527827221
        },
        {
          "distance": 0.56448495,
          "id": 1527826007
        },
        {
          "distance": 0.5910017,
          "id": 1527822317
        },
        {
          "distance": 0.594994,
          "id": 1527822511
        },
        {
          "distance": 0.5965383,
          "id": 1527826011
        },
        {
          "distance": 0.5991488,
          "id": 1527828191
        },
        {
          "distance": 0.60064024,
          "id": 1527827231
        }
      ],
      "apple/mobileclip_s1": [
        {
          "distance": 0.3962048,
          "id": 1527828333
        },
        {
          "distance": 0.44883823,
          "id": 1527828317
        },
        {
          "distance": 0.46266288,
          "id": 1527826011
        },
        {
          "distance": 0.46602204,
          "id": 1527826007
        },
        {
          "distance": 0.46946147,
          "id": 1527827227
        },
        {
          "distance": 0.48115733,
          "id": 1527828191
        },
        {
          "distance": 0.48720992,
          "id": 1527828289
        },
        {
          "distance": 0.4942691,
          "id": 1527826009
        },
        {
          "distance": 0.497287,
          "id": 1527827231
        },
        {
          "distance": 0.50041926,
          "id": 1527822511
        }
      ],
      "apple/mobileclip_s2": [
        {
          "distance": 0.55780774,
          "id": 1527827227
        },
        {
          "distance": 0.5805472,
          "id": 1527828333
        },
        {
          "distance": 0.5961281,
          "id": 1527827221
        },
        {
          "distance": 0.606042,
          "id": 1527826007
        },
        {
          "distance": 0.61262465,
          "id": 1527826011
        },
        {
          "distance": 0.6148219,
          "id": 1527827231
        },
        {
          "distance": 0.62528557,
          "id": 1527827219
        },
        {
          "distance": 0.62610376,
          "id": 1527822511
        },
        {
          "distance": 0.6348341,
          "id": 1527828191
        },
        {
          "distance": 0.6351851,
          "id": 1527825503
        }
      ]
    },
    "millsfield:subcategory_id": 1511213801,
    "mz:hierarchy_label": 1,
    "mz:is_current": -1,
    "sfomuseum:filename": "44543.tif",
    "sfomuseum:image_id": 44543,
    "sfomuseum:image_index": 5,
    "sfomuseum:image_type": "studio",
    "sfomuseum:object_id": 117224,
    "sfomuseum:placetype": "image",
    "sfomuseum:primary_image": 1,
    "src:geom": "sfomuseum",
    "wof:belongsto": [
      102087579,
      1511214203,
      85633793,
      102527513,
      85688637,
      1511214209,
      102191575,
      85922583,
      1511949363,
      1511213801,
      1511214277
    ],
    "wof:breaches": [],
    "wof:country": "US",
    "wof:created": 1578950663,
    "wof:depicts": [
      1511949363,
      1159288779,
      102527513,
      1159285413
    ],
    "wof:geomhash": "bd906905ce4be6c0651c90b0fc24804c",
    "wof:hierarchy": [
      {
        "arcade_id": 1511213801,
        "building_id": 1511214277,
        "campus_id": 102527513,
        "concourse_id": 1511214209,
        "continent_id": 102191575,
        "country_id": 85633793,
        "county_id": 102087579,
        "custom_id": 1527828331,
        "image_id": 1527828331,
        "locality_id": 85922583,
        "media_id": 1527828331,
        "neighbourhood_id": -1,
        "region_id": 85688637,
        "venue_id": 1511949363,
        "wing_id": 1511214203
      }
    ],
    "wof:id": 1527828331,
    "wof:lastmodified": 1788449844,
    "wof:name": "negative: San Francisco International Airport (SFO), Joseph Alioto gubernatorial campaign",
    "wof:parent_id": 1511949363,
    "wof:placetype": "custom",
    "wof:placetype_alt": [
      "image"
    ],
    "wof:repo": "sfomuseum-data-media-collection",
    "wof:superseded_by": [],
    "wof:supersedes": [],
    "wof:tags": []
  },
  "bbox": [
    -122.386155,
    37.616358,
    -122.386155,
    37.616358
  ],
  "geometry": {"type":"Point","coordinates":[-122.386155,37.616358]}
}
