{
  "id": 1780288363,
  "type": "Feature",
  "properties": {
    "date:cessation_lower": "1970-04-01",
    "date:cessation_upper": "1970-04-30",
    "date:inception_lower": "1970-01-01",
    "date:inception_upper": "1970-01-31",
    "edtf:cessation": "1970-04",
    "edtf:inception": "1970-01",
    "geom:area": 2.477324999997507e-7,
    "geom:bbox": "-122.386472,37.616105,-122.385834,37.616611",
    "geom:latitude": 37.61635756125121,
    "geom:longitude": -122.38615532866096,
    "media:fingerprint": "74276b2bb34c8da80465988081bd31a6fb61faf2",
    "media:imagehash_avg": "a:fffffe3c0c000000",
    "media:imagehash_diff": "d:f0d0c06038e4f2f0",
    "media:imagetext": "The\nFriendly\nSkies",
    "media:imagetext_created": 1787965950,
    "media:imagetext_source": "com.apple.visionkit.VNImageRequestHandler#Version 26.6.2 (Build 25G83)",
    "media:mimetype": "image/tiff",
    "media:properties": {
      "sizes": {
        "b": {
          "extension": "jpg",
          "height": 768,
          "mimetype": "image/jpeg",
          "secret": "5qMgeCLVSL65e7MX6SClsWL1NqzO32in",
          "width": 965
        },
        "c": {
          "extension": "jpg",
          "height": 600,
          "mimetype": "image/jpeg",
          "secret": "5qMgeCLVSL65e7MX6SClsWL1NqzO32in",
          "width": 754
        },
        "dc": {
          "extension": "jpg",
          "height": 600,
          "mimetype": "image/jpeg",
          "secret": "5qMgeCLVSL65e7MX6SClsWL1NqzO32in",
          "width": 754
        },
        "ds": {
          "extension": "jpg",
          "height": 320,
          "mimetype": "image/jpeg",
          "secret": "5qMgeCLVSL65e7MX6SClsWL1NqzO32in",
          "width": 320
        },
        "k": {
          "extension": "jpg",
          "height": 1536,
          "mimetype": "image/jpeg",
          "secret": "5qMgeCLVSL65e7MX6SClsWL1NqzO32in",
          "width": 1931
        },
        "n": {
          "extension": "jpg",
          "height": 240,
          "mimetype": "image/jpeg",
          "secret": "5qMgeCLVSL65e7MX6SClsWL1NqzO32in",
          "width": 301
        },
        "o": {
          "extension": "jpg",
          "height": 1667,
          "mimetype": "image/jpeg",
          "secret": "HLj9sgWyPBQfLJcS9bzR92Anq8MQdg0A",
          "width": 2096
        },
        "s": {
          "extension": "jpg",
          "height": 320,
          "mimetype": "image/jpeg",
          "secret": "5qMgeCLVSL65e7MX6SClsWL1NqzO32in",
          "width": 320
        },
        "z": {
          "extension": "jpg",
          "height": 480,
          "mimetype": "image/jpeg",
          "secret": "5qMgeCLVSL65e7MX6SClsWL1NqzO32in",
          "width": 603
        }
      }
    },
    "media:source": "sfomuseum",
    "media:status_id": 1,
    "media:uri_template": "https://static.sfomuseum.org/media/178/028/836/3/1780288363_{secret}_{label}.{extension}",
    "millsfield:airline_id": [
      1159285415
    ],
    "millsfield:category_id": 1746152533,
    "millsfield:collection_id": 1511214203,
    "millsfield:company_id": [
      1159288779
    ],
    "millsfield:images_colors": [
      {
        "hex": "#acacab",
        "name": "#acacab",
        "reference": "marekm4"
      },
      {
        "hex": "#a9a9a9",
        "name": "darkgrey",
        "reference": "css4"
      },
      {
        "hex": "#979aaa",
        "name": "Manatee",
        "reference": "crayola"
      }
    ],
    "millsfield:images_texts": [
      "The\nFriendly\nSkies"
    ],
    "millsfield:images_texts_ids": [
      1780288363
    ],
    "millsfield:similar": {
      "apple/mobileclip_s0": [
        {
          "distance": 0.1508572,
          "id": 1780288333
        },
        {
          "distance": 0.15942569,
          "id": 1780288367
        },
        {
          "distance": 0.16098095,
          "id": 1780288385
        },
        {
          "distance": 0.161748,
          "id": 1780288519
        },
        {
          "distance": 0.16235445,
          "id": 1780288373
        },
        {
          "distance": 0.16240361,
          "id": 1780288377
        },
        {
          "distance": 0.17661184,
          "id": 1780288329
        },
        {
          "distance": 0.19004938,
          "id": 1780288399
        },
        {
          "distance": 0.20295589,
          "id": 1780288381
        },
        {
          "distance": 0.21746393,
          "id": 1780288359
        }
      ],
      "apple/mobileclip_s1": [
        {
          "distance": 0.111363344,
          "id": 1780288385
        },
        {
          "distance": 0.11168405,
          "id": 1780288367
        },
        {
          "distance": 0.12063536,
          "id": 1780288359
        },
        {
          "distance": 0.12903577,
          "id": 1780288397
        },
        {
          "distance": 0.13587882,
          "id": 1780288333
        },
        {
          "distance": 0.13645789,
          "id": 1780288329
        },
        {
          "distance": 0.14235842,
          "id": 1780288391
        },
        {
          "distance": 0.1439855,
          "id": 1780288483
        },
        {
          "distance": 0.14919923,
          "id": 1780288399
        },
        {
          "distance": 0.15586771,
          "id": 1780288381
        }
      ],
      "apple/mobileclip_s2": [
        {
          "distance": 0.13530889,
          "id": 1780288359
        },
        {
          "distance": 0.17252629,
          "id": 1780288397
        },
        {
          "distance": 0.17718057,
          "id": 1780288367
        },
        {
          "distance": 0.18019909,
          "id": 1780288333
        },
        {
          "distance": 0.18737394,
          "id": 1780288377
        },
        {
          "distance": 0.19182223,
          "id": 1780288385
        },
        {
          "distance": 0.19507188,
          "id": 1780288329
        },
        {
          "distance": 0.1955508,
          "id": 1780288391
        },
        {
          "distance": 0.20135719,
          "id": 1780288483
        },
        {
          "distance": 0.2085559,
          "id": 1780288519
        }
      ]
    },
    "millsfield:subcategory_id": 1511213833,
    "mz:is_current": 1,
    "sfomuseum:filename": "110000.tif",
    "sfomuseum:image_id": 110000,
    "sfomuseum:image_index": 5,
    "sfomuseum:image_type": "studio",
    "sfomuseum:object_id": 74185,
    "sfomuseum:placetype": "image",
    "sfomuseum:primary_image": 0,
    "src:geom": "sfomuseum",
    "wof:belongsto": [
      102527513,
      1159162825,
      102191575,
      85633793,
      102087579,
      85922583,
      1780287673,
      85688637,
      1159160869
    ],
    "wof:country": "XY",
    "wof:created": 1660809532,
    "wof:depicts": [
      1780287673,
      1159285415,
      1159288779
    ],
    "wof:geomhash": "ed7c2ab3547fc3916b5edc33488deaa7",
    "wof:hierarchy": [
      {
        "building_id": -1,
        "campus_id": 102527513,
        "collection_id": 1159162825,
        "concourse_id": 1159162825,
        "continent_id": 102191575,
        "country_id": 85633793,
        "county_id": 102087579,
        "custom_id": 1780288363,
        "image_id": 1780288363,
        "locality_id": 85922583,
        "neighbourhood_id": -1,
        "object_id": 1780287673,
        "region_id": 85688637,
        "wing_id": 1159160869
      }
    ],
    "wof:id": 1780288363,
    "wof:lastmodified": 1788451467,
    "wof:name": "swizzle stick: United Air Lines, Chicago",
    "wof:parent_id": 1780287673,
    "wof:placetype": "custom",
    "wof:placetype_alt": [
      "image"
    ],
    "wof:repo": "sfomuseum-data-media-collection",
    "wof:superseded_by": [],
    "wof:supersedes": []
  },
  "bbox": [
    -122.386472,
    37.616105,
    -122.385834,
    37.616611
  ],
  "geometry": {"type":"Polygon","coordinates":[[[-122.386472,37.616318],[-122.386435,37.616233],[-122.386376,37.616178],[-122.386301,37.616131],[-122.386161,37.616105],[-122.386022,37.616131],[-122.385914,37.616186],[-122.385855,37.616267],[-122.385834,37.616369],[-122.385871,37.616467],[-122.385941,37.616543],[-122.386054,37.616603],[-122.386183,37.616611],[-122.386306,37.616573],[-122.386419,37.616509],[-122.386467,37.616411],[-122.386472,37.616318]]]}
}
