{
  "id": 1762708767,
  "type": "Feature",
  "properties": {
    "date:cessation_lower": "1970-01-01",
    "date:cessation_upper": "1979-12-31",
    "date:inception_lower": "1970-01-01",
    "date:inception_upper": "1979-12-31",
    "edtf:cessation": "197X",
    "edtf:inception": "197X",
    "geom:area": 2.477324999997507e-7,
    "geom:bbox": "-122.386472,37.616105,-122.385834,37.616611",
    "geom:latitude": 37.61635756125121,
    "geom:longitude": -122.38615532866096,
    "media:fingerprint": "eb579aa90ef5bc1c2cdf3a68d18c2200e85dc30a",
    "media:imagehash_avg": "a:fff4f1f1f70707ff",
    "media:imagehash_diff": "d:694d45434d7d1d19",
    "media:imagetext": "Northwest's Boeing 320 Fan-Jets have long\nrange\ncapability for nonstop flights coast to coast and\nbetween the U.S.A. and the Orient. Powered by\nCrets pod or more than so milo our i\n20 minutes.\nPhoto Courtesy Northwest Airlines\nDR-47017-C\nGenuine Natural Color Made\nBy Dexter Press, Inc., West Nyack, N.Y., U.S.A.\n•\n_•\nPLACE\nSTAMP\nHERE\n•\nPost Card\n2015.166.1119",
    "media:imagetext_created": 1787957419,
    "media:imagetext_source": "com.apple.visionkit.VNImageRequestHandler#Version 26.6.2 (Build 25G83)",
    "media:mimetype": "image/tiff",
    "media:properties": {
      "sizes": {
        "b": {
          "extension": "jpg",
          "height": 656,
          "mimetype": "image/jpeg",
          "secret": "9tESjV7euSNCmQFl0brCUpiqOAe82MSI",
          "width": 1023
        },
        "c": {
          "extension": "jpg",
          "height": 512,
          "mimetype": "image/jpeg",
          "secret": "9tESjV7euSNCmQFl0brCUpiqOAe82MSI",
          "width": 800
        },
        "dc": {
          "extension": "jpg",
          "height": 512,
          "mimetype": "image/jpeg",
          "secret": "9tESjV7euSNCmQFl0brCUpiqOAe82MSI",
          "width": 800
        },
        "ds": {
          "extension": "jpg",
          "height": 320,
          "mimetype": "image/jpeg",
          "secret": "9tESjV7euSNCmQFl0brCUpiqOAe82MSI",
          "width": 320
        },
        "k": {
          "extension": "jpg",
          "height": 1312,
          "mimetype": "image/jpeg",
          "secret": "9tESjV7euSNCmQFl0brCUpiqOAe82MSI",
          "width": 2047
        },
        "n": {
          "extension": "jpg",
          "height": 205,
          "mimetype": "image/jpeg",
          "secret": "9tESjV7euSNCmQFl0brCUpiqOAe82MSI",
          "width": 320
        },
        "o": {
          "extension": "jpg",
          "height": 1097,
          "mimetype": "image/jpeg",
          "secret": "aSb9FxwOKc7403iL2AlhQLmE5sTuCHWh",
          "width": 1712
        },
        "s": {
          "extension": "jpg",
          "height": 320,
          "mimetype": "image/jpeg",
          "secret": "9tESjV7euSNCmQFl0brCUpiqOAe82MSI",
          "width": 320
        },
        "z": {
          "extension": "jpg",
          "height": 410,
          "mimetype": "image/jpeg",
          "secret": "9tESjV7euSNCmQFl0brCUpiqOAe82MSI",
          "width": 640
        }
      }
    },
    "media:source": "sfomuseum",
    "media:status_id": 1,
    "media:uri_template": "https://static.sfomuseum.org/media/176/270/876/7/1762708767_{secret}_{label}.{extension}",
    "millsfield:aircraft_id": [
      1159293241
    ],
    "millsfield:airline_id": [
      1159284907
    ],
    "millsfield:category_id": 1511214215,
    "millsfield:collection_id": 1511214207,
    "millsfield:company_id": [
      1159293593
    ],
    "millsfield:images_colors": [
      {
        "hex": "#ebdfc4",
        "name": "#ebdfc4",
        "reference": "marekm4"
      },
      {
        "hex": "#f5deb3",
        "name": "wheat",
        "reference": "css4"
      },
      {
        "hex": "#efdecd",
        "name": "Almond",
        "reference": "crayola"
      },
      {
        "hex": "#555794",
        "name": "#555794",
        "reference": "marekm4"
      },
      {
        "hex": "#483d8b",
        "name": "darkslateblue",
        "reference": "css4"
      },
      {
        "hex": "#58427c",
        "name": "Cyber Grape",
        "reference": "crayola"
      }
    ],
    "millsfield:images_texts": [
      "Northwest's Boeing 320 Fan-Jets have long\nrange\ncapability for nonstop flights coast to coast and\nbetween the U.S.A. and the Orient. Powered by\nCrets pod or more than so milo our i\n20 minutes.\nPhoto Courtesy Northwest Airlines\nDR-47017-C\nGenuine Natural Color Made\nBy Dexter Press, Inc., West Nyack, N.Y., U.S.A.\n•\n_•\nPLACE\nSTAMP\nHERE\n•\nPost Card\n2015.166.1119"
    ],
    "millsfield:images_texts_ids": [
      1762708767
    ],
    "millsfield:similar": {
      "apple/mobileclip_s0": [
        {
          "distance": 0.2580143,
          "id": 1762710877
        },
        {
          "distance": 0.28718334,
          "id": 1762707387
        },
        {
          "distance": 0.28798568,
          "id": 1762707383
        },
        {
          "distance": 0.32207558,
          "id": 1762704845
        },
        {
          "distance": 0.32306233,
          "id": 1762711021
        },
        {
          "distance": 0.33177245,
          "id": 1762708009
        },
        {
          "distance": 0.33605552,
          "id": 1762705043
        },
        {
          "distance": 0.34221193,
          "id": 1762704791
        },
        {
          "distance": 0.3423896,
          "id": 1762708327
        },
        {
          "distance": 0.34555766,
          "id": 1762705047
        }
      ],
      "apple/mobileclip_s1": [
        {
          "distance": 0.21898642,
          "id": 1762705043
        },
        {
          "distance": 0.22404353,
          "id": 1762710877
        },
        {
          "distance": 0.22630325,
          "id": 1762710783
        },
        {
          "distance": 0.22828159,
          "id": 1762711139
        },
        {
          "distance": 0.22862254,
          "id": 1762708009
        },
        {
          "distance": 0.22887717,
          "id": 1762705047
        },
        {
          "distance": 0.230059,
          "id": 1762709893
        },
        {
          "distance": 0.23840126,
          "id": 1762708327
        },
        {
          "distance": 0.23875888,
          "id": 1846755759
        },
        {
          "distance": 0.24071464,
          "id": 1762711017
        }
      ],
      "apple/mobileclip_s2": [
        {
          "distance": 0.3321801,
          "id": 1762705043
        },
        {
          "distance": 0.34041253,
          "id": 1762708327
        },
        {
          "distance": 0.35196882,
          "id": 1762708757
        },
        {
          "distance": 0.3659636,
          "id": 1762708009
        },
        {
          "distance": 0.36985728,
          "id": 1762709893
        },
        {
          "distance": 0.3700851,
          "id": 1762712999
        },
        {
          "distance": 0.37034416,
          "id": 1762712833
        },
        {
          "distance": 0.37048635,
          "id": 1762711139
        },
        {
          "distance": 0.37342808,
          "id": 1762702791
        },
        {
          "distance": 0.3751381,
          "id": 1762711435
        }
      ]
    },
    "millsfield:subcategory_id": 1511213363,
    "mz:is_current": 1,
    "sfomuseum:filename": "2015.166.1119_bk.tif",
    "sfomuseum:image_id": 157680,
    "sfomuseum:image_index": 5,
    "sfomuseum:image_type": "studio",
    "sfomuseum:object_id": 180736,
    "sfomuseum:placetype": "image",
    "sfomuseum:primary_image": 0,
    "src:geom": "sfomuseum",
    "wof:belongsto": [
      102527513,
      1159162825,
      102191575,
      85633793,
      102087579,
      85922583,
      1762694683,
      85688637,
      1159160869
    ],
    "wof:country": "XY",
    "wof:created": 1641349521,
    "wof:depicts": [
      1159284907,
      1159293241,
      1159293593,
      1762694683
    ],
    "wof:geomhash": "ed7c2ab3547fc3916b5edc33488deaa7",
    "wof:hierarchy": [
      {
        "building_id": -1,
        "campus_id": 102527513,
        "collection_id": 1159162825,
        "concourse_id": 1159162825,
        "continent_id": 102191575,
        "country_id": 85633793,
        "county_id": 102087579,
        "custom_id": 1762708767,
        "image_id": 1762708767,
        "locality_id": 85922583,
        "neighbourhood_id": -1,
        "object_id": 1762694683,
        "region_id": 85688637,
        "wing_id": 1159160869
      }
    ],
    "wof:id": 1762708767,
    "wof:lastmodified": 1788450588,
    "wof:name": "postcard: Northwest Airlines, Boeing 707-320",
    "wof:parent_id": 1762694683,
    "wof:placetype": "custom",
    "wof:placetype_alt": [
      "image"
    ],
    "wof:repo": "sfomuseum-data-media-collection",
    "wof:superseded_by": [],
    "wof:supersedes": []
  },
  "bbox": [
    -122.386472,
    37.616105,
    -122.385834,
    37.616611
  ],
  "geometry": {"type":"Polygon","coordinates":[[[-122.386472,37.616318],[-122.386435,37.616233],[-122.386376,37.616178],[-122.386301,37.616131],[-122.386161,37.616105],[-122.386022,37.616131],[-122.385914,37.616186],[-122.385855,37.616267],[-122.385834,37.616369],[-122.385871,37.616467],[-122.385941,37.616543],[-122.386054,37.616603],[-122.386183,37.616611],[-122.386306,37.616573],[-122.386419,37.616509],[-122.386467,37.616411],[-122.386472,37.616318]]]}
}
