{
  "id": 1763444987,
  "type": "Feature",
  "properties": {
    "date:cessation_lower": "2005-01-01",
    "date:cessation_upper": "2005-12-31",
    "date:inception_lower": "2005-01-01",
    "date:inception_upper": "2005-12-31",
    "edtf:cessation": "2005",
    "edtf:inception": "2005",
    "geom:area": 0,
    "geom:bbox": "-121.928755,37.363728,-121.928755,37.363728",
    "geom:latitude": 37.363728,
    "geom:longitude": -121.928755,
    "iso:country": "US",
    "media:fingerprint": "7db17ee4742cef198e7f1a4d186c5a75b7fd53bd",
    "media:imagehash_avg": "a:3c7e0010fe427e00",
    "media:imagehash_diff": "d:e0f4e494809ec0f0",
    "media:imagetext": "San Jose tol Cute",
    "media:imagetext_created": 1787963272,
    "media:imagetext_source": "com.apple.visionkit.VNImageRequestHandler#Version 26.6.2 (Build 25G83)",
    "media:mimetype": "image/tiff",
    "media:properties": {
      "sizes": {
        "b": {
          "extension": "jpg",
          "height": 696,
          "mimetype": "image/jpeg",
          "secret": "4DYICP89yZsrpiRvCGYD6J2TEDL0oM3D",
          "width": 1024
        },
        "c": {
          "extension": "jpg",
          "height": 543,
          "mimetype": "image/jpeg",
          "secret": "4DYICP89yZsrpiRvCGYD6J2TEDL0oM3D",
          "width": 800
        },
        "dc": {
          "extension": "jpg",
          "height": 543,
          "mimetype": "image/jpeg",
          "secret": "4DYICP89yZsrpiRvCGYD6J2TEDL0oM3D",
          "width": 800
        },
        "ds": {
          "extension": "jpg",
          "height": 320,
          "mimetype": "image/jpeg",
          "secret": "4DYICP89yZsrpiRvCGYD6J2TEDL0oM3D",
          "width": 320
        },
        "k": {
          "extension": "jpg",
          "height": 1392,
          "mimetype": "image/jpeg",
          "secret": "4DYICP89yZsrpiRvCGYD6J2TEDL0oM3D",
          "width": 2048
        },
        "n": {
          "extension": "jpg",
          "height": 217,
          "mimetype": "image/jpeg",
          "secret": "4DYICP89yZsrpiRvCGYD6J2TEDL0oM3D",
          "width": 320
        },
        "o": {
          "extension": "jpg",
          "height": 571,
          "mimetype": "image/jpeg",
          "secret": "Hg80wg0da1fC6VwZPebUtZxpxiRCmihW",
          "width": 840
        },
        "s": {
          "extension": "jpg",
          "height": 320,
          "mimetype": "image/jpeg",
          "secret": "4DYICP89yZsrpiRvCGYD6J2TEDL0oM3D",
          "width": 320
        },
        "z": {
          "extension": "jpg",
          "height": 435,
          "mimetype": "image/jpeg",
          "secret": "4DYICP89yZsrpiRvCGYD6J2TEDL0oM3D",
          "width": 640
        }
      }
    },
    "media:source": "sfomuseum",
    "media:status_id": 1,
    "media:uri_template": "https://static.sfomuseum.org/media/176/344/498/7/1763444987_{secret}_{label}.{extension}",
    "millsfield:aircraft_id": [
      1159292089
    ],
    "millsfield:airline_id": [
      1159284401
    ],
    "millsfield:airport_id": [
      102527529
    ],
    "millsfield:category_id": 1511214209,
    "millsfield:collection_id": 1511214207,
    "millsfield:company_id": [
      1159293829
    ],
    "millsfield:images_colors": [
      {
        "hex": "#3f3d4b",
        "name": "#3f3d4b",
        "reference": "marekm4"
      },
      {
        "hex": "#2f4f4f",
        "name": "darkslategrey",
        "reference": "css4"
      },
      {
        "hex": "#414a4c",
        "name": "Outer Space",
        "reference": "crayola"
      },
      {
        "hex": "#576592",
        "name": "#576592",
        "reference": "marekm4"
      },
      {
        "hex": "#708090",
        "name": "slategrey",
        "reference": "css4"
      },
      {
        "hex": "#4a646c",
        "name": "Deep Space Sparkle",
        "reference": "crayola"
      },
      {
        "hex": "#a9a4b7",
        "name": "#a9a4b7",
        "reference": "marekm4"
      },
      {
        "hex": "#a9a9a9",
        "name": "darkgrey",
        "reference": "css4"
      },
      {
        "hex": "#979aaa",
        "name": "Manatee",
        "reference": "crayola"
      },
      {
        "hex": "#7687b4",
        "name": "#7687b4",
        "reference": "marekm4"
      },
      {
        "hex": "#778899",
        "name": "lightslategrey",
        "reference": "css4"
      },
      {
        "hex": "#6699cc",
        "name": "Blue Gray",
        "reference": "crayola"
      },
      {
        "hex": "#857b90",
        "name": "#857b90",
        "reference": "marekm4"
      },
      {
        "hex": "#808080",
        "name": "grey",
        "reference": "css4"
      },
      {
        "hex": "#95918c",
        "name": "Gray",
        "reference": "crayola"
      }
    ],
    "millsfield:images_texts": [
      "San Jose tol Cute"
    ],
    "millsfield:images_texts_ids": [
      1763444987
    ],
    "millsfield:similar": {
      "apple/mobileclip_s0": [
        {
          "distance": 0.32306573,
          "id": 1763444999
        },
        {
          "distance": 0.41721737,
          "id": 1763442389
        },
        {
          "distance": 0.4371859,
          "id": 1763442199
        },
        {
          "distance": 0.46240422,
          "id": 1763442373
        },
        {
          "distance": 0.46974653,
          "id": 1762898299
        },
        {
          "distance": 0.4855903,
          "id": 1763442249
        },
        {
          "distance": 0.48809946,
          "id": 1763444157
        },
        {
          "distance": 0.49296334,
          "id": 1763388915
        },
        {
          "distance": 0.4986229,
          "id": 1763444995
        },
        {
          "distance": 0.49875146,
          "id": 1763445765
        }
      ],
      "apple/mobileclip_s1": [
        {
          "distance": 0.33272153,
          "id": 1763444999
        },
        {
          "distance": 0.34899312,
          "id": 1763442373
        },
        {
          "distance": 0.37642956,
          "id": 1763442389
        },
        {
          "distance": 0.39830756,
          "id": 1763443529
        },
        {
          "distance": 0.4037133,
          "id": 1762898303
        },
        {
          "distance": 0.4089926,
          "id": 1763442379
        },
        {
          "distance": 0.41050443,
          "id": 1763389113
        },
        {
          "distance": 0.4130829,
          "id": 1763442563
        },
        {
          "distance": 0.41489774,
          "id": 1763443501
        },
        {
          "distance": 0.41652483,
          "id": 1763442249
        }
      ],
      "apple/mobileclip_s2": [
        {
          "distance": 0.36818716,
          "id": 1763442389
        },
        {
          "distance": 0.44417557,
          "id": 1763444999
        },
        {
          "distance": 0.48517984,
          "id": 1763442373
        },
        {
          "distance": 0.499346,
          "id": 1763442249
        },
        {
          "distance": 0.5153837,
          "id": 1763444995
        },
        {
          "distance": 0.5192261,
          "id": 1763442199
        },
        {
          "distance": 0.5225917,
          "id": 1762898303
        },
        {
          "distance": 0.5381649,
          "id": 1763388991
        },
        {
          "distance": 0.56406647,
          "id": 1762898299
        },
        {
          "distance": 0.5784714,
          "id": 1763442379
        }
      ]
    },
    "millsfield:subcategory_id": 1511213401,
    "millsfield:tailnumbers": [
      "N803FR"
    ],
    "mz:is_current": 1,
    "sfomuseum:filename": "2015.074.173.tif",
    "sfomuseum:image_id": 130573,
    "sfomuseum:image_index": 5,
    "sfomuseum:image_type": "studio",
    "sfomuseum:object_id": 168837,
    "sfomuseum:placetype": "image",
    "sfomuseum:primary_image": 1,
    "src:geom": "sfomuseum",
    "wof:belongsto": [
      102527513,
      1159162825,
      102191575,
      85633793,
      102087579,
      85922583,
      1762759459,
      85688637,
      1159160869,
      102527529,
      102081673,
      85922341,
      85869525,
      85922347,
      1108782553,
      1108779019
    ],
    "wof:country": "US",
    "wof:created": 1649404928,
    "wof:depicts": [
      102527529,
      1159292089,
      1159293829,
      1159288193,
      1762759459,
      1159284401
    ],
    "wof:geomhash": "6755729d44afb52b594f86302497e36f",
    "wof:hierarchy": [
      {
        "building_id": -1,
        "campus_id": 102527513,
        "collection_id": 1159162825,
        "concourse_id": 1159162825,
        "continent_id": 102191575,
        "country_id": 85633793,
        "county_id": 102087579,
        "custom_id": 1763444987,
        "image_id": 1763444987,
        "locality_id": 85922583,
        "neighbourhood_id": -1,
        "object_id": 1762759459,
        "region_id": 85688637,
        "wing_id": 1159160869
      },
      {
        "campus_id": 102527529,
        "continent_id": 102191575,
        "country_id": 85633793,
        "county_id": 102081673,
        "custom_id": 1763444987,
        "image_id": 1763444987,
        "locality_id": 85922341,
        "neighbourhood_id": 85869525,
        "object_id": 1762759459,
        "region_id": 85688637
      },
      {
        "campus_id": 102527529,
        "continent_id": 102191575,
        "country_id": 85633793,
        "county_id": 102081673,
        "custom_id": 1763444987,
        "image_id": 1763444987,
        "locality_id": 85922347,
        "macrohood_id": 1108782553,
        "neighbourhood_id": 1108779019,
        "object_id": 1762759459,
        "region_id": 85688637
      }
    ],
    "wof:id": 1763444987,
    "wof:lastmodified": 1788451201,
    "wof:name": "slide: Frontier Airlines, Airbus A318-100, San Jose Airport (SJC)",
    "wof:parent_id": 1762759459,
    "wof:placetype": "custom",
    "wof:placetype_alt": [
      "image"
    ],
    "wof:repo": "sfomuseum-data-media-collection",
    "wof:superseded_by": [],
    "wof:supersedes": []
  },
  "bbox": [
    -121.928755,
    37.363728,
    -121.928755,
    37.363728
  ],
  "geometry": {"type":"MultiPoint","coordinates":[[-121.928755,37.363728]]}
}
