{
  "id": 1796503519,
  "type": "Feature",
  "properties": {
    "date:cessation_lower": "1980-01-01",
    "date:cessation_upper": "1989-12-31",
    "date:inception_lower": "1980-01-01",
    "date:inception_upper": "1989-12-31",
    "edtf:cessation": "198X",
    "edtf:inception": "198X",
    "geom:area": 2.477324999997507e-7,
    "geom:bbox": "-122.386472,37.616105,-122.385834,37.616611",
    "geom:latitude": 37.61635756125121,
    "geom:longitude": -122.38615532866096,
    "media:fingerprint": "ca9ae1964c015bdeb5cfdf68eac5107ee2eb1452",
    "media:imagehash_avg": "a:ffffbf0f0c060000",
    "media:imagehash_diff": "d:f0684050caecf4f0",
    "media:mimetype": "image/tiff",
    "media:properties": {
      "sizes": {
        "b": {
          "extension": "jpg",
          "height": 768,
          "mimetype": "image/jpeg",
          "secret": "92fY5lg95SwRlcZ6CtunBiNm5gKOatsU",
          "width": 965
        },
        "c": {
          "extension": "jpg",
          "height": 600,
          "mimetype": "image/jpeg",
          "secret": "92fY5lg95SwRlcZ6CtunBiNm5gKOatsU",
          "width": 754
        },
        "dc": {
          "extension": "jpg",
          "height": 600,
          "mimetype": "image/jpeg",
          "secret": "92fY5lg95SwRlcZ6CtunBiNm5gKOatsU",
          "width": 754
        },
        "ds": {
          "extension": "jpg",
          "height": 320,
          "mimetype": "image/jpeg",
          "secret": "92fY5lg95SwRlcZ6CtunBiNm5gKOatsU",
          "width": 320
        },
        "k": {
          "extension": "jpg",
          "height": 1536,
          "mimetype": "image/jpeg",
          "secret": "92fY5lg95SwRlcZ6CtunBiNm5gKOatsU",
          "width": 1931
        },
        "n": {
          "extension": "jpg",
          "height": 240,
          "mimetype": "image/jpeg",
          "secret": "92fY5lg95SwRlcZ6CtunBiNm5gKOatsU",
          "width": 301
        },
        "o": {
          "extension": "jpg",
          "height": 1667,
          "mimetype": "image/jpeg",
          "secret": "vRSwBQiwHsl8XU1fvwmCTeWzHXPgIHo4",
          "width": 2096
        },
        "s": {
          "extension": "jpg",
          "height": 320,
          "mimetype": "image/jpeg",
          "secret": "92fY5lg95SwRlcZ6CtunBiNm5gKOatsU",
          "width": 320
        },
        "z": {
          "extension": "jpg",
          "height": 480,
          "mimetype": "image/jpeg",
          "secret": "92fY5lg95SwRlcZ6CtunBiNm5gKOatsU",
          "width": 603
        }
      }
    },
    "media:source": "sfomuseum",
    "media:status_id": 1,
    "media:uri_template": "https://static.sfomuseum.org/media/179/650/351/9/1796503519_{secret}_{label}.{extension}",
    "millsfield:airline_id": [
      1159285589
    ],
    "millsfield:category_id": 1746152551,
    "millsfield:collection_id": 1511214203,
    "millsfield:company_id": [
      1159288009
    ],
    "millsfield:images_colors": [
      {
        "hex": "#a09f9e",
        "name": "#a09f9e",
        "reference": "marekm4"
      },
      {
        "hex": "#a9a9a9",
        "name": "darkgrey",
        "reference": "css4"
      },
      {
        "hex": "#979aaa",
        "name": "Manatee",
        "reference": "crayola"
      },
      {
        "hex": "#5f5c5b",
        "name": "#5f5c5b",
        "reference": "marekm4"
      },
      {
        "hex": "#696969",
        "name": "dimgrey",
        "reference": "css4"
      },
      {
        "hex": "#6e5160",
        "name": "Eggplant",
        "reference": "crayola"
      }
    ],
    "millsfield:images_texts": [
      "swissair"
    ],
    "millsfield:images_texts_ids": [
      1796503521
    ],
    "millsfield:similar": {
      "apple/mobileclip_s0": [
        {
          "distance": 0.10656294,
          "id": 1796503523
        },
        {
          "distance": 0.13164823,
          "id": 1796503515
        },
        {
          "distance": 0.15585884,
          "id": 1796484787
        },
        {
          "distance": 0.16358514,
          "id": 1796503433
        },
        {
          "distance": 0.16933106,
          "id": 1796506635
        },
        {
          "distance": 0.1700701,
          "id": 1796465053
        },
        {
          "distance": 0.17899302,
          "id": 1796503431
        },
        {
          "distance": 0.18876527,
          "id": 1796472227
        },
        {
          "distance": 0.18918842,
          "id": 1796484901
        },
        {
          "distance": 0.1893978,
          "id": 1763180257
        }
      ],
      "apple/mobileclip_s1": [
        {
          "distance": 0.08503695,
          "id": 1796503523
        },
        {
          "distance": 0.09913326,
          "id": 1796503515
        },
        {
          "distance": 0.120476134,
          "id": 1796472607
        },
        {
          "distance": 0.13302693,
          "id": 1796503433
        },
        {
          "distance": 0.1347565,
          "id": 1796465053
        },
        {
          "distance": 0.13704135,
          "id": 1796465181
        },
        {
          "distance": 0.13828142,
          "id": 1796465185
        },
        {
          "distance": 0.14095902,
          "id": 1796476691
        },
        {
          "distance": 0.14305952,
          "id": 1796472221
        },
        {
          "distance": 0.14564334,
          "id": 1796465071
        }
      ],
      "apple/mobileclip_s2": [
        {
          "distance": 0.08478357,
          "id": 1796503515
        },
        {
          "distance": 0.09049791,
          "id": 1796503523
        },
        {
          "distance": 0.15573412,
          "id": 1796465185
        },
        {
          "distance": 0.16183515,
          "id": 1796484787
        },
        {
          "distance": 0.16716658,
          "id": 1796465053
        },
        {
          "distance": 0.16898301,
          "id": 1796476691
        },
        {
          "distance": 0.17050284,
          "id": 1796465181
        },
        {
          "distance": 0.17421646,
          "id": 1796465213
        },
        {
          "distance": 0.17431507,
          "id": 1796465071
        },
        {
          "distance": 0.17521028,
          "id": 1796472607
        }
      ]
    },
    "millsfield:subcategory_id": 1511213417,
    "mz:is_current": 1,
    "sfomuseum:filename": "107955.tif",
    "sfomuseum:image_id": 107955,
    "sfomuseum:image_index": 5,
    "sfomuseum:image_type": "studio",
    "sfomuseum:object_id": 81539,
    "sfomuseum:placetype": "image",
    "sfomuseum:primary_image": 1,
    "src:geom": "sfomuseum",
    "wof:belongsto": [
      102527513,
      1159162825,
      102191575,
      85633793,
      102087579,
      85922583,
      1796503219,
      85688637,
      1159160869
    ],
    "wof:country": "XY",
    "wof:created": 1666857271,
    "wof:depicts": [
      1796503219,
      1159285589,
      1159288009
    ],
    "wof:geomhash": "ed7c2ab3547fc3916b5edc33488deaa7",
    "wof:hierarchy": [
      {
        "building_id": -1,
        "campus_id": 102527513,
        "collection_id": 1159162825,
        "concourse_id": 1159162825,
        "continent_id": 102191575,
        "country_id": 85633793,
        "county_id": 102087579,
        "custom_id": 1796503519,
        "image_id": 1796503519,
        "locality_id": 85922583,
        "neighbourhood_id": -1,
        "object_id": 1796503219,
        "region_id": 85688637,
        "wing_id": 1159160869
      }
    ],
    "wof:id": 1796503519,
    "wof:lastmodified": 1788451551,
    "wof:name": "fork: Swissair",
    "wof:parent_id": 1796503219,
    "wof:placetype": "custom",
    "wof:placetype_alt": [
      "image"
    ],
    "wof:repo": "sfomuseum-data-media-collection",
    "wof:superseded_by": [],
    "wof:supersedes": []
  },
  "bbox": [
    -122.386472,
    37.616105,
    -122.385834,
    37.616611
  ],
  "geometry": {"type":"Polygon","coordinates":[[[-122.386472,37.616318],[-122.386435,37.616233],[-122.386376,37.616178],[-122.386301,37.616131],[-122.386161,37.616105],[-122.386022,37.616131],[-122.385914,37.616186],[-122.385855,37.616267],[-122.385834,37.616369],[-122.385871,37.616467],[-122.385941,37.616543],[-122.386054,37.616603],[-122.386183,37.616611],[-122.386306,37.616573],[-122.386419,37.616509],[-122.386467,37.616411],[-122.386472,37.616318]]]}
}
