{
  "id": 1964106871,
  "type": "Feature",
  "properties": {
    "date:cessation_lower": "1979-01-01",
    "date:cessation_upper": "1979-12-31",
    "date:inception_lower": "1979-01-01",
    "date:inception_upper": "1979-12-31",
    "edtf:cessation": "1979",
    "edtf:inception": "1979",
    "geom:area": 2.477324999997507e-7,
    "geom:bbox": "-122.386472,37.616105,-122.385834,37.616611",
    "geom:latitude": 37.61635756125121,
    "geom:longitude": -122.38615532866096,
    "media:fingerprint": "c2a5a4d3e8df13472e142ce53cdbecef70919dce",
    "media:imagehash_avg": "a:ffe7e3e3e3e3e3ff",
    "media:imagehash_diff": "d:0f0e8e8e8e0e0e0e",
    "media:imagetext": "BE SAFE-CLOSE COVER BEFORE STRIKING\nCelebrating\nDelachirCines\n28CE6",
    "media:imagetext_created": 1787975013,
    "media:imagetext_source": "com.apple.visionkit.VNImageRequestHandler#Version 26.6.2 (Build 25G83)",
    "media:mimetype": "image/tiff",
    "media:properties": {
      "sizes": {
        "b": {
          "extension": "jpg",
          "height": 768,
          "mimetype": "image/jpeg",
          "secret": "atvmjKZrVZ8Cgo5ZeGy6v8mP3wR6zoRW",
          "width": 985
        },
        "c": {
          "extension": "jpg",
          "height": 600,
          "mimetype": "image/jpeg",
          "secret": "atvmjKZrVZ8Cgo5ZeGy6v8mP3wR6zoRW",
          "width": 769
        },
        "dc": {
          "extension": "jpg",
          "height": 1634,
          "mimetype": "image/jpeg",
          "secret": "atvmjKZrVZ8Cgo5ZeGy6v8mP3wR6zoRW",
          "width": 2096
        },
        "ds": {
          "extension": "jpg",
          "height": 1634,
          "mimetype": "image/jpeg",
          "secret": "atvmjKZrVZ8Cgo5ZeGy6v8mP3wR6zoRW",
          "width": 2096
        },
        "k": {
          "extension": "jpg",
          "height": 1536,
          "mimetype": "image/jpeg",
          "secret": "atvmjKZrVZ8Cgo5ZeGy6v8mP3wR6zoRW",
          "width": 1970
        },
        "n": {
          "extension": "jpg",
          "height": 240,
          "mimetype": "image/jpeg",
          "secret": "atvmjKZrVZ8Cgo5ZeGy6v8mP3wR6zoRW",
          "width": 307
        },
        "o": {
          "extension": "jpg",
          "height": 1634,
          "mimetype": "image/jpeg",
          "secret": "qnzG3mBsymxZ2NmGSDEpuzgNQK9Zd0HB",
          "width": 2096
        },
        "s": {
          "extension": "jpg",
          "height": 1634,
          "mimetype": "image/jpeg",
          "secret": "atvmjKZrVZ8Cgo5ZeGy6v8mP3wR6zoRW",
          "width": 2096
        },
        "z": {
          "extension": "jpg",
          "height": 480,
          "mimetype": "image/jpeg",
          "secret": "atvmjKZrVZ8Cgo5ZeGy6v8mP3wR6zoRW",
          "width": 615
        }
      }
    },
    "media:source": "sfomuseum",
    "media:status_id": 1,
    "media:uri_template": "https://static.sfomuseum.org/media/196/410/687/1/1964106871_{secret}_{label}.{extention}",
    "millsfield:airline_id": [
      1159284261
    ],
    "millsfield:category_id": 1763416373,
    "millsfield:collection_id": 1511214203,
    "millsfield:company_id": [
      1159287931
    ],
    "millsfield:images_colors": [
      {
        "hex": "#a9aaa8",
        "name": "#a9aaa8",
        "reference": "marekm4"
      },
      {
        "hex": "#a9a9a9",
        "name": "darkgrey",
        "reference": "css4"
      },
      {
        "hex": "#979aaa",
        "name": "Manatee",
        "reference": "crayola"
      },
      {
        "hex": "#343a47",
        "name": "#343a47",
        "reference": "marekm4"
      },
      {
        "hex": "#2f4f4f",
        "name": "darkslategrey",
        "reference": "css4"
      },
      {
        "hex": "#414a4c",
        "name": "Outer Space",
        "reference": "crayola"
      }
    ],
    "millsfield:images_texts": [
      "BE SAFE-CLOSE COVER BEFORE STRIKING\nCelebrating\nDelachirCines\n28CE6"
    ],
    "millsfield:images_texts_ids": [
      1964106871
    ],
    "millsfield:similar": {
      "apple/mobileclip_s0": [
        {
          "distance": 0.20841609,
          "id": 1964106875
        },
        {
          "distance": 0.3915736,
          "id": 1964039323
        },
        {
          "distance": 0.43700948,
          "id": 1931110517
        },
        {
          "distance": 0.43723598,
          "id": 1964106867
        },
        {
          "distance": 0.44017002,
          "id": 1964106865
        },
        {
          "distance": 0.4622247,
          "id": 1763380901
        },
        {
          "distance": 0.46497974,
          "id": 1964107079
        },
        {
          "distance": 0.47563398,
          "id": 1913832231
        },
        {
          "distance": 0.47633672,
          "id": 1964039303
        },
        {
          "distance": 0.4800969,
          "id": 1763380661
        }
      ],
      "apple/mobileclip_s1": [
        {
          "distance": 0.15725756,
          "id": 1964106875
        },
        {
          "distance": 0.3716888,
          "id": 1964341685
        },
        {
          "distance": 0.39249662,
          "id": 1964341681
        },
        {
          "distance": 0.40089822,
          "id": 1931110259
        },
        {
          "distance": 0.40099245,
          "id": 1964106867
        },
        {
          "distance": 0.40594652,
          "id": 1913832231
        },
        {
          "distance": 0.4087779,
          "id": 1897892317
        },
        {
          "distance": 0.41153803,
          "id": 2014778099
        },
        {
          "distance": 0.41179168,
          "id": 1763380901
        },
        {
          "distance": 0.4179947,
          "id": 2014778031
        }
      ],
      "apple/mobileclip_s2": [
        {
          "distance": 0.25138333,
          "id": 1964106875
        },
        {
          "distance": 0.50176877,
          "id": 1964039323
        },
        {
          "distance": 0.51418966,
          "id": 1763588783
        },
        {
          "distance": 0.51639247,
          "id": 1763456029
        },
        {
          "distance": 0.51857567,
          "id": 1763588787
        },
        {
          "distance": 0.51897377,
          "id": 2014778099
        },
        {
          "distance": 0.52871794,
          "id": 1964106867
        },
        {
          "distance": 0.5288487,
          "id": 2014778621
        },
        {
          "distance": 0.52961177,
          "id": 2014778091
        },
        {
          "distance": 0.53175956,
          "id": 2014778625
        }
      ]
    },
    "millsfield:subcategory_id": 1511213677,
    "mz:is_current": 1,
    "sfomuseum:filename": "111925.tif",
    "sfomuseum:image_id": 111925,
    "sfomuseum:image_index": 5,
    "sfomuseum:image_type": "studio",
    "sfomuseum:object_id": 129844,
    "sfomuseum:placetype": "image",
    "sfomuseum:primary_image": 1,
    "src:geom": "sfomuseum",
    "wof:belongsto": [
      102527513,
      1159162825,
      102191575,
      85633793,
      102087579,
      85922583,
      1964106575,
      85688637,
      1159160869
    ],
    "wof:country": "XY",
    "wof:created": 1742974526,
    "wof:depicts": [
      1159284261,
      1159287931,
      1964106575
    ],
    "wof:geomhash": "ed7c2ab3547fc3916b5edc33488deaa7",
    "wof:hierarchy": [
      {
        "building_id": -1,
        "campus_id": 102527513,
        "collection_id": 1159162825,
        "concourse_id": 1159162825,
        "continent_id": 102191575,
        "country_id": 85633793,
        "county_id": 102087579,
        "custom_id": 1964106871,
        "locality_id": 85922583,
        "neighbourhood_id": -1,
        "object_id": 1964106575,
        "region_id": 85688637,
        "wing_id": 1159160869
      }
    ],
    "wof:id": 1964106871,
    "wof:lastmodified": 1788452534,
    "wof:name": "matchbook: Delta Air Lines",
    "wof:parent_id": 1964106575,
    "wof:placetype": "custom",
    "wof:repo": "sfomuseum-data-media-collection",
    "wof:superseded_by": [],
    "wof:supersedes": []
  },
  "bbox": [
    -122.386472,
    37.616105,
    -122.385834,
    37.616611
  ],
  "geometry": {"type":"Polygon","coordinates":[[[-122.386472,37.616318],[-122.386435,37.616233],[-122.386376,37.616178],[-122.386301,37.616131],[-122.386161,37.616105],[-122.386022,37.616131],[-122.385914,37.616186],[-122.385855,37.616267],[-122.385834,37.616369],[-122.385871,37.616467],[-122.385941,37.616543],[-122.386054,37.616603],[-122.386183,37.616611],[-122.386306,37.616573],[-122.386419,37.616509],[-122.386467,37.616411],[-122.386472,37.616318]]]}
}
