{
  "id": 1527829805,
  "type": "Feature",
  "properties": {
    "date:cessation_lower": "1947-02-24",
    "date:cessation_upper": "1947-02-24",
    "date:inception_lower": "1947-02-24",
    "date:inception_upper": "1947-02-24",
    "edtf:cessation": "1947-02-24",
    "edtf:date": "1947-02-24",
    "edtf:inception": "1947-02-24",
    "geom:area": 0,
    "geom:bbox": "-122.386155,37.616358,-122.386155,37.616358",
    "geom:latitude": 37.616358,
    "geom:longitude": -122.386155,
    "iso:country": "XX",
    "media:fingerprint": "74f23744cdadfcb54f206b7a9ef121a462102cb7",
    "media:imagehash_avg": "a:ff98f8988c8f8fff",
    "media:imagehash_diff": "d:1a71313139563e3a",
    "media:imagetext": "PAN AMERICAN WORLD AIRWAYS\nFirst Clipper Flight\nCanton Island, Phoenix Island Group\nto\nSydney, Australia.\nSACO STATES A MAN\nAIR 15 MAIL\nFAMERICA\nP.M.\n1947\nVL\nAIR 10 MAIL\nCENTS\nUNITED STATES OF AMERICA\nSAN FRA\nCANTON ISLAND\n% Pan American Airways,\nBox 3755, G.P.O.\nSydney,\nAustralia.\nFIRST FLIGHT -F.A.M. 19\nCANTON ISLAND\nTO AUSTRALIA",
    "media:imagetext_created": 1787949175,
    "media:imagetext_source": "com.apple.visionkit.VNImageRequestHandler#Version 26.6.2 (Build 25G83)",
    "media:medium": "image",
    "media:mimetype": "image/tiff",
    "media:properties": {
      "sizes": {
        "b": {
          "extension": "jpg",
          "height": 612,
          "mimetype": "image/jpeg",
          "secret": "JHWJ6pruWhQE6mwYW4i54eNiPNWJHKu7",
          "width": 1024
        },
        "c": {
          "extension": "jpg",
          "height": 478,
          "mimetype": "image/jpeg",
          "secret": "JHWJ6pruWhQE6mwYW4i54eNiPNWJHKu7",
          "width": 800
        },
        "dc": {
          "extension": "jpg",
          "height": 478,
          "mimetype": "image/jpeg",
          "secret": "JHWJ6pruWhQE6mwYW4i54eNiPNWJHKu7",
          "width": 800
        },
        "ds": {
          "extension": "jpg",
          "height": 320,
          "mimetype": "image/jpeg",
          "secret": "JHWJ6pruWhQE6mwYW4i54eNiPNWJHKu7",
          "width": 320
        },
        "k": {
          "extension": "jpg",
          "height": 1225,
          "mimetype": "image/jpeg",
          "secret": "JHWJ6pruWhQE6mwYW4i54eNiPNWJHKu7",
          "width": 2048
        },
        "n": {
          "extension": "jpg",
          "height": 191,
          "mimetype": "image/jpeg",
          "secret": "JHWJ6pruWhQE6mwYW4i54eNiPNWJHKu7",
          "width": 320
        },
        "o": {
          "extension": "jpg",
          "height": 1224,
          "mimetype": "image/jpeg",
          "secret": "HVBZ4V0DuNbiJ8xWlKiqsmu91o3wa7Tl",
          "width": 2046
        },
        "s": {
          "extension": "jpg",
          "height": 320,
          "mimetype": "image/jpeg",
          "secret": "JHWJ6pruWhQE6mwYW4i54eNiPNWJHKu7",
          "width": 320
        },
        "z": {
          "extension": "jpg",
          "height": 382,
          "mimetype": "image/jpeg",
          "secret": "JHWJ6pruWhQE6mwYW4i54eNiPNWJHKu7",
          "width": 640
        }
      }
    },
    "media:source": "sfomuseum",
    "media:status_id": 1,
    "media:uri_template": "https://static.sfomuseum.org/media/152/782/980/5/1527829805_{secret}_{label}.{extension}",
    "millsfield:airline_id": [
      1159284989
    ],
    "millsfield:category_id": 1511214215,
    "millsfield:collection_id": 1511214207,
    "millsfield:company_id": [
      1159286839
    ],
    "millsfield:exhibition_ids": [
      1763594993
    ],
    "millsfield:images_colors": [
      {
        "hex": "#dad3c7",
        "name": "#dad3c7",
        "reference": "marekm4"
      },
      {
        "hex": "#d3d3d3",
        "name": "lightgrey",
        "reference": "css4"
      },
      {
        "hex": "#dbd7d2",
        "name": "Timberwolf",
        "reference": "crayola"
      },
      {
        "hex": "#3d3548",
        "name": "#3d3548",
        "reference": "marekm4"
      },
      {
        "hex": "#2f4f4f",
        "name": "darkslategrey",
        "reference": "css4"
      },
      {
        "hex": "#414a4c",
        "name": "Outer Space",
        "reference": "crayola"
      },
      {
        "hex": "#c04032",
        "name": "#c04032",
        "reference": "marekm4"
      },
      {
        "hex": "#a52a2a",
        "name": "brown",
        "reference": "css4"
      },
      {
        "hex": "#cd4a4c",
        "name": "Mahogany",
        "reference": "crayola"
      },
      {
        "hex": "#466399",
        "name": "#466399",
        "reference": "marekm4"
      },
      {
        "hex": "#483d8b",
        "name": "darkslateblue",
        "reference": "css4"
      },
      {
        "hex": "#2e5894",
        "name": "B'dazzled Blue",
        "reference": "crayola"
      },
      {
        "hex": "#6f8cad",
        "name": "#6f8cad",
        "reference": "marekm4"
      },
      {
        "hex": "#778899",
        "name": "lightslategrey",
        "reference": "css4"
      },
      {
        "hex": "#6699cc",
        "name": "Blue Gray",
        "reference": "crayola"
      }
    ],
    "millsfield:images_texts": [
      "PAN AMERICAN WORLD AIRWAYS\nFirst Clipper Flight\nCanton Island, Phoenix Island Group\nto\nSydney, Australia.\nSACO STATES A MAN\nAIR 15 MAIL\nFAMERICA\nP.M.\n1947\nVL\nAIR 10 MAIL\nCENTS\nUNITED STATES OF AMERICA\nSAN FRA\nCANTON ISLAND\n% Pan American Airways,\nBox 3755, G.P.O.\nSydney,\nAustralia.\nFIRST FLIGHT -F.A.M. 19\nCANTON ISLAND\nTO AUSTRALIA",
      "P.O.\nSYDNEY\n530P26F E47\n-\nQ.N.S\nW-AUS\n99418,1990",
      "PAA\nAnother First Flight Cover\nCarried by\nThe System of the Hying Clippers\nWhen You Think of Air Travel Think of\nPAN AMERICAN WORLD AIRWAYS"
    ],
    "millsfield:images_texts_ids": [
      1527829805,
      1527829807,
      1527829809
    ],
    "millsfield:on_view": 0,
    "millsfield:similar": {
      "apple/mobileclip_s0": [
        {
          "distance": 0.42602843,
          "id": 1527829797
        },
        {
          "distance": 0.46580815,
          "id": 1527829837
        },
        {
          "distance": 0.4918067,
          "id": 1527829831
        },
        {
          "distance": 0.49744153,
          "id": 1527829845
        },
        {
          "distance": 0.5358086,
          "id": 1527829593
        },
        {
          "distance": 0.5451497,
          "id": 1527829791
        },
        {
          "distance": 0.5511547,
          "id": 1527829589
        },
        {
          "distance": 0.55349606,
          "id": 1527853807
        },
        {
          "distance": 0.5555471,
          "id": 1527829151
        },
        {
          "distance": 0.5608907,
          "id": 1527829907
        }
      ],
      "apple/mobileclip_s1": [
        {
          "distance": 0.2469917,
          "id": 1527829797
        },
        {
          "distance": 0.3481403,
          "id": 1527829837
        },
        {
          "distance": 0.3510755,
          "id": 1527829851
        },
        {
          "distance": 0.35190946,
          "id": 1527829151
        },
        {
          "distance": 0.3543909,
          "id": 1527829791
        },
        {
          "distance": 0.38488606,
          "id": 1527834149
        },
        {
          "distance": 0.3915796,
          "id": 1527829869
        },
        {
          "distance": 0.39364013,
          "id": 1527829135
        },
        {
          "distance": 0.3942171,
          "id": 1527829855
        },
        {
          "distance": 0.4006088,
          "id": 1527829845
        }
      ],
      "apple/mobileclip_s2": [
        {
          "distance": 0.30131912,
          "id": 1527829797
        },
        {
          "distance": 0.4903974,
          "id": 1527829151
        },
        {
          "distance": 0.5021858,
          "id": 1527829811
        },
        {
          "distance": 0.50320196,
          "id": 1527829845
        },
        {
          "distance": 0.52853113,
          "id": 1527829855
        },
        {
          "distance": 0.53657633,
          "id": 1527829825
        },
        {
          "distance": 0.53921884,
          "id": 1527829863
        },
        {
          "distance": 0.54372644,
          "id": 1527829837
        },
        {
          "distance": 0.5440827,
          "id": 1527829831
        },
        {
          "distance": 0.5462927,
          "id": 1527829817
        }
      ]
    },
    "millsfield:subcategory_id": 1511213159,
    "mz:hierarchy_label": 1,
    "mz:is_current": -1,
    "sfomuseum:filename": "48728.tif",
    "sfomuseum:image_id": 48728,
    "sfomuseum:image_index": 5,
    "sfomuseum:image_type": "studio",
    "sfomuseum:object_id": 43733,
    "sfomuseum:placetype": "image",
    "sfomuseum:primary_image": 1,
    "src:geom": "sfomuseum",
    "wof:belongsto": [
      1511214215,
      1511907387,
      102527513,
      102191575,
      85633793,
      1511213159,
      85922583,
      102087579,
      1511214277,
      1511214203,
      85688637
    ],
    "wof:breaches": [],
    "wof:country": "XX",
    "wof:created": 1578950895,
    "wof:depicts": [
      1159284989,
      1511907387,
      1159286839
    ],
    "wof:geomhash": "bd906905ce4be6c0651c90b0fc24804c",
    "wof:hierarchy": [
      {
        "arcade_id": 1511213159,
        "building_id": 1511214277,
        "campus_id": 102527513,
        "concourse_id": 1511214215,
        "continent_id": 102191575,
        "country_id": 85633793,
        "county_id": 102087579,
        "custom_id": 1527829805,
        "image_id": 1527829805,
        "locality_id": 85922583,
        "media_id": 1527829805,
        "neighbourhood_id": -1,
        "region_id": 85688637,
        "venue_id": 1511907387,
        "wing_id": 1511214203
      }
    ],
    "wof:id": 1527829805,
    "wof:lastmodified": 1788449866,
    "wof:name": "airmail flight cover: Pan American World Airways, FAM-19, Canton Island - Sydney route",
    "wof:parent_id": 1511907387,
    "wof:placetype": "custom",
    "wof:placetype_alt": [
      "image"
    ],
    "wof:repo": "sfomuseum-data-media-collection",
    "wof:superseded_by": [],
    "wof:supersedes": [],
    "wof:tags": []
  },
  "bbox": [
    -122.386155,
    37.616358,
    -122.386155,
    37.616358
  ],
  "geometry": {"type":"Point","coordinates":[-122.386155,37.616358]}
}
