{
  "id": 1763196675,
  "type": "Feature",
  "properties": {
    "date:cessation_lower": "1982-01-01",
    "date:cessation_upper": "1982-12-31",
    "date:inception_lower": "1982-01-01",
    "date:inception_upper": "1982-12-31",
    "edtf:cessation": "1982",
    "edtf:inception": "1982",
    "geom:area": 2.477324999997507e-7,
    "geom:bbox": "-122.386472,37.616105,-122.385834,37.616611",
    "geom:latitude": 37.61635756125121,
    "geom:longitude": -122.38615532866096,
    "media:fingerprint": "db305850bf1e11b45ef7e723da55620a504915e2",
    "media:imagehash_avg": "a:ff8bbf81818181ed",
    "media:imagehash_diff": "d:75337e33131b1919",
    "media:imagetext": "GULFAIR\nTIMETABLE\nEffective October 24,1982\nSpread your wings-",
    "media:imagetext_created": 1787961224,
    "media:imagetext_source": "com.apple.visionkit.VNImageRequestHandler#Version 26.6.2 (Build 25G83)",
    "media:mimetype": "image/tiff",
    "media:properties": {
      "sizes": {
        "b": {
          "extension": "jpg",
          "height": 767,
          "mimetype": "image/jpeg",
          "secret": "neInRA7SAfOHW6gi30gUh8SwSqtZcNYu",
          "width": 369
        },
        "c": {
          "extension": "jpg",
          "height": 600,
          "mimetype": "image/jpeg",
          "secret": "neInRA7SAfOHW6gi30gUh8SwSqtZcNYu",
          "width": 288
        },
        "dc": {
          "extension": "jpg",
          "height": 600,
          "mimetype": "image/jpeg",
          "secret": "neInRA7SAfOHW6gi30gUh8SwSqtZcNYu",
          "width": 288
        },
        "ds": {
          "extension": "jpg",
          "height": 320,
          "mimetype": "image/jpeg",
          "secret": "neInRA7SAfOHW6gi30gUh8SwSqtZcNYu",
          "width": 320
        },
        "k": {
          "extension": "jpg",
          "height": 1535,
          "mimetype": "image/jpeg",
          "secret": "neInRA7SAfOHW6gi30gUh8SwSqtZcNYu",
          "width": 739
        },
        "n": {
          "extension": "jpg",
          "height": 240,
          "mimetype": "image/jpeg",
          "secret": "neInRA7SAfOHW6gi30gUh8SwSqtZcNYu",
          "width": 115
        },
        "o": {
          "extension": "jpg",
          "height": 2693,
          "mimetype": "image/jpeg",
          "secret": "YGset8TRp4fX39dj6J1UxYV78AxuZSGl",
          "width": 1297
        },
        "s": {
          "extension": "jpg",
          "height": 320,
          "mimetype": "image/jpeg",
          "secret": "neInRA7SAfOHW6gi30gUh8SwSqtZcNYu",
          "width": 320
        },
        "z": {
          "extension": "jpg",
          "height": 480,
          "mimetype": "image/jpeg",
          "secret": "neInRA7SAfOHW6gi30gUh8SwSqtZcNYu",
          "width": 231
        }
      }
    },
    "media:source": "sfomuseum",
    "media:status_id": 1,
    "media:uri_template": "https://static.sfomuseum.org/media/176/319/667/5/1763196675_{secret}_{label}.{extension}",
    "millsfield:airline_id": [
      1159284467
    ],
    "millsfield:category_id": 1511214223,
    "millsfield:collection_id": 1511214207,
    "millsfield:company_id": [
      1159287827
    ],
    "millsfield:images_colors": [
      {
        "hex": "#dadfd9",
        "name": "#dadfd9",
        "reference": "marekm4"
      },
      {
        "hex": "#dcdcdc",
        "name": "gainsboro",
        "reference": "css4"
      },
      {
        "hex": "#dbd7d2",
        "name": "Timberwolf",
        "reference": "crayola"
      },
      {
        "hex": "#3e382a",
        "name": "#3e382a",
        "reference": "marekm4"
      },
      {
        "hex": "#2f4f4f",
        "name": "darkslategrey",
        "reference": "css4"
      },
      {
        "hex": "#414a4c",
        "name": "Outer Space",
        "reference": "crayola"
      },
      {
        "hex": "#6099d0",
        "name": "#6099d0",
        "reference": "marekm4"
      },
      {
        "hex": "#6495ed",
        "name": "cornflowerblue",
        "reference": "css4"
      },
      {
        "hex": "#6699cc",
        "name": "Blue Gray",
        "reference": "crayola"
      },
      {
        "hex": "#996f2d",
        "name": "#996f2d",
        "reference": "marekm4"
      },
      {
        "hex": "#a0522d",
        "name": "sienna",
        "reference": "css4"
      },
      {
        "hex": "#9c7c38",
        "name": "Metallic Sunburst",
        "reference": "crayola"
      },
      {
        "hex": "#4f6daf",
        "name": "#4f6daf",
        "reference": "marekm4"
      },
      {
        "hex": "#4682b4",
        "name": "steelblue",
        "reference": "css4"
      },
      {
        "hex": "#5d76cb",
        "name": "Indigo",
        "reference": "crayola"
      }
    ],
    "millsfield:images_texts": [
      "GULFAIR\nTIMETABLE\nEffective October 24,1982\nSpread your wings-"
    ],
    "millsfield:images_texts_ids": [
      1763196675
    ],
    "millsfield:similar": {
      "apple/mobileclip_s0": [
        {
          "distance": 0.7885124,
          "id": 1762715039
        },
        {
          "distance": 0.834685,
          "id": 1763381221
        },
        {
          "distance": 0.8347816,
          "id": 1762698865
        },
        {
          "distance": 0.8354931,
          "id": 1527845743
        },
        {
          "distance": 0.8411807,
          "id": 1762714333
        },
        {
          "distance": 0.8481593,
          "id": 1527846217
        },
        {
          "distance": 0.84956557,
          "id": 1527846963
        },
        {
          "distance": 0.8525339,
          "id": 1763503961
        },
        {
          "distance": 0.8572853,
          "id": 1527836327
        },
        {
          "distance": 0.86006415,
          "id": 1527845775
        }
      ],
      "apple/mobileclip_s1": [
        {
          "distance": 0.53316396,
          "id": 1762715039
        },
        {
          "distance": 0.54632294,
          "id": 1527839345
        },
        {
          "distance": 0.55029154,
          "id": 1763503961
        },
        {
          "distance": 0.5557134,
          "id": 1762705059
        },
        {
          "distance": 0.56462884,
          "id": 1527846901
        },
        {
          "distance": 0.569439,
          "id": 1527841621
        },
        {
          "distance": 0.5701892,
          "id": 1863469733
        },
        {
          "distance": 0.5726559,
          "id": 1527845775
        },
        {
          "distance": 0.58044845,
          "id": 1527841285
        },
        {
          "distance": 0.5810318,
          "id": 1527853585
        }
      ],
      "apple/mobileclip_s2": [
        {
          "distance": 0.68253416,
          "id": 1762715039
        },
        {
          "distance": 0.74915457,
          "id": 1527846901
        },
        {
          "distance": 0.7630347,
          "id": 1527841517
        },
        {
          "distance": 0.7718372,
          "id": 1527839345
        },
        {
          "distance": 0.7759679,
          "id": 1763241209
        },
        {
          "distance": 0.78018177,
          "id": 1863469533
        },
        {
          "distance": 0.7811574,
          "id": 1762701431
        },
        {
          "distance": 0.7812715,
          "id": 1762715113
        },
        {
          "distance": 0.78214455,
          "id": 1762701459
        },
        {
          "distance": 0.78375626,
          "id": 1527836347
        }
      ]
    },
    "millsfield:subcategory_id": 1511213425,
    "mz:is_current": 1,
    "sfomuseum:filename": "2014.084.0661.tif",
    "sfomuseum:image_id": 103175,
    "sfomuseum:image_index": 5,
    "sfomuseum:image_type": "studio",
    "sfomuseum:object_id": 157185,
    "sfomuseum:placetype": "image",
    "sfomuseum:primary_image": 1,
    "src:geom": "sfomuseum",
    "wof:belongsto": [
      102527513,
      1159162825,
      102191575,
      85633793,
      102087579,
      85922583,
      1763195565,
      85688637,
      1159160869
    ],
    "wof:country": "XY",
    "wof:created": 1646383750,
    "wof:depicts": [
      1763195565,
      1159284467,
      1159287827
    ],
    "wof:geomhash": "ed7c2ab3547fc3916b5edc33488deaa7",
    "wof:hierarchy": [
      {
        "building_id": -1,
        "campus_id": 102527513,
        "collection_id": 1159162825,
        "concourse_id": 1159162825,
        "continent_id": 102191575,
        "country_id": 85633793,
        "county_id": 102087579,
        "custom_id": 1763196675,
        "image_id": 1763196675,
        "locality_id": 85922583,
        "neighbourhood_id": -1,
        "object_id": 1763195565,
        "region_id": 85688637,
        "wing_id": 1159160869
      }
    ],
    "wof:id": 1763196675,
    "wof:lastmodified": 1788450980,
    "wof:name": "timetable: Gulf Air",
    "wof:parent_id": 1763195565,
    "wof:placetype": "custom",
    "wof:placetype_alt": [
      "image"
    ],
    "wof:repo": "sfomuseum-data-media-collection",
    "wof:superseded_by": [],
    "wof:supersedes": []
  },
  "bbox": [
    -122.386472,
    37.616105,
    -122.385834,
    37.616611
  ],
  "geometry": {"type":"Polygon","coordinates":[[[-122.386472,37.616318],[-122.386435,37.616233],[-122.386376,37.616178],[-122.386301,37.616131],[-122.386161,37.616105],[-122.386022,37.616131],[-122.385914,37.616186],[-122.385855,37.616267],[-122.385834,37.616369],[-122.385871,37.616467],[-122.385941,37.616543],[-122.386054,37.616603],[-122.386183,37.616611],[-122.386306,37.616573],[-122.386419,37.616509],[-122.386467,37.616411],[-122.386472,37.616318]]]}
}
