{
  "id": 1762895533,
  "type": "Feature",
  "properties": {
    "date:cessation_lower": "1970-01-01",
    "date:cessation_upper": "1970-12-31",
    "date:inception_lower": "1970-01-01",
    "date:inception_upper": "1970-12-31",
    "edtf:cessation": "1970~",
    "edtf:inception": "1970~",
    "geom:area": 2.477324999997507e-7,
    "geom:bbox": "-122.386472,37.616105,-122.385834,37.616611",
    "geom:latitude": 37.61635756125121,
    "geom:longitude": -122.38615532866096,
    "media:fingerprint": "23c143d71306ad18221dcc4919a5979f59eea5d8",
    "media:imagehash_avg": "a:fff1fddd9f810080",
    "media:imagehash_diff": "d:41410119770d6169",
    "media:imagetext": "JAPAN\nAIR\nLINES\n10-0-0",
    "media:imagetext_created": 1787959200,
    "media:imagetext_source": "com.apple.visionkit.VNImageRequestHandler#Version 26.6.2 (Build 25G83)",
    "media:mimetype": "image/tiff",
    "media:properties": {
      "sizes": {
        "b": {
          "extension": "jpg",
          "height": 768,
          "mimetype": "image/jpeg",
          "secret": "uaGNbgrcUGcLGoly1g3jsfKmf6wy1oVL",
          "width": 950
        },
        "c": {
          "extension": "jpg",
          "height": 600,
          "mimetype": "image/jpeg",
          "secret": "uaGNbgrcUGcLGoly1g3jsfKmf6wy1oVL",
          "width": 742
        },
        "dc": {
          "extension": "jpg",
          "height": 600,
          "mimetype": "image/jpeg",
          "secret": "uaGNbgrcUGcLGoly1g3jsfKmf6wy1oVL",
          "width": 742
        },
        "ds": {
          "extension": "jpg",
          "height": 320,
          "mimetype": "image/jpeg",
          "secret": "uaGNbgrcUGcLGoly1g3jsfKmf6wy1oVL",
          "width": 320
        },
        "k": {
          "extension": "jpg",
          "height": 1536,
          "mimetype": "image/jpeg",
          "secret": "uaGNbgrcUGcLGoly1g3jsfKmf6wy1oVL",
          "width": 1900
        },
        "n": {
          "extension": "jpg",
          "height": 240,
          "mimetype": "image/jpeg",
          "secret": "uaGNbgrcUGcLGoly1g3jsfKmf6wy1oVL",
          "width": 297
        },
        "o": {
          "extension": "jpg",
          "height": 1616,
          "mimetype": "image/jpeg",
          "secret": "h8KjUoN3M3sKCxzFjaC41P4BoE3K2JoQ",
          "width": 2000
        },
        "s": {
          "extension": "jpg",
          "height": 320,
          "mimetype": "image/jpeg",
          "secret": "uaGNbgrcUGcLGoly1g3jsfKmf6wy1oVL",
          "width": 320
        },
        "z": {
          "extension": "jpg",
          "height": 480,
          "mimetype": "image/jpeg",
          "secret": "uaGNbgrcUGcLGoly1g3jsfKmf6wy1oVL",
          "width": 594
        }
      }
    },
    "media:source": "sfomuseum",
    "media:status_id": 1,
    "media:uri_template": "https://static.sfomuseum.org/media/176/289/553/3/1762895533_{secret}_{label}.{extension}",
    "millsfield:aircraft_id": [
      1159290443
    ],
    "millsfield:airline_id": [
      1159285785
    ],
    "millsfield:category_id": 1511214209,
    "millsfield:collection_id": 1511214207,
    "millsfield:company_id": [],
    "millsfield:images_colors": [
      {
        "hex": "#612e34",
        "name": "#612e34",
        "reference": "marekm4"
      },
      {
        "hex": "#8b4513",
        "name": "saddlebrown",
        "reference": "css4"
      },
      {
        "hex": "#714b23",
        "name": "Raw Umber",
        "reference": "crayola"
      },
      {
        "hex": "#8c4942",
        "name": "#8c4942",
        "reference": "marekm4"
      },
      {
        "hex": "#a0522d",
        "name": "sienna",
        "reference": "css4"
      },
      {
        "hex": "#9c2542",
        "name": "Big Dip O' Ruby",
        "reference": "crayola"
      },
      {
        "hex": "#d5bdb5",
        "name": "#d5bdb5",
        "reference": "marekm4"
      },
      {
        "hex": "#c0c0c0",
        "name": "silver",
        "reference": "css4"
      },
      {
        "hex": "#cdc5c2",
        "name": "Silver",
        "reference": "crayola"
      }
    ],
    "millsfield:images_texts": [
      "JAPAN\nAIR\nLINES\n10-0-0"
    ],
    "millsfield:images_texts_ids": [
      1762895533
    ],
    "millsfield:similar": {
      "apple/mobileclip_s0": [
        {
          "distance": 0.44073614,
          "id": 1763389041
        },
        {
          "distance": 0.458605,
          "id": 1763389039
        },
        {
          "distance": 0.46713406,
          "id": 1763444963
        },
        {
          "distance": 0.46889305,
          "id": 1763445325
        },
        {
          "distance": 0.47313237,
          "id": 1763444459
        },
        {
          "distance": 0.477309,
          "id": 1762895575
        },
        {
          "distance": 0.47795814,
          "id": 1763442939
        },
        {
          "distance": 0.4815607,
          "id": 1763442217
        },
        {
          "distance": 0.48239383,
          "id": 1527822389
        },
        {
          "distance": 0.48403114,
          "id": 1763444255
        }
      ],
      "apple/mobileclip_s1": [
        {
          "distance": 0.3786384,
          "id": 1763444813
        },
        {
          "distance": 0.38098216,
          "id": 1763388949
        },
        {
          "distance": 0.38605684,
          "id": 1763389291
        },
        {
          "distance": 0.38745707,
          "id": 1763443563
        },
        {
          "distance": 0.3909994,
          "id": 1762705897
        },
        {
          "distance": 0.39133558,
          "id": 1763444623
        },
        {
          "distance": 0.3939407,
          "id": 1762899193
        },
        {
          "distance": 0.3944249,
          "id": 1763389041
        },
        {
          "distance": 0.39540794,
          "id": 1763444797
        },
        {
          "distance": 0.3961214,
          "id": 1763443087
        }
      ],
      "apple/mobileclip_s2": [
        {
          "distance": 0.4690767,
          "id": 1762705897
        },
        {
          "distance": 0.4848802,
          "id": 1763445823
        },
        {
          "distance": 0.50951606,
          "id": 1763444821
        },
        {
          "distance": 0.51756895,
          "id": 1897416735
        },
        {
          "distance": 0.5182163,
          "id": 1762898213
        },
        {
          "distance": 0.5275039,
          "id": 1763443455
        },
        {
          "distance": 0.5297789,
          "id": 1763388949
        },
        {
          "distance": 0.5349646,
          "id": 1762705843
        },
        {
          "distance": 0.5360422,
          "id": 1762895621
        },
        {
          "distance": 0.53906214,
          "id": 1762899281
        }
      ]
    },
    "millsfield:subcategory_id": 1511213367,
    "mz:is_current": 1,
    "sfomuseum:filename": "88699.tif",
    "sfomuseum:image_id": 88699,
    "sfomuseum:image_index": 5,
    "sfomuseum:image_type": "studio",
    "sfomuseum:object_id": 129315,
    "sfomuseum:placetype": "image",
    "sfomuseum:primary_image": 1,
    "src:geom": "sfomuseum",
    "wof:belongsto": [
      102527513,
      1159162825,
      102191575,
      85633793,
      102087579,
      85922583,
      1762832931,
      85688637,
      1159160869
    ],
    "wof:country": "XY",
    "wof:created": 1643414502,
    "wof:depicts": [
      1762832931,
      1159285785,
      1159288505,
      1159290443
    ],
    "wof:geomhash": "ed7c2ab3547fc3916b5edc33488deaa7",
    "wof:hierarchy": [
      {
        "building_id": -1,
        "campus_id": 102527513,
        "collection_id": 1159162825,
        "concourse_id": 1159162825,
        "continent_id": 102191575,
        "country_id": 85633793,
        "county_id": 102087579,
        "custom_id": 1762895533,
        "image_id": 1762895533,
        "locality_id": 85922583,
        "neighbourhood_id": -1,
        "object_id": 1762832931,
        "region_id": 85688637,
        "wing_id": 1159160869
      }
    ],
    "wof:id": 1762895533,
    "wof:lastmodified": 1788450784,
    "wof:name": "photograph: JAL (Japan Air Lines), Douglas DC-8",
    "wof:parent_id": 1762832931,
    "wof:placetype": "custom",
    "wof:placetype_alt": [
      "image"
    ],
    "wof:repo": "sfomuseum-data-media-collection",
    "wof:superseded_by": [],
    "wof:supersedes": []
  },
  "bbox": [
    -122.386472,
    37.616105,
    -122.385834,
    37.616611
  ],
  "geometry": {"type":"Polygon","coordinates":[[[-122.386472,37.616318],[-122.386435,37.616233],[-122.386376,37.616178],[-122.386301,37.616131],[-122.386161,37.616105],[-122.386022,37.616131],[-122.385914,37.616186],[-122.385855,37.616267],[-122.385834,37.616369],[-122.385871,37.616467],[-122.385941,37.616543],[-122.386054,37.616603],[-122.386183,37.616611],[-122.386306,37.616573],[-122.386419,37.616509],[-122.386467,37.616411],[-122.386472,37.616318]]]}
}
