{
  "id": 1930551415,
  "type": "Feature",
  "properties": {
    "date:cessation_lower": "1950-01-01",
    "date:cessation_upper": "1959-12-31",
    "date:inception_lower": "1950-01-01",
    "date:inception_upper": "1959-12-31",
    "edtf:cessation": "195X",
    "edtf:date": "195x",
    "edtf:inception": "195X",
    "geom:area": 0,
    "geom:bbox": "-122.386155,37.616357,-122.386155,37.616357",
    "geom:latitude": 37.616357,
    "geom:longitude": -122.386155,
    "iso:country": "JP",
    "media:fingerprint": "898fae4201a38862e11fa012b367f59717fba6fc",
    "media:imagehash_avg": "a:78fcfcf6c781f1ff",
    "media:imagehash_diff": "d:e0e0e0241e1f23e0",
    "media:imagetext": "INITIST\nCOMET\nCOMET\nCOMET\nJETLINER\n(De Heavilland",
    "media:imagetext_created": 1787974114,
    "media:imagetext_source": "com.apple.visionkit.VNImageRequestHandler#Version 26.6.2 (Build 25G83)",
    "media:mimetype": "image/tiff",
    "media:properties": {
      "sizes": {
        "b": {
          "extension": "jpg",
          "height": 768,
          "mimetype": "image/jpeg",
          "secret": "jpABfqyEFWwe9CviAJBPVUzeDBFGBf1E",
          "width": 960
        },
        "c": {
          "extension": "jpg",
          "height": 600,
          "mimetype": "image/jpeg",
          "secret": "jpABfqyEFWwe9CviAJBPVUzeDBFGBf1E",
          "width": 750
        },
        "dc": {
          "extension": "jpg",
          "height": 600,
          "mimetype": "image/jpeg",
          "secret": "jpABfqyEFWwe9CviAJBPVUzeDBFGBf1E",
          "width": 750
        },
        "ds": {
          "extension": "jpg",
          "height": 320,
          "mimetype": "image/jpeg",
          "secret": "jpABfqyEFWwe9CviAJBPVUzeDBFGBf1E",
          "width": 320
        },
        "k": {
          "extension": "jpg",
          "height": 1536,
          "mimetype": "image/jpeg",
          "secret": "jpABfqyEFWwe9CviAJBPVUzeDBFGBf1E",
          "width": 1920
        },
        "n": {
          "extension": "jpg",
          "height": 240,
          "mimetype": "image/jpeg",
          "secret": "jpABfqyEFWwe9CviAJBPVUzeDBFGBf1E",
          "width": 300
        },
        "o": {
          "extension": "jpg",
          "height": 1680,
          "mimetype": "image/jpeg",
          "secret": "L36gPLz2kWOebBxRXM5lhBOjEcxpLZFm",
          "width": 2100
        },
        "s": {
          "extension": "jpg",
          "height": 320,
          "mimetype": "image/jpeg",
          "secret": "jpABfqyEFWwe9CviAJBPVUzeDBFGBf1E",
          "width": 320
        },
        "z": {
          "extension": "jpg",
          "height": 480,
          "mimetype": "image/jpeg",
          "secret": "jpABfqyEFWwe9CviAJBPVUzeDBFGBf1E",
          "width": 600
        }
      }
    },
    "media:source": "sfomuseum",
    "media:status_id": 1,
    "media:uri_template": "https://static.sfomuseum.org/media/193/055/141/5/1930551415_{secret}_{label}.{extention}",
    "millsfield:aircraft_id": [
      1159290321
    ],
    "millsfield:category_id": 1511214213,
    "millsfield:collection_id": 1511214203,
    "millsfield:company_id": [
      1159293995
    ],
    "millsfield:images_colors": [
      {
        "hex": "#b7b1b1",
        "name": "#b7b1b1",
        "reference": "marekm4"
      },
      {
        "hex": "#a9a9a9",
        "name": "darkgrey",
        "reference": "css4"
      },
      {
        "hex": "#b0b7c6",
        "name": "Cadet Blue",
        "reference": "crayola"
      },
      {
        "hex": "#52504e",
        "name": "#52504e",
        "reference": "marekm4"
      },
      {
        "hex": "#2f4f4f",
        "name": "darkslategrey",
        "reference": "css4"
      },
      {
        "hex": "#414a4c",
        "name": "Outer Space",
        "reference": "crayola"
      },
      {
        "hex": "#877572",
        "name": "#877572",
        "reference": "marekm4"
      },
      {
        "hex": "#808080",
        "name": "grey",
        "reference": "css4"
      },
      {
        "hex": "#757575",
        "name": "Sonic Silver",
        "reference": "crayola"
      },
      {
        "hex": "#8c857a",
        "name": "#8c857a",
        "reference": "marekm4"
      },
      {
        "hex": "#9f8170",
        "name": "Beaver",
        "reference": "crayola"
      }
    ],
    "millsfield:images_texts": [
      "YENITER,\nCOMET\nCOM\nCOMET\nJETLINER\nDe Havilland",
      "COMET\nSOMET\nJETLINE\nDe Havilland\nNO.17\nCOMET",
      "INITIST\nCOMET\nCOMET\nCOMET\nJETLINER\n(De Heavilland",
      "De Havilland\nCOMET JETLINER\nПІТ\nCOMET\nLUMET"
    ],
    "millsfield:images_texts_ids": [
      1746680235,
      1897761953,
      1930551415,
      1930551419
    ],
    "millsfield:similar": {
      "apple/mobileclip_s0": [
        {
          "distance": 0.22921763,
          "id": 1930551419
        },
        {
          "distance": 0.37149367,
          "id": 1930551361
        },
        {
          "distance": 0.39009297,
          "id": 1930551365
        },
        {
          "distance": 0.39244974,
          "id": 1930551401
        },
        {
          "distance": 0.39946774,
          "id": 1930551357
        },
        {
          "distance": 0.40113154,
          "id": 1930551403
        },
        {
          "distance": 0.4125124,
          "id": 1880321297
        },
        {
          "distance": 0.41711673,
          "id": 1880440351
        },
        {
          "distance": 0.42598963,
          "id": 1930551339
        },
        {
          "distance": 0.43281433,
          "id": 1881138619
        }
      ],
      "apple/mobileclip_s1": [
        {
          "distance": 0.17351836,
          "id": 1930551419
        },
        {
          "distance": 0.279398,
          "id": 1930551403
        },
        {
          "distance": 0.28208852,
          "id": 1930551401
        },
        {
          "distance": 0.30789205,
          "id": 1746680233
        },
        {
          "distance": 0.30867434,
          "id": 1930551355
        },
        {
          "distance": 0.309151,
          "id": 1746680235
        },
        {
          "distance": 0.31111008,
          "id": 1930551357
        },
        {
          "distance": 0.3177513,
          "id": 1930551339
        },
        {
          "distance": 0.32707873,
          "id": 1930551421
        },
        {
          "distance": 0.33137453,
          "id": 1880440351
        }
      ],
      "apple/mobileclip_s2": [
        {
          "distance": 0.26390186,
          "id": 1930551419
        },
        {
          "distance": 0.35235608,
          "id": 1746680235
        },
        {
          "distance": 0.39429292,
          "id": 1930551421
        },
        {
          "distance": 0.39878136,
          "id": 1930551401
        },
        {
          "distance": 0.39934927,
          "id": 1930551403
        },
        {
          "distance": 0.4192961,
          "id": 1930551339
        },
        {
          "distance": 0.42289943,
          "id": 1880321609
        },
        {
          "distance": 0.42416656,
          "id": 1880440355
        },
        {
          "distance": 0.42581376,
          "id": 1880440357
        },
        {
          "distance": 0.42753574,
          "id": 1897771555
        }
      ]
    },
    "millsfield:subcategory_id": 1511213163,
    "mz:is_current": 1,
    "sfomuseum:filename": "1998.055.022_1.tif",
    "sfomuseum:image_id": 287348,
    "sfomuseum:image_index": 0,
    "sfomuseum:image_type": "studio",
    "sfomuseum:object_id": 48625,
    "sfomuseum:placetype": "image",
    "sfomuseum:primary_image": 1,
    "src:geom": "sfomuseum",
    "wof:belongsto": [
      102191569,
      85632429,
      1511908819,
      1511213163,
      1511214277,
      102527513,
      1511214213,
      102191575,
      85633793,
      102087579,
      85922583,
      85688637,
      1511214203
    ],
    "wof:country": "JP",
    "wof:created": 1722843273,
    "wof:depicts": [
      1511908819,
      1159290321,
      1159293995
    ],
    "wof:geomhash": "30c8a918561c84bb2daa2b97fc7c5353",
    "wof:hierarchy": [
      {
        "continent_id": 102191569,
        "country_id": 85632429,
        "custom_id": 1930551415,
        "object_id": 1511908819,
        "venue_id": 1511908819
      },
      {
        "arcade_id": 1511213163,
        "building_id": 1511214277,
        "campus_id": 102527513,
        "concourse_id": 1511214213,
        "continent_id": 102191575,
        "country_id": 85633793,
        "county_id": 102087579,
        "custom_id": 1930551415,
        "locality_id": 85922583,
        "neighbourhood_id": -1,
        "object_id": 1511908819,
        "region_id": 85688637,
        "venue_id": 1511908819,
        "wing_id": 1511214203
      }
    ],
    "wof:id": 1930551415,
    "wof:lastmodified": 1788452431,
    "wof:name": "toy airplane: de Havilland DH-106 Comet jetliner",
    "wof:parent_id": 1511908819,
    "wof:placetype": "custom",
    "wof:repo": "sfomuseum-data-media-collection",
    "wof:superseded_by": [],
    "wof:supersedes": []
  },
  "bbox": [
    -122.386155,
    37.616357,
    -122.386155,
    37.616357
  ],
  "geometry": {"type":"Point","coordinates":[-122.386155,37.616357]}
}
