{
  "id": 1881138431,
  "type": "Feature",
  "properties": {
    "date:cessation_lower": "2010-01-01",
    "date:cessation_upper": "2010-12-31",
    "date:inception_lower": "2010-01-01",
    "date:inception_upper": "2010-12-31",
    "edtf:cessation": "2010~",
    "edtf:inception": "2010~",
    "geom:area": 2.477324999997507e-7,
    "geom:bbox": "-122.386472,37.616105,-122.385834,37.616611",
    "geom:latitude": 37.61635756125121,
    "geom:longitude": -122.38615532866096,
    "media:fingerprint": "3ef8174d1552c38181bf24123cbb2ae85286ec9e",
    "media:imagehash_avg": "a:000020381689ffff",
    "media:imagehash_diff": "d:f0f0c0e0f433b0e0",
    "media:imagetext": "03000\nCHINA AIRLINES!\nCHINA ARUNES 5)\nS AIRBUS A330200\nSCALE 1200",
    "media:imagetext_created": 1787970540,
    "media:imagetext_source": "com.apple.visionkit.VNImageRequestHandler#Version 26.6.2 (Build 25G83)",
    "media:mimetype": "image/tiff",
    "media:properties": {
      "sizes": {
        "b": {
          "extension": "jpg",
          "height": 768,
          "mimetype": "image/jpeg",
          "secret": "bzo0a4LoTY53mhUNAnQjV4culEwh6wCm",
          "width": 960
        },
        "c": {
          "extension": "jpg",
          "height": 600,
          "mimetype": "image/jpeg",
          "secret": "bzo0a4LoTY53mhUNAnQjV4culEwh6wCm",
          "width": 750
        },
        "dc": {
          "extension": "jpg",
          "height": 600,
          "mimetype": "image/jpeg",
          "secret": "bzo0a4LoTY53mhUNAnQjV4culEwh6wCm",
          "width": 750
        },
        "ds": {
          "extension": "jpg",
          "height": 320,
          "mimetype": "image/jpeg",
          "secret": "bzo0a4LoTY53mhUNAnQjV4culEwh6wCm",
          "width": 320
        },
        "k": {
          "extension": "jpg",
          "height": 1536,
          "mimetype": "image/jpeg",
          "secret": "bzo0a4LoTY53mhUNAnQjV4culEwh6wCm",
          "width": 1920
        },
        "n": {
          "extension": "jpg",
          "height": 240,
          "mimetype": "image/jpeg",
          "secret": "bzo0a4LoTY53mhUNAnQjV4culEwh6wCm",
          "width": 300
        },
        "o": {
          "extension": "jpg",
          "height": 1680,
          "mimetype": "image/jpeg",
          "secret": "RihT3CNDZBk8Mmf4eT0bt2L7lIYmNL2Q",
          "width": 2100
        },
        "s": {
          "extension": "jpg",
          "height": 320,
          "mimetype": "image/jpeg",
          "secret": "bzo0a4LoTY53mhUNAnQjV4culEwh6wCm",
          "width": 320
        },
        "z": {
          "extension": "jpg",
          "height": 480,
          "mimetype": "image/jpeg",
          "secret": "bzo0a4LoTY53mhUNAnQjV4culEwh6wCm",
          "width": 600
        }
      }
    },
    "media:source": "sfomuseum",
    "media:status_id": 1,
    "media:uri_template": "https://static.sfomuseum.org/media/188/113/843/1/1881138431_{secret}_{label}.{extension}",
    "millsfield:aircraft_id": [
      1159289423
    ],
    "millsfield:airline_id": [
      1159284153
    ],
    "millsfield:category_id": 1511214235,
    "millsfield:collection_id": 1511214203,
    "millsfield:company_id": [
      1159293829,
      1159289419
    ],
    "millsfield:has_coloring_book": 1,
    "millsfield:images_colors": [
      {
        "hex": "#b9bbbf",
        "name": "#b9bbbf",
        "reference": "marekm4"
      },
      {
        "hex": "#c0c0c0",
        "name": "silver",
        "reference": "css4"
      },
      {
        "hex": "#b0b7c6",
        "name": "Cadet Blue",
        "reference": "crayola"
      }
    ],
    "millsfield:images_texts": [
      "CHINA AIRLINES?.",
      "03000\nCHINA AIRLINES!\nCHINA ARUNES 5)\nS AIRBUS A330200\nSCALE 1200",
      "CHINA AIRLINES®\n...\n•SN CHINA AIRLINES E\nCAIRBUS A330-300\nSCALE 1:200",
      "MASALU! TAIWAN\n@CHINA AIRLINES\n5 AIRBUS A330-300\nSCALE 1:200"
    ],
    "millsfield:images_texts_ids": [
      1763279785,
      1881138431,
      1881138433,
      1881138435
    ],
    "millsfield:similar": {
      "apple/mobileclip_s0": [
        {
          "distance": 0.26211196,
          "id": 1896922405
        },
        {
          "distance": 0.3030484,
          "id": 1881138423
        },
        {
          "distance": 0.3370671,
          "id": 1881138417
        },
        {
          "distance": 0.35403892,
          "id": 1763279777
        },
        {
          "distance": 0.3639906,
          "id": 1881138435
        },
        {
          "distance": 0.37154418,
          "id": 1881138425
        },
        {
          "distance": 0.38096654,
          "id": 1896922409
        },
        {
          "distance": 0.38342246,
          "id": 1896922407
        },
        {
          "distance": 0.38656723,
          "id": 1881138433
        },
        {
          "distance": 0.3868145,
          "id": 1881138427
        }
      ],
      "apple/mobileclip_s1": [
        {
          "distance": 0.22227633,
          "id": 1896922405
        },
        {
          "distance": 0.2224878,
          "id": 1881138433
        },
        {
          "distance": 0.2336388,
          "id": 1763279785
        },
        {
          "distance": 0.25091246,
          "id": 1896922409
        },
        {
          "distance": 0.26528236,
          "id": 1881138435
        },
        {
          "distance": 0.26633525,
          "id": 1881138427
        },
        {
          "distance": 0.27237213,
          "id": 1881138425
        },
        {
          "distance": 0.27999225,
          "id": 1896922407
        },
        {
          "distance": 0.28154472,
          "id": 1881138423
        },
        {
          "distance": 0.29712656,
          "id": 1763279777
        }
      ],
      "apple/mobileclip_s2": [
        {
          "distance": 0.31876564,
          "id": 1881138433
        },
        {
          "distance": 0.32516852,
          "id": 1896922405
        },
        {
          "distance": 0.3271941,
          "id": 1881138435
        },
        {
          "distance": 0.3328784,
          "id": 1881138417
        },
        {
          "distance": 0.3386104,
          "id": 1896922409
        },
        {
          "distance": 0.36784944,
          "id": 1881138423
        },
        {
          "distance": 0.3759289,
          "id": 1881138427
        },
        {
          "distance": 0.37716666,
          "id": 1881138421
        },
        {
          "distance": 0.39505807,
          "id": 1763279785
        },
        {
          "distance": 0.39758134,
          "id": 1881138425
        }
      ]
    },
    "millsfield:subcategory_id": 1511213161,
    "mz:is_current": 1,
    "sfomuseum:filename": "2021.020.0936ab_1.tif",
    "sfomuseum:image_id": 274013,
    "sfomuseum:image_index": 0,
    "sfomuseum:image_type": "studio",
    "sfomuseum:object_id": 222575,
    "sfomuseum:placetype": "image",
    "sfomuseum:primary_image": 1,
    "src:geom": "sfomuseum",
    "wof:belongsto": [
      102527513,
      1159162825,
      102191575,
      85633793,
      102087579,
      85922583,
      1763278755,
      85688637,
      1159160869
    ],
    "wof:country": "XY",
    "wof:created": 1702542778,
    "wof:depicts": [
      1159284153,
      1159288057,
      1159289423,
      1159293829,
      1159289419,
      1763278755
    ],
    "wof:geomhash": "ed7c2ab3547fc3916b5edc33488deaa7",
    "wof:hierarchy": [
      {
        "building_id": -1,
        "campus_id": 102527513,
        "collection_id": 1159162825,
        "concourse_id": 1159162825,
        "continent_id": 102191575,
        "country_id": 85633793,
        "county_id": 102087579,
        "custom_id": 1881138431,
        "image_id": 1881138431,
        "locality_id": 85922583,
        "neighbourhood_id": -1,
        "object_id": 1763278755,
        "region_id": 85688637,
        "wing_id": 1159160869
      }
    ],
    "wof:id": 1881138431,
    "wof:lastmodified": 1788451999,
    "wof:name": "model airplane: China Airlines, Airbus A330-300",
    "wof:parent_id": 1763278755,
    "wof:placetype": "custom",
    "wof:placetype_alt": [
      "image"
    ],
    "wof:repo": "sfomuseum-data-media-collection",
    "wof:superseded_by": [],
    "wof:supersedes": []
  },
  "bbox": [
    -122.386472,
    37.616105,
    -122.385834,
    37.616611
  ],
  "geometry": {"type":"Polygon","coordinates":[[[-122.386472,37.616318],[-122.386435,37.616233],[-122.386376,37.616178],[-122.386301,37.616131],[-122.386161,37.616105],[-122.386022,37.616131],[-122.385914,37.616186],[-122.385855,37.616267],[-122.385834,37.616369],[-122.385871,37.616467],[-122.385941,37.616543],[-122.386054,37.616603],[-122.386183,37.616611],[-122.386306,37.616573],[-122.386419,37.616509],[-122.386467,37.616411],[-122.386472,37.616318]]]}
}
