{
  "id": 1813567769,
  "type": "Feature",
  "properties": {
    "date:cessation_lower": "1941-01-01",
    "date:cessation_upper": "1941-12-31",
    "date:inception_lower": "1941-01-01",
    "date:inception_upper": "1941-12-31",
    "edtf:cessation": "1941",
    "edtf:inception": "1941",
    "geom:area": 2.477324999997507e-7,
    "geom:bbox": "-122.386472,37.616105,-122.385834,37.616611",
    "geom:latitude": 37.61635756125121,
    "geom:longitude": -122.38615532866096,
    "media:fingerprint": "f89ebb03eeab6a5044c14f68b4ef0bff735bdaf6",
    "media:imagehash_avg": "a:ffdfffc3c38383ff",
    "media:imagehash_diff": "d:9e9e1e0e0e0f3f2e",
    "media:imagetext": "oboe\nOff to Ports south, Clipper leaving Miam",
    "media:imagetext_created": 1787967331,
    "media:imagetext_source": "com.apple.visionkit.VNImageRequestHandler#Version 26.6.2 (Build 25G83)",
    "media:mimetype": "image/jpeg",
    "media:properties": {
      "sizes": {
        "b": {
          "extension": "jpg",
          "height": 692,
          "mimetype": "image/jpeg",
          "secret": "SARVUpEpROUSIAvxQfYiSjLCorkTRijS",
          "width": 1024
        },
        "c": {
          "extension": "jpg",
          "height": 540,
          "mimetype": "image/jpeg",
          "secret": "SARVUpEpROUSIAvxQfYiSjLCorkTRijS",
          "width": 800
        },
        "dc": {
          "extension": "jpg",
          "height": 540,
          "mimetype": "image/jpeg",
          "secret": "SARVUpEpROUSIAvxQfYiSjLCorkTRijS",
          "width": 800
        },
        "ds": {
          "extension": "jpg",
          "height": 320,
          "mimetype": "image/jpeg",
          "secret": "SARVUpEpROUSIAvxQfYiSjLCorkTRijS",
          "width": 320
        },
        "k": {
          "extension": "jpg",
          "height": 1384,
          "mimetype": "image/jpeg",
          "secret": "SARVUpEpROUSIAvxQfYiSjLCorkTRijS",
          "width": 2048
        },
        "n": {
          "extension": "jpg",
          "height": 216,
          "mimetype": "image/jpeg",
          "secret": "SARVUpEpROUSIAvxQfYiSjLCorkTRijS",
          "width": 320
        },
        "o": {
          "extension": "jpg",
          "height": 1161,
          "mimetype": "image/jpeg",
          "secret": "riKocD4qBsG3lXmH7oq5P8x4DlUPTmul",
          "width": 1718
        },
        "s": {
          "extension": "jpg",
          "height": 320,
          "mimetype": "image/jpeg",
          "secret": "SARVUpEpROUSIAvxQfYiSjLCorkTRijS",
          "width": 320
        },
        "z": {
          "extension": "jpg",
          "height": 432,
          "mimetype": "image/jpeg",
          "secret": "SARVUpEpROUSIAvxQfYiSjLCorkTRijS",
          "width": 640
        }
      }
    },
    "media:source": "sfomuseum",
    "media:status_id": 1,
    "media:uri_template": "https://static.sfomuseum.org/media/181/356/776/9/1813567769_{secret}_{label}.{extension}",
    "millsfield:aircraft_id": [
      1159291669
    ],
    "millsfield:airline_id": [
      1159284991
    ],
    "millsfield:category_id": 1511214215,
    "millsfield:collection_id": 1511214207,
    "millsfield:company_id": [
      1159293917
    ],
    "millsfield:images_colors": [
      {
        "hex": "#d4ceb9",
        "name": "#d4ceb9",
        "reference": "marekm4"
      },
      {
        "hex": "#c0c0c0",
        "name": "silver",
        "reference": "css4"
      },
      {
        "hex": "#cdc5c2",
        "name": "Silver",
        "reference": "crayola"
      },
      {
        "hex": "#43291c",
        "name": "#43291c",
        "reference": "marekm4"
      },
      {
        "hex": "#2f4f4f",
        "name": "darkslategrey",
        "reference": "css4"
      },
      {
        "hex": "#714b23",
        "name": "Raw Umber",
        "reference": "crayola"
      },
      {
        "hex": "#ab916f",
        "name": "#ab916f",
        "reference": "marekm4"
      },
      {
        "hex": "#bc8f8f",
        "name": "rosybrown",
        "reference": "css4"
      },
      {
        "hex": "#9f8170",
        "name": "Beaver",
        "reference": "crayola"
      },
      {
        "hex": "#8f7055",
        "name": "#8f7055",
        "reference": "marekm4"
      },
      {
        "hex": "#696969",
        "name": "dimgrey",
        "reference": "css4"
      },
      {
        "hex": "#8a795d",
        "name": "Shadow",
        "reference": "crayola"
      }
    ],
    "millsfield:images_texts": [
      "oboe\nOff to Ports south, Clipper leaving Miam",
      "Som grok you ore ke\nnig such a good gil sile dam\naway. Today a vent is the\nPon - Auerican Auford \u0026 sor\na hig shif cruises frous\nDEC*2\n430PM\n7941\n-\nUNITED\nSTATES\nROSTAGE\n1\nCENT 1\nMin Nickze Snyder\n1808 WagE ST.\nKonsas Sty\nyus."
    ],
    "millsfield:images_texts_ids": [
      1813567769,
      1813567771
    ],
    "millsfield:similar": {
      "apple/mobileclip_s0": [
        {
          "distance": 0.36906856,
          "id": 1813567879
        },
        {
          "distance": 0.41619575,
          "id": 1846755911
        },
        {
          "distance": 0.4322866,
          "id": 1813567875
        },
        {
          "distance": 0.43513298,
          "id": 1813567871
        },
        {
          "distance": 0.45080385,
          "id": 1846705611
        },
        {
          "distance": 0.4650016,
          "id": 1846755717
        },
        {
          "distance": 0.48277646,
          "id": 1846705655
        },
        {
          "distance": 0.48857912,
          "id": 1846755915
        },
        {
          "distance": 0.49322444,
          "id": 1846755659
        },
        {
          "distance": 0.49965382,
          "id": 1846755563
        }
      ],
      "apple/mobileclip_s1": [
        {
          "distance": 0.26933634,
          "id": 1813567879
        },
        {
          "distance": 0.27713326,
          "id": 1813567871
        },
        {
          "distance": 0.2969724,
          "id": 1846755911
        },
        {
          "distance": 0.3098016,
          "id": 1846755717
        },
        {
          "distance": 0.31549546,
          "id": 1846705611
        },
        {
          "distance": 0.32184166,
          "id": 1846755659
        },
        {
          "distance": 0.3370764,
          "id": 1813567765
        },
        {
          "distance": 0.34341532,
          "id": 1813567875
        },
        {
          "distance": 0.34797344,
          "id": 1846755919
        },
        {
          "distance": 0.34914055,
          "id": 1813567861
        }
      ],
      "apple/mobileclip_s2": [
        {
          "distance": 0.46275744,
          "id": 1846755717
        },
        {
          "distance": 0.47231993,
          "id": 1813567871
        },
        {
          "distance": 0.4741173,
          "id": 1813567879
        },
        {
          "distance": 0.47602147,
          "id": 1813567875
        },
        {
          "distance": 0.48655072,
          "id": 1813567765
        },
        {
          "distance": 0.486845,
          "id": 1846705897
        },
        {
          "distance": 0.49336606,
          "id": 1813567849
        },
        {
          "distance": 0.4941908,
          "id": 1846755695
        },
        {
          "distance": 0.5007514,
          "id": 1846705883
        },
        {
          "distance": 0.5008009,
          "id": 1846756635
        }
      ]
    },
    "millsfield:subcategory_id": 1511213363,
    "mz:is_current": 1,
    "sfomuseum:filename": "056a.jpg",
    "sfomuseum:image_id": 264902,
    "sfomuseum:image_index": 0,
    "sfomuseum:image_type": "studio",
    "sfomuseum:object_id": 232556,
    "sfomuseum:placetype": "image",
    "sfomuseum:primary_image": 1,
    "src:geom": "sfomuseum",
    "wof:belongsto": [
      102527513,
      1159162825,
      102191575,
      85633793,
      102087579,
      85922583,
      1813567469,
      85688637,
      1159160869
    ],
    "wof:country": "XY",
    "wof:created": 1678868056,
    "wof:depicts": [
      1159293917,
      1159286839,
      1813567469,
      1159284991,
      1159291669
    ],
    "wof:geomhash": "ed7c2ab3547fc3916b5edc33488deaa7",
    "wof:hierarchy": [
      {
        "building_id": -1,
        "campus_id": 102527513,
        "collection_id": 1159162825,
        "concourse_id": 1159162825,
        "continent_id": 102191575,
        "country_id": 85633793,
        "county_id": 102087579,
        "custom_id": 1813567769,
        "image_id": 1813567769,
        "locality_id": 85922583,
        "neighbourhood_id": -1,
        "object_id": 1813567469,
        "region_id": 85688637,
        "wing_id": 1159160869
      }
    ],
    "wof:id": 1813567769,
    "wof:lastmodified": 1788451616,
    "wof:name": "postcard: Pan American Airways, Sikorsky S-42",
    "wof:parent_id": 1813567469,
    "wof:placetype": "custom",
    "wof:placetype_alt": [
      "image"
    ],
    "wof:repo": "sfomuseum-data-media-collection",
    "wof:superseded_by": [],
    "wof:supersedes": []
  },
  "bbox": [
    -122.386472,
    37.616105,
    -122.385834,
    37.616611
  ],
  "geometry": {"type":"Polygon","coordinates":[[[-122.386472,37.616318],[-122.386435,37.616233],[-122.386376,37.616178],[-122.386301,37.616131],[-122.386161,37.616105],[-122.386022,37.616131],[-122.385914,37.616186],[-122.385855,37.616267],[-122.385834,37.616369],[-122.385871,37.616467],[-122.385941,37.616543],[-122.386054,37.616603],[-122.386183,37.616611],[-122.386306,37.616573],[-122.386419,37.616509],[-122.386467,37.616411],[-122.386472,37.616318]]]}
}
