{
  "id": 1930979165,
  "type": "Feature",
  "properties": {
    "date:cessation_lower": "1983-01-01",
    "date:cessation_upper": "1983-12-31",
    "date:inception_lower": "1983-01-01",
    "date:inception_upper": "1983-12-31",
    "edtf:cessation": "1983",
    "edtf:inception": "1983",
    "geom:area": 2.477324999997507e-7,
    "geom:bbox": "-122.386472,37.616105,-122.385834,37.616611",
    "geom:latitude": 37.61635756125121,
    "geom:longitude": -122.38615532866096,
    "media:fingerprint": "00cc36e74d7eb7b886cda30f04e71f7b1c8663b2",
    "media:imagehash_avg": "a:bf80efee12360c1d",
    "media:imagehash_diff": "d:3f1d4c0ea2e4f8b9",
    "media:imagetext": "DOOR EXIT\nFORWARD LEFT HAND DOOR ILLUSTRATED\nILLUSTRACIÓN DE LA PUERTA DELANTERA DEL LADO IZQUIERDO\nILLUSTRATION DE LA PORTE AVANT GAUCHE\nDOOR EXIT\nEXIT\nEXIT\nPUERTA DE SALIDA\nPORTE DE SORTIE\nEXIT\nPUERTA DE SALIDA\nPORTE DE SORTIE\nLAND\nEVACUATION\nEVACUACION EN TIERRA\nEVACUATION PAR TERRE\nWATER\nEVACUATION\nEVACUACIÓN EN AGUA\nEVACUATION EN MER\nOVERWING EXIT\nLEFT HAND ILLUSTRATED\nILLUSTRACIÓN DE LA SOBRE A LA SALIDA DEL LADO IZQUIERDO\nILLUSTRATION DE LA SOTRE SUR L'AILE GAUCHE\n8",
    "media:imagetext_created": 1787974218,
    "media:imagetext_source": "com.apple.visionkit.VNImageRequestHandler#Version 26.6.2 (Build 25G83)",
    "media:mimetype": "image/tiff",
    "media:properties": {
      "sizes": {
        "b": {
          "extension": "jpg",
          "height": 536,
          "mimetype": "image/jpeg",
          "secret": "iz3zT5U6tNi09Qm3sEf41MZPEnjwkGYd",
          "width": 1024
        },
        "c": {
          "extension": "jpg",
          "height": 419,
          "mimetype": "image/jpeg",
          "secret": "iz3zT5U6tNi09Qm3sEf41MZPEnjwkGYd",
          "width": 800
        },
        "dc": {
          "extension": "jpg",
          "height": 419,
          "mimetype": "image/jpeg",
          "secret": "iz3zT5U6tNi09Qm3sEf41MZPEnjwkGYd",
          "width": 800
        },
        "ds": {
          "extension": "jpg",
          "height": 320,
          "mimetype": "image/jpeg",
          "secret": "iz3zT5U6tNi09Qm3sEf41MZPEnjwkGYd",
          "width": 320
        },
        "k": {
          "extension": "jpg",
          "height": 1073,
          "mimetype": "image/jpeg",
          "secret": "iz3zT5U6tNi09Qm3sEf41MZPEnjwkGYd",
          "width": 2048
        },
        "n": {
          "extension": "jpg",
          "height": 167,
          "mimetype": "image/jpeg",
          "secret": "iz3zT5U6tNi09Qm3sEf41MZPEnjwkGYd",
          "width": 320
        },
        "o": {
          "extension": "jpg",
          "height": 1206,
          "mimetype": "image/jpeg",
          "secret": "xPQpSONOHKWr2Z3XdgHu7O5smntX8aLf",
          "width": 2300
        },
        "s": {
          "extension": "jpg",
          "height": 320,
          "mimetype": "image/jpeg",
          "secret": "iz3zT5U6tNi09Qm3sEf41MZPEnjwkGYd",
          "width": 320
        },
        "z": {
          "extension": "jpg",
          "height": 335,
          "mimetype": "image/jpeg",
          "secret": "iz3zT5U6tNi09Qm3sEf41MZPEnjwkGYd",
          "width": 640
        }
      }
    },
    "media:source": "sfomuseum",
    "media:status_id": 1,
    "media:uri_template": "https://static.sfomuseum.org/media/193/097/916/5/1930979165_{secret}_{label}.{extention}",
    "millsfield:aircraft_id": [
      1159289953
    ],
    "millsfield:airline_id": [
      1159284261
    ],
    "millsfield:category_id": 1762671311,
    "millsfield:collection_id": 1511214207,
    "millsfield:company_id": [
      1159293593,
      1159289949
    ],
    "millsfield:images_colors": [
      {
        "hex": "#e4dccd",
        "name": "#e4dccd",
        "reference": "marekm4"
      },
      {
        "hex": "#dcdcdc",
        "name": "gainsboro",
        "reference": "css4"
      },
      {
        "hex": "#efdecd",
        "name": "Almond",
        "reference": "crayola"
      },
      {
        "hex": "#2c2d54",
        "name": "#2c2d54",
        "reference": "marekm4"
      },
      {
        "hex": "#2f4f4f",
        "name": "darkslategrey",
        "reference": "css4"
      },
      {
        "hex": "#414a4c",
        "name": "Outer Space",
        "reference": "crayola"
      },
      {
        "hex": "#de641a",
        "name": "#de641a",
        "reference": "marekm4"
      },
      {
        "hex": "#d2691e",
        "name": "chocolate",
        "reference": "css4"
      },
      {
        "hex": "#c46210",
        "name": "Alloy Orange",
        "reference": "crayola"
      },
      {
        "hex": "#686d8c",
        "name": "#686d8c",
        "reference": "marekm4"
      },
      {
        "hex": "#708090",
        "name": "slategrey",
        "reference": "css4"
      },
      {
        "hex": "#757575",
        "name": "Sonic Silver",
        "reference": "crayola"
      }
    ],
    "millsfield:similar": {
      "apple/mobileclip_s0": [
        {
          "distance": 0.302367,
          "id": 1930979173
        },
        {
          "distance": 0.34323737,
          "id": 1914489147
        },
        {
          "distance": 0.3464041,
          "id": 1914489187
        },
        {
          "distance": 0.42661408,
          "id": 1930979183
        },
        {
          "distance": 0.43439373,
          "id": 1914489123
        },
        {
          "distance": 0.44918042,
          "id": 1931109871
        },
        {
          "distance": 0.47030103,
          "id": 1762894151
        },
        {
          "distance": 0.47823465,
          "id": 1527850171
        },
        {
          "distance": 0.48627603,
          "id": 1914489131
        },
        {
          "distance": 0.4889571,
          "id": 1914579859
        }
      ],
      "apple/mobileclip_s1": [
        {
          "distance": 0.22613089,
          "id": 1930979173
        },
        {
          "distance": 0.22980425,
          "id": 1914489187
        },
        {
          "distance": 0.23469628,
          "id": 1914489147
        },
        {
          "distance": 0.28883612,
          "id": 1931096549
        },
        {
          "distance": 0.2899466,
          "id": 1914489167
        },
        {
          "distance": 0.29597715,
          "id": 1914489115
        },
        {
          "distance": 0.29781255,
          "id": 1762894151
        },
        {
          "distance": 0.30533847,
          "id": 1914489157
        },
        {
          "distance": 0.30801612,
          "id": 1930979183
        },
        {
          "distance": 0.3164889,
          "id": 1527849193
        }
      ],
      "apple/mobileclip_s2": [
        {
          "distance": 0.29578745,
          "id": 1914489147
        },
        {
          "distance": 0.36667657,
          "id": 1930979173
        },
        {
          "distance": 0.40758267,
          "id": 1914489187
        },
        {
          "distance": 0.4360519,
          "id": 1914489115
        },
        {
          "distance": 0.44055048,
          "id": 1930979183
        },
        {
          "distance": 0.44389105,
          "id": 1914489123
        },
        {
          "distance": 0.44982478,
          "id": 1931096549
        },
        {
          "distance": 0.4498283,
          "id": 1762894151
        },
        {
          "distance": 0.4569339,
          "id": 1914489157
        },
        {
          "distance": 0.4617476,
          "id": 1914489167
        }
      ]
    },
    "millsfield:subcategory_id": 1511213703,
    "mz:is_current": 1,
    "sfomuseum:filename": "74955.tif",
    "sfomuseum:image_id": 74955,
    "sfomuseum:image_index": 0,
    "sfomuseum:image_type": "studio",
    "sfomuseum:object_id": 78898,
    "sfomuseum:placetype": "image",
    "sfomuseum:primary_image": 0,
    "src:geom": "sfomuseum",
    "wof:belongsto": [
      102527513,
      1159162825,
      102191575,
      85633793,
      102087579,
      85922583,
      1930979149,
      85688637,
      1159160869
    ],
    "wof:country": "XY",
    "wof:created": 1726040026,
    "wof:depicts": [
      1159289953,
      1159293593,
      1159289949,
      1930979149,
      1159284261
    ],
    "wof:geomhash": "ed7c2ab3547fc3916b5edc33488deaa7",
    "wof:hierarchy": [
      {
        "building_id": -1,
        "campus_id": 102527513,
        "collection_id": 1159162825,
        "concourse_id": 1159162825,
        "continent_id": 102191575,
        "country_id": 85633793,
        "county_id": 102087579,
        "custom_id": 1930979165,
        "locality_id": 85922583,
        "neighbourhood_id": -1,
        "object_id": 1930979149,
        "region_id": 85688637,
        "wing_id": 1159160869
      }
    ],
    "wof:id": 1930979165,
    "wof:lastmodified": 1788452444,
    "wof:name": "safety information card: Delta Air Lines, Boeing 767-232",
    "wof:parent_id": 1930979149,
    "wof:placetype": "custom",
    "wof:repo": "sfomuseum-data-media-collection",
    "wof:superseded_by": [],
    "wof:supersedes": []
  },
  "bbox": [
    -122.386472,
    37.616105,
    -122.385834,
    37.616611
  ],
  "geometry": {"type":"Polygon","coordinates":[[[-122.386472,37.616318],[-122.386435,37.616233],[-122.386376,37.616178],[-122.386301,37.616131],[-122.386161,37.616105],[-122.386022,37.616131],[-122.385914,37.616186],[-122.385855,37.616267],[-122.385834,37.616369],[-122.385871,37.616467],[-122.385941,37.616543],[-122.386054,37.616603],[-122.386183,37.616611],[-122.386306,37.616573],[-122.386419,37.616509],[-122.386467,37.616411],[-122.386472,37.616318]]]}
}
