{
  "id": 1729565661,
  "type": "Feature",
  "properties": {
    "date:cessation_lower": "1950-12-01",
    "date:cessation_upper": "1950-12-31",
    "date:inception_lower": "1950-09-01",
    "date:inception_upper": "1950-09-30",
    "edtf:cessation": "1950-12",
    "edtf:date": "1950-01/1950-04~",
    "edtf:inception": "1950-09",
    "geom:area": 0,
    "geom:bbox": "-122.386155,37.616357,-122.386155,37.616357",
    "geom:latitude": 37.616357,
    "geom:longitude": -122.386155,
    "iso:country": "XX",
    "media:fingerprint": "040fc9b0c9ed2939d4dbe7ac09d78dc268dbf766",
    "media:imagetext": "TWA-TRANS WORLD AIRLINES\nLockheed L-1049 Super Constellation\nA magnificent view of one of ten Super Constellations placed into\ntranscontinental service by Trans World Airlines in the fall of 1952. This\naircraft N6909C served Trans World Airlines for eleven years, until its\nretirement in 1963. It was named the \"Star of Tipperary\" and manufac-\ntured under construction number 4023.\nPhotograph courtesy of Trans World Airlines\nAPI 054\nPOST CARD\nAnother Air Pictorials International Historical Publication G-4554\n#21730 © Impact\nPrinted in Japan\n1998.411019",
    "media:imagetext_created": 1787954459,
    "media:imagetext_source": "com.apple.visionkit.VNImageRequestHandler#Version 26.6.2 (Build 25G83)",
    "media:medium": "image",
    "media:properties": {
      "sizes": {
        "b": {
          "extension": "jpg",
          "height": 724,
          "mimetype": "image/jpeg",
          "secret": "ydzVju8Xots1Qw89gVe43Ot76BmpMngh",
          "width": 1024
        },
        "c": {
          "extension": "jpg",
          "height": 566,
          "mimetype": "image/jpeg",
          "secret": "ydzVju8Xots1Qw89gVe43Ot76BmpMngh",
          "width": 800
        },
        "dc": {
          "extension": "jpg",
          "height": 566,
          "mimetype": "image/jpeg",
          "secret": "ydzVju8Xots1Qw89gVe43Ot76BmpMngh",
          "width": 800
        },
        "ds": {
          "extension": "jpg",
          "height": 320,
          "mimetype": "image/jpeg",
          "secret": "ydzVju8Xots1Qw89gVe43Ot76BmpMngh",
          "width": 320
        },
        "k": {
          "extension": "jpg",
          "height": 1449,
          "mimetype": "image/jpeg",
          "secret": "ydzVju8Xots1Qw89gVe43Ot76BmpMngh",
          "width": 2048
        },
        "n": {
          "extension": "jpg",
          "height": 226,
          "mimetype": "image/jpeg",
          "secret": "ydzVju8Xots1Qw89gVe43Ot76BmpMngh",
          "width": 320
        },
        "o": {
          "extension": "jpg",
          "height": 1251,
          "mimetype": "image/jpeg",
          "secret": "TFemYm3xQlLK3bnIZDidTdGkw0zkgD0P",
          "width": 1767
        },
        "s": {
          "extension": "jpg",
          "height": 320,
          "mimetype": "image/jpeg",
          "secret": "ydzVju8Xots1Qw89gVe43Ot76BmpMngh",
          "width": 320
        },
        "z": {
          "extension": "jpg",
          "height": 453,
          "mimetype": "image/jpeg",
          "secret": "ydzVju8Xots1Qw89gVe43Ot76BmpMngh",
          "width": 640
        }
      }
    },
    "media:source": "sfomuseum",
    "media:status_id": 1,
    "media:uri_template": "https://static.sfomuseum.org/media/172/956/566/1/1729565661_{secret}_{label}.{extension}",
    "millsfield:aircraft_id": [
      1159291139
    ],
    "millsfield:airline_id": [
      1159285393
    ],
    "millsfield:category_id": 1511214215,
    "millsfield:collection_id": 1511214207,
    "millsfield:company_id": [
      1159293697
    ],
    "millsfield:images_colors": [
      {
        "hex": "#ece6e4",
        "name": "#ece6e4",
        "reference": "marekm4"
      },
      {
        "hex": "#faf0e6",
        "name": "linen",
        "reference": "css4"
      },
      {
        "hex": "#fddde6",
        "name": "Piggy Pink",
        "reference": "crayola"
      },
      {
        "hex": "#293c59",
        "name": "#293c59",
        "reference": "marekm4"
      },
      {
        "hex": "#2f4f4f",
        "name": "darkslategrey",
        "reference": "css4"
      },
      {
        "hex": "#414a4c",
        "name": "Outer Space",
        "reference": "crayola"
      }
    ],
    "millsfield:images_texts": [
      "TRANS\nWORLD\nAIRLINES\nTWA",
      "TWA-TRANS WORLD AIRLINES\nLockheed L-1049 Super Constellation\nA magnificent view of one of ten Super Constellations placed into\ntranscontinental service by Trans World Airlines in the fall of 1952. This\naircraft N6909C served Trans World Airlines for eleven years, until its\nretirement in 1963. It was named the \"Star of Tipperary\" and manufac-\ntured under construction number 4023.\nPhotograph courtesy of Trans World Airlines\nAPI 054\nPOST CARD\nAnother Air Pictorials International Historical Publication G-4554\n#21730 © Impact\nPrinted in Japan\n1998.411019"
    ],
    "millsfield:images_texts_ids": [
      1729565659,
      1729565661
    ],
    "millsfield:similar": {
      "apple/mobileclip_s0": [
        {
          "distance": 0.30974805,
          "id": 1729565653
        },
        {
          "distance": 0.39735827,
          "id": 1729565657
        },
        {
          "distance": 0.46836278,
          "id": 1729565753
        },
        {
          "distance": 0.49984714,
          "id": 1729565787
        },
        {
          "distance": 0.5152596,
          "id": 1729565743
        },
        {
          "distance": 0.5214281,
          "id": 1762705945
        },
        {
          "distance": 0.5227308,
          "id": 1729565891
        },
        {
          "distance": 0.5254397,
          "id": 1762894019
        },
        {
          "distance": 0.5266678,
          "id": 1729565881
        },
        {
          "distance": 0.5320329,
          "id": 1762710323
        }
      ],
      "apple/mobileclip_s1": [
        {
          "distance": 0.20963337,
          "id": 1729565653
        },
        {
          "distance": 0.23023689,
          "id": 1729565657
        },
        {
          "distance": 0.3231546,
          "id": 1729565753
        },
        {
          "distance": 0.3264138,
          "id": 1729565743
        },
        {
          "distance": 0.33684894,
          "id": 1729565707
        },
        {
          "distance": 0.34093833,
          "id": 1762894019
        },
        {
          "distance": 0.34399495,
          "id": 1762710725
        },
        {
          "distance": 0.3450932,
          "id": 1762704565
        },
        {
          "distance": 0.34660295,
          "id": 1762710231
        },
        {
          "distance": 0.348168,
          "id": 1729565845
        }
      ],
      "apple/mobileclip_s2": [
        {
          "distance": 0.29997042,
          "id": 1729565657
        },
        {
          "distance": 0.34164724,
          "id": 1729565653
        },
        {
          "distance": 0.48085573,
          "id": 1762707107
        },
        {
          "distance": 0.48580453,
          "id": 1729565753
        },
        {
          "distance": 0.48980635,
          "id": 1729565877
        },
        {
          "distance": 0.4904147,
          "id": 1729565887
        },
        {
          "distance": 0.49433598,
          "id": 1762709791
        },
        {
          "distance": 0.49556968,
          "id": 1729565891
        },
        {
          "distance": 0.497128,
          "id": 1762710725
        },
        {
          "distance": 0.49765095,
          "id": 1729565881
        }
      ]
    },
    "millsfield:subcategory_id": 1511213363,
    "mz:hierarchy_label": 1,
    "mz:is_current": -1,
    "sfomuseum:filename": "1998.141.019_vers.tif",
    "sfomuseum:image_id": 73275,
    "sfomuseum:image_index": 5,
    "sfomuseum:image_type": "studio",
    "sfomuseum:object_id": 47471,
    "sfomuseum:placetype": "image",
    "sfomuseum:primary_image": 0,
    "src:geom": "sfomuseum",
    "wof:belongsto": [
      1511214215,
      1729563787,
      102527513,
      102191575,
      85633793,
      1511213363,
      85922583,
      102087579,
      1511214277,
      1511214207,
      85688637
    ],
    "wof:breaches": [],
    "wof:country": "XX",
    "wof:created": 1618963436,
    "wof:depicts": [
      1159293697,
      1159291139,
      1729563787,
      1159285393
    ],
    "wof:geomhash": "30c8a918561c84bb2daa2b97fc7c5353",
    "wof:hierarchy": [
      {
        "arcade_id": 1511213363,
        "building_id": 1511214277,
        "campus_id": 102527513,
        "concourse_id": 1511214215,
        "continent_id": 102191575,
        "country_id": 85633793,
        "county_id": 102087579,
        "custom_id": 1729565661,
        "image_id": 1729565661,
        "locality_id": 85922583,
        "media_id": 1729565661,
        "neighbourhood_id": -1,
        "region_id": 85688637,
        "venue_id": 1729563787,
        "wing_id": 1511214207
      }
    ],
    "wof:id": 1729565661,
    "wof:lastmodified": 1788450293,
    "wof:name": "postcard: TWA (Trans World Airlines), Lockheed L-1049 Super Constellation",
    "wof:parent_id": 1729563787,
    "wof:placetype": "custom",
    "wof:placetype_alt": [
      "image"
    ],
    "wof:repo": "sfomuseum-data-media-collection",
    "wof:superseded_by": [],
    "wof:supersedes": [],
    "wof:tags": []
  },
  "bbox": [
    -122.386155,
    37.616357,
    -122.386155,
    37.616357
  ],
  "geometry": {"type":"Point","coordinates":[-122.386155,37.616357]}
}
