{
  "id": 1527856079,
  "type": "Feature",
  "properties": {
    "date:cessation_lower": "1953-01-01",
    "date:cessation_upper": "1953-12-31",
    "date:inception_lower": "1953-01-01",
    "date:inception_upper": "1953-12-31",
    "edtf:cessation": "1953~",
    "edtf:date": "1953~",
    "edtf:inception": "1953~",
    "geom:area": 0,
    "geom:bbox": "-122.386155,37.616358,-122.386155,37.616358",
    "geom:latitude": 37.616358,
    "geom:longitude": -122.386155,
    "iso:country": "US",
    "media:fingerprint": "33a5153654e63a370f3bc050f3e0722632cc9582",
    "media:imagehash_avg": "a:c3c3e791838383ff",
    "media:imagehash_diff": "d:0f168e331f121636",
    "media:imagetext": "AMERICAN MAKES HISTORY\nWITH THE\nFirst Nonstop Service\nCoast To Coast\nIN BOTH DIRECTIONS\nNEW YORK\nLOS ANGELES\nAmerican's new DC-7 Flagship will fly you cross-\ncountry in under 8 hours. This unmatched travel\ntime is made possible by the 365 mph cruising\nspeed of the fastest piston-powered transport in\nthe world. With the new DC-7, American con-\ntinues to set the standard for service in trans-\ncontinental travel.\nThe DC-7 features many new developments de-\nsigned for your comfort-special soundproofing,\neven more comfortable seats, and air condition-\ning on the ground as well as in the air. Twenty-\nfive DC-7 Flagships will be added to the Fleet\nby mid 1954. This means more nonstop transcon-\ntinental service and the introduction of this supe-\nrior plane to other cities throughout the nation.\nAMERICAN AIRLINES INC.\nAmericas Leading Airline\n19941.25\n.06\nLithographed in U.S.A:\nT-197E 254 450M",
    "media:imagetext_created": 1787953991,
    "media:imagetext_source": "com.apple.visionkit.VNImageRequestHandler#Version 26.6.2 (Build 25G83)",
    "media:medium": "image",
    "media:mimetype": "image/tiff",
    "media:properties": {
      "sizes": {
        "b": {
          "extension": "jpg",
          "height": 768,
          "mimetype": "image/jpeg",
          "secret": "VcXRrkwSoOISea45SrIYbdMRXcL0odSi",
          "width": 379
        },
        "c": {
          "extension": "jpg",
          "height": 600,
          "mimetype": "image/jpeg",
          "secret": "VcXRrkwSoOISea45SrIYbdMRXcL0odSi",
          "width": 296
        },
        "dc": {
          "extension": "jpg",
          "height": 600,
          "mimetype": "image/jpeg",
          "secret": "VcXRrkwSoOISea45SrIYbdMRXcL0odSi",
          "width": 296
        },
        "ds": {
          "extension": "jpg",
          "height": 320,
          "mimetype": "image/jpeg",
          "secret": "VcXRrkwSoOISea45SrIYbdMRXcL0odSi",
          "width": 320
        },
        "k": {
          "extension": "jpg",
          "height": 1536,
          "mimetype": "image/jpeg",
          "secret": "VcXRrkwSoOISea45SrIYbdMRXcL0odSi",
          "width": 759
        },
        "n": {
          "extension": "jpg",
          "height": 240,
          "mimetype": "image/jpeg",
          "secret": "VcXRrkwSoOISea45SrIYbdMRXcL0odSi",
          "width": 118
        },
        "o": {
          "extension": "jpg",
          "height": 3056,
          "mimetype": "image/jpeg",
          "secret": "HBawY8XcMkJO4MA4Ponj6rHvoBF6IbGq",
          "width": 1512
        },
        "s": {
          "extension": "jpg",
          "height": 320,
          "mimetype": "image/jpeg",
          "secret": "VcXRrkwSoOISea45SrIYbdMRXcL0odSi",
          "width": 320
        },
        "z": {
          "extension": "jpg",
          "height": 480,
          "mimetype": "image/jpeg",
          "secret": "VcXRrkwSoOISea45SrIYbdMRXcL0odSi",
          "width": 237
        }
      }
    },
    "media:source": "sfomuseum",
    "media:status_id": 1,
    "media:uri_template": "https://static.sfomuseum.org/media/152/785/607/9/1527856079_{secret}_{label}.{extension}",
    "millsfield:aircraft_id": [
      1159290435
    ],
    "millsfield:airline_id": [
      1159283849
    ],
    "millsfield:category_id": 1511214241,
    "millsfield:collection_id": 1511214207,
    "millsfield:company_id": [],
    "millsfield:images_colors": [
      {
        "hex": "#e2dec9",
        "name": "#e2dec9",
        "reference": "marekm4"
      },
      {
        "hex": "#dcdcdc",
        "name": "gainsboro",
        "reference": "css4"
      },
      {
        "hex": "#dbd7d2",
        "name": "Timberwolf",
        "reference": "crayola"
      },
      {
        "hex": "#232216",
        "name": "#232216",
        "reference": "marekm4"
      },
      {
        "hex": "#000000",
        "name": "black",
        "reference": "css4"
      },
      {
        "hex": "#000000",
        "name": "Black",
        "reference": "crayola"
      },
      {
        "hex": "#d8cd66",
        "name": "#d8cd66",
        "reference": "marekm4"
      },
      {
        "hex": "#bdb76b",
        "name": "darkkhaki",
        "reference": "css4"
      },
      {
        "hex": "#f8d568",
        "name": "Orange Yellow",
        "reference": "crayola"
      },
      {
        "hex": "#c63113",
        "name": "#c63113",
        "reference": "marekm4"
      },
      {
        "hex": "#b22222",
        "name": "firebrick",
        "reference": "css4"
      },
      {
        "hex": "#c46210",
        "name": "Alloy Orange",
        "reference": "crayola"
      },
      {
        "hex": "#6493a2",
        "name": "#6493a2",
        "reference": "marekm4"
      },
      {
        "hex": "#5f9ea0",
        "name": "cadetblue",
        "reference": "css4"
      },
      {
        "hex": "#6699cc",
        "name": "Blue Gray",
        "reference": "crayola"
      }
    ],
    "millsfield:images_texts": [
      "AMERICAN\nAIRLINES\nSystem Map\nN303AA\nAMERICAN\nAmericas Leading Airline",
      "AMERICAN MAKES HISTORY\nWITH THE\nFirst Nonstop Service\nCoast To Coast\nIN BOTH DIRECTIONS\nNEW YORK\nLOS ANGELES\nAmerican's new DC-7 Flagship will fly you cross-\ncountry in under 8 hours. This unmatched travel\ntime is made possible by the 365 mph cruising\nspeed of the fastest piston-powered transport in\nthe world. With the new DC-7, American con-\ntinues to set the standard for service in trans-\ncontinental travel.\nThe DC-7 features many new developments de-\nsigned for your comfort-special soundproofing,\neven more comfortable seats, and air condition-\ning on the ground as well as in the air. Twenty-\nfive DC-7 Flagships will be added to the Fleet\nby mid 1954. This means more nonstop transcon-\ntinental service and the introduction of this supe-\nrior plane to other cities throughout the nation.\nAMERICAN AIRLINES INC.\nAmericas Leading Airline\n19941.25\n.06\nLithographed in U.S.A:\nT-197E 254 450M",
      "LOS ANGELES AND SAN FRANCISCO\nSAN DIEGO\nCALLE\nMexicali\nEnsenada •\nCHICAGO\nSAN FRANCISCO\nCHICAGO CINCINNATI NEW YORK\nPuerto Peñasco\nPHOENIX\nMART\nSilver City.\nAlamogordo\nNE W\nTUCSON\nM/E\n269\nCarlsbad 532. Big Spring\nSrietwater Abile FT. WORTi\nDALLAS:\nNogales w\nBISBEE-\n1.90\nCiudad 1\n-EL PASO\nPacos 242 MIDLAND-\n$ Waco\nODESSA\nSanta Ana\n\u0026 Cananea\nDOUGLAS\nJuárez.\nSan Angelo\n498\nShreveport\n587\nBIRMINGHAM\nMeridian A\nLOUISIANA\nJackson\n(MISS.\nALAB/A MA\nLufkin®\n•Alexandria.\nHattiesburg 2\nEunice\n/Barón Rous\nMobile,\nBeaumon.\nLake Charles\nUSTON Port Arthur S\nNEW\n489\nORLEANS\nGalveston\n1344 ATLANT\nMacon\nMontgomery\nGEORGIA\nValdosta\nThomasville.\ni Pensacola\nTallahassee\n• Hermosillo\nGuaymas\n•Santa Rosalia\n- Ciudad Obregón\n¿ Navojoa\nHuatabampo ®\nLa Paz •\nMAP NO. 4\nMarfa\nPresidio a\nAT. PAR\n1 Chihuahua\nDelicias d.\n- Camargo\n• Jiménez\n• Parral\nLos Mochis,\nGuamuchil\nNavolato • ° Culiacán\nGómez.\nSan Pedro\nPalaciot\nde las Colonias\n•Santiago\nToreon Sai\nPapasquiaro\nincepción\nel O\na \" Durango.\nMatehuala\nSombrerete\nMazatlán\nFresnill e\nRosario\n• Zacatecas\n• Acaponeta\n\"Tuxpan.\nSan Luis\nAguascalientes\nPotosí\nA\nTepic®\nGuadalajara 32Ocotlán\nC. Guzmany paris\nAustin\n• Del Rio\nEagle\n192\n(SAN ANTONIO\nTedras Negras o° Pass\nNueva Rosita\nAlice a\n\u0026 Corpus Christi\nNuevo Laredo\nLaredo\nMonclova\n›abinc\nHidalge\nMc Allen\nMONTERREY\nReynosa\nBrownsville\nMatamoros\n• Montemorelos\nLinares\nCiudad Victoria\nTAMPA\nSt. Petershurg\nMAP EXPLANATION\nAmerican Airlines Routes\nAmerican Airlines Through Service\nAmerican Airlines Cities\nMileages between Airports\nDenironde\nRivers\nPoints of Interest\nCities over 100,000\nOther Cities and Towns\nSCALE OF MILES\nPlanered to AMERICAN AlPINES\n150\nMante\nTampico\no Valles\n%• San Miguel Allende\nGUL F\nQuerétaro\nTuxnan\noza Rica\nCelaya\nO F\nMore CITY\nJalapa\nMEXICO\nToluca\nCuernavacat\nPuebla → Fortin\nVeracruz\nTaxo gulia\nOrizaba\nSan Andrés Tuxtia\nCarmen\nngo Tehuacán\ni Villahermosa\n* Chilpancingo\nMérida.\nValladolid\nChi chén Izả\n« Campeche\nAcapulco •\nRIVINA TIME AP SAAMAM\nOne inch-\n....\nOaxaca\nD EL\n- Mitig R\nTehuantepec\nSan Cristóbal»\nTuxtla Gutiérrez San Cristobal\nJuchitán cintalapa\nComitán\nGUATE\nPuerto Barrios?\nQuezaltenango\nTapachula?\n*Guatemala\nof\nHonduras\n• La Ceiba\nHONDURAS\nSavannah\nATLANTIC\nBrunswick\nJacksonville\nOCEAN\nDaytona Beach\n• Fort Myers\nMIAMI\nBahama\nIslands\nNassau\n• Key West\nHavana *\nSnarelia\nMatanzas\n• Cardenas\nSangua la Grande\nCaibarién\nCienfuegos B\n* he Clara\nTrinidad\nCamagüey\nCARIBBEAN\nSE A\nGrand Cayman\nJAMAICA"
    ],
    "millsfield:images_texts_ids": [
      1527831959,
      1527856079,
      1527856081
    ],
    "millsfield:similar": {
      "apple/mobileclip_s0": [
        {
          "distance": 0.5999478,
          "id": 1763256351
        },
        {
          "distance": 0.6127266,
          "id": 1763145331
        },
        {
          "distance": 0.6272847,
          "id": 1729566451
        },
        {
          "distance": 0.6303321,
          "id": 1763388307
        },
        {
          "distance": 0.63118625,
          "id": 1527855199
        },
        {
          "distance": 0.6319495,
          "id": 1897892329
        },
        {
          "distance": 0.63227874,
          "id": 1914556229
        },
        {
          "distance": 0.6353923,
          "id": 1964167631
        },
        {
          "distance": 0.6380121,
          "id": 1762714455
        },
        {
          "distance": 0.64101166,
          "id": 1762701893
        }
      ],
      "apple/mobileclip_s1": [
        {
          "distance": 0.4479179,
          "id": 1527832843
        },
        {
          "distance": 0.45718876,
          "id": 1527829795
        },
        {
          "distance": 0.45819065,
          "id": 1527829305
        },
        {
          "distance": 0.4583559,
          "id": 1527854209
        },
        {
          "distance": 0.45896772,
          "id": 1729566415
        },
        {
          "distance": 0.45911378,
          "id": 1527829861
        },
        {
          "distance": 0.46047863,
          "id": 1527851139
        },
        {
          "distance": 0.46152785,
          "id": 1527829333
        },
        {
          "distance": 0.46228564,
          "id": 1527829815
        },
        {
          "distance": 0.46455652,
          "id": 1527829835
        }
      ],
      "apple/mobileclip_s2": [
        {
          "distance": 0.6609425,
          "id": 1763444015
        },
        {
          "distance": 0.6754448,
          "id": 1527855207
        },
        {
          "distance": 0.6831473,
          "id": 1527855199
        },
        {
          "distance": 0.6881396,
          "id": 1527851339
        },
        {
          "distance": 0.69605273,
          "id": 1527847957
        },
        {
          "distance": 0.6977909,
          "id": 1762897313
        },
        {
          "distance": 0.70535386,
          "id": 1931109713
        },
        {
          "distance": 0.7055546,
          "id": 1763443951
        },
        {
          "distance": 0.70606935,
          "id": 1763443987
        },
        {
          "distance": 0.707141,
          "id": 1762701673
        }
      ]
    },
    "millsfield:subcategory_id": 1511213383,
    "mz:hierarchy_label": 1,
    "mz:is_current": -1,
    "sfomuseum:filename": "100648.tif",
    "sfomuseum:image_id": 100648,
    "sfomuseum:image_index": 5,
    "sfomuseum:image_type": "studio",
    "sfomuseum:object_id": 42672,
    "sfomuseum:placetype": "image",
    "sfomuseum:primary_image": 0,
    "src:geom": "sfomuseum",
    "wof:belongsto": [
      1511214241,
      1511906765,
      102527513,
      102191575,
      85633793,
      1511213383,
      85922583,
      102087579,
      1511214277,
      1511214203,
      85688637,
      136253057
    ],
    "wof:breaches": [],
    "wof:country": "US",
    "wof:created": 1578955079,
    "wof:depicts": [
      1159290435,
      1159283849,
      1360700619,
      1511906765
    ],
    "wof:geomhash": "bd906905ce4be6c0651c90b0fc24804c",
    "wof:hierarchy": [
      {
        "arcade_id": 1511213383,
        "building_id": 1511214277,
        "campus_id": 102527513,
        "concourse_id": 1511214241,
        "continent_id": 102191575,
        "country_id": 85633793,
        "county_id": 102087579,
        "custom_id": 1527856079,
        "image_id": 1527856079,
        "locality_id": 85922583,
        "media_id": 1527856079,
        "neighbourhood_id": -1,
        "region_id": 85688637,
        "venue_id": 1511906765,
        "wing_id": 1511214203
      },
      {
        "continent_id": 102191575,
        "country_id": 85633793,
        "custom_id": 1527856079,
        "empire_id": 136253057,
        "image_id": 1527856079,
        "media_id": 1527856079,
        "venue_id": 1511906765
      }
    ],
    "wof:id": 1527856079,
    "wof:lastmodified": 1788450252,
    "wof:name": "route map: American Airlines, system map",
    "wof:parent_id": 1511906765,
    "wof:placetype": "custom",
    "wof:placetype_alt": [
      "image"
    ],
    "wof:repo": "sfomuseum-data-media-collection",
    "wof:superseded_by": [],
    "wof:supersedes": [],
    "wof:tags": []
  },
  "bbox": [
    -122.386155,
    37.616358,
    -122.386155,
    37.616358
  ],
  "geometry": {"type":"Point","coordinates":[-122.386155,37.616358]}
}
