{
  "id": 1897358889,
  "type": "Feature",
  "properties": {
    "date:cessation_lower": "1990-01-01",
    "date:cessation_upper": "1999-12-31",
    "date:inception_lower": "1990-01-01",
    "date:inception_upper": "1999-12-31",
    "edtf:cessation": "199X",
    "edtf:inception": "199X",
    "geom:area": 2.477324999997507e-7,
    "geom:bbox": "-122.386472,37.616105,-122.385834,37.616611",
    "geom:latitude": 37.61635756125121,
    "geom:longitude": -122.38615532866096,
    "media:fingerprint": "4689d60a0af08d6ee00c7092c806ed51124d8dfc",
    "media:imagehash_avg": "a:7fffff1cc0c3c1ff",
    "media:imagehash_diff": "d:f0f0f06d2d0f0f1c",
    "media:imagetext": "M\nR / C\nA\n!\nIN ES\nN6115A\nAMERICAN",
    "media:imagetext_created": 1787970914,
    "media:imagetext_source": "com.apple.visionkit.VNImageRequestHandler#Version 26.6.2 (Build 25G83)",
    "media:mimetype": "image/tiff",
    "media:properties": {
      "sizes": {
        "b": {
          "extension": "jpg",
          "height": 768,
          "mimetype": "image/jpeg",
          "secret": "XQzjWROVLOpR64qsrzlQMRZc53DBvLAj",
          "width": 960
        },
        "c": {
          "extension": "jpg",
          "height": 600,
          "mimetype": "image/jpeg",
          "secret": "XQzjWROVLOpR64qsrzlQMRZc53DBvLAj",
          "width": 750
        },
        "dc": {
          "extension": "jpg",
          "height": 600,
          "mimetype": "image/jpeg",
          "secret": "XQzjWROVLOpR64qsrzlQMRZc53DBvLAj",
          "width": 750
        },
        "ds": {
          "extension": "jpg",
          "height": 320,
          "mimetype": "image/jpeg",
          "secret": "XQzjWROVLOpR64qsrzlQMRZc53DBvLAj",
          "width": 320
        },
        "k": {
          "extension": "jpg",
          "height": 1536,
          "mimetype": "image/jpeg",
          "secret": "XQzjWROVLOpR64qsrzlQMRZc53DBvLAj",
          "width": 1920
        },
        "n": {
          "extension": "jpg",
          "height": 240,
          "mimetype": "image/jpeg",
          "secret": "XQzjWROVLOpR64qsrzlQMRZc53DBvLAj",
          "width": 300
        },
        "o": {
          "extension": "jpg",
          "height": 1680,
          "mimetype": "image/jpeg",
          "secret": "qvLD0MTrdepecSyzgNEpkSVIuF0bY47g",
          "width": 2100
        },
        "s": {
          "extension": "jpg",
          "height": 320,
          "mimetype": "image/jpeg",
          "secret": "XQzjWROVLOpR64qsrzlQMRZc53DBvLAj",
          "width": 320
        },
        "z": {
          "extension": "jpg",
          "height": 480,
          "mimetype": "image/jpeg",
          "secret": "XQzjWROVLOpR64qsrzlQMRZc53DBvLAj",
          "width": 600
        }
      }
    },
    "media:source": "sfomuseum",
    "media:status_id": 1,
    "media:uri_template": "https://static.sfomuseum.org/media/189/735/888/9/1897358889_{secret}_{label}.{extension}",
    "millsfield:aircraft_id": [
      1159291115
    ],
    "millsfield:airline_id": [
      1159283849
    ],
    "millsfield:category_id": 1511214235,
    "millsfield:collection_id": 1511214203,
    "millsfield:company_id": [
      1159293697,
      1159292825
    ],
    "millsfield:images_colors": [
      {
        "hex": "#bcbec3",
        "name": "#bcbec3",
        "reference": "marekm4"
      },
      {
        "hex": "#c0c0c0",
        "name": "silver",
        "reference": "css4"
      },
      {
        "hex": "#b0b7c6",
        "name": "Cadet Blue",
        "reference": "crayola"
      },
      {
        "hex": "#533931",
        "name": "#533931",
        "reference": "marekm4"
      },
      {
        "hex": "#556b2f",
        "name": "darkolivegreen",
        "reference": "css4"
      },
      {
        "hex": "#414a4c",
        "name": "Outer Space",
        "reference": "crayola"
      },
      {
        "hex": "#bb4022",
        "name": "#bb4022",
        "reference": "marekm4"
      },
      {
        "hex": "#b22222",
        "name": "firebrick",
        "reference": "css4"
      },
      {
        "hex": "#c46210",
        "name": "Alloy Orange",
        "reference": "crayola"
      }
    ],
    "millsfield:images_texts": [
      "AMERICAN\nAMERICAN AIRLINES",
      "M\nR / C\nA\n!\nIN ES\nN6115A\nAMERICAN",
      "AMERICAN\nN6115A\nAMERICAN AIRLINES\nFLASHIP COLUMBUS",
      "AMERICAN\nN6115A\nAMERICAN AIRLINES\nHAGSHIR COLUMBUS"
    ],
    "millsfield:images_texts_ids": [
      1763144173,
      1897358889,
      1897358891,
      1897358893
    ],
    "millsfield:similar": {
      "apple/mobileclip_s0": [
        {
          "distance": 0.30761886,
          "id": 1897358891
        },
        {
          "distance": 0.35577583,
          "id": 1527857963
        },
        {
          "distance": 0.3661977,
          "id": 1762897423
        },
        {
          "distance": 0.378519,
          "id": 1762897413
        },
        {
          "distance": 0.38305363,
          "id": 1897358893
        },
        {
          "distance": 0.40036806,
          "id": 1527857969
        },
        {
          "distance": 0.4037551,
          "id": 1964039431
        },
        {
          "distance": 0.4285114,
          "id": 1763144535
        },
        {
          "distance": 0.42899752,
          "id": 1762897421
        },
        {
          "distance": 0.4290589,
          "id": 1527857971
        }
      ],
      "apple/mobileclip_s1": [
        {
          "distance": 0.28438663,
          "id": 1762897423
        },
        {
          "distance": 0.29982555,
          "id": 1763144535
        },
        {
          "distance": 0.30366173,
          "id": 1897358891
        },
        {
          "distance": 0.30797014,
          "id": 1527857963
        },
        {
          "distance": 0.30958018,
          "id": 1897358893
        },
        {
          "distance": 0.31377587,
          "id": 1880321297
        },
        {
          "distance": 0.31987366,
          "id": 1762897415
        },
        {
          "distance": 0.3222208,
          "id": 1762897413
        },
        {
          "distance": 0.32951194,
          "id": 1964039425
        },
        {
          "distance": 0.33177876,
          "id": 1897367099
        }
      ],
      "apple/mobileclip_s2": [
        {
          "distance": 0.32420278,
          "id": 1762897423
        },
        {
          "distance": 0.33219525,
          "id": 1763144535
        },
        {
          "distance": 0.3343447,
          "id": 1897358891
        },
        {
          "distance": 0.36572492,
          "id": 1897358893
        },
        {
          "distance": 0.37282872,
          "id": 1527857963
        },
        {
          "distance": 0.3846847,
          "id": 1763144543
        },
        {
          "distance": 0.4081913,
          "id": 1762897333
        },
        {
          "distance": 0.4122234,
          "id": 1762897413
        },
        {
          "distance": 0.41944882,
          "id": 1964039425
        },
        {
          "distance": 0.42438906,
          "id": 1527858235
        }
      ]
    },
    "millsfield:subcategory_id": 1511213161,
    "mz:is_current": 1,
    "sfomuseum:filename": "2011.051.006ab_1.tif",
    "sfomuseum:image_id": 276530,
    "sfomuseum:image_index": 0,
    "sfomuseum:image_type": "studio",
    "sfomuseum:object_id": 115484,
    "sfomuseum:placetype": "image",
    "sfomuseum:primary_image": 1,
    "src:geom": "sfomuseum",
    "wof:belongsto": [
      102527513,
      1159162825,
      102191575,
      85633793,
      102087579,
      85922583,
      1763143969,
      85688637,
      1159160869
    ],
    "wof:country": "XY",
    "wof:created": 1707899701,
    "wof:depicts": [
      1159293697,
      1159292825,
      1763143969,
      1159283849,
      1159291115
    ],
    "wof:geomhash": "ed7c2ab3547fc3916b5edc33488deaa7",
    "wof:hierarchy": [
      {
        "building_id": -1,
        "campus_id": 102527513,
        "collection_id": 1159162825,
        "concourse_id": 1159162825,
        "continent_id": 102191575,
        "country_id": 85633793,
        "county_id": 102087579,
        "custom_id": 1897358889,
        "image_id": 1897358889,
        "locality_id": 85922583,
        "neighbourhood_id": -1,
        "object_id": 1763143969,
        "region_id": 85688637,
        "wing_id": 1159160869
      }
    ],
    "wof:id": 1897358889,
    "wof:lastmodified": 1788452048,
    "wof:name": "model airplane: American Airlines, Lockheed L-188 Electra",
    "wof:parent_id": 1763143969,
    "wof:placetype": "custom",
    "wof:placetype_alt": [
      "image"
    ],
    "wof:repo": "sfomuseum-data-media-collection",
    "wof:superseded_by": [],
    "wof:supersedes": []
  },
  "bbox": [
    -122.386472,
    37.616105,
    -122.385834,
    37.616611
  ],
  "geometry": {"type":"Polygon","coordinates":[[[-122.386472,37.616318],[-122.386435,37.616233],[-122.386376,37.616178],[-122.386301,37.616131],[-122.386161,37.616105],[-122.386022,37.616131],[-122.385914,37.616186],[-122.385855,37.616267],[-122.385834,37.616369],[-122.385871,37.616467],[-122.385941,37.616543],[-122.386054,37.616603],[-122.386183,37.616611],[-122.386306,37.616573],[-122.386419,37.616509],[-122.386467,37.616411],[-122.386472,37.616318]]]}
}
