{
  "id": 1930551365,
  "type": "Feature",
  "properties": {
    "date:cessation_lower": "1930-01-01",
    "date:cessation_upper": "1939-12-31",
    "date:inception_lower": "1930-01-01",
    "date:inception_upper": "1939-12-31",
    "edtf:cessation": "193X",
    "edtf:date": "193x",
    "edtf:inception": "193X",
    "geom:area": 0,
    "geom:bbox": "-122.386155,37.616357,-122.386155,37.616357",
    "geom:latitude": 37.616357,
    "geom:longitude": -122.386155,
    "iso:country": "US",
    "media:fingerprint": "43b2d94faac89511e432668a71e27355471061b1",
    "media:imagehash_avg": "a:3e3fffc1e1c38fbf",
    "media:imagehash_diff": "d:f8f8d18387071e38",
    "media:imagetext": "",
    "media:imagetext_created": 1722843243,
    "media:imagetext_source": "com.apple.visionkit.VNImageRequestHandler#Version 14.5 (Build 23F79)",
    "media:mimetype": "image/tiff",
    "media:properties": {
      "sizes": {
        "b": {
          "extension": "jpg",
          "height": 768,
          "mimetype": "image/jpeg",
          "secret": "mPF95b9sBMe3gim1B1Vu05VBU0IzDNs7",
          "width": 960
        },
        "c": {
          "extension": "jpg",
          "height": 600,
          "mimetype": "image/jpeg",
          "secret": "mPF95b9sBMe3gim1B1Vu05VBU0IzDNs7",
          "width": 750
        },
        "dc": {
          "extension": "jpg",
          "height": 600,
          "mimetype": "image/jpeg",
          "secret": "mPF95b9sBMe3gim1B1Vu05VBU0IzDNs7",
          "width": 750
        },
        "ds": {
          "extension": "jpg",
          "height": 320,
          "mimetype": "image/jpeg",
          "secret": "mPF95b9sBMe3gim1B1Vu05VBU0IzDNs7",
          "width": 320
        },
        "k": {
          "extension": "jpg",
          "height": 1536,
          "mimetype": "image/jpeg",
          "secret": "mPF95b9sBMe3gim1B1Vu05VBU0IzDNs7",
          "width": 1920
        },
        "n": {
          "extension": "jpg",
          "height": 240,
          "mimetype": "image/jpeg",
          "secret": "mPF95b9sBMe3gim1B1Vu05VBU0IzDNs7",
          "width": 300
        },
        "o": {
          "extension": "jpg",
          "height": 1680,
          "mimetype": "image/jpeg",
          "secret": "y9icYC1gcSdWT798mj6AkNHEgm4TVb1C",
          "width": 2100
        },
        "s": {
          "extension": "jpg",
          "height": 320,
          "mimetype": "image/jpeg",
          "secret": "mPF95b9sBMe3gim1B1Vu05VBU0IzDNs7",
          "width": 320
        },
        "z": {
          "extension": "jpg",
          "height": 480,
          "mimetype": "image/jpeg",
          "secret": "mPF95b9sBMe3gim1B1Vu05VBU0IzDNs7",
          "width": 600
        }
      }
    },
    "media:source": "sfomuseum",
    "media:status_id": 1,
    "media:uri_template": "https://static.sfomuseum.org/media/193/055/136/5/1930551365_{secret}_{label}.{extention}",
    "millsfield:category_id": 1511214213,
    "millsfield:collection_id": 1511214203,
    "millsfield:images_colors": [
      {
        "hex": "#b9b4b4",
        "name": "#b9b4b4",
        "reference": "marekm4"
      },
      {
        "hex": "#c0c0c0",
        "name": "silver",
        "reference": "css4"
      },
      {
        "hex": "#b0b7c6",
        "name": "Cadet Blue",
        "reference": "crayola"
      },
      {
        "hex": "#4e4e4c",
        "name": "#4e4e4c",
        "reference": "marekm4"
      },
      {
        "hex": "#2f4f4f",
        "name": "darkslategrey",
        "reference": "css4"
      },
      {
        "hex": "#414a4c",
        "name": "Outer Space",
        "reference": "crayola"
      },
      {
        "hex": "#916d68",
        "name": "#916d68",
        "reference": "marekm4"
      },
      {
        "hex": "#808080",
        "name": "grey",
        "reference": "css4"
      },
      {
        "hex": "#8a795d",
        "name": "Shadow",
        "reference": "crayola"
      }
    ],
    "millsfield:images_texts": [
      "ING:",
      "KYCRULEE\n6B6-DBP\nSTRATO AIR LINES\n| Stratoliner\n700\n50234",
      "SKYERULE"
    ],
    "millsfield:images_texts_ids": [
      1746680781,
      1897762073,
      1930551361
    ],
    "millsfield:similar": {
      "apple/mobileclip_s0": [
        {
          "distance": 0.21668881,
          "id": 1930551361
        },
        {
          "distance": 0.3804464,
          "id": 1930551357
        },
        {
          "distance": 0.39009297,
          "id": 1930551415
        },
        {
          "distance": 0.3904995,
          "id": 1930551355
        },
        {
          "distance": 0.40459058,
          "id": 1930551395
        },
        {
          "distance": 0.4167914,
          "id": 1763145219
        },
        {
          "distance": 0.4175941,
          "id": 1930551393
        },
        {
          "distance": 0.4202576,
          "id": 1930714383
        },
        {
          "distance": 0.42194423,
          "id": 1880320021
        },
        {
          "distance": 0.42972416,
          "id": 1930551339
        }
      ],
      "apple/mobileclip_s1": [
        {
          "distance": 0.16313489,
          "id": 1930551361
        },
        {
          "distance": 0.30791065,
          "id": 1930551403
        },
        {
          "distance": 0.3096516,
          "id": 1746680781
        },
        {
          "distance": 0.32249475,
          "id": 1930551401
        },
        {
          "distance": 0.3258104,
          "id": 1930714383
        },
        {
          "distance": 0.32606402,
          "id": 1880320461
        },
        {
          "distance": 0.33014852,
          "id": 1930551395
        },
        {
          "distance": 0.33435306,
          "id": 1930714361
        },
        {
          "distance": 0.33681247,
          "id": 1763145221
        },
        {
          "distance": 0.3404616,
          "id": 1930551355
        }
      ],
      "apple/mobileclip_s2": [
        {
          "distance": 0.23811457,
          "id": 1930551361
        },
        {
          "distance": 0.37799913,
          "id": 1930551355
        },
        {
          "distance": 0.39394882,
          "id": 1930551395
        },
        {
          "distance": 0.4076024,
          "id": 1930551359
        },
        {
          "distance": 0.42393252,
          "id": 1930714383
        },
        {
          "distance": 0.42709687,
          "id": 1930551357
        },
        {
          "distance": 0.43350676,
          "id": 1930714361
        },
        {
          "distance": 0.43480924,
          "id": 1930551339
        },
        {
          "distance": 0.4417788,
          "id": 1930551421
        },
        {
          "distance": 0.45007002,
          "id": 1930551401
        }
      ]
    },
    "millsfield:subcategory_id": 1511213163,
    "mz:is_current": 1,
    "sfomuseum:filename": "1995.29.42_2.tif",
    "sfomuseum:image_id": 287315,
    "sfomuseum:image_index": 0,
    "sfomuseum:image_type": "studio",
    "sfomuseum:object_id": 43475,
    "sfomuseum:placetype": "image",
    "sfomuseum:primary_image": 0,
    "src:geom": "sfomuseum",
    "wof:belongsto": [
      1511213163,
      1511214277,
      102527513,
      1511214213,
      102191575,
      85633793,
      102087579,
      85922583,
      1511907187,
      85688637,
      1511214203,
      136253057
    ],
    "wof:country": "US",
    "wof:created": 1722843244,
    "wof:depicts": [
      1511907187
    ],
    "wof:geomhash": "30c8a918561c84bb2daa2b97fc7c5353",
    "wof:hierarchy": [
      {
        "arcade_id": 1511213163,
        "building_id": 1511214277,
        "campus_id": 102527513,
        "concourse_id": 1511214213,
        "continent_id": 102191575,
        "country_id": 85633793,
        "county_id": 102087579,
        "custom_id": 1930551365,
        "locality_id": 85922583,
        "neighbourhood_id": -1,
        "object_id": 1511907187,
        "region_id": 85688637,
        "venue_id": 1511907187,
        "wing_id": 1511214203
      },
      {
        "continent_id": 102191575,
        "country_id": 85633793,
        "custom_id": 1930551365,
        "empire_id": 136253057,
        "object_id": 1511907187,
        "venue_id": 1511907187
      }
    ],
    "wof:id": 1930551365,
    "wof:lastmodified": 1788452429,
    "wof:name": "toy airplane: Skycruiser",
    "wof:parent_id": 1511907187,
    "wof:placetype": "custom",
    "wof:repo": "sfomuseum-data-media-collection",
    "wof:superseded_by": [],
    "wof:supersedes": []
  },
  "bbox": [
    -122.386155,
    37.616357,
    -122.386155,
    37.616357
  ],
  "geometry": {"type":"Point","coordinates":[-122.386155,37.616357]}
}
