{
  "id": 1913800893,
  "type": "Feature",
  "properties": {
    "date:cessation_lower": "1933-09-17",
    "date:cessation_upper": "1933-09-17",
    "date:inception_lower": "1933-09-17",
    "date:inception_upper": "1933-09-17",
    "edtf:cessation": "1933-09-17",
    "edtf:inception": "1933-09-17",
    "geom:area": 2.477324999997507e-7,
    "geom:bbox": "-122.386472,37.616105,-122.385834,37.616611",
    "geom:latitude": 37.61635756125121,
    "geom:longitude": -122.38615532866096,
    "media:fingerprint": "e6e92ac3ab6c8b1428d5a8198f05089c9af3f4a0",
    "media:imagehash_avg": "a:edc18181818b99ff",
    "media:imagehash_diff": "d:490d556955556b33",
    "media:imagetext": "Dearest Debs-\nSunday 33\nSept.\nI have nit writte\na real liter to you\nfor a long time beaus\nI'er been out Every\nmight and haok bein\nworking hand all day.\nhots of things hair\nturn happening and s\nneon hair been so\ncompete, corned up\nin a busine\na- d\nsocial way. Chee\nvaugha was\nale sit\nto\nlear\non aug '9",
    "media:imagetext_created": 1787972466,
    "media:imagetext_source": "com.apple.visionkit.VNImageRequestHandler#Version 26.6.2 (Build 25G83)",
    "media:mimetype": "image/tiff",
    "media:properties": {
      "sizes": {
        "b": {
          "extension": "jpg",
          "height": 768,
          "mimetype": "image/jpeg",
          "secret": "HWNZm7QWuFon3tWQPLDdzWxXP2toBwGm",
          "width": 568
        },
        "c": {
          "extension": "jpg",
          "height": 600,
          "mimetype": "image/jpeg",
          "secret": "HWNZm7QWuFon3tWQPLDdzWxXP2toBwGm",
          "width": 443
        },
        "dc": {
          "extension": "jpg",
          "height": 600,
          "mimetype": "image/jpeg",
          "secret": "HWNZm7QWuFon3tWQPLDdzWxXP2toBwGm",
          "width": 443
        },
        "ds": {
          "extension": "jpg",
          "height": 320,
          "mimetype": "image/jpeg",
          "secret": "HWNZm7QWuFon3tWQPLDdzWxXP2toBwGm",
          "width": 320
        },
        "k": {
          "extension": "jpg",
          "height": 1536,
          "mimetype": "image/jpeg",
          "secret": "HWNZm7QWuFon3tWQPLDdzWxXP2toBwGm",
          "width": 1136
        },
        "n": {
          "extension": "jpg",
          "height": 240,
          "mimetype": "image/jpeg",
          "secret": "HWNZm7QWuFon3tWQPLDdzWxXP2toBwGm",
          "width": 177
        },
        "o": {
          "extension": "jpg",
          "height": 2113,
          "mimetype": "image/jpeg",
          "secret": "6zYGTNXpVH3jaZhyvYFiPbZRmTtR5nc4",
          "width": 1563
        },
        "s": {
          "extension": "jpg",
          "height": 320,
          "mimetype": "image/jpeg",
          "secret": "HWNZm7QWuFon3tWQPLDdzWxXP2toBwGm",
          "width": 320
        },
        "z": {
          "extension": "jpg",
          "height": 480,
          "mimetype": "image/jpeg",
          "secret": "HWNZm7QWuFon3tWQPLDdzWxXP2toBwGm",
          "width": 355
        }
      }
    },
    "media:source": "sfomuseum",
    "media:status_id": 1,
    "media:uri_template": "https://static.sfomuseum.org/media/191/380/089/3/1913800893_{secret}_{label}.{extension}",
    "millsfield:airline_id": [
      1159284991,
      1159285931
    ],
    "millsfield:category_id": 1511214251,
    "millsfield:collection_id": 1511214207,
    "millsfield:company_id": [
      1159286721
    ],
    "millsfield:images_colors": [
      {
        "hex": "#ede2ba",
        "name": "#ede2ba",
        "reference": "marekm4"
      },
      {
        "hex": "#f5deb3",
        "name": "wheat",
        "reference": "css4"
      },
      {
        "hex": "#eceabe",
        "name": "Spring Green",
        "reference": "crayola"
      },
      {
        "hex": "#353b35",
        "name": "#353b35",
        "reference": "marekm4"
      },
      {
        "hex": "#2f4f4f",
        "name": "darkslategrey",
        "reference": "css4"
      },
      {
        "hex": "#414a4c",
        "name": "Outer Space",
        "reference": "crayola"
      }
    ],
    "millsfield:images_texts": [
      "Dearest Debs-\nSunday 33\nSept.\nI have nit writte\na real liter to you\nfor a long time beaus\nI'er been out Every\nmight and haok bein\nworking hand all day.\nhots of things hair\nturn happening and s\nneon hair been so\ncompete, corned up\nin a busine\na- d\nsocial way. Chee\nvaugha was\nale sit\nto\nlear\non aug '9",
      "wish the\nPoline when\nat the\nvir,\nlast\nminute mr. Dai and\nMr Huang, Mana ging\nDuictor and Chanman\nof the Board of eNAC\ndecided ( after 9 hae\nleft for manila) that\nthey\nwoned rath in\nimplor a cheape\npilot -\nantice, losin\ntrack of the long\nyear\nsirer of\nvaugha\nand the\ndffreuet run",
      "of the upon youre\nwhich he has flown\nfor there yrave with\nout torr\nrosa\nseratching a plane.\nBond\ncalled me at\nManila that Chee\nwas staging on end\nthe whole matte\nwored hair to wait\nuntie my retura. us\ntalkerd\nand arguse\nfor dago\nand finals,\nworked out\nnes contact which",
      "untice, satrafactor,\nto chee,\nand got it\nsigned on Saturda,\n(yratudas) at 12 mom\nchee sailed on the\nNoon at 1:30. 2t\nwas hectic. Chie\nis taking the\ngraser,\nthe ough for\nme and will\nmaie it to you\nfrom\nn.y. The\nbrooch is for you-\nthe sird prare\nne clacz\ni for wit",
      "te jade dangle\nis for\nour tale\nred.\nheaded Cat t\nI though Bo wored\nlike the\nthe blue one\nand france the grun\nHite to hair the oth\none sans decoration.\nmayer a urats\nale that bifore -\nI meant to\nbut\ncant think whethe\nD actuals did\nwrits or just intrude",
      "O to do so.\nFriday might ur\nwint out to a\nwith own\n3\nbachelor pilato -\nNelson,\nmitchele t\nme cloy - the lateri\nMarke keeps houn\nfor them — the is an\nknew the Howards\nmitche\nannound - or rattl\nmus me C.\ndid - his\ningagement to his gie",
      ") who was\nthes\njust having landed\nfron\nthe\nU.S. The\nar 2\na getting mari.\nnext\nSaturday. It\nflies the Pripin,\nroute\nand is not\none, a good pilat\nbut makes lasti\nfuendorgia wit\nmost of his farsagns.\nRematuring your\nadmonition abort\nmot working too",
      "• hard - afte trimp\noff Satuda,\net\n1:30\nI played\ntennis\nwith on piled\nHoward Norris against\nBond\nand miss chang\n(Ruste of Mrs T.V. Soong)\ntor played at the\nhome court of mr.\nH.C. Tang head of\nthe China Customs.\nMrs Tang is English.\nThey\nharr t of the\nmost attractur\ndaughtes you hair",
      "@ ror srin. The oldint\none 12 and the\nyoungest one l'e.\nmiss Tang plag\nmuch. biter than\nI do . she is loto\nof Jun\n- and los\nhad\ngreat game\nMorris and I trat\nthem to sit b-t\n1 - 5\nacc\nabsolute, exhausted\nalmost\nrom, game\nwas\ndener one.",
      "→ gut along fine\nnow\nworth my right\narm\nand resee,\nplague\nthe best\ntennis\nI hear cura\nplayed - thanks to\nRoda's (Min Champs -\nRoda + fix now)\nalien 9 turowed Be des to\nracquet,\nresent hit and he\nabont\nabont him. He takes\nher to deanie and\nthe\nmove. ftin.",
      "Last\nmight ear\nwant -\ndont know\nwhy o say is -\nI want to\nthe\nCunninghamo for denia\nThey had a maurous\ndinnu with\nabont\n3o prople. I tat\nI sat\nnext to the daughte\nof Ar Seburman -\na irs me Hugh whon\na marine\noffen. Dr Schuman\nwas Pren\ndent\nCornece\nwhen\nand",
      "12\nthens and\nwas latra American\nminiate to china.\nThere wres a numbe\nof prominent Chinin\nthris too. Afte dinne\nur ale played Bridge\nmajokg and poku-\n9. plaged poku\nwick\nvery\nnice. wif has\nthe lookint dark grace\njade necklace you\nwill\nEver ser\nMrs Bassilt (mentined",
      "in woKß: note book)\nshe is lato of fua t\npolg a\ndarn good\ngame o poka, tu\nmc Hugh\nor ratu Capt.\na omr. Tucke whon\nlp sat next to\nme also\nat diani -\nand\npronal othes.\n9 won $5,50 and\nwas pleasd bicause\nit was a grete,\nst ff game and\nat one\ntime Iwas\n3000 met in the hole.",
      "1:30 A.m. and than\nI want right to bed\nand\nslept unte\n9:30 this Q.M. Called\non the Bawley's who\ngot her Frida; *\nwhon I had not\nsara karlier. Mis P.\nis fane, meer - their\nmonths is awfuls,\ncutr.\nThe, eft the\nChildren at\nhome\nand intrad",
      "15 to go\ngo home in two\nmonths.\nHad\ntffin (lunch\nto you) wik oscar\nJohnson - awfue smack\nDr Frarn - the\nCunninghams, Judge\nPurdy and ocks -\nworked\na while\nat the offier-\nsaw Dwigut in\nhis\nrooms where\nhe was havin\na\nreception to",
      "@ show hi complete\npicture of mes ekang\nand then startd\nthis lettr. Mis changi\npictur is lore, -\nreace good. She is\nattractir -\nslender brant-fie\nfigur and. ven\naristocrat ic Cooking.\nwish ohad time\nto go into ale the\ngruiuy deffr cuetii.\nI'ir had latre,\ncoita\nDruight.",
      "I wough to say that\nthrough\na Mr Shik\nappro a ched\nto hair\nDwight\nex Libit -\nhis portrait.\nto T.V. Soon. Dwigut\nwored it do it -\nsaid if T.V. wanted\nto Are\nthem\nhe\nconed come to\nDwights room\nin\nthe metropole. Mes.\nJeang came with out\nappointment o",
      "Dungut\nworld nit\nlet her\nin beause\nthe portrait was it\ndone\nThe one of\ntus. Chang.\nIt a\nlong\nston, but frace,\nworked on ok.\nwarked my hands of\nthe whole thing aft\nassuring Mr Shit that\nDrought\nwas a crazy\ntraprimental artist.\nIf he wants to do\nWright can git a",
      "commission\nto do\nMrs T.V.\nand posite,\nOthn mentirs\nmany \"Soong dynasty,\nof the\nas its now called.\nBut Dwight is anxion\nto mor. on and\none,\ncondescends to\nconsider posite,\ndory one picture.\nWhat a life! He\nprobate, wise get\na big order at\na\nbis prici pist",
      "I breans they'le figue\nthat to te ao crazy he\nmust te a guat\nartiet.\nDwight refund\nto take\na parat\nout to thr Soong house,\nI woned set up one\nof our Sik orsky\nin T.Vis back yard\nif he wantre to\nlook at it\nbut\nDwight is an artist\nso that cloms the\ndeal for him and\nmaler\na premanent",
      "I clond sracon on a\nnut who to me war\nof thinking showed te\nlockerd up.\nAm\ngoing to\nwith Droya\nhad an\ninortation for dimin\nbut declined- thank\ngoodnes\nand tonght\nafter dummi wice\nwrite\na lot of.\nletto to go weth\nthe handka chef t",
      "orderse\nbefore going to\nmanila -\nalso want\nto wits to starry\nand Fanny re- H.F. K.\nLots\nand lot\nof loo\ndarlin from\nHad\nP.S. Fogat to tee\nyou T.V.S. is going to\nRankin\ntonigut and\nstraighten\nout\nour\ndeal so\nman\ndrawing\ncontracto\ndoor -"
    ],
    "millsfield:images_texts_ids": [
      1913800893,
      1913800895,
      1913800897,
      1913800899,
      1913800901,
      1913800903,
      1913800907,
      1913800909,
      1913800911,
      1913800913,
      1913800915,
      1913800917,
      1913800919,
      1913800921,
      1913800925,
      1913800927,
      1913800929,
      1913800931,
      1913800933,
      1913800935,
      1913800937,
      1913800939
    ],
    "millsfield:similar": {
      "apple/mobileclip_s0": [
        {
          "distance": 0.30198017,
          "id": 1913800119
        },
        {
          "distance": 0.3226394,
          "id": 1913802711
        },
        {
          "distance": 0.326323,
          "id": 1913800611
        },
        {
          "distance": 0.33630323,
          "id": 1913800541
        },
        {
          "distance": 0.33669966,
          "id": 1913800501
        },
        {
          "distance": 0.3392773,
          "id": 1913799761
        },
        {
          "distance": 0.3403415,
          "id": 1913801413
        },
        {
          "distance": 0.34135175,
          "id": 1913800117
        },
        {
          "distance": 0.34137037,
          "id": 1913800583
        },
        {
          "distance": 0.34284642,
          "id": 1913800269
        }
      ],
      "apple/mobileclip_s1": [
        {
          "distance": 0.25459388,
          "id": 1913800591
        },
        {
          "distance": 0.25554666,
          "id": 1913800773
        },
        {
          "distance": 0.25657427,
          "id": 1913800975
        },
        {
          "distance": 0.2585832,
          "id": 1913799761
        },
        {
          "distance": 0.26055062,
          "id": 1913800593
        },
        {
          "distance": 0.26296297,
          "id": 1913800109
        },
        {
          "distance": 0.2644653,
          "id": 1913802711
        },
        {
          "distance": 0.26483524,
          "id": 1913800897
        },
        {
          "distance": 0.26597163,
          "id": 1913800121
        },
        {
          "distance": 0.2674602,
          "id": 1913800865
        }
      ],
      "apple/mobileclip_s2": [
        {
          "distance": 0.42275497,
          "id": 1913800697
        },
        {
          "distance": 0.4246923,
          "id": 1913800261
        },
        {
          "distance": 0.42629933,
          "id": 1913800605
        },
        {
          "distance": 0.43637007,
          "id": 1913801613
        },
        {
          "distance": 0.43652064,
          "id": 1913799763
        },
        {
          "distance": 0.4378557,
          "id": 1913800503
        },
        {
          "distance": 0.4381986,
          "id": 1913800501
        },
        {
          "distance": 0.4383398,
          "id": 1913801873
        },
        {
          "distance": 0.4410447,
          "id": 1913799761
        },
        {
          "distance": 0.44427663,
          "id": 1913802539
        }
      ]
    },
    "millsfield:subcategory_id": 1511213489,
    "mz:is_current": 1,
    "sfomuseum:filename": "2019.121.0712a.tif",
    "sfomuseum:image_id": 225257,
    "sfomuseum:image_index": 5,
    "sfomuseum:image_type": "studio",
    "sfomuseum:object_id": 211060,
    "sfomuseum:placetype": "image",
    "sfomuseum:primary_image": 1,
    "src:geom": "sfomuseum",
    "wof:belongsto": [
      102527513,
      1159162825,
      102191575,
      85633793,
      102087579,
      85922583,
      1913796399,
      85688637,
      1159160869
    ],
    "wof:country": "XY",
    "wof:created": 1714550880,
    "wof:depicts": [
      1159286721,
      1913796399,
      1159284991,
      1159285931
    ],
    "wof:geomhash": "ed7c2ab3547fc3916b5edc33488deaa7",
    "wof:hierarchy": [
      {
        "building_id": -1,
        "campus_id": 102527513,
        "collection_id": 1159162825,
        "concourse_id": 1159162825,
        "continent_id": 102191575,
        "country_id": 85633793,
        "county_id": 102087579,
        "custom_id": 1913800893,
        "image_id": 1913800893,
        "locality_id": 85922583,
        "neighbourhood_id": -1,
        "object_id": 1913796399,
        "region_id": 85688637,
        "wing_id": 1159160869
      }
    ],
    "wof:id": 1913800893,
    "wof:lastmodified": 1788220391,
    "wof:name": "correspondence: Harold M. Bixby to Debby Bixby",
    "wof:parent_id": 1913796399,
    "wof:placetype": "custom",
    "wof:placetype_alt": [
      "image"
    ],
    "wof:repo": "sfomuseum-data-media-collection",
    "wof:superseded_by": [],
    "wof:supersedes": []
  },
  "bbox": [
    -122.386472,
    37.616105,
    -122.385834,
    37.616611
  ],
  "geometry": {"type":"Polygon","coordinates":[[[-122.386472,37.616318],[-122.386435,37.616233],[-122.386376,37.616178],[-122.386301,37.616131],[-122.386161,37.616105],[-122.386022,37.616131],[-122.385914,37.616186],[-122.385855,37.616267],[-122.385834,37.616369],[-122.385871,37.616467],[-122.385941,37.616543],[-122.386054,37.616603],[-122.386183,37.616611],[-122.386306,37.616573],[-122.386419,37.616509],[-122.386467,37.616411],[-122.386472,37.616318]]]}
}
