{
  "id": 1762710425,
  "type": "Feature",
  "properties": {
    "date:cessation_lower": "1940-01-01",
    "date:cessation_upper": "1949-12-31",
    "date:inception_lower": "1940-01-01",
    "date:inception_upper": "1949-12-31",
    "edtf:cessation": "194X",
    "edtf:inception": "194X",
    "geom:area": 2.477324999997507e-7,
    "geom:bbox": "-122.386472,37.616105,-122.385834,37.616611",
    "geom:latitude": 37.61635756125121,
    "geom:longitude": -122.38615532866096,
    "iso:country": "US",
    "media:fingerprint": "29107ae1c149c9f7ec33a976579af79442f52d9a",
    "media:imagehash_avg": "a:fffffffd00000081",
    "media:imagehash_diff": "d:410d0d41594f6133",
    "media:imagetext": "Municipal Airport Terminal\nChicago, Illinois",
    "media:imagetext_created": 1787957647,
    "media:imagetext_source": "com.apple.visionkit.VNImageRequestHandler#Version 26.6.2 (Build 25G83)",
    "media:mimetype": "image/tiff",
    "media:properties": {
      "sizes": {
        "b": {
          "extension": "jpg",
          "height": 671,
          "mimetype": "image/jpeg",
          "secret": "K1MJDg4HhWp5oU7BKiMJnD5LMg87I7gC",
          "width": 1024
        },
        "c": {
          "extension": "jpg",
          "height": 524,
          "mimetype": "image/jpeg",
          "secret": "K1MJDg4HhWp5oU7BKiMJnD5LMg87I7gC",
          "width": 800
        },
        "dc": {
          "extension": "jpg",
          "height": 524,
          "mimetype": "image/jpeg",
          "secret": "K1MJDg4HhWp5oU7BKiMJnD5LMg87I7gC",
          "width": 800
        },
        "ds": {
          "extension": "jpg",
          "height": 320,
          "mimetype": "image/jpeg",
          "secret": "K1MJDg4HhWp5oU7BKiMJnD5LMg87I7gC",
          "width": 320
        },
        "k": {
          "extension": "jpg",
          "height": 1342,
          "mimetype": "image/jpeg",
          "secret": "K1MJDg4HhWp5oU7BKiMJnD5LMg87I7gC",
          "width": 2048
        },
        "n": {
          "extension": "jpg",
          "height": 209,
          "mimetype": "image/jpeg",
          "secret": "K1MJDg4HhWp5oU7BKiMJnD5LMg87I7gC",
          "width": 320
        },
        "o": {
          "extension": "jpg",
          "height": 1108,
          "mimetype": "image/jpeg",
          "secret": "dk2Jds3JHwMYajk1N8ArAX46qIKY1dls",
          "width": 1690
        },
        "s": {
          "extension": "jpg",
          "height": 320,
          "mimetype": "image/jpeg",
          "secret": "K1MJDg4HhWp5oU7BKiMJnD5LMg87I7gC",
          "width": 320
        },
        "z": {
          "extension": "jpg",
          "height": 419,
          "mimetype": "image/jpeg",
          "secret": "K1MJDg4HhWp5oU7BKiMJnD5LMg87I7gC",
          "width": 640
        }
      }
    },
    "media:source": "sfomuseum",
    "media:status_id": 1,
    "media:uri_template": "https://static.sfomuseum.org/media/176/271/042/5/1762710425_{secret}_{label}.{extension}",
    "millsfield:aircraft_id": [
      1159290417
    ],
    "millsfield:airport_id": [
      102529559
    ],
    "millsfield:category_id": 1511214215,
    "millsfield:collection_id": 1511214207,
    "millsfield:company_id": [],
    "millsfield:images_colors": [
      {
        "hex": "#c9c5b6",
        "name": "#c9c5b6",
        "reference": "marekm4"
      },
      {
        "hex": "#c0c0c0",
        "name": "silver",
        "reference": "css4"
      },
      {
        "hex": "#cdc5c2",
        "name": "Silver",
        "reference": "crayola"
      },
      {
        "hex": "#090a07",
        "name": "#090a07",
        "reference": "marekm4"
      },
      {
        "hex": "#000000",
        "name": "black",
        "reference": "css4"
      },
      {
        "hex": "#000000",
        "name": "Black",
        "reference": "crayola"
      }
    ],
    "millsfield:images_texts": [
      "Municipal Airport Terminal\nChicago, Illinois",
      "HICAG\nIDE\nDANVILLE\nIZED\"*\nCGAN\nGENUINE PHOTOGRAPH\nOFEB 11\n730 PM\n1949\nILL\nduls\nhere O12,\nLeave in 15\nfew clev. coed as\nmalhe\n, but e\nSove\n20\n.1840\n/ 75\n-0101\nUNITED\nSTATES\nPOST\nCARI\n477 Sulfant\nWilinglon"
    ],
    "millsfield:images_texts_ids": [
      1762710425,
      1762710427
    ],
    "millsfield:similar": {
      "apple/mobileclip_s0": [
        {
          "distance": 0.34082028,
          "id": 1762710429
        },
        {
          "distance": 0.62421155,
          "id": 1762710411
        },
        {
          "distance": 0.6387773,
          "id": 1762710983
        },
        {
          "distance": 0.6434474,
          "id": 1847486137
        },
        {
          "distance": 0.64377135,
          "id": 1762710979
        },
        {
          "distance": 0.6509723,
          "id": 1762710407
        },
        {
          "distance": 0.6530403,
          "id": 1762711271
        },
        {
          "distance": 0.65406364,
          "id": 1762710847
        },
        {
          "distance": 0.65581715,
          "id": 1762895551
        },
        {
          "distance": 0.659512,
          "id": 1762710991
        }
      ],
      "apple/mobileclip_s1": [
        {
          "distance": 0.2878303,
          "id": 1762710429
        },
        {
          "distance": 0.41834265,
          "id": 1762710407
        },
        {
          "distance": 0.4369657,
          "id": 1762710411
        },
        {
          "distance": 0.45263165,
          "id": 1863469059
        },
        {
          "distance": 0.45280942,
          "id": 1762895551
        },
        {
          "distance": 0.45303276,
          "id": 1762712589
        },
        {
          "distance": 0.455394,
          "id": 1762711973
        },
        {
          "distance": 0.4569904,
          "id": 1762711207
        },
        {
          "distance": 0.4572332,
          "id": 1762710415
        },
        {
          "distance": 0.4609534,
          "id": 1762712621
        }
      ],
      "apple/mobileclip_s2": [
        {
          "distance": 0.4013879,
          "id": 1762710429
        },
        {
          "distance": 0.5575381,
          "id": 1762710407
        },
        {
          "distance": 0.564065,
          "id": 1762710411
        },
        {
          "distance": 0.63968134,
          "id": 1762710447
        },
        {
          "distance": 0.6454843,
          "id": 1762712157
        },
        {
          "distance": 0.6470981,
          "id": 1762710793
        },
        {
          "distance": 0.6479696,
          "id": 1762710433
        },
        {
          "distance": 0.64938164,
          "id": 1762711207
        },
        {
          "distance": 0.6574013,
          "id": 1762712153
        },
        {
          "distance": 0.660591,
          "id": 1762710271
        }
      ]
    },
    "millsfield:subcategory_id": 1511213363,
    "mz:is_current": 1,
    "sfomuseum:filename": "2015.166.1840_ft.tif",
    "sfomuseum:image_id": 158463,
    "sfomuseum:image_index": 5,
    "sfomuseum:image_type": "studio",
    "sfomuseum:object_id": 181601,
    "sfomuseum:placetype": "image",
    "sfomuseum:primary_image": 1,
    "src:geom": "sfomuseum",
    "wof:belongsto": [
      102527513,
      1159162825,
      102191575,
      85633793,
      102087579,
      85922583,
      1762685125,
      85688637,
      1159160869
    ],
    "wof:country": "US",
    "wof:created": 1641350104,
    "wof:depicts": [
      1159290417,
      102529559,
      1762685125
    ],
    "wof:geomhash": "ed7c2ab3547fc3916b5edc33488deaa7",
    "wof:hierarchy": [
      {
        "building_id": -1,
        "campus_id": 102527513,
        "collection_id": 1159162825,
        "concourse_id": 1159162825,
        "continent_id": 102191575,
        "country_id": 85633793,
        "county_id": 102087579,
        "custom_id": 1762710425,
        "image_id": 1762710425,
        "locality_id": 85922583,
        "neighbourhood_id": -1,
        "object_id": 1762685125,
        "region_id": 85688637,
        "wing_id": 1159160869
      }
    ],
    "wof:id": 1762710425,
    "wof:lastmodified": 1788450616,
    "wof:name": "postcard: Chicago Municipal Airport, Douglas DC-3",
    "wof:parent_id": 1762685125,
    "wof:placetype": "custom",
    "wof:placetype_alt": [
      "image"
    ],
    "wof:repo": "sfomuseum-data-media-collection",
    "wof:superseded_by": [],
    "wof:supersedes": []
  },
  "bbox": [
    -122.386472,
    37.616105,
    -122.385834,
    37.616611
  ],
  "geometry": {"type":"Polygon","coordinates":[[[-122.386472,37.616318],[-122.386435,37.616233],[-122.386376,37.616178],[-122.386301,37.616131],[-122.386161,37.616105],[-122.386022,37.616131],[-122.385914,37.616186],[-122.385855,37.616267],[-122.385834,37.616369],[-122.385871,37.616467],[-122.385941,37.616543],[-122.386054,37.616603],[-122.386183,37.616611],[-122.386306,37.616573],[-122.386419,37.616509],[-122.386467,37.616411],[-122.386472,37.616318]]]}
}
