{
  "id": 1527839219,
  "type": "Feature",
  "properties": {
    "date:cessation_lower": "1982-01-01",
    "date:cessation_upper": "1982-12-31",
    "date:inception_lower": "1982-01-01",
    "date:inception_upper": "1982-12-31",
    "edtf:cessation": "1982",
    "edtf:date": "1982",
    "edtf:inception": "1982",
    "geom:area": 0,
    "geom:bbox": "-122.386155,37.616358,-122.386155,37.616358",
    "geom:latitude": 37.616358,
    "geom:longitude": -122.386155,
    "iso:country": "XX",
    "media:fingerprint": "5567d829e7940960c910839fb6ce3da1fc6f3b7d",
    "media:imagehash_avg": "a:ff0301c3e3f16307",
    "media:imagehash_diff": "d:071f87878f83c79f",
    "media:imagetext": "NEW FRESNO\nSERVICE\nSystem Timetable\nEffective December 15, 1982\nTHE AIRLINE\nTHAT GIVES YOU\nMORE TO FRESNO\nFROM...\nLOS ANGELES\nSANJOSE\nOAKLAND\nSTOCKTON\nPORTLAND\nBOISE\nB292\n\"Fly the Pacific Express Way.\"",
    "media:imagetext_created": 1787950655,
    "media:imagetext_source": "com.apple.visionkit.VNImageRequestHandler#Version 26.6.2 (Build 25G83)",
    "media:medium": "image",
    "media:mimetype": "image/tiff",
    "media:properties": {
      "sizes": {
        "b": {
          "extension": "jpg",
          "height": 768,
          "mimetype": "image/jpeg",
          "secret": "2vac75ZnQmGXzp3KRPiIoKexZMnhKaGC",
          "width": 342
        },
        "c": {
          "extension": "jpg",
          "height": 600,
          "mimetype": "image/jpeg",
          "secret": "2vac75ZnQmGXzp3KRPiIoKexZMnhKaGC",
          "width": 267
        },
        "dc": {
          "extension": "jpg",
          "height": 600,
          "mimetype": "image/jpeg",
          "secret": "2vac75ZnQmGXzp3KRPiIoKexZMnhKaGC",
          "width": 267
        },
        "ds": {
          "extension": "jpg",
          "height": 320,
          "mimetype": "image/jpeg",
          "secret": "2vac75ZnQmGXzp3KRPiIoKexZMnhKaGC",
          "width": 320
        },
        "k": {
          "extension": "jpg",
          "height": 1536,
          "mimetype": "image/jpeg",
          "secret": "2vac75ZnQmGXzp3KRPiIoKexZMnhKaGC",
          "width": 684
        },
        "n": {
          "extension": "jpg",
          "height": 239,
          "mimetype": "image/jpeg",
          "secret": "2vac75ZnQmGXzp3KRPiIoKexZMnhKaGC",
          "width": 106
        },
        "o": {
          "extension": "jpg",
          "height": 2713,
          "mimetype": "image/jpeg",
          "secret": "5q5u9B8uj1oQstDZGQvEj6UKpseUNuVF",
          "width": 1209
        },
        "s": {
          "extension": "jpg",
          "height": 320,
          "mimetype": "image/jpeg",
          "secret": "2vac75ZnQmGXzp3KRPiIoKexZMnhKaGC",
          "width": 320
        },
        "z": {
          "extension": "jpg",
          "height": 479,
          "mimetype": "image/jpeg",
          "secret": "2vac75ZnQmGXzp3KRPiIoKexZMnhKaGC",
          "width": 213
        }
      }
    },
    "media:source": "sfomuseum",
    "media:status_id": 1,
    "media:uri_template": "https://static.sfomuseum.org/media/152/783/921/9/1527839219_{secret}_{label}.{extension}",
    "millsfield:airline_id": [
      1159284965
    ],
    "millsfield:category_id": 1511214223,
    "millsfield:collection_id": 1511214207,
    "millsfield:company_id": [
      1159288849
    ],
    "millsfield:images_colors": [
      {
        "hex": "#ddd8d5",
        "name": "#ddd8d5",
        "reference": "marekm4"
      },
      {
        "hex": "#dcdcdc",
        "name": "gainsboro",
        "reference": "css4"
      },
      {
        "hex": "#dbd7d2",
        "name": "Timberwolf",
        "reference": "crayola"
      },
      {
        "hex": "#202026",
        "name": "#202026",
        "reference": "marekm4"
      },
      {
        "hex": "#000000",
        "name": "black",
        "reference": "css4"
      },
      {
        "hex": "#000000",
        "name": "Black",
        "reference": "crayola"
      },
      {
        "hex": "#d21b0f",
        "name": "#d21b0f",
        "reference": "marekm4"
      },
      {
        "hex": "#b22222",
        "name": "firebrick",
        "reference": "css4"
      },
      {
        "hex": "#ff2b2b",
        "name": "Orange Red",
        "reference": "crayola"
      }
    ],
    "millsfield:images_texts": [
      "NEW FRESNO\nSERVICE\nSystem Timetable\nEffective December 15, 1982\nTHE AIRLINE\nTHAT GIVES YOU\nMORE TO FRESNO\nFROM...\nLOS ANGELES\nSANJOSE\nOAKLAND\nSTOCKTON\nPORTLAND\nBOISE\nB292\n\"Fly the Pacific Express Way.\""
    ],
    "millsfield:images_texts_ids": [
      1527839219
    ],
    "millsfield:similar": {
      "apple/mobileclip_s0": [
        {
          "distance": 0.21647777,
          "id": 1527839097
        },
        {
          "distance": 0.55086553,
          "id": 1527839095
        },
        {
          "distance": 0.5946129,
          "id": 1527839215
        },
        {
          "distance": 0.65884143,
          "id": 1527843145
        },
        {
          "distance": 0.6627787,
          "id": 1729566439
        },
        {
          "distance": 0.6720241,
          "id": 1527839727
        },
        {
          "distance": 0.6802418,
          "id": 1527849689
        },
        {
          "distance": 0.6806957,
          "id": 1527838455
        },
        {
          "distance": 0.6839729,
          "id": 1527839375
        },
        {
          "distance": 0.689693,
          "id": 1527854939
        }
      ],
      "apple/mobileclip_s1": [
        {
          "distance": 0.16177587,
          "id": 1527839097
        },
        {
          "distance": 0.40395582,
          "id": 1527839095
        },
        {
          "distance": 0.41618535,
          "id": 1527839215
        },
        {
          "distance": 0.5006534,
          "id": 1763241409
        },
        {
          "distance": 0.5068492,
          "id": 1763241411
        },
        {
          "distance": 0.51111203,
          "id": 1762699783
        },
        {
          "distance": 0.51220304,
          "id": 1527832273
        },
        {
          "distance": 0.51295865,
          "id": 1527839375
        },
        {
          "distance": 0.51314527,
          "id": 1527847457
        },
        {
          "distance": 0.51500934,
          "id": 1527839395
        }
      ],
      "apple/mobileclip_s2": [
        {
          "distance": 0.14688878,
          "id": 1527839097
        },
        {
          "distance": 0.59732115,
          "id": 1527839095
        },
        {
          "distance": 0.6109996,
          "id": 1527839215
        },
        {
          "distance": 0.66025317,
          "id": 1762699695
        },
        {
          "distance": 0.67884654,
          "id": 1527839585
        },
        {
          "distance": 0.6871312,
          "id": 1762699235
        },
        {
          "distance": 0.6881417,
          "id": 2014895957
        },
        {
          "distance": 0.7014676,
          "id": 1527839851
        },
        {
          "distance": 0.7016032,
          "id": 1527839375
        },
        {
          "distance": 0.706474,
          "id": 1527837533
        }
      ]
    },
    "millsfield:subcategory_id": 1511213425,
    "mz:hierarchy_label": 1,
    "mz:is_current": -1,
    "sfomuseum:filename": "2005.132.039.007.tif",
    "sfomuseum:image_id": 65800,
    "sfomuseum:image_index": 5,
    "sfomuseum:image_type": "studio",
    "sfomuseum:object_id": 97991,
    "sfomuseum:placetype": "image",
    "sfomuseum:primary_image": 1,
    "src:geom": "sfomuseum",
    "wof:belongsto": [
      1511214223,
      1511936809,
      102527513,
      102191575,
      85633793,
      1511213425,
      85922583,
      102087579,
      1511214277,
      1511214203,
      85688637
    ],
    "wof:breaches": [],
    "wof:country": "XX",
    "wof:created": 1578952367,
    "wof:depicts": [
      1159284965,
      1159288849,
      1511936809
    ],
    "wof:geomhash": "bd906905ce4be6c0651c90b0fc24804c",
    "wof:hierarchy": [
      {
        "arcade_id": 1511213425,
        "building_id": 1511214277,
        "campus_id": 102527513,
        "concourse_id": 1511214223,
        "continent_id": 102191575,
        "country_id": 85633793,
        "county_id": 102087579,
        "custom_id": 1527839219,
        "image_id": 1527839219,
        "locality_id": 85922583,
        "media_id": 1527839219,
        "neighbourhood_id": -1,
        "region_id": 85688637,
        "venue_id": 1511936809,
        "wing_id": 1511214203
      }
    ],
    "wof:id": 1527839219,
    "wof:lastmodified": 1788449997,
    "wof:name": "timetable: Pacific Express",
    "wof:parent_id": 1511936809,
    "wof:placetype": "custom",
    "wof:placetype_alt": [
      "image"
    ],
    "wof:repo": "sfomuseum-data-media-collection",
    "wof:superseded_by": [],
    "wof:supersedes": [],
    "wof:tags": []
  },
  "bbox": [
    -122.386155,
    37.616358,
    -122.386155,
    37.616358
  ],
  "geometry": {"type":"Point","coordinates":[-122.386155,37.616358]}
}
