{
  "id": 1527855967,
  "type": "Feature",
  "properties": {
    "date:cessation_lower": "1921-01-01",
    "date:cessation_upper": "1921-12-31",
    "date:inception_lower": "1921-01-01",
    "date:inception_upper": "1921-12-31",
    "edtf:cessation": "1921",
    "edtf:date": "1921",
    "edtf:inception": "1921",
    "geom:area": 0,
    "geom:bbox": "-122.386155,37.616358,-122.386155,37.616358",
    "geom:latitude": 37.616358,
    "geom:longitude": -122.386155,
    "iso:country": "XX",
    "media:fingerprint": "de88bbce37e36834d2ea3100b23038c7e6cba875",
    "media:imagehash_avg": "a:ffe0808181c181ff",
    "media:imagehash_diff": "d:5151017327076141",
    "media:medium": "image",
    "media:mimetype": "image/tiff",
    "media:properties": {
      "sizes": {
        "b": {
          "extension": "jpg",
          "height": 636,
          "mimetype": "image/jpeg",
          "secret": "g5QIRHoa9rT1rWCdCoREMKTptqcM1jv2",
          "width": 1024
        },
        "c": {
          "extension": "jpg",
          "height": 496,
          "mimetype": "image/jpeg",
          "secret": "g5QIRHoa9rT1rWCdCoREMKTptqcM1jv2",
          "width": 800
        },
        "dc": {
          "extension": "jpg",
          "height": 496,
          "mimetype": "image/jpeg",
          "secret": "g5QIRHoa9rT1rWCdCoREMKTptqcM1jv2",
          "width": 800
        },
        "ds": {
          "extension": "jpg",
          "height": 320,
          "mimetype": "image/jpeg",
          "secret": "g5QIRHoa9rT1rWCdCoREMKTptqcM1jv2",
          "width": 320
        },
        "k": {
          "extension": "jpg",
          "height": 1272,
          "mimetype": "image/jpeg",
          "secret": "g5QIRHoa9rT1rWCdCoREMKTptqcM1jv2",
          "width": 2048
        },
        "n": {
          "extension": "jpg",
          "height": 198,
          "mimetype": "image/jpeg",
          "secret": "g5QIRHoa9rT1rWCdCoREMKTptqcM1jv2",
          "width": 320
        },
        "o": {
          "extension": "jpg",
          "height": 2199,
          "mimetype": "image/jpeg",
          "secret": "RjtOXouNEgR3UaUHWTVZEcq6ds4uh3rR",
          "width": 3540
        },
        "s": {
          "extension": "jpg",
          "height": 320,
          "mimetype": "image/jpeg",
          "secret": "g5QIRHoa9rT1rWCdCoREMKTptqcM1jv2",
          "width": 320
        },
        "z": {
          "extension": "jpg",
          "height": 397,
          "mimetype": "image/jpeg",
          "secret": "g5QIRHoa9rT1rWCdCoREMKTptqcM1jv2",
          "width": 640
        }
      }
    },
    "media:source": "sfomuseum",
    "media:status_id": 1,
    "media:uri_template": "https://static.sfomuseum.org/media/152/785/596/7/1527855967_{secret}_{label}.{extension}",
    "millsfield:category_id": 1511214209,
    "millsfield:collection_id": 1511214207,
    "millsfield:images_colors": [
      {
        "hex": "#3f4036",
        "name": "#3f4036",
        "reference": "marekm4"
      },
      {
        "hex": "#2f4f4f",
        "name": "darkslategrey",
        "reference": "css4"
      },
      {
        "hex": "#414a4c",
        "name": "Outer Space",
        "reference": "crayola"
      },
      {
        "hex": "#cbc7b7",
        "name": "#cbc7b7",
        "reference": "marekm4"
      },
      {
        "hex": "#c0c0c0",
        "name": "silver",
        "reference": "css4"
      },
      {
        "hex": "#cdc5c2",
        "name": "Silver",
        "reference": "crayola"
      },
      {
        "hex": "#888778",
        "name": "#888778",
        "reference": "marekm4"
      },
      {
        "hex": "#808080",
        "name": "grey",
        "reference": "css4"
      },
      {
        "hex": "#9f8170",
        "name": "Beaver",
        "reference": "crayola"
      }
    ],
    "millsfield:similar": {
      "apple/mobileclip_s0": [
        {
          "distance": 0.5176565,
          "id": 1527855969
        },
        {
          "distance": 0.5504017,
          "id": 1527855965
        },
        {
          "distance": 0.71751016,
          "id": 1762698241
        },
        {
          "distance": 0.7601786,
          "id": 1762698235
        },
        {
          "distance": 0.76419145,
          "id": 1913727841
        },
        {
          "distance": 0.7664908,
          "id": 1763441903
        },
        {
          "distance": 0.7810496,
          "id": 1763441959
        },
        {
          "distance": 0.7852511,
          "id": 1527822607
        },
        {
          "distance": 0.78660077,
          "id": 1763441899
        },
        {
          "distance": 0.7925203,
          "id": 1763441871
        }
      ],
      "apple/mobileclip_s1": [
        {
          "distance": 0.23920813,
          "id": 1527855969
        },
        {
          "distance": 0.33382428,
          "id": 1527855965
        },
        {
          "distance": 0.39905846,
          "id": 1762698241
        },
        {
          "distance": 0.45869005,
          "id": 1763441951
        },
        {
          "distance": 0.48407495,
          "id": 1762698237
        },
        {
          "distance": 0.49718857,
          "id": 1763441871
        },
        {
          "distance": 0.49839425,
          "id": 1847486161
        },
        {
          "distance": 0.49869218,
          "id": 1763441959
        },
        {
          "distance": 0.49990842,
          "id": 1527856003
        },
        {
          "distance": 0.50520355,
          "id": 1763441899
        }
      ],
      "apple/mobileclip_s2": [
        {
          "distance": 0.30303183,
          "id": 1527855969
        },
        {
          "distance": 0.4579147,
          "id": 1527855965
        },
        {
          "distance": 0.558859,
          "id": 1762698241
        },
        {
          "distance": 0.6117953,
          "id": 1763441959
        },
        {
          "distance": 0.620354,
          "id": 1763441899
        },
        {
          "distance": 0.63030916,
          "id": 1763441951
        },
        {
          "distance": 0.6406871,
          "id": 1762698237
        },
        {
          "distance": 0.6616333,
          "id": 1763441895
        },
        {
          "distance": 0.6616704,
          "id": 1763441949
        },
        {
          "distance": 0.664213,
          "id": 1998528985
        }
      ]
    },
    "millsfield:subcategory_id": 1511213367,
    "mz:hierarchy_label": 1,
    "mz:is_current": -1,
    "sfomuseum:filename": "100530.tif",
    "sfomuseum:image_id": 100530,
    "sfomuseum:image_index": 5,
    "sfomuseum:image_type": "studio",
    "sfomuseum:object_id": 110231,
    "sfomuseum:placetype": "image",
    "sfomuseum:primary_image": 1,
    "src:geom": "sfomuseum",
    "wof:belongsto": [
      102527513,
      1511213367,
      1511214209,
      85633793,
      85688637,
      1511214277,
      102191575,
      1511942815,
      85922583,
      102087579,
      1511214203
    ],
    "wof:breaches": [],
    "wof:country": "XX",
    "wof:created": 1578955062,
    "wof:depicts": [
      1511942815
    ],
    "wof:geomhash": "bd906905ce4be6c0651c90b0fc24804c",
    "wof:hierarchy": [
      {
        "arcade_id": 1511213367,
        "building_id": 1511214277,
        "campus_id": 102527513,
        "concourse_id": 1511214209,
        "continent_id": 102191575,
        "country_id": 85633793,
        "county_id": 102087579,
        "custom_id": 1527855967,
        "image_id": 1527855967,
        "locality_id": 85922583,
        "media_id": 1527855967,
        "neighbourhood_id": -1,
        "region_id": 85688637,
        "venue_id": 1511942815,
        "wing_id": 1511214203
      }
    ],
    "wof:id": 1527855967,
    "wof:lastmodified": 1788450250,
    "wof:name": "photograph: San Francisco Bay Area, aircraft engine",
    "wof:parent_id": 1511942815,
    "wof:placetype": "custom",
    "wof:placetype_alt": [
      "image"
    ],
    "wof:repo": "sfomuseum-data-media-collection",
    "wof:superseded_by": [],
    "wof:supersedes": [],
    "wof:tags": []
  },
  "bbox": [
    -122.386155,
    37.616358,
    -122.386155,
    37.616358
  ],
  "geometry": {"type":"Point","coordinates":[-122.386155,37.616358]}
}
