{
  "id": 1913802001,
  "type": "Feature",
  "properties": {
    "date:cessation_lower": "1936-04-07",
    "date:cessation_upper": "1936-04-07",
    "date:inception_lower": "1936-04-07",
    "date:inception_upper": "1936-04-07",
    "edtf:cessation": "1936-04-07",
    "edtf:inception": "1936-04-07",
    "geom:area": 2.477324999997507e-7,
    "geom:bbox": "-122.386472,37.616105,-122.385834,37.616611",
    "geom:latitude": 37.61635756125121,
    "geom:longitude": -122.38615532866096,
    "media:fingerprint": "6eaa3e9cc97ca27995dfe62daf8d9f9a769cd547",
    "media:imagehash_avg": "a:9d818181818381ff",
    "media:imagehash_diff": "d:696365472b6b6d25",
    "media:imagetext": "trouble at Macao. Other\nthan that thee is nothin\nnew - wise tree you abont\nthe trouble late - must\nconfe In not at all worrie\nas all local officials an\nfor us - the difficult, is hinton.\nMust run to dinner now\nwith the Chuns - Chinast\nChow in the home of Ki\nChins Uncles Concubine.\nAint that sumpin!\nBond': stor, about the\nrecorry of Is water is\na terram. He did nit\npay any reward bent just\ntold hi it was the\nreturn of the watch or the\na friend\" of his\n\"found\" the watch at Schang.\nLots of lor - in hasti\nBix",
    "media:imagetext_created": 1787972721,
    "media:imagetext_source": "com.apple.visionkit.VNImageRequestHandler#Version 26.6.2 (Build 25G83)",
    "media:mimetype": "image/tiff",
    "media:properties": {
      "sizes": {
        "b": {
          "extension": "jpg",
          "height": 768,
          "mimetype": "image/jpeg",
          "secret": "MROfe120AlgExmBTBJHWxG6x4QpXf2zu",
          "width": 475
        },
        "c": {
          "extension": "jpg",
          "height": 600,
          "mimetype": "image/jpeg",
          "secret": "MROfe120AlgExmBTBJHWxG6x4QpXf2zu",
          "width": 371
        },
        "dc": {
          "extension": "jpg",
          "height": 600,
          "mimetype": "image/jpeg",
          "secret": "MROfe120AlgExmBTBJHWxG6x4QpXf2zu",
          "width": 371
        },
        "ds": {
          "extension": "jpg",
          "height": 320,
          "mimetype": "image/jpeg",
          "secret": "MROfe120AlgExmBTBJHWxG6x4QpXf2zu",
          "width": 320
        },
        "k": {
          "extension": "jpg",
          "height": 1536,
          "mimetype": "image/jpeg",
          "secret": "MROfe120AlgExmBTBJHWxG6x4QpXf2zu",
          "width": 950
        },
        "n": {
          "extension": "jpg",
          "height": 240,
          "mimetype": "image/jpeg",
          "secret": "MROfe120AlgExmBTBJHWxG6x4QpXf2zu",
          "width": 148
        },
        "o": {
          "extension": "jpg",
          "height": 2000,
          "mimetype": "image/jpeg",
          "secret": "0hrB08a8L7IKn3fZIOVT5KxYbuNSdOCa",
          "width": 1238
        },
        "s": {
          "extension": "jpg",
          "height": 320,
          "mimetype": "image/jpeg",
          "secret": "MROfe120AlgExmBTBJHWxG6x4QpXf2zu",
          "width": 320
        },
        "z": {
          "extension": "jpg",
          "height": 480,
          "mimetype": "image/jpeg",
          "secret": "MROfe120AlgExmBTBJHWxG6x4QpXf2zu",
          "width": 297
        }
      }
    },
    "media:source": "sfomuseum",
    "media:status_id": 1,
    "media:uri_template": "https://static.sfomuseum.org/media/191/380/200/1/1913802001_{secret}_{label}.{extension}",
    "millsfield:airline_id": [
      1159284991
    ],
    "millsfield:category_id": 1511214251,
    "millsfield:collection_id": 1511214207,
    "millsfield:company_id": [
      1159286839
    ],
    "millsfield:images_colors": [
      {
        "hex": "#e2d3b5",
        "name": "#e2d3b5",
        "reference": "marekm4"
      },
      {
        "hex": "#f5deb3",
        "name": "wheat",
        "reference": "css4"
      },
      {
        "hex": "#efcdb8",
        "name": "Desert Sand",
        "reference": "crayola"
      },
      {
        "hex": "#271e10",
        "name": "#271e10",
        "reference": "marekm4"
      },
      {
        "hex": "#000000",
        "name": "black",
        "reference": "css4"
      },
      {
        "hex": "#000000",
        "name": "Black",
        "reference": "crayola"
      },
      {
        "hex": "#aa966e",
        "name": "#aa966e",
        "reference": "marekm4"
      },
      {
        "hex": "#bdb76b",
        "name": "darkkhaki",
        "reference": "css4"
      },
      {
        "hex": "#9f8170",
        "name": "Beaver",
        "reference": "crayola"
      }
    ],
    "millsfield:images_texts": [
      "HOTEL RIVIERA,\nMACAU.\n• Tuesday Gyrie 7-\nDearest Debs.\nArrurd in kalongkorg\nEarly\nmonday morner, and\nwas met le\nthe Francon was trues\nPort so decided right\nthin that\nI world look\nup the Blossoms sO\nDurnt on board at\nabont 8:30 Gin an e\nkrocked on ms B's door\nShe resporded to mewhat\ndisshevilled bout ale\nExcited when the learned\nwho it was- pulled\nluself togethe put on\nsome cliches and",
      "invited me in, she was\nLaura humer with\nand has Frank Resence\n(formerly with Curtion aero-\nplane Corp and so 3\nmade a date with he\nfor 12:15 at the story kory\nNotre.\nShe asterd many\nquestions abont\n10n 4\nsarmed turbly\nduo-\nappointed that the\nworld it ser gon in\nShanghai.\nShe invited\nme on a piety at\nThunday\nmiget and o hope Die\nbe there to Join them.\nAlso of course saw\nthe Ruamlla Who wre\nafelly mer",
      "Saw Ki Chun in 1.K\nHOTEL RIVIERA,\nand he MACAU.\nis\ncoming our ton ght\nto meet him now\nLatu - ayrie 8t\nEden Tuesday night - haor\nhad a grand day-\nmeeting this morning\nand tarl\nJapterncon\n1 with the gaoner\nquite satisfactory\nThis afternoon eats\ndroos out with\nHi Chun to his old\nhome. Tie mot hair\ntime to deserite it\nnow as must get",
      "off wiis to N.y. and\nmust write nough\nto do justier to that\nvisit. Mrs Chun is\narring tonight and\nDie viet the boat\nlanding to greet her.\nWrd. aprie qt\nsum to spand most\nof my time meeting\nwats. Bond came\ndown from Shanghai\non Tuesday plane\nbut gut one, as far\nas\nSwatow - today\nfu got to 1d.K. and\nI weird him to come",
      "our hear - also wired\nCancelling our trip back\ntomorrow - told mis\nJokes to taks the wick\nand off and asked\nher to make my\nexcuses to Mrs Blossom\nand thee the pilot to\npay he some apreial\nattention.\nnone 9\nmust dash our to\nmeet Bond and har\na long walla walla.\nwith him - good\nnight darling\nbarbs.\nThursday might 4/10\nDros dear baleir it or\nnot I'm having some",
      "trouble at Macao. Other\nthan that thee is nothin\nnew - wise tree you abont\nthe trouble late - must\nconfe In not at all worrie\nas all local officials an\nfor us - the difficult, is hinton.\nMust run to dinner now\nwith the Chuns - Chinast\nChow in the home of Ki\nChins Uncles Concubine.\nAint that sumpin!\nBond': stor, about the\nrecorry of Is water is\na terram. He did nit\npay any reward bent just\ntold hi it was the\nreturn of the watch or the\na friend\" of his\n\"found\" the watch at Schang.\nLots of lor - in hasti\nBix"
    ],
    "millsfield:images_texts_ids": [
      1913801991,
      1913801993,
      1913801995,
      1913801997,
      1913801999,
      1913802001
    ],
    "millsfield:similar": {
      "apple/mobileclip_s0": [
        {
          "distance": 0.22339435,
          "id": 1913801173
        },
        {
          "distance": 0.22351322,
          "id": 1913800429
        },
        {
          "distance": 0.24668074,
          "id": 1913802037
        },
        {
          "distance": 0.25316602,
          "id": 1913801449
        },
        {
          "distance": 0.25357234,
          "id": 1913801253
        },
        {
          "distance": 0.25622112,
          "id": 1913801367
        },
        {
          "distance": 0.2644269,
          "id": 1913801261
        },
        {
          "distance": 0.26729083,
          "id": 1913801485
        },
        {
          "distance": 0.26888812,
          "id": 1913800193
        },
        {
          "distance": 0.27044842,
          "id": 1913800351
        }
      ],
      "apple/mobileclip_s1": [
        {
          "distance": 0.1749085,
          "id": 1913801599
        },
        {
          "distance": 0.17704812,
          "id": 1913802005
        },
        {
          "distance": 0.17785354,
          "id": 1913802361
        },
        {
          "distance": 0.17943382,
          "id": 1913801277
        },
        {
          "distance": 0.17952184,
          "id": 1913801333
        },
        {
          "distance": 0.17975202,
          "id": 1913801253
        },
        {
          "distance": 0.18067278,
          "id": 1913801449
        },
        {
          "distance": 0.18113033,
          "id": 1913801273
        },
        {
          "distance": 0.18282151,
          "id": 1913801809
        },
        {
          "distance": 0.18583506,
          "id": 1913801509
        }
      ],
      "apple/mobileclip_s2": [
        {
          "distance": 0.30228886,
          "id": 1913801453
        },
        {
          "distance": 0.31276977,
          "id": 1913801783
        },
        {
          "distance": 0.3140245,
          "id": 1913801253
        },
        {
          "distance": 0.31662595,
          "id": 1913802239
        },
        {
          "distance": 0.3175464,
          "id": 1913802337
        },
        {
          "distance": 0.3182182,
          "id": 1913801811
        },
        {
          "distance": 0.32057118,
          "id": 1913801827
        },
        {
          "distance": 0.32590377,
          "id": 1913801509
        },
        {
          "distance": 0.32602188,
          "id": 1913800757
        },
        {
          "distance": 0.32684472,
          "id": 1913800433
        }
      ]
    },
    "millsfield:subcategory_id": 1511213489,
    "mz:is_current": 1,
    "sfomuseum:filename": "2019.121.0880f.tif",
    "sfomuseum:image_id": 230938,
    "sfomuseum:image_index": 0,
    "sfomuseum:image_type": "studio",
    "sfomuseum:object_id": 211233,
    "sfomuseum:placetype": "image",
    "sfomuseum:primary_image": 0,
    "src:geom": "sfomuseum",
    "wof:belongsto": [
      102527513,
      1159162825,
      102191575,
      85633793,
      102087579,
      85922583,
      1913796199,
      85688637,
      1159160869
    ],
    "wof:country": "XY",
    "wof:created": 1714551642,
    "wof:depicts": [
      1913796199,
      1159284991,
      1159286839
    ],
    "wof:geomhash": "ed7c2ab3547fc3916b5edc33488deaa7",
    "wof:hierarchy": [
      {
        "building_id": -1,
        "campus_id": 102527513,
        "collection_id": 1159162825,
        "concourse_id": 1159162825,
        "continent_id": 102191575,
        "country_id": 85633793,
        "county_id": 102087579,
        "custom_id": 1913802001,
        "image_id": 1913802001,
        "locality_id": 85922583,
        "neighbourhood_id": -1,
        "object_id": 1913796199,
        "region_id": 85688637,
        "wing_id": 1159160869
      }
    ],
    "wof:id": 1913802001,
    "wof:lastmodified": 1788220444,
    "wof:name": "correspondence: Harold M. Bixby to Debby Bixby",
    "wof:parent_id": 1913796199,
    "wof:placetype": "custom",
    "wof:placetype_alt": [
      "image"
    ],
    "wof:repo": "sfomuseum-data-media-collection",
    "wof:superseded_by": [],
    "wof:supersedes": []
  },
  "bbox": [
    -122.386472,
    37.616105,
    -122.385834,
    37.616611
  ],
  "geometry": {"type":"Polygon","coordinates":[[[-122.386472,37.616318],[-122.386435,37.616233],[-122.386376,37.616178],[-122.386301,37.616131],[-122.386161,37.616105],[-122.386022,37.616131],[-122.385914,37.616186],[-122.385855,37.616267],[-122.385834,37.616369],[-122.385871,37.616467],[-122.385941,37.616543],[-122.386054,37.616603],[-122.386183,37.616611],[-122.386306,37.616573],[-122.386419,37.616509],[-122.386467,37.616411],[-122.386472,37.616318]]]}
}
