{
  "id": 1913801153,
  "type": "Feature",
  "properties": {
    "date:cessation_lower": "1933-10-12",
    "date:cessation_upper": "1933-10-12",
    "date:inception_lower": "1933-10-12",
    "date:inception_upper": "1933-10-12",
    "edtf:cessation": "1933-10-12",
    "edtf:inception": "1933-10-12",
    "geom:area": 2.477324999997507e-7,
    "geom:bbox": "-122.386472,37.616105,-122.385834,37.616611",
    "geom:latitude": 37.61635756125121,
    "geom:longitude": -122.38615532866096,
    "media:fingerprint": "a30ab1f636e403f9b416c83e096f44d8ba775c74",
    "media:imagehash_avg": "a:ff818181818181ff",
    "media:imagehash_diff": "d:533b636b4357772f",
    "media:imagetext": "Drainst Debs.\n10/12\n33\nSigned Contract from the\nM of C has not yet bun\nreceird but or an hogung\nto git it tomarow and\nif so o voice be able to\nlear her\nSaturday a.m.\nEare, on the meccinder, for\nmanila. In the mean time\nam working on contracts\nand making plans to\nstart the line just as\nthough the contract was\nsignetast might 9 wount",
    "media:imagetext_created": 1787972527,
    "media:imagetext_source": "com.apple.visionkit.VNImageRequestHandler#Version 26.6.2 (Build 25G83)",
    "media:mimetype": "image/tiff",
    "media:properties": {
      "sizes": {
        "b": {
          "extension": "jpg",
          "height": 768,
          "mimetype": "image/jpeg",
          "secret": "J94GcYn0N2aTv4QbuEx7RbhD30ZQRH3P",
          "width": 600
        },
        "c": {
          "extension": "jpg",
          "height": 600,
          "mimetype": "image/jpeg",
          "secret": "J94GcYn0N2aTv4QbuEx7RbhD30ZQRH3P",
          "width": 469
        },
        "dc": {
          "extension": "jpg",
          "height": 600,
          "mimetype": "image/jpeg",
          "secret": "J94GcYn0N2aTv4QbuEx7RbhD30ZQRH3P",
          "width": 469
        },
        "ds": {
          "extension": "jpg",
          "height": 320,
          "mimetype": "image/jpeg",
          "secret": "J94GcYn0N2aTv4QbuEx7RbhD30ZQRH3P",
          "width": 320
        },
        "k": {
          "extension": "jpg",
          "height": 1536,
          "mimetype": "image/jpeg",
          "secret": "J94GcYn0N2aTv4QbuEx7RbhD30ZQRH3P",
          "width": 1201
        },
        "n": {
          "extension": "jpg",
          "height": 240,
          "mimetype": "image/jpeg",
          "secret": "J94GcYn0N2aTv4QbuEx7RbhD30ZQRH3P",
          "width": 187
        },
        "o": {
          "extension": "jpg",
          "height": 2000,
          "mimetype": "image/jpeg",
          "secret": "7KasqW9T7nBLNEhGAYGPS9mwFnaTOi2a",
          "width": 1564
        },
        "s": {
          "extension": "jpg",
          "height": 320,
          "mimetype": "image/jpeg",
          "secret": "J94GcYn0N2aTv4QbuEx7RbhD30ZQRH3P",
          "width": 320
        },
        "z": {
          "extension": "jpg",
          "height": 480,
          "mimetype": "image/jpeg",
          "secret": "J94GcYn0N2aTv4QbuEx7RbhD30ZQRH3P",
          "width": 375
        }
      }
    },
    "media:source": "sfomuseum",
    "media:status_id": 1,
    "media:uri_template": "https://static.sfomuseum.org/media/191/380/115/3/1913801153_{secret}_{label}.{extension}",
    "millsfield:airline_id": [
      1159284991,
      1159285931
    ],
    "millsfield:category_id": 1511214251,
    "millsfield:collection_id": 1511214207,
    "millsfield:company_id": [
      1159286721
    ],
    "millsfield:images_colors": [
      {
        "hex": "#e9ddbe",
        "name": "#e9ddbe",
        "reference": "marekm4"
      },
      {
        "hex": "#f5deb3",
        "name": "wheat",
        "reference": "css4"
      },
      {
        "hex": "#eceabe",
        "name": "Spring Green",
        "reference": "crayola"
      },
      {
        "hex": "#413a22",
        "name": "#413a22",
        "reference": "marekm4"
      },
      {
        "hex": "#2f4f4f",
        "name": "darkslategrey",
        "reference": "css4"
      },
      {
        "hex": "#414a4c",
        "name": "Outer Space",
        "reference": "crayola"
      }
    ],
    "millsfield:images_texts": [
      "Drainst Debs.\n10/12\n33\nSigned Contract from the\nM of C has not yet bun\nreceird but or an hogung\nto git it tomarow and\nif so o voice be able to\nlear her\nSaturday a.m.\nEare, on the meccinder, for\nmanila. In the mean time\nam working on contracts\nand making plans to\nstart the line just as\nthough the contract was\nsignetast might 9 wount",
      "to the Sellers wrading\nand had a good time.\nThe groom was a\nnao man and all\nthe naval\nofferis worr\nfull dres.\nOne thing\nhappied colick neare,\nbrokr up the show.\nAn rnormous cock\nroack at least an\ninch a a haef long got\non the under side of\nthe brider\nvie and\nstarted up about the",
      "time the miniats was\ngatting down to that\nfart of the treves\nwher he\nasko if\nangore knows\nany\nlaufal renoon ste.\nWree the whole Chinch\nwao in a stati of\nappeased excitasnt\nao the Cock ronch\nChimbed highn and\nhigher. Finale, he\nmade a dask upwand\nand the andrene\ngangrd while the poor",
      "bride grabhe her neck\nI dont think she got\nthe cock roach but\nur did mit me him\nagain and the carried\non.\nand lot\nLoto\nof lorr-\nBix"
    ],
    "millsfield:images_texts_ids": [
      1913801153,
      1913801155,
      1913801159,
      1913801161
    ],
    "millsfield:similar": {
      "apple/mobileclip_s0": [
        {
          "distance": 0.33800638,
          "id": 1913800179
        },
        {
          "distance": 0.34280422,
          "id": 1913801867
        },
        {
          "distance": 0.3475523,
          "id": 1913800793
        },
        {
          "distance": 0.3481877,
          "id": 1913799817
        },
        {
          "distance": 0.3485716,
          "id": 1913799731
        },
        {
          "distance": 0.34891683,
          "id": 1846809265
        },
        {
          "distance": 0.34957036,
          "id": 1913799365
        },
        {
          "distance": 0.3497345,
          "id": 1913801207
        },
        {
          "distance": 0.34997672,
          "id": 1913802695
        },
        {
          "distance": 0.3541,
          "id": 1913799813
        }
      ],
      "apple/mobileclip_s1": [
        {
          "distance": 0.30031615,
          "id": 1913800595
        },
        {
          "distance": 0.30077237,
          "id": 1913802601
        },
        {
          "distance": 0.30887938,
          "id": 1913800663
        },
        {
          "distance": 0.31157857,
          "id": 1913800533
        },
        {
          "distance": 0.3141256,
          "id": 1913802873
        },
        {
          "distance": 0.31786406,
          "id": 1913802033
        },
        {
          "distance": 0.31988755,
          "id": 1913799813
        },
        {
          "distance": 0.3205985,
          "id": 1913802609
        },
        {
          "distance": 0.32160664,
          "id": 1913800937
        },
        {
          "distance": 0.3225107,
          "id": 1913802529
        }
      ],
      "apple/mobileclip_s2": [
        {
          "distance": 0.4667257,
          "id": 1846809283
        },
        {
          "distance": 0.46919638,
          "id": 1913801951
        },
        {
          "distance": 0.4694144,
          "id": 1913800681
        },
        {
          "distance": 0.4716046,
          "id": 1913802099
        },
        {
          "distance": 0.4803598,
          "id": 1913800727
        },
        {
          "distance": 0.48221585,
          "id": 1913800049
        },
        {
          "distance": 0.48834786,
          "id": 1913801171
        },
        {
          "distance": 0.48967645,
          "id": 1913802257
        },
        {
          "distance": 0.4939802,
          "id": 1913800699
        },
        {
          "distance": 0.49547005,
          "id": 1913800205
        }
      ]
    },
    "millsfield:subcategory_id": 1511213489,
    "mz:is_current": 1,
    "sfomuseum:filename": "2019.121.0746a.tif",
    "sfomuseum:image_id": 225523,
    "sfomuseum:image_index": 5,
    "sfomuseum:image_type": "studio",
    "sfomuseum:object_id": 211094,
    "sfomuseum:placetype": "image",
    "sfomuseum:primary_image": 1,
    "src:geom": "sfomuseum",
    "wof:belongsto": [
      102527513,
      1159162825,
      102191575,
      85633793,
      102087579,
      85922583,
      1913795521,
      85688637,
      1159160869
    ],
    "wof:country": "XY",
    "wof:created": 1714551055,
    "wof:depicts": [
      1159286721,
      1913795521,
      1159284991,
      1159285931
    ],
    "wof:geomhash": "ed7c2ab3547fc3916b5edc33488deaa7",
    "wof:hierarchy": [
      {
        "building_id": -1,
        "campus_id": 102527513,
        "collection_id": 1159162825,
        "concourse_id": 1159162825,
        "continent_id": 102191575,
        "country_id": 85633793,
        "county_id": 102087579,
        "custom_id": 1913801153,
        "image_id": 1913801153,
        "locality_id": 85922583,
        "neighbourhood_id": -1,
        "object_id": 1913795521,
        "region_id": 85688637,
        "wing_id": 1159160869
      }
    ],
    "wof:id": 1913801153,
    "wof:lastmodified": 1788452253,
    "wof:name": "correspondence: Harold M. Bixby to Debby Bixby",
    "wof:parent_id": 1913795521,
    "wof:placetype": "custom",
    "wof:placetype_alt": [
      "image"
    ],
    "wof:repo": "sfomuseum-data-media-collection",
    "wof:superseded_by": [],
    "wof:supersedes": []
  },
  "bbox": [
    -122.386472,
    37.616105,
    -122.385834,
    37.616611
  ],
  "geometry": {"type":"Polygon","coordinates":[[[-122.386472,37.616318],[-122.386435,37.616233],[-122.386376,37.616178],[-122.386301,37.616131],[-122.386161,37.616105],[-122.386022,37.616131],[-122.385914,37.616186],[-122.385855,37.616267],[-122.385834,37.616369],[-122.385871,37.616467],[-122.385941,37.616543],[-122.386054,37.616603],[-122.386183,37.616611],[-122.386306,37.616573],[-122.386419,37.616509],[-122.386467,37.616411],[-122.386472,37.616318]]]}
}
