{
  "id": 1897416715,
  "type": "Feature",
  "properties": {
    "date:cessation_lower": "1980-01-01",
    "date:cessation_upper": "1989-12-31",
    "date:inception_lower": "1980-01-01",
    "date:inception_upper": "1989-12-31",
    "edtf:cessation": "198X",
    "edtf:inception": "198X",
    "geom:area": 2.477324999997507e-7,
    "geom:bbox": "-122.386472,37.616105,-122.385834,37.616611",
    "geom:latitude": 37.61635756125121,
    "geom:longitude": -122.38615532866096,
    "media:fingerprint": "3da6cf1ce40f90b3d55cb83f293024041d5d88fa",
    "media:imagehash_avg": "a:ff81818c818181ff",
    "media:imagehash_diff": "d:434541390b4b6763",
    "media:imagetext": "BRITISH CALEDONIAN\nBritish Caledonian DC10\n635",
    "media:imagetext_created": 1787971053,
    "media:imagetext_source": "com.apple.visionkit.VNImageRequestHandler#Version 26.6.2 (Build 25G83)",
    "media:mimetype": "image/tiff",
    "media:properties": {
      "sizes": {
        "b": {
          "extension": "jpg",
          "height": 727,
          "mimetype": "image/jpeg",
          "secret": "286qFLJXvU6I51jPDb3Kqy3dOlQlVJrD",
          "width": 1024
        },
        "c": {
          "extension": "jpg",
          "height": 568,
          "mimetype": "image/jpeg",
          "secret": "286qFLJXvU6I51jPDb3Kqy3dOlQlVJrD",
          "width": 800
        },
        "dc": {
          "extension": "jpg",
          "height": 568,
          "mimetype": "image/jpeg",
          "secret": "286qFLJXvU6I51jPDb3Kqy3dOlQlVJrD",
          "width": 800
        },
        "ds": {
          "extension": "jpg",
          "height": 320,
          "mimetype": "image/jpeg",
          "secret": "286qFLJXvU6I51jPDb3Kqy3dOlQlVJrD",
          "width": 320
        },
        "k": {
          "extension": "jpg",
          "height": 1455,
          "mimetype": "image/jpeg",
          "secret": "286qFLJXvU6I51jPDb3Kqy3dOlQlVJrD",
          "width": 2048
        },
        "n": {
          "extension": "jpg",
          "height": 227,
          "mimetype": "image/jpeg",
          "secret": "286qFLJXvU6I51jPDb3Kqy3dOlQlVJrD",
          "width": 320
        },
        "o": {
          "extension": "jpg",
          "height": 1293,
          "mimetype": "image/jpeg",
          "secret": "CL9ITKmTsPfdL8bOfa9wkWdxJNJFdEjH",
          "width": 1819
        },
        "s": {
          "extension": "jpg",
          "height": 320,
          "mimetype": "image/jpeg",
          "secret": "286qFLJXvU6I51jPDb3Kqy3dOlQlVJrD",
          "width": 320
        },
        "z": {
          "extension": "jpg",
          "height": 454,
          "mimetype": "image/jpeg",
          "secret": "286qFLJXvU6I51jPDb3Kqy3dOlQlVJrD",
          "width": 640
        }
      }
    },
    "media:source": "sfomuseum",
    "media:status_id": 1,
    "media:uri_template": "https://static.sfomuseum.org/media/189/741/671/5/1897416715_{secret}_{label}.{extension}",
    "millsfield:aircraft_id": [
      1159291259
    ],
    "millsfield:airline_id": [
      1159284023
    ],
    "millsfield:category_id": 1511214215,
    "millsfield:collection_id": 1511214207,
    "millsfield:company_id": [
      1159293561
    ],
    "millsfield:images_colors": [
      {
        "hex": "#aabacc",
        "name": "#aabacc",
        "reference": "marekm4"
      },
      {
        "hex": "#b0c4de",
        "name": "lightsteelblue",
        "reference": "css4"
      },
      {
        "hex": "#b0b7c6",
        "name": "Cadet Blue",
        "reference": "crayola"
      },
      {
        "hex": "#474847",
        "name": "#474847",
        "reference": "marekm4"
      },
      {
        "hex": "#2f4f4f",
        "name": "darkslategrey",
        "reference": "css4"
      },
      {
        "hex": "#414a4c",
        "name": "Outer Space",
        "reference": "crayola"
      },
      {
        "hex": "#799ec2",
        "name": "#799ec2",
        "reference": "marekm4"
      },
      {
        "hex": "#5f9ea0",
        "name": "cadetblue",
        "reference": "css4"
      },
      {
        "hex": "#6699cc",
        "name": "Blue Gray",
        "reference": "crayola"
      }
    ],
    "millsfield:images_texts": [
      "BRITISH CALEDONIAN\nBritish Caledonian DC10\n635"
    ],
    "millsfield:images_texts_ids": [
      1897416715
    ],
    "millsfield:similar": {
      "apple/mobileclip_s0": [
        {
          "distance": 0.4773522,
          "id": 1897416793
        },
        {
          "distance": 0.51477575,
          "id": 1762713687
        },
        {
          "distance": 0.51809907,
          "id": 1897416823
        },
        {
          "distance": 0.5295843,
          "id": 1762702981
        },
        {
          "distance": 0.5347562,
          "id": 1897416771
        },
        {
          "distance": 0.53518283,
          "id": 1762704635
        },
        {
          "distance": 0.53784657,
          "id": 1763442551
        },
        {
          "distance": 0.53910244,
          "id": 1762705555
        },
        {
          "distance": 0.5414311,
          "id": 1762709473
        },
        {
          "distance": 0.54474884,
          "id": 1763442033
        }
      ],
      "apple/mobileclip_s1": [
        {
          "distance": 0.37671098,
          "id": 1897416707
        },
        {
          "distance": 0.40943128,
          "id": 1762705345
        },
        {
          "distance": 0.4141825,
          "id": 1762709075
        },
        {
          "distance": 0.4169604,
          "id": 1762713687
        },
        {
          "distance": 0.41757178,
          "id": 1762707067
        },
        {
          "distance": 0.41888058,
          "id": 1762705121
        },
        {
          "distance": 0.418983,
          "id": 1762706257
        },
        {
          "distance": 0.4193599,
          "id": 1762704577
        },
        {
          "distance": 0.41993114,
          "id": 1897416695
        },
        {
          "distance": 0.42196742,
          "id": 1779436883
        }
      ],
      "apple/mobileclip_s2": [
        {
          "distance": 0.5245515,
          "id": 1897416709
        },
        {
          "distance": 0.5607566,
          "id": 1897416795
        },
        {
          "distance": 0.5608826,
          "id": 1762704437
        },
        {
          "distance": 0.56169885,
          "id": 1913663235
        },
        {
          "distance": 0.5696199,
          "id": 1762704635
        },
        {
          "distance": 0.5713408,
          "id": 1897416825
        },
        {
          "distance": 0.5787377,
          "id": 1897416759
        },
        {
          "distance": 0.580201,
          "id": 1762706167
        },
        {
          "distance": 0.58361524,
          "id": 1762704631
        },
        {
          "distance": 0.5868771,
          "id": 1931109339
        }
      ]
    },
    "millsfield:subcategory_id": 1511213363,
    "mz:is_current": 1,
    "sfomuseum:filename": "2023.009.033.tif",
    "sfomuseum:image_id": 267668,
    "sfomuseum:image_index": 0,
    "sfomuseum:image_type": "studio",
    "sfomuseum:object_id": 234269,
    "sfomuseum:placetype": "image",
    "sfomuseum:primary_image": 1,
    "src:geom": "sfomuseum",
    "wof:belongsto": [
      102527513,
      1159162825,
      102191575,
      85633793,
      102087579,
      85922583,
      1897416465,
      85688637,
      1159160869
    ],
    "wof:country": "XY",
    "wof:created": 1708504537,
    "wof:depicts": [
      1159293561,
      1159286551,
      1897416465,
      1159284023,
      1159291259
    ],
    "wof:geomhash": "ed7c2ab3547fc3916b5edc33488deaa7",
    "wof:hierarchy": [
      {
        "building_id": -1,
        "campus_id": 102527513,
        "collection_id": 1159162825,
        "concourse_id": 1159162825,
        "continent_id": 102191575,
        "country_id": 85633793,
        "county_id": 102087579,
        "custom_id": 1897416715,
        "image_id": 1897416715,
        "locality_id": 85922583,
        "neighbourhood_id": -1,
        "object_id": 1897416465,
        "region_id": 85688637,
        "wing_id": 1159160869
      }
    ],
    "wof:id": 1897416715,
    "wof:lastmodified": 1788452064,
    "wof:name": "postcard: British Caledonian Airways, McDonnell Douglas DC-10",
    "wof:parent_id": 1897416465,
    "wof:placetype": "custom",
    "wof:placetype_alt": [
      "image"
    ],
    "wof:repo": "sfomuseum-data-media-collection",
    "wof:superseded_by": [],
    "wof:supersedes": []
  },
  "bbox": [
    -122.386472,
    37.616105,
    -122.385834,
    37.616611
  ],
  "geometry": {"type":"Polygon","coordinates":[[[-122.386472,37.616318],[-122.386435,37.616233],[-122.386376,37.616178],[-122.386301,37.616131],[-122.386161,37.616105],[-122.386022,37.616131],[-122.385914,37.616186],[-122.385855,37.616267],[-122.385834,37.616369],[-122.385871,37.616467],[-122.385941,37.616543],[-122.386054,37.616603],[-122.386183,37.616611],[-122.386306,37.616573],[-122.386419,37.616509],[-122.386467,37.616411],[-122.386472,37.616318]]]}
}
