{
  "id": 1762712547,
  "type": "Feature",
  "properties": {
    "date:cessation_lower": "1950-01-01",
    "date:cessation_upper": "1959-12-31",
    "date:inception_lower": "1950-01-01",
    "date:inception_upper": "1959-12-31",
    "edtf:cessation": "195X",
    "edtf:inception": "195X",
    "geom:area": 2.477324999997507e-7,
    "geom:bbox": "-122.386472,37.616105,-122.385834,37.616611",
    "geom:latitude": 37.61635756125121,
    "geom:longitude": -122.38615532866096,
    "iso:country": "US",
    "media:fingerprint": "c26c5ed77d12b42bc11fddcedde24ebb39f121e5",
    "media:imagehash_avg": "a:8e0423ffffffe7ff",
    "media:imagehash_diff": "d:3c3c6acaacac4c49",
    "media:imagetext": "SEATTLE-TACOMA INTERNATIONAL AIRPORT\nWashington\nThe largest and busiest airport in the Great Pacific\nNorthwest is also the terminus for Alaska and the\nOrient with scores of flights daily. Regular schedules\ncommence from here to the Orient and Europe. The\nterminal provides a complete and unique shopping\narea for visitors and tourists.\nP6227\nPub. by Smith's Scenic Views, Tacoma, Washington\n•Plastichrome by COLOURPICTURE PUBLISHERS, INC., Boston 15, Mass., U.S.A.\nColor by Kyle Smith\nPUT\nSTAMP\nHERE\nPost Card\n2015.166.2307",
    "media:imagetext_created": 1787957953,
    "media:imagetext_source": "com.apple.visionkit.VNImageRequestHandler#Version 26.6.2 (Build 25G83)",
    "media:mimetype": "image/tiff",
    "media:properties": {
      "sizes": {
        "b": {
          "extension": "jpg",
          "height": 657,
          "mimetype": "image/jpeg",
          "secret": "sZGgF162TeWSFNlvGylUnN3Mj9xAwf17",
          "width": 1023
        },
        "c": {
          "extension": "jpg",
          "height": 514,
          "mimetype": "image/jpeg",
          "secret": "sZGgF162TeWSFNlvGylUnN3Mj9xAwf17",
          "width": 800
        },
        "dc": {
          "extension": "jpg",
          "height": 514,
          "mimetype": "image/jpeg",
          "secret": "sZGgF162TeWSFNlvGylUnN3Mj9xAwf17",
          "width": 800
        },
        "ds": {
          "extension": "jpg",
          "height": 320,
          "mimetype": "image/jpeg",
          "secret": "sZGgF162TeWSFNlvGylUnN3Mj9xAwf17",
          "width": 320
        },
        "k": {
          "extension": "jpg",
          "height": 1315,
          "mimetype": "image/jpeg",
          "secret": "sZGgF162TeWSFNlvGylUnN3Mj9xAwf17",
          "width": 2047
        },
        "n": {
          "extension": "jpg",
          "height": 205,
          "mimetype": "image/jpeg",
          "secret": "sZGgF162TeWSFNlvGylUnN3Mj9xAwf17",
          "width": 320
        },
        "o": {
          "extension": "jpg",
          "height": 1084,
          "mimetype": "image/jpeg",
          "secret": "dHB3C3cAlry6fxFtu30qlbVUBUnkLfQN",
          "width": 1687
        },
        "s": {
          "extension": "jpg",
          "height": 320,
          "mimetype": "image/jpeg",
          "secret": "sZGgF162TeWSFNlvGylUnN3Mj9xAwf17",
          "width": 320
        },
        "z": {
          "extension": "jpg",
          "height": 411,
          "mimetype": "image/jpeg",
          "secret": "sZGgF162TeWSFNlvGylUnN3Mj9xAwf17",
          "width": 640
        }
      }
    },
    "media:source": "sfomuseum",
    "media:status_id": 1,
    "media:uri_template": "https://static.sfomuseum.org/media/176/271/254/7/1762712547_{secret}_{label}.{extension}",
    "millsfield:airport_id": [
      102533269
    ],
    "millsfield:category_id": 1511214215,
    "millsfield:collection_id": 1511214207,
    "millsfield:images_colors": [
      {
        "hex": "#e9e0d0",
        "name": "#e9e0d0",
        "reference": "marekm4"
      },
      {
        "hex": "#dcdcdc",
        "name": "gainsboro",
        "reference": "css4"
      },
      {
        "hex": "#efdecd",
        "name": "Almond",
        "reference": "crayola"
      },
      {
        "hex": "#4e493e",
        "name": "#4e493e",
        "reference": "marekm4"
      },
      {
        "hex": "#2f4f4f",
        "name": "darkslategrey",
        "reference": "css4"
      },
      {
        "hex": "#414a4c",
        "name": "Outer Space",
        "reference": "crayola"
      }
    ],
    "millsfield:images_texts": [
      "SEATTLE-TACOMA INTERNATIONAL AIRPORT\nWashington\nThe largest and busiest airport in the Great Pacific\nNorthwest is also the terminus for Alaska and the\nOrient with scores of flights daily. Regular schedules\ncommence from here to the Orient and Europe. The\nterminal provides a complete and unique shopping\narea for visitors and tourists.\nP6227\nPub. by Smith's Scenic Views, Tacoma, Washington\n•Plastichrome by COLOURPICTURE PUBLISHERS, INC., Boston 15, Mass., U.S.A.\nColor by Kyle Smith\nPUT\nSTAMP\nHERE\nPost Card\n2015.166.2307"
    ],
    "millsfield:images_texts_ids": [
      1762712547
    ],
    "millsfield:similar": {
      "apple/mobileclip_s0": [
        {
          "distance": 0.35095105,
          "id": 1762711097
        },
        {
          "distance": 0.3689151,
          "id": 1762711399
        },
        {
          "distance": 0.4116759,
          "id": 1762710495
        },
        {
          "distance": 0.42600915,
          "id": 1762712845
        },
        {
          "distance": 0.4302091,
          "id": 1762711777
        },
        {
          "distance": 0.43066487,
          "id": 1762710747
        },
        {
          "distance": 0.43165484,
          "id": 1762710235
        },
        {
          "distance": 0.43975028,
          "id": 1762711813
        },
        {
          "distance": 0.44412622,
          "id": 1762712133
        },
        {
          "distance": 0.4485169,
          "id": 1762710473
        }
      ],
      "apple/mobileclip_s1": [
        {
          "distance": 0.27188516,
          "id": 1762711399
        },
        {
          "distance": 0.29204157,
          "id": 1762711097
        },
        {
          "distance": 0.29273453,
          "id": 1762711813
        },
        {
          "distance": 0.29335982,
          "id": 1762710999
        },
        {
          "distance": 0.30151895,
          "id": 1762710495
        },
        {
          "distance": 0.30661842,
          "id": 1762711391
        },
        {
          "distance": 0.3206116,
          "id": 1762711025
        },
        {
          "distance": 0.3209106,
          "id": 1762711431
        },
        {
          "distance": 0.32214135,
          "id": 1762711791
        },
        {
          "distance": 0.32499814,
          "id": 1762710231
        }
      ],
      "apple/mobileclip_s2": [
        {
          "distance": 0.3907424,
          "id": 1762711399
        },
        {
          "distance": 0.39440238,
          "id": 1762711097
        },
        {
          "distance": 0.41426268,
          "id": 1762711391
        },
        {
          "distance": 0.4282771,
          "id": 1762710747
        },
        {
          "distance": 0.42888826,
          "id": 1762711813
        },
        {
          "distance": 0.43137345,
          "id": 1762711103
        },
        {
          "distance": 0.43378007,
          "id": 1762711769
        },
        {
          "distance": 0.4344473,
          "id": 1762710999
        },
        {
          "distance": 0.45095354,
          "id": 1762713053
        },
        {
          "distance": 0.4608769,
          "id": 1762711777
        }
      ]
    },
    "millsfield:subcategory_id": 1511213363,
    "mz:is_current": 1,
    "sfomuseum:filename": "2015.166.2307_bk.tif",
    "sfomuseum:image_id": 159408,
    "sfomuseum:image_index": 5,
    "sfomuseum:image_type": "studio",
    "sfomuseum:object_id": 182068,
    "sfomuseum:placetype": "image",
    "sfomuseum:primary_image": 0,
    "src:geom": "sfomuseum",
    "wof:belongsto": [
      102527513,
      1159162825,
      102191575,
      85633793,
      102087579,
      85922583,
      1762696263,
      85688637,
      1159160869
    ],
    "wof:country": "US",
    "wof:created": 1641350832,
    "wof:depicts": [
      1762696263,
      102533269
    ],
    "wof:geomhash": "ed7c2ab3547fc3916b5edc33488deaa7",
    "wof:hierarchy": [
      {
        "building_id": -1,
        "campus_id": 102527513,
        "collection_id": 1159162825,
        "concourse_id": 1159162825,
        "continent_id": 102191575,
        "country_id": 85633793,
        "county_id": 102087579,
        "custom_id": 1762712547,
        "image_id": 1762712547,
        "locality_id": 85922583,
        "neighbourhood_id": -1,
        "object_id": 1762696263,
        "region_id": 85688637,
        "wing_id": 1159160869
      }
    ],
    "wof:id": 1762712547,
    "wof:lastmodified": 1788450651,
    "wof:name": "postcard: Seattle - Tacoma International Airport",
    "wof:parent_id": 1762696263,
    "wof:placetype": "custom",
    "wof:placetype_alt": [
      "image"
    ],
    "wof:repo": "sfomuseum-data-media-collection",
    "wof:superseded_by": [],
    "wof:supersedes": []
  },
  "bbox": [
    -122.386472,
    37.616105,
    -122.385834,
    37.616611
  ],
  "geometry": {"type":"Polygon","coordinates":[[[-122.386472,37.616318],[-122.386435,37.616233],[-122.386376,37.616178],[-122.386301,37.616131],[-122.386161,37.616105],[-122.386022,37.616131],[-122.385914,37.616186],[-122.385855,37.616267],[-122.385834,37.616369],[-122.385871,37.616467],[-122.385941,37.616543],[-122.386054,37.616603],[-122.386183,37.616611],[-122.386306,37.616573],[-122.386419,37.616509],[-122.386467,37.616411],[-122.386472,37.616318]]]}
}
