{
  "id": 1779489635,
  "type": "Feature",
  "properties": {
    "date:cessation_lower": "1980-04-01",
    "date:cessation_upper": "1980-04-30",
    "date:inception_lower": "1980-01-01",
    "date:inception_upper": "1980-01-31",
    "edtf:cessation": "1980-04",
    "edtf:inception": "1980-01",
    "geom:area": 2.477324999997507e-7,
    "geom:bbox": "-122.386472,37.616105,-122.385834,37.616611",
    "geom:latitude": 37.61635756125121,
    "geom:longitude": -122.38615532866096,
    "media:fingerprint": "2d8def564eb4a473b1ebdc31426b389dd3d509d2",
    "media:imagehash_avg": "a:ffffffe0000000ff",
    "media:imagehash_diff": "d:4f6c080cc860684c",
    "media:imagetext": "Pan Am's\nFrance",
    "media:imagetext_created": 1787964283,
    "media:imagetext_source": "com.apple.visionkit.VNImageRequestHandler#Version 26.6.2 (Build 25G83)",
    "media:mimetype": "image/tiff",
    "media:properties": {
      "sizes": {
        "b": {
          "extension": "jpg",
          "height": 768,
          "mimetype": "image/jpeg",
          "secret": "qQJ67DSM592J6DXLFopNFtgNIwdem0xW",
          "width": 517
        },
        "c": {
          "extension": "jpg",
          "height": 600,
          "mimetype": "image/jpeg",
          "secret": "qQJ67DSM592J6DXLFopNFtgNIwdem0xW",
          "width": 404
        },
        "dc": {
          "extension": "jpg",
          "height": 600,
          "mimetype": "image/jpeg",
          "secret": "qQJ67DSM592J6DXLFopNFtgNIwdem0xW",
          "width": 404
        },
        "ds": {
          "extension": "jpg",
          "height": 320,
          "mimetype": "image/jpeg",
          "secret": "qQJ67DSM592J6DXLFopNFtgNIwdem0xW",
          "width": 320
        },
        "k": {
          "extension": "jpg",
          "height": 1536,
          "mimetype": "image/jpeg",
          "secret": "qQJ67DSM592J6DXLFopNFtgNIwdem0xW",
          "width": 1035
        },
        "n": {
          "extension": "jpg",
          "height": 240,
          "mimetype": "image/jpeg",
          "secret": "qQJ67DSM592J6DXLFopNFtgNIwdem0xW",
          "width": 161
        },
        "o": {
          "extension": "jpg",
          "height": 2300,
          "mimetype": "image/jpeg",
          "secret": "oCO6mScSjuH4FoFOG7GJMWNOgScnlC8L",
          "width": 1550
        },
        "s": {
          "extension": "jpg",
          "height": 320,
          "mimetype": "image/jpeg",
          "secret": "qQJ67DSM592J6DXLFopNFtgNIwdem0xW",
          "width": 320
        },
        "z": {
          "extension": "jpg",
          "height": 480,
          "mimetype": "image/jpeg",
          "secret": "qQJ67DSM592J6DXLFopNFtgNIwdem0xW",
          "width": 323
        }
      }
    },
    "media:source": "sfomuseum",
    "media:status_id": 1,
    "media:uri_template": "https://static.sfomuseum.org/media/177/948/963/5/1779489635_{secret}_{label}.{extension}",
    "millsfield:airline_id": [
      1159284989
    ],
    "millsfield:category_id": 1763416373,
    "millsfield:collection_id": 1511214203,
    "millsfield:company_id": [
      1159286839
    ],
    "millsfield:images_colors": [
      {
        "hex": "#b5c0d1",
        "name": "#b5c0d1",
        "reference": "marekm4"
      },
      {
        "hex": "#b0c4de",
        "name": "lightsteelblue",
        "reference": "css4"
      },
      {
        "hex": "#b0b7c6",
        "name": "Cadet Blue",
        "reference": "crayola"
      },
      {
        "hex": "#39383d",
        "name": "#39383d",
        "reference": "marekm4"
      },
      {
        "hex": "#2f4f4f",
        "name": "darkslategrey",
        "reference": "css4"
      },
      {
        "hex": "#414a4c",
        "name": "Outer Space",
        "reference": "crayola"
      },
      {
        "hex": "#788cac",
        "name": "#788cac",
        "reference": "marekm4"
      },
      {
        "hex": "#778899",
        "name": "lightslategrey",
        "reference": "css4"
      },
      {
        "hex": "#979aaa",
        "name": "Manatee",
        "reference": "crayola"
      },
      {
        "hex": "#67738e",
        "name": "#67738e",
        "reference": "marekm4"
      },
      {
        "hex": "#708090",
        "name": "slategrey",
        "reference": "css4"
      },
      {
        "hex": "#757575",
        "name": "Sonic Silver",
        "reference": "crayola"
      }
    ],
    "millsfield:images_texts": [
      "Pan Am's\nFrance"
    ],
    "millsfield:images_texts_ids": [
      1779489635
    ],
    "millsfield:similar": {
      "apple/mobileclip_s0": [
        {
          "distance": 0.22317433,
          "id": 1779490093
        },
        {
          "distance": 0.4543191,
          "id": 1779697047
        },
        {
          "distance": 0.68604374,
          "id": 1527843095
        },
        {
          "distance": 0.70914763,
          "id": 1762714771
        },
        {
          "distance": 0.73577875,
          "id": 1527841789
        },
        {
          "distance": 0.7430814,
          "id": 1527841745
        },
        {
          "distance": 0.7436281,
          "id": 1762702215
        },
        {
          "distance": 0.74384063,
          "id": 1527841757
        },
        {
          "distance": 0.7440914,
          "id": 1527842145
        },
        {
          "distance": 0.74814916,
          "id": 1527842231
        }
      ],
      "apple/mobileclip_s1": [
        {
          "distance": 0.14094126,
          "id": 1779490093
        },
        {
          "distance": 0.3417294,
          "id": 1779697047
        },
        {
          "distance": 0.3487576,
          "id": 1729565789
        },
        {
          "distance": 0.35769403,
          "id": 1762709735
        },
        {
          "distance": 0.42532665,
          "id": 1527843095
        },
        {
          "distance": 0.464407,
          "id": 1527819619
        },
        {
          "distance": 0.46601033,
          "id": 1762702215
        },
        {
          "distance": 0.46631995,
          "id": 1527855203
        },
        {
          "distance": 0.47046492,
          "id": 1762702149
        },
        {
          "distance": 0.4826809,
          "id": 1527842231
        }
      ],
      "apple/mobileclip_s2": [
        {
          "distance": 0.17542653,
          "id": 1779490093
        },
        {
          "distance": 0.40055886,
          "id": 1779697047
        },
        {
          "distance": 0.45904312,
          "id": 1729565789
        },
        {
          "distance": 0.48905987,
          "id": 1762709735
        },
        {
          "distance": 0.56831414,
          "id": 1762702215
        },
        {
          "distance": 0.5883909,
          "id": 1527843095
        },
        {
          "distance": 0.61265624,
          "id": 1762702149
        },
        {
          "distance": 0.62656623,
          "id": 1527819619
        },
        {
          "distance": 0.64332134,
          "id": 1527855203
        },
        {
          "distance": 0.66303885,
          "id": 1527818709
        }
      ]
    },
    "millsfield:subcategory_id": 1511213365,
    "mz:is_current": 1,
    "sfomuseum:filename": "106414.tif",
    "sfomuseum:image_id": 106414,
    "sfomuseum:image_index": 5,
    "sfomuseum:image_type": "studio",
    "sfomuseum:object_id": 51327,
    "sfomuseum:placetype": "image",
    "sfomuseum:primary_image": 1,
    "src:geom": "sfomuseum",
    "wof:belongsto": [
      102527513,
      1159162825,
      102191575,
      85633793,
      102087579,
      85922583,
      1779488971,
      85688637,
      1159160869
    ],
    "wof:country": "XY",
    "wof:created": 1652947004,
    "wof:depicts": [
      1159286839,
      1779488971,
      1159284989
    ],
    "wof:geomhash": "ed7c2ab3547fc3916b5edc33488deaa7",
    "wof:hierarchy": [
      {
        "building_id": -1,
        "campus_id": 102527513,
        "collection_id": 1159162825,
        "concourse_id": 1159162825,
        "continent_id": 102191575,
        "country_id": 85633793,
        "county_id": 102087579,
        "custom_id": 1779489635,
        "image_id": 1779489635,
        "locality_id": 85922583,
        "neighbourhood_id": -1,
        "object_id": 1779488971,
        "region_id": 85688637,
        "wing_id": 1159160869
      }
    ],
    "wof:id": 1779489635,
    "wof:lastmodified": 1788451300,
    "wof:name": "poster: Pan American World Airways, France",
    "wof:parent_id": 1779488971,
    "wof:placetype": "custom",
    "wof:placetype_alt": [
      "image"
    ],
    "wof:repo": "sfomuseum-data-media-collection",
    "wof:superseded_by": [],
    "wof:supersedes": []
  },
  "bbox": [
    -122.386472,
    37.616105,
    -122.385834,
    37.616611
  ],
  "geometry": {"type":"Polygon","coordinates":[[[-122.386472,37.616318],[-122.386435,37.616233],[-122.386376,37.616178],[-122.386301,37.616131],[-122.386161,37.616105],[-122.386022,37.616131],[-122.385914,37.616186],[-122.385855,37.616267],[-122.385834,37.616369],[-122.385871,37.616467],[-122.385941,37.616543],[-122.386054,37.616603],[-122.386183,37.616611],[-122.386306,37.616573],[-122.386419,37.616509],[-122.386467,37.616411],[-122.386472,37.616318]]]}
}
