{
  "id": 1763156531,
  "type": "Feature",
  "properties": {
    "date:cessation_lower": "2010-01-01",
    "date:cessation_upper": "2010-12-31",
    "date:inception_lower": "2010-01-01",
    "date:inception_upper": "2010-12-31",
    "edtf:cessation": "2010",
    "edtf:inception": "2010",
    "geom:area": 2.477324999997507e-7,
    "geom:bbox": "-122.386472,37.616105,-122.385834,37.616611",
    "geom:latitude": 37.61635756125121,
    "geom:longitude": -122.38615532866096,
    "media:fingerprint": "930d66153f509f70d6f4b16ad6309747ee2f00c5",
    "media:imagehash_avg": "a:000000ffe7c3e7ff",
    "media:imagehash_diff": "d:070731f00f0f0f8c",
    "media:mimetype": "image/jpeg",
    "media:properties": {
      "sizes": {
        "b": {
          "extension": "jpg",
          "height": 767,
          "mimetype": "image/jpeg",
          "secret": "bpNr9nH6Rp9ZM62CfDZ69aKaVEkqOcjX",
          "width": 1024
        },
        "c": {
          "extension": "jpg",
          "height": 599,
          "mimetype": "image/jpeg",
          "secret": "bpNr9nH6Rp9ZM62CfDZ69aKaVEkqOcjX",
          "width": 800
        },
        "dc": {
          "extension": "jpg",
          "height": 599,
          "mimetype": "image/jpeg",
          "secret": "bpNr9nH6Rp9ZM62CfDZ69aKaVEkqOcjX",
          "width": 800
        },
        "ds": {
          "extension": "jpg",
          "height": 320,
          "mimetype": "image/jpeg",
          "secret": "bpNr9nH6Rp9ZM62CfDZ69aKaVEkqOcjX",
          "width": 320
        },
        "k": {
          "extension": "jpg",
          "height": 1535,
          "mimetype": "image/jpeg",
          "secret": "bpNr9nH6Rp9ZM62CfDZ69aKaVEkqOcjX",
          "width": 2048
        },
        "n": {
          "extension": "jpg",
          "height": 239,
          "mimetype": "image/jpeg",
          "secret": "bpNr9nH6Rp9ZM62CfDZ69aKaVEkqOcjX",
          "width": 320
        },
        "o": {
          "extension": "jpg",
          "height": 1780,
          "mimetype": "image/jpeg",
          "secret": "KdRdvXomHZ6DVXoVzIov7EKAswfnIsuJ",
          "width": 2374
        },
        "s": {
          "extension": "jpg",
          "height": 320,
          "mimetype": "image/jpeg",
          "secret": "bpNr9nH6Rp9ZM62CfDZ69aKaVEkqOcjX",
          "width": 320
        },
        "z": {
          "extension": "jpg",
          "height": 479,
          "mimetype": "image/jpeg",
          "secret": "bpNr9nH6Rp9ZM62CfDZ69aKaVEkqOcjX",
          "width": 640
        }
      }
    },
    "media:source": "sfomuseum",
    "media:status_id": 1,
    "media:uri_template": "https://static.sfomuseum.org/media/176/315/653/1/1763156531_{secret}_{label}.{extension}",
    "millsfield:airline_id": [
      1159285413
    ],
    "millsfield:category_id": 1746152533,
    "millsfield:collection_id": 1511214203,
    "millsfield:company_id": [
      1159288779
    ],
    "millsfield:images_colors": [
      {
        "hex": "#a1a19e",
        "name": "#a1a19e",
        "reference": "marekm4"
      },
      {
        "hex": "#a9a9a9",
        "name": "darkgrey",
        "reference": "css4"
      },
      {
        "hex": "#979aaa",
        "name": "Manatee",
        "reference": "crayola"
      },
      {
        "hex": "#5d5b5a",
        "name": "#5d5b5a",
        "reference": "marekm4"
      },
      {
        "hex": "#696969",
        "name": "dimgrey",
        "reference": "css4"
      },
      {
        "hex": "#6e5160",
        "name": "Eggplant",
        "reference": "crayola"
      }
    ],
    "millsfield:similar": {
      "apple/mobileclip_s0": [
        {
          "distance": 0.12536024,
          "id": 1763156527
        },
        {
          "distance": 0.33639842,
          "id": 1763156481
        },
        {
          "distance": 0.39291975,
          "id": 1763156525
        },
        {
          "distance": 0.43906644,
          "id": 1746682753
        },
        {
          "distance": 0.45710632,
          "id": 1746682897
        },
        {
          "distance": 0.46329615,
          "id": 1763156451
        },
        {
          "distance": 0.46854338,
          "id": 1863470635
        },
        {
          "distance": 0.4694504,
          "id": 1763110697
        },
        {
          "distance": 0.47196338,
          "id": 1746682845
        },
        {
          "distance": 0.47248763,
          "id": 1780270131
        }
      ],
      "apple/mobileclip_s1": [
        {
          "distance": 0.07613642,
          "id": 1763156527
        },
        {
          "distance": 0.19860147,
          "id": 1763156481
        },
        {
          "distance": 0.28695777,
          "id": 1746682753
        },
        {
          "distance": 0.31148806,
          "id": 1746682897
        },
        {
          "distance": 0.31187797,
          "id": 1746682867
        },
        {
          "distance": 0.3154414,
          "id": 1763156525
        },
        {
          "distance": 0.31622976,
          "id": 1763156451
        },
        {
          "distance": 0.3188305,
          "id": 1931123243
        },
        {
          "distance": 0.31963933,
          "id": 1746682871
        },
        {
          "distance": 0.32049668,
          "id": 1746682755
        }
      ],
      "apple/mobileclip_s2": [
        {
          "distance": 0.092333,
          "id": 1763156527
        },
        {
          "distance": 0.25436524,
          "id": 1763156481
        },
        {
          "distance": 0.41638747,
          "id": 1763156435
        },
        {
          "distance": 0.4176156,
          "id": 1746682987
        },
        {
          "distance": 0.42507395,
          "id": 1746682897
        },
        {
          "distance": 0.4261769,
          "id": 1746682867
        },
        {
          "distance": 0.4279491,
          "id": 1746682871
        },
        {
          "distance": 0.43540514,
          "id": 1763156525
        },
        {
          "distance": 0.4488462,
          "id": 1746682753
        },
        {
          "distance": 0.46174812,
          "id": 1931123243
        }
      ]
    },
    "millsfield:subcategory_id": 1746152535,
    "mz:is_current": 1,
    "sfomuseum:filename": "IMG_1875.jpg",
    "sfomuseum:image_id": 229905,
    "sfomuseum:image_index": 0,
    "sfomuseum:image_type": "curator",
    "sfomuseum:object_id": 220498,
    "sfomuseum:placetype": "image",
    "sfomuseum:primary_image": 1,
    "src:geom": "sfomuseum",
    "wof:belongsto": [
      102527513,
      1159162825,
      102191575,
      85633793,
      102087579,
      85922583,
      1763156337,
      85688637,
      1159160869
    ],
    "wof:country": "XY",
    "wof:created": 1645864847,
    "wof:depicts": [
      1159285413,
      1159288779,
      1763156337
    ],
    "wof:geomhash": "ed7c2ab3547fc3916b5edc33488deaa7",
    "wof:hierarchy": [
      {
        "building_id": -1,
        "campus_id": 102527513,
        "collection_id": 1159162825,
        "concourse_id": 1159162825,
        "continent_id": 102191575,
        "country_id": 85633793,
        "county_id": 102087579,
        "custom_id": 1763156531,
        "image_id": 1763156531,
        "locality_id": 85922583,
        "neighbourhood_id": -1,
        "object_id": 1763156337,
        "region_id": 85688637,
        "wing_id": 1159160869
      }
    ],
    "wof:id": 1763156531,
    "wof:lastmodified": 1788450964,
    "wof:name": "teacup: United Airlines",
    "wof:parent_id": 1763156337,
    "wof:placetype": "custom",
    "wof:placetype_alt": [
      "image"
    ],
    "wof:repo": "sfomuseum-data-media-collection",
    "wof:superseded_by": [],
    "wof:supersedes": []
  },
  "bbox": [
    -122.386472,
    37.616105,
    -122.385834,
    37.616611
  ],
  "geometry": {"type":"Polygon","coordinates":[[[-122.386472,37.616318],[-122.386435,37.616233],[-122.386376,37.616178],[-122.386301,37.616131],[-122.386161,37.616105],[-122.386022,37.616131],[-122.385914,37.616186],[-122.385855,37.616267],[-122.385834,37.616369],[-122.385871,37.616467],[-122.385941,37.616543],[-122.386054,37.616603],[-122.386183,37.616611],[-122.386306,37.616573],[-122.386419,37.616509],[-122.386467,37.616411],[-122.386472,37.616318]]]}
}
