{
  "id": 1931096591,
  "type": "Feature",
  "properties": {
    "date:cessation_lower": "1979-01-01",
    "date:cessation_upper": "1979-12-31",
    "date:inception_lower": "1979-01-01",
    "date:inception_upper": "1979-12-31",
    "edtf:cessation": "1979",
    "edtf:inception": "1979",
    "geom:area": 2.477324999997507e-7,
    "geom:bbox": "-122.386472,37.616105,-122.385834,37.616611",
    "geom:latitude": 37.61635756125121,
    "geom:longitude": -122.38615532866096,
    "media:fingerprint": "1d250c4b61173c76026a132d08cc2bea9b845438",
    "media:imagehash_avg": "a:8b08102fff869ff0",
    "media:imagehash_diff": "d:327b63554d343a62",
    "media:imagetext": "2\nDON'T USE RADIOS OR\nSEE-THRU LIGHTERS\n3\n1\n2\n5\n2007.011.074",
    "media:imagetext_created": 1787974478,
    "media:imagetext_source": "com.apple.visionkit.VNImageRequestHandler#Version 26.6.2 (Build 25G83)",
    "media:mimetype": "image/tiff",
    "media:properties": {
      "sizes": {
        "b": {
          "extension": "jpg",
          "height": 768,
          "mimetype": "image/jpeg",
          "secret": "H2WNEjomx41PtlnFXz8RSIupK7d6p2tP",
          "width": 689
        },
        "c": {
          "extension": "jpg",
          "height": 600,
          "mimetype": "image/jpeg",
          "secret": "H2WNEjomx41PtlnFXz8RSIupK7d6p2tP",
          "width": 538
        },
        "dc": {
          "extension": "jpg",
          "height": 600,
          "mimetype": "image/jpeg",
          "secret": "H2WNEjomx41PtlnFXz8RSIupK7d6p2tP",
          "width": 538
        },
        "ds": {
          "extension": "jpg",
          "height": 320,
          "mimetype": "image/jpeg",
          "secret": "H2WNEjomx41PtlnFXz8RSIupK7d6p2tP",
          "width": 320
        },
        "k": {
          "extension": "jpg",
          "height": 1536,
          "mimetype": "image/jpeg",
          "secret": "H2WNEjomx41PtlnFXz8RSIupK7d6p2tP",
          "width": 1378
        },
        "n": {
          "extension": "jpg",
          "height": 240,
          "mimetype": "image/jpeg",
          "secret": "H2WNEjomx41PtlnFXz8RSIupK7d6p2tP",
          "width": 215
        },
        "o": {
          "extension": "jpg",
          "height": 1800,
          "mimetype": "image/jpeg",
          "secret": "0tqd2nuJnDuavPQhOi56tDtUJ71ChgXG",
          "width": 1616
        },
        "s": {
          "extension": "jpg",
          "height": 320,
          "mimetype": "image/jpeg",
          "secret": "H2WNEjomx41PtlnFXz8RSIupK7d6p2tP",
          "width": 320
        },
        "z": {
          "extension": "jpg",
          "height": 480,
          "mimetype": "image/jpeg",
          "secret": "H2WNEjomx41PtlnFXz8RSIupK7d6p2tP",
          "width": 430
        }
      }
    },
    "media:source": "sfomuseum",
    "media:status_id": 1,
    "media:uri_template": "https://static.sfomuseum.org/media/193/109/659/1/1931096591_{secret}_{label}.{extention}",
    "millsfield:aircraft_id": [
      1159290211
    ],
    "millsfield:airline_id": [
      1159285067
    ],
    "millsfield:category_id": 1762671311,
    "millsfield:collection_id": 1511214207,
    "millsfield:company_id": [
      1159293605
    ],
    "millsfield:images_colors": [
      {
        "hex": "#33181e",
        "name": "#33181e",
        "reference": "marekm4"
      },
      {
        "hex": "#000000",
        "name": "black",
        "reference": "css4"
      },
      {
        "hex": "#000000",
        "name": "Black",
        "reference": "crayola"
      },
      {
        "hex": "#9aa6bb",
        "name": "#9aa6bb",
        "reference": "marekm4"
      },
      {
        "hex": "#a9a9a9",
        "name": "darkgrey",
        "reference": "css4"
      },
      {
        "hex": "#979aaa",
        "name": "Manatee",
        "reference": "crayola"
      },
      {
        "hex": "#ae5010",
        "name": "#ae5010",
        "reference": "marekm4"
      },
      {
        "hex": "#a0522d",
        "name": "sienna",
        "reference": "css4"
      },
      {
        "hex": "#c46210",
        "name": "Alloy Orange",
        "reference": "crayola"
      },
      {
        "hex": "#cf9021",
        "name": "#cf9021",
        "reference": "marekm4"
      },
      {
        "hex": "#daa520",
        "name": "goldenrod",
        "reference": "css4"
      },
      {
        "hex": "#7995bd",
        "name": "#7995bd",
        "reference": "marekm4"
      },
      {
        "hex": "#778899",
        "name": "lightslategrey",
        "reference": "css4"
      },
      {
        "hex": "#6699cc",
        "name": "Blue Gray",
        "reference": "crayola"
      }
    ],
    "millsfield:images_texts": [
      "Just in case:..\nREPUBLIC AIRLINES\nConvair 580\nFOR YOUR SAFETY, know the quickest way to get out of this plane.\nDo you know:\nWhere your exits are?\nHow to open the exits?\nHow to jump into the escape slide?\nFOR THE SAFETY OF OTHERS PLEASE DO NOT REMOVE CARD FROM AIRPLANE.\n0-0410-3-0416 (Rev. 11/81)\nCopyright Interaction Research Corp., 1976 \u0026 1979. All Rights Reserved."
    ],
    "millsfield:images_texts_ids": [
      1931109473
    ],
    "millsfield:similar": {
      "apple/mobileclip_s0": [
        {
          "distance": 0.19400273,
          "id": 1914579901
        },
        {
          "distance": 0.20323685,
          "id": 1914579907
        },
        {
          "distance": 0.4057363,
          "id": 1527850131
        },
        {
          "distance": 0.415391,
          "id": 1762894511
        },
        {
          "distance": 0.42749643,
          "id": 1930979405
        },
        {
          "distance": 0.42796138,
          "id": 1930979777
        },
        {
          "distance": 0.4416546,
          "id": 1762894537
        },
        {
          "distance": 0.44425923,
          "id": 1914556265
        },
        {
          "distance": 0.45024392,
          "id": 1913872093
        },
        {
          "distance": 0.45218647,
          "id": 1914622703
        }
      ],
      "apple/mobileclip_s1": [
        {
          "distance": 0.15616845,
          "id": 1914579907
        },
        {
          "distance": 0.15886003,
          "id": 1914579901
        },
        {
          "distance": 0.27446505,
          "id": 1914556265
        },
        {
          "distance": 0.2756379,
          "id": 1930979777
        },
        {
          "distance": 0.28375196,
          "id": 1762894511
        },
        {
          "distance": 0.2934716,
          "id": 1527850131
        },
        {
          "distance": 0.3052205,
          "id": 1930979435
        },
        {
          "distance": 0.30743697,
          "id": 1914579977
        },
        {
          "distance": 0.31165758,
          "id": 1914556271
        },
        {
          "distance": 0.3179018,
          "id": 1914622703
        }
      ],
      "apple/mobileclip_s2": [
        {
          "distance": 0.14897801,
          "id": 1914579901
        },
        {
          "distance": 0.1723702,
          "id": 1914579907
        },
        {
          "distance": 0.37587276,
          "id": 1914580039
        },
        {
          "distance": 0.38173652,
          "id": 1930979777
        },
        {
          "distance": 0.38531423,
          "id": 1527850131
        },
        {
          "distance": 0.40249634,
          "id": 1914556265
        },
        {
          "distance": 0.40621114,
          "id": 1762894841
        },
        {
          "distance": 0.4065395,
          "id": 1762894511
        },
        {
          "distance": 0.41430226,
          "id": 1913928423
        },
        {
          "distance": 0.41436797,
          "id": 1762894691
        }
      ]
    },
    "millsfield:subcategory_id": 1511213703,
    "mz:is_current": 1,
    "sfomuseum:filename": "77810.tif",
    "sfomuseum:image_id": 77810,
    "sfomuseum:image_index": 5,
    "sfomuseum:image_type": "studio",
    "sfomuseum:object_id": 82525,
    "sfomuseum:placetype": "image",
    "sfomuseum:primary_image": 0,
    "src:geom": "sfomuseum",
    "wof:belongsto": [
      102527513,
      1159162825,
      102191575,
      85633793,
      102087579,
      85922583,
      1931095497,
      85688637,
      1159160869
    ],
    "wof:country": "XY",
    "wof:created": 1727164208,
    "wof:depicts": [
      1159290211,
      1159293605,
      1931095497,
      1159285067
    ],
    "wof:geomhash": "ed7c2ab3547fc3916b5edc33488deaa7",
    "wof:hierarchy": [
      {
        "building_id": -1,
        "campus_id": 102527513,
        "collection_id": 1159162825,
        "concourse_id": 1159162825,
        "continent_id": 102191575,
        "country_id": 85633793,
        "county_id": 102087579,
        "custom_id": 1931096591,
        "locality_id": 85922583,
        "neighbourhood_id": -1,
        "object_id": 1931095497,
        "region_id": 85688637,
        "wing_id": 1159160869
      }
    ],
    "wof:id": 1931096591,
    "wof:lastmodified": 1788452474,
    "wof:name": "safety information card: Republic Airlines, Convair 580",
    "wof:parent_id": 1931095497,
    "wof:placetype": "custom",
    "wof:repo": "sfomuseum-data-media-collection",
    "wof:superseded_by": [],
    "wof:supersedes": []
  },
  "bbox": [
    -122.386472,
    37.616105,
    -122.385834,
    37.616611
  ],
  "geometry": {"type":"Polygon","coordinates":[[[-122.386472,37.616318],[-122.386435,37.616233],[-122.386376,37.616178],[-122.386301,37.616131],[-122.386161,37.616105],[-122.386022,37.616131],[-122.385914,37.616186],[-122.385855,37.616267],[-122.385834,37.616369],[-122.385871,37.616467],[-122.385941,37.616543],[-122.386054,37.616603],[-122.386183,37.616611],[-122.386306,37.616573],[-122.386419,37.616509],[-122.386467,37.616411],[-122.386472,37.616318]]]}
}
