{
  "id": 1527826589,
  "type": "Feature",
  "properties": {
    "date:cessation_lower": "1968-01-01",
    "date:cessation_upper": "1968-12-31",
    "date:inception_lower": "1968-01-01",
    "date:inception_upper": "1968-12-31",
    "edtf:cessation": "1968",
    "edtf:date": "1968",
    "edtf:inception": "1968",
    "geom:area": 0,
    "geom:bbox": "-122.386155,37.616358,-122.386155,37.616358",
    "geom:latitude": 37.616358,
    "geom:longitude": -122.386155,
    "iso:country": "US",
    "media:fingerprint": "3cae82de074e96c0d10902f2d014744e325af1be",
    "media:imagehash_avg": "a:ffff016300fcdff0",
    "media:imagehash_diff": "d:c4efafc707c51003",
    "media:medium": "image",
    "media:mimetype": "image/tiff",
    "media:properties": {
      "sizes": {
        "b": {
          "extension": "jpg",
          "height": 768,
          "mimetype": "image/jpeg",
          "secret": "ULtDnHc1fahxe6YOw3eEbfOK7pkvRvsD",
          "width": 773
        },
        "c": {
          "extension": "jpg",
          "height": 600,
          "mimetype": "image/jpeg",
          "secret": "ULtDnHc1fahxe6YOw3eEbfOK7pkvRvsD",
          "width": 604
        },
        "dc": {
          "extension": "jpg",
          "height": 600,
          "mimetype": "image/jpeg",
          "secret": "ULtDnHc1fahxe6YOw3eEbfOK7pkvRvsD",
          "width": 604
        },
        "ds": {
          "extension": "jpg",
          "height": 320,
          "mimetype": "image/jpeg",
          "secret": "ULtDnHc1fahxe6YOw3eEbfOK7pkvRvsD",
          "width": 320
        },
        "k": {
          "extension": "jpg",
          "height": 1536,
          "mimetype": "image/jpeg",
          "secret": "ULtDnHc1fahxe6YOw3eEbfOK7pkvRvsD",
          "width": 1547
        },
        "n": {
          "extension": "jpg",
          "height": 239,
          "mimetype": "image/jpeg",
          "secret": "ULtDnHc1fahxe6YOw3eEbfOK7pkvRvsD",
          "width": 241
        },
        "o": {
          "extension": "jpg",
          "height": 1703,
          "mimetype": "image/jpeg",
          "secret": "qoAb8JwoifODq0d03iqM7xgSPMFpOGdA",
          "width": 1716
        },
        "s": {
          "extension": "jpg",
          "height": 320,
          "mimetype": "image/jpeg",
          "secret": "ULtDnHc1fahxe6YOw3eEbfOK7pkvRvsD",
          "width": 320
        },
        "z": {
          "extension": "jpg",
          "height": 479,
          "mimetype": "image/jpeg",
          "secret": "ULtDnHc1fahxe6YOw3eEbfOK7pkvRvsD",
          "width": 483
        }
      }
    },
    "media:source": "sfomuseum",
    "media:status_id": 1,
    "media:uri_template": "https://static.sfomuseum.org/media/152/782/658/9/1527826589_{secret}_{label}.{extension}",
    "millsfield:airline_id": [
      1159284973
    ],
    "millsfield:airport_id": [
      102527513
    ],
    "millsfield:category_id": 1511214209,
    "millsfield:collection_id": 1511214207,
    "millsfield:company_id": [
      1159286629
    ],
    "millsfield:images_colors": [
      {
        "hex": "#a1a1a1",
        "name": "#a1a1a1",
        "reference": "marekm4"
      },
      {
        "hex": "#a9a9a9",
        "name": "darkgrey",
        "reference": "css4"
      },
      {
        "hex": "#979aaa",
        "name": "Manatee",
        "reference": "crayola"
      },
      {
        "hex": "#505050",
        "name": "#505050",
        "reference": "marekm4"
      },
      {
        "hex": "#2f4f4f",
        "name": "darkslategrey",
        "reference": "css4"
      },
      {
        "hex": "#414a4c",
        "name": "Outer Space",
        "reference": "crayola"
      }
    ],
    "millsfield:similar": {
      "apple/mobileclip_s0": [
        {
          "distance": 0.3536363,
          "id": 1527826379
        },
        {
          "distance": 0.5134457,
          "id": 1527826439
        },
        {
          "distance": 0.5190829,
          "id": 1527828497
        },
        {
          "distance": 0.52284455,
          "id": 1527826565
        },
        {
          "distance": 0.526102,
          "id": 1527825833
        },
        {
          "distance": 0.5450876,
          "id": 1527825829
        },
        {
          "distance": 0.5500528,
          "id": 1527826713
        },
        {
          "distance": 0.5526356,
          "id": 1763441545
        },
        {
          "distance": 0.5553804,
          "id": 1527826595
        },
        {
          "distance": 0.55895466,
          "id": 1527828495
        }
      ],
      "apple/mobileclip_s1": [
        {
          "distance": 0.21786669,
          "id": 1527826379
        },
        {
          "distance": 0.30668455,
          "id": 1527826565
        },
        {
          "distance": 0.34666687,
          "id": 1527825833
        },
        {
          "distance": 0.3569755,
          "id": 1527825829
        },
        {
          "distance": 0.35787535,
          "id": 1527826531
        },
        {
          "distance": 0.36044696,
          "id": 1527828497
        },
        {
          "distance": 0.36283976,
          "id": 1527826507
        },
        {
          "distance": 0.36760113,
          "id": 1527826529
        },
        {
          "distance": 0.36797696,
          "id": 1527826439
        },
        {
          "distance": 0.37123755,
          "id": 1527826515
        }
      ],
      "apple/mobileclip_s2": [
        {
          "distance": 0.19604585,
          "id": 1527826379
        },
        {
          "distance": 0.4103877,
          "id": 1527828497
        },
        {
          "distance": 0.44438446,
          "id": 1527826565
        },
        {
          "distance": 0.44607437,
          "id": 1527826439
        },
        {
          "distance": 0.48878714,
          "id": 1527824643
        },
        {
          "distance": 0.48911303,
          "id": 1763441575
        },
        {
          "distance": 0.48978177,
          "id": 1527825833
        },
        {
          "distance": 0.49632278,
          "id": 1527826511
        },
        {
          "distance": 0.49712572,
          "id": 1527826713
        },
        {
          "distance": 0.50279546,
          "id": 1527824641
        }
      ]
    },
    "millsfield:subcategory_id": 1511213367,
    "mz:hierarchy_label": 1,
    "mz:is_current": -1,
    "sfomuseum:filename": "43708.tif",
    "sfomuseum:image_id": 43708,
    "sfomuseum:image_index": 5,
    "sfomuseum:image_type": "studio",
    "sfomuseum:object_id": 116451,
    "sfomuseum:placetype": "image",
    "sfomuseum:primary_image": 1,
    "src:geom": "sfomuseum",
    "wof:belongsto": [
      1511214209,
      1511947627,
      102527513,
      102191575,
      85633793,
      1511213367,
      85922583,
      102087579,
      1511214277,
      1511214203,
      85688637
    ],
    "wof:breaches": [],
    "wof:country": "US",
    "wof:created": 1578950391,
    "wof:depicts": [
      1159284973,
      102527513,
      1159286629,
      1511947627
    ],
    "wof:geomhash": "bd906905ce4be6c0651c90b0fc24804c",
    "wof:hierarchy": [
      {
        "arcade_id": 1511213367,
        "building_id": 1511214277,
        "campus_id": 102527513,
        "concourse_id": 1511214209,
        "continent_id": 102191575,
        "country_id": 85633793,
        "county_id": 102087579,
        "custom_id": 1527826589,
        "image_id": 1527826589,
        "locality_id": 85922583,
        "media_id": 1527826589,
        "neighbourhood_id": -1,
        "region_id": 85688637,
        "venue_id": 1511947627,
        "wing_id": 1511214203
      }
    ],
    "wof:id": 1527826589,
    "wof:lastmodified": 1788449820,
    "wof:name": "photograph: San Francisco International Airport (SFO), construction of Pacific Southwest Airlines (PSA) pier and jetway",
    "wof:parent_id": 1511947627,
    "wof:placetype": "custom",
    "wof:placetype_alt": [
      "image"
    ],
    "wof:repo": "sfomuseum-data-media-collection",
    "wof:superseded_by": [],
    "wof:supersedes": [],
    "wof:tags": []
  },
  "bbox": [
    -122.386155,
    37.616358,
    -122.386155,
    37.616358
  ],
  "geometry": {"type":"Point","coordinates":[-122.386155,37.616358]}
}
