{
  "id": 1779937763,
  "type": "Feature",
  "properties": {
    "date:cessation_lower": "1990-01-01",
    "date:cessation_upper": "1999-12-31",
    "date:inception_lower": "1990-01-01",
    "date:inception_upper": "1999-12-31",
    "edtf:cessation": "199X",
    "edtf:inception": "199X",
    "geom:area": 2.477324999997507e-7,
    "geom:bbox": "-122.386472,37.616105,-122.385834,37.616611",
    "geom:latitude": 37.61635756125121,
    "geom:longitude": -122.38615532866096,
    "media:fingerprint": "d3ee848d87db119f65d90145d0f536b02b18651e",
    "media:imagehash_avg": "a:fffffc7860000000",
    "media:imagehash_diff": "d:72f0e1e3cc983870",
    "media:imagetext": "CONTINENTAL TO FLORIDA",
    "media:imagetext_created": 1787965312,
    "media:imagetext_source": "com.apple.visionkit.VNImageRequestHandler#Version 26.6.2 (Build 25G83)",
    "media:mimetype": "image/tiff",
    "media:properties": {
      "sizes": {
        "b": {
          "extension": "jpg",
          "height": 767,
          "mimetype": "image/jpeg",
          "secret": "1KiyIUbCnep0pb3NVt3PDVFvEir8S42W",
          "width": 965
        },
        "c": {
          "extension": "jpg",
          "height": 600,
          "mimetype": "image/jpeg",
          "secret": "1KiyIUbCnep0pb3NVt3PDVFvEir8S42W",
          "width": 754
        },
        "dc": {
          "extension": "jpg",
          "height": 600,
          "mimetype": "image/jpeg",
          "secret": "1KiyIUbCnep0pb3NVt3PDVFvEir8S42W",
          "width": 754
        },
        "ds": {
          "extension": "jpg",
          "height": 320,
          "mimetype": "image/jpeg",
          "secret": "1KiyIUbCnep0pb3NVt3PDVFvEir8S42W",
          "width": 320
        },
        "k": {
          "extension": "jpg",
          "height": 1535,
          "mimetype": "image/jpeg",
          "secret": "1KiyIUbCnep0pb3NVt3PDVFvEir8S42W",
          "width": 1930
        },
        "n": {
          "extension": "jpg",
          "height": 240,
          "mimetype": "image/jpeg",
          "secret": "1KiyIUbCnep0pb3NVt3PDVFvEir8S42W",
          "width": 301
        },
        "o": {
          "extension": "jpg",
          "height": 1261,
          "mimetype": "image/jpeg",
          "secret": "3PCbuWBabjJaLjmdseigrPtjcikEVnwm",
          "width": 1585
        },
        "s": {
          "extension": "jpg",
          "height": 320,
          "mimetype": "image/jpeg",
          "secret": "1KiyIUbCnep0pb3NVt3PDVFvEir8S42W",
          "width": 320
        },
        "z": {
          "extension": "jpg",
          "height": 480,
          "mimetype": "image/jpeg",
          "secret": "1KiyIUbCnep0pb3NVt3PDVFvEir8S42W",
          "width": 603
        }
      }
    },
    "media:source": "sfomuseum",
    "media:status_id": 1,
    "media:uri_template": "https://static.sfomuseum.org/media/177/993/776/3/1779937763_{secret}_{label}.{extension}",
    "millsfield:airline_id": [
      1159284201
    ],
    "millsfield:category_id": 1746152533,
    "millsfield:collection_id": 1511214203,
    "millsfield:company_id": [
      1360700741
    ],
    "millsfield:images_colors": [
      {
        "hex": "#a8a9a4",
        "name": "#a8a9a4",
        "reference": "marekm4"
      },
      {
        "hex": "#a9a9a9",
        "name": "darkgrey",
        "reference": "css4"
      },
      {
        "hex": "#979aaa",
        "name": "Manatee",
        "reference": "crayola"
      }
    ],
    "millsfield:images_texts": [
      "CONTINENTAL TO FLORIDA"
    ],
    "millsfield:images_texts_ids": [
      1779937763
    ],
    "millsfield:similar": {
      "apple/mobileclip_s0": [
        {
          "distance": 0.24118015,
          "id": 1779937739
        },
        {
          "distance": 0.2430954,
          "id": 1779937755
        },
        {
          "distance": 0.25769606,
          "id": 1796506549
        },
        {
          "distance": 0.27921996,
          "id": 1779937737
        },
        {
          "distance": 0.2889332,
          "id": 1779937765
        },
        {
          "distance": 0.2909719,
          "id": 1796506553
        },
        {
          "distance": 0.2932148,
          "id": 1779937759
        },
        {
          "distance": 0.29588196,
          "id": 1779937757
        },
        {
          "distance": 0.29660013,
          "id": 1779937761
        },
        {
          "distance": 0.30207065,
          "id": 1779937745
        }
      ],
      "apple/mobileclip_s1": [
        {
          "distance": 0.16435318,
          "id": 1779937757
        },
        {
          "distance": 0.17744336,
          "id": 1796506549
        },
        {
          "distance": 0.18266816,
          "id": 1779937735
        },
        {
          "distance": 0.19172941,
          "id": 1779937739
        },
        {
          "distance": 0.20406617,
          "id": 1779937773
        },
        {
          "distance": 0.20967244,
          "id": 1796506553
        },
        {
          "distance": 0.22882967,
          "id": 1779937765
        },
        {
          "distance": 0.23956172,
          "id": 1779937733
        },
        {
          "distance": 0.24187595,
          "id": 1779937761
        },
        {
          "distance": 0.24660143,
          "id": 1779937771
        }
      ],
      "apple/mobileclip_s2": [
        {
          "distance": 0.22184172,
          "id": 1796506549
        },
        {
          "distance": 0.24660473,
          "id": 1779937735
        },
        {
          "distance": 0.24692442,
          "id": 1796506553
        },
        {
          "distance": 0.26173222,
          "id": 1779937757
        },
        {
          "distance": 0.2730487,
          "id": 1779937739
        },
        {
          "distance": 0.30460426,
          "id": 1779937765
        },
        {
          "distance": 0.31795788,
          "id": 1779937755
        },
        {
          "distance": 0.32027036,
          "id": 1779937753
        },
        {
          "distance": 0.3265494,
          "id": 1779937733
        },
        {
          "distance": 0.32918537,
          "id": 1779937761
        }
      ]
    },
    "millsfield:subcategory_id": 1511213837,
    "mz:is_current": 1,
    "sfomuseum:filename": "2001.116.166.tif",
    "sfomuseum:image_id": 198123,
    "sfomuseum:image_index": 1,
    "sfomuseum:image_type": "studio",
    "sfomuseum:object_id": 79205,
    "sfomuseum:placetype": "image",
    "sfomuseum:primary_image": 1,
    "src:geom": "sfomuseum",
    "wof:belongsto": [
      102527513,
      1159162825,
      102191575,
      85633793,
      102087579,
      85922583,
      1779937049,
      85688637,
      1159160869
    ],
    "wof:country": "XY",
    "wof:created": 1658476329,
    "wof:depicts": [
      1159284201,
      1360700741,
      1779937049
    ],
    "wof:geomhash": "ed7c2ab3547fc3916b5edc33488deaa7",
    "wof:hierarchy": [
      {
        "building_id": -1,
        "campus_id": 102527513,
        "collection_id": 1159162825,
        "concourse_id": 1159162825,
        "continent_id": 102191575,
        "country_id": 85633793,
        "county_id": 102087579,
        "custom_id": 1779937763,
        "image_id": 1779937763,
        "locality_id": 85922583,
        "neighbourhood_id": -1,
        "object_id": 1779937049,
        "region_id": 85688637,
        "wing_id": 1159160869
      }
    ],
    "wof:id": 1779937763,
    "wof:lastmodified": 1788451400,
    "wof:name": "cocktail pick: Continental Airlines, Florida",
    "wof:parent_id": 1779937049,
    "wof:placetype": "custom",
    "wof:placetype_alt": [
      "image"
    ],
    "wof:repo": "sfomuseum-data-media-collection",
    "wof:superseded_by": [],
    "wof:supersedes": []
  },
  "bbox": [
    -122.386472,
    37.616105,
    -122.385834,
    37.616611
  ],
  "geometry": {"type":"Polygon","coordinates":[[[-122.386472,37.616318],[-122.386435,37.616233],[-122.386376,37.616178],[-122.386301,37.616131],[-122.386161,37.616105],[-122.386022,37.616131],[-122.385914,37.616186],[-122.385855,37.616267],[-122.385834,37.616369],[-122.385871,37.616467],[-122.385941,37.616543],[-122.386054,37.616603],[-122.386183,37.616611],[-122.386306,37.616573],[-122.386419,37.616509],[-122.386467,37.616411],[-122.386472,37.616318]]]}
}
