{
  "id": 1998537089,
  "type": "Feature",
  "properties": {
    "date:cessation_lower": "1950-04-01",
    "date:cessation_upper": "1950-04-30",
    "date:inception_lower": "1950-01-01",
    "date:inception_upper": "1950-01-31",
    "edtf:cessation": "1950-04",
    "edtf:inception": "1950-01",
    "geom:area": 2.475047457570636e-7,
    "geom:bbox": "-122.386472,37.616105,-122.385834,37.616611",
    "geom:latitude": 37.61635747477365,
    "geom:longitude": -122.38615540108617,
    "media:fingerprint": "f81d592b5df8b6a95ef71283ca5be28edc82d9e2",
    "media:imagehash_avg": "a:9190f0ff05c0f8ff",
    "media:imagehash_diff": "d:2121211d75010105",
    "media:imagetext": "NI036 V",
    "media:imagetext_created": 1787975345,
    "media:imagetext_source": "com.apple.visionkit.VNImageRequestHandler#Version 26.6.2 (Build 25G83)",
    "media:mimetype": "image/tiff",
    "media:properties": {
      "colours": null,
      "sizes": {
        "b": {
          "extension": "jpg",
          "height": 768,
          "mimetype": "image/jpeg",
          "secret": "Am3tR1RhoH75SmZSBw2kjPfcp7wmMPIN",
          "width": 628
        },
        "c": {
          "extension": "jpg",
          "height": 600,
          "mimetype": "image/jpeg",
          "secret": "Am3tR1RhoH75SmZSBw2kjPfcp7wmMPIN",
          "width": 490
        },
        "dc": {
          "extension": "jpg",
          "height": 320,
          "mimetype": "image/jpeg",
          "secret": "Am3tR1RhoH75SmZSBw2kjPfcp7wmMPIN",
          "width": 320
        },
        "ds": {
          "extension": "jpg",
          "height": 320,
          "mimetype": "image/jpeg",
          "secret": "Am3tR1RhoH75SmZSBw2kjPfcp7wmMPIN",
          "width": 320
        },
        "k": {
          "extension": "jpg",
          "height": 1536,
          "mimetype": "image/jpeg",
          "secret": "Am3tR1RhoH75SmZSBw2kjPfcp7wmMPIN",
          "width": 1256
        },
        "n": {
          "extension": "jpg",
          "height": 240,
          "mimetype": "image/jpeg",
          "secret": "Am3tR1RhoH75SmZSBw2kjPfcp7wmMPIN",
          "width": 196
        },
        "o": {
          "extension": "jpg",
          "height": 2000,
          "mimetype": "image/jpeg",
          "secret": "1Q4xZg3f0sOwmcG2eWcqLOojaOKBoTYb",
          "width": 1636
        },
        "s": {
          "extension": "jpg",
          "height": 320,
          "mimetype": "image/jpeg",
          "secret": "Am3tR1RhoH75SmZSBw2kjPfcp7wmMPIN",
          "width": 320
        },
        "z": {
          "extension": "jpg",
          "height": 480,
          "mimetype": "image/jpeg",
          "secret": "Am3tR1RhoH75SmZSBw2kjPfcp7wmMPIN",
          "width": 392
        }
      }
    },
    "media:source": "sfomuseum",
    "media:status_id": 1,
    "media:uri_template": "https://static.sfomuseum.org/media/199/853/708/9/1998537089_{secret}_{label}.{extention}",
    "millsfield:aircraft_id": [
      1159289651
    ],
    "millsfield:airline_id": [
      1159284989
    ],
    "millsfield:category_id": 1511214209,
    "millsfield:collection_id": 1511214207,
    "millsfield:company_id": [
      1159293593
    ],
    "millsfield:images_colors": [
      {
        "hex": "#c9c6c1",
        "name": "#c9c6c1",
        "reference": "marekm4"
      },
      {
        "hex": "#c0c0c0",
        "name": "silver",
        "reference": "css4"
      },
      {
        "hex": "#cdc5c2",
        "name": "Silver",
        "reference": "crayola"
      },
      {
        "hex": "#373637",
        "name": "#373637",
        "reference": "marekm4"
      },
      {
        "hex": "#2f4f4f",
        "name": "darkslategrey",
        "reference": "css4"
      },
      {
        "hex": "#414a4c",
        "name": "Outer Space",
        "reference": "crayola"
      },
      {
        "hex": "#201f22",
        "name": "#201f22",
        "reference": "marekm4"
      },
      {
        "hex": "#000000",
        "name": "black",
        "reference": "css4"
      },
      {
        "hex": "#000000",
        "name": "Black",
        "reference": "crayola"
      },
      {
        "hex": "#cccaca",
        "name": "#cccaca",
        "reference": "marekm4"
      },
      {
        "hex": "#d3d3d3",
        "name": "lightgrey",
        "reference": "css4"
      }
    ],
    "millsfield:images_texts": [
      "NI036 V"
    ],
    "millsfield:images_texts_ids": [
      1998537089
    ],
    "millsfield:similar": {
      "apple/mobileclip_s0": [
        {
          "distance": 0.44962776,
          "id": 1998537097
        },
        {
          "distance": 0.5068625,
          "id": 1998537077
        },
        {
          "distance": 0.51753014,
          "id": 1998537091
        },
        {
          "distance": 0.5278274,
          "id": 1998537061
        },
        {
          "distance": 0.5447756,
          "id": 1998537083
        },
        {
          "distance": 0.574835,
          "id": 1998537085
        },
        {
          "distance": 0.6017536,
          "id": 2014998041
        },
        {
          "distance": 0.6061901,
          "id": 2014998063
        },
        {
          "distance": 0.6098804,
          "id": 1527839101
        },
        {
          "distance": 0.61875606,
          "id": 1863469607
        }
      ],
      "apple/mobileclip_s1": [
        {
          "distance": 0.33683982,
          "id": 1998537097
        },
        {
          "distance": 0.3706775,
          "id": 1998537091
        },
        {
          "distance": 0.37267503,
          "id": 1998537077
        },
        {
          "distance": 0.38123366,
          "id": 2014998063
        },
        {
          "distance": 0.38316816,
          "id": 1998537061
        },
        {
          "distance": 0.4037872,
          "id": 1762706681
        },
        {
          "distance": 0.40722892,
          "id": 2014998041
        },
        {
          "distance": 0.41465694,
          "id": 1998537083
        },
        {
          "distance": 0.44252172,
          "id": 1998537085
        },
        {
          "distance": 0.45420185,
          "id": 2014997683
        }
      ],
      "apple/mobileclip_s2": [
        {
          "distance": 0.38001424,
          "id": 1998537097
        },
        {
          "distance": 0.3989685,
          "id": 1998537077
        },
        {
          "distance": 0.4199295,
          "id": 1998537091
        },
        {
          "distance": 0.43521476,
          "id": 1998537061
        },
        {
          "distance": 0.4575672,
          "id": 1998537085
        },
        {
          "distance": 0.46916458,
          "id": 2014998063
        },
        {
          "distance": 0.5051828,
          "id": 1998537007
        },
        {
          "distance": 0.52344656,
          "id": 2014998041
        },
        {
          "distance": 0.529105,
          "id": 1762706681
        },
        {
          "distance": 0.53238785,
          "id": 1998537013
        }
      ]
    },
    "millsfield:subcategory_id": 1511213367,
    "mz:is_current": 1,
    "sfomuseum:filename": "2023.093.074.tif",
    "sfomuseum:image_id": 289059,
    "sfomuseum:image_index": 0,
    "sfomuseum:image_type": "studio",
    "sfomuseum:object_id": 239129,
    "sfomuseum:placetype": "image",
    "sfomuseum:primary_image": 1,
    "src:geom": "sfomuseum",
    "wof:belongsto": [
      102527513,
      1159162825,
      102191575,
      85633793,
      102087579,
      85922583,
      1998536869,
      85688637,
      1159160869
    ],
    "wof:country": "XY",
    "wof:created": 1765442035,
    "wof:depicts": [
      1159293593,
      1998536869,
      1159284989,
      1159289651
    ],
    "wof:geomhash": "c281b9d9eefc83b5710e64b9d646067d",
    "wof:hierarchy": [
      {
        "building_id": -1,
        "campus_id": 102527513,
        "collection_id": 1159162825,
        "concourse_id": 1159162825,
        "continent_id": 102191575,
        "country_id": 85633793,
        "county_id": 102087579,
        "custom_id": 1998537089,
        "locality_id": 85922583,
        "neighbourhood_id": -1,
        "object_id": 1998536869,
        "region_id": 85688637,
        "wing_id": 1159160869
      }
    ],
    "wof:id": 1998537089,
    "wof:lastmodified": 1788452575,
    "wof:name": "photograph: Pan American World Airways, Boeing 377 Stratocruiser, Atlantic Division",
    "wof:parent_id": 1998536869,
    "wof:placetype": "custom",
    "wof:repo": "sfomuseum-data-media-collection",
    "wof:superseded_by": [],
    "wof:supersedes": []
  },
  "bbox": [
    -122.38647222518921,
    37.6161053594541,
    -122.38583385944366,
    37.61661101879963
  ],
  "geometry": {"type":"Polygon","coordinates":[[[-122.38647222518921,37.61631782178288],[-122.386434674263,37.61623283692423],[-122.38637566566466,37.61617759671399],[-122.38630056381224,37.6161308549656],[-122.38616108894348,37.6161053594541],[-122.38602161407469,37.6161308549656],[-122.38591432571411,37.61618609521055],[-122.38585531711577,37.61626683087935],[-122.38583385944366,37.61636881265146],[-122.38587141036987,37.61646654505181],[-122.38594114780425,37.61654303118856],[-122.38605380058287,37.61660252035167],[-122.38618254661559,37.61661101879963],[-122.3863059282303,37.61657277577607],[-122.3864185810089,37.61650903735973],[-122.3864668607712,37.61641130501523],[-122.38647222518921,37.61631782178288]]]}
}
