{
  "id": 1527840085,
  "type": "Feature",
  "properties": {
    "date:cessation_lower": "1971-01-01",
    "date:cessation_upper": "1971-12-31",
    "date:inception_lower": "1971-01-01",
    "date:inception_upper": "1971-12-31",
    "edtf:cessation": "1971",
    "edtf:date": "1971",
    "edtf:inception": "1971",
    "geom:area": 0,
    "geom:bbox": "-122.386155,37.616358,-122.386155,37.616358",
    "geom:latitude": 37.616358,
    "geom:longitude": -122.386155,
    "iso:country": "XX",
    "media:fingerprint": "aa1b725bb58e2a7791d2ab4aafd0349638a55509",
    "media:imagehash_avg": "a:001101437f7f7f7f",
    "media:imagehash_diff": "d:b7293b8ff1b49083",
    "media:imagetext": "JAPAN AIR LINES\nJAL\n3\nMarch\nTIMETABLE\nINCLUDING ADVANCE SCHEDULE\nthe worldwide airline of Japan",
    "media:imagetext_created": 1787950826,
    "media:imagetext_source": "com.apple.visionkit.VNImageRequestHandler#Version 26.6.2 (Build 25G83)",
    "media:medium": "image",
    "media:mimetype": "image/tiff",
    "media:properties": {
      "sizes": {
        "b": {
          "extension": "jpg",
          "height": 768,
          "mimetype": "image/jpeg",
          "secret": "pZgqZtWhgpwyxNuSjn9VbOCagd1d0kI3",
          "width": 348
        },
        "c": {
          "extension": "jpg",
          "height": 600,
          "mimetype": "image/jpeg",
          "secret": "pZgqZtWhgpwyxNuSjn9VbOCagd1d0kI3",
          "width": 271
        },
        "dc": {
          "extension": "jpg",
          "height": 600,
          "mimetype": "image/jpeg",
          "secret": "pZgqZtWhgpwyxNuSjn9VbOCagd1d0kI3",
          "width": 271
        },
        "ds": {
          "extension": "jpg",
          "height": 320,
          "mimetype": "image/jpeg",
          "secret": "pZgqZtWhgpwyxNuSjn9VbOCagd1d0kI3",
          "width": 320
        },
        "k": {
          "extension": "jpg",
          "height": 1536,
          "mimetype": "image/jpeg",
          "secret": "pZgqZtWhgpwyxNuSjn9VbOCagd1d0kI3",
          "width": 696
        },
        "n": {
          "extension": "jpg",
          "height": 240,
          "mimetype": "image/jpeg",
          "secret": "pZgqZtWhgpwyxNuSjn9VbOCagd1d0kI3",
          "width": 108
        },
        "o": {
          "extension": "jpg",
          "height": 2736,
          "mimetype": "image/jpeg",
          "secret": "S5ALGrxU7s4YKv8devFudt7hcEsPXWXu",
          "width": 1240
        },
        "s": {
          "extension": "jpg",
          "height": 320,
          "mimetype": "image/jpeg",
          "secret": "pZgqZtWhgpwyxNuSjn9VbOCagd1d0kI3",
          "width": 320
        },
        "z": {
          "extension": "jpg",
          "height": 480,
          "mimetype": "image/jpeg",
          "secret": "pZgqZtWhgpwyxNuSjn9VbOCagd1d0kI3",
          "width": 217
        }
      }
    },
    "media:source": "sfomuseum",
    "media:status_id": 1,
    "media:uri_template": "https://static.sfomuseum.org/media/152/784/008/5/1527840085_{secret}_{label}.{extension}",
    "millsfield:airline_id": [
      1159285785
    ],
    "millsfield:category_id": 1511214223,
    "millsfield:collection_id": 1511214207,
    "millsfield:company_id": [
      1159288505
    ],
    "millsfield:images_colors": [
      {
        "hex": "#fcfbf6",
        "name": "#fcfbf6",
        "reference": "marekm4"
      },
      {
        "hex": "#fffafa",
        "name": "snow",
        "reference": "css4"
      },
      {
        "hex": "#ffffff",
        "name": "White",
        "reference": "crayola"
      },
      {
        "hex": "#dc2c27",
        "name": "#dc2c27",
        "reference": "marekm4"
      },
      {
        "hex": "#dc143c",
        "name": "crimson",
        "reference": "css4"
      },
      {
        "hex": "#ff2b2b",
        "name": "Orange Red",
        "reference": "crayola"
      },
      {
        "hex": "#30323a",
        "name": "#30323a",
        "reference": "marekm4"
      },
      {
        "hex": "#2f4f4f",
        "name": "darkslategrey",
        "reference": "css4"
      },
      {
        "hex": "#414a4c",
        "name": "Outer Space",
        "reference": "crayola"
      },
      {
        "hex": "#938476",
        "name": "#938476",
        "reference": "marekm4"
      },
      {
        "hex": "#808080",
        "name": "grey",
        "reference": "css4"
      },
      {
        "hex": "#9f8170",
        "name": "Beaver",
        "reference": "crayola"
      }
    ],
    "millsfield:images_texts": [
      "JAPAN AIR LINES\nJAL\n3\nMarch\nTIMETABLE\nINCLUDING ADVANCE SCHEDULE\nthe worldwide airline of Japan"
    ],
    "millsfield:images_texts_ids": [
      1527840085
    ],
    "millsfield:similar": {
      "apple/mobileclip_s0": [
        {
          "distance": 0.4323528,
          "id": 1762697303
        },
        {
          "distance": 0.54186636,
          "id": 1527840083
        },
        {
          "distance": 0.5428747,
          "id": 1527854919
        },
        {
          "distance": 0.555721,
          "id": 1762699889
        },
        {
          "distance": 0.5599699,
          "id": 1762697305
        },
        {
          "distance": 0.56057596,
          "id": 1527840087
        },
        {
          "distance": 0.5635915,
          "id": 1527837029
        },
        {
          "distance": 0.5643228,
          "id": 1527837033
        },
        {
          "distance": 0.56567746,
          "id": 1527840105
        },
        {
          "distance": 0.56755674,
          "id": 1527840095
        }
      ],
      "apple/mobileclip_s1": [
        {
          "distance": 0.31466046,
          "id": 1762697303
        },
        {
          "distance": 0.36445656,
          "id": 1527840083
        },
        {
          "distance": 0.38245606,
          "id": 1527854919
        },
        {
          "distance": 0.4266413,
          "id": 1527840097
        },
        {
          "distance": 0.4292734,
          "id": 1527840137
        },
        {
          "distance": 0.4315393,
          "id": 1527840129
        },
        {
          "distance": 0.4337752,
          "id": 1762697305
        },
        {
          "distance": 0.43453282,
          "id": 1527840095
        },
        {
          "distance": 0.43469733,
          "id": 1527840103
        },
        {
          "distance": 0.43622735,
          "id": 1762699889
        }
      ],
      "apple/mobileclip_s2": [
        {
          "distance": 0.4030567,
          "id": 1762697303
        },
        {
          "distance": 0.4729197,
          "id": 1527840083
        },
        {
          "distance": 0.588292,
          "id": 1762697305
        },
        {
          "distance": 0.5923416,
          "id": 1527840129
        },
        {
          "distance": 0.5980922,
          "id": 1527840137
        },
        {
          "distance": 0.60823405,
          "id": 1527840087
        },
        {
          "distance": 0.61024594,
          "id": 1527840115
        },
        {
          "distance": 0.61055225,
          "id": 1762699889
        },
        {
          "distance": 0.6106829,
          "id": 1527854919
        },
        {
          "distance": 0.6121641,
          "id": 1527840105
        }
      ]
    },
    "millsfield:subcategory_id": 1511213425,
    "mz:hierarchy_label": 1,
    "mz:is_current": -1,
    "sfomuseum:filename": "2009.122.345.tif",
    "sfomuseum:image_id": 66261,
    "sfomuseum:image_index": 5,
    "sfomuseum:image_type": "studio",
    "sfomuseum:object_id": 103348,
    "sfomuseum:placetype": "image",
    "sfomuseum:primary_image": 1,
    "src:geom": "sfomuseum",
    "wof:belongsto": [
      1511214223,
      1511940679,
      102527513,
      102191575,
      85633793,
      1511213425,
      85922583,
      102087579,
      1511214277,
      1511214203,
      85688637
    ],
    "wof:breaches": [],
    "wof:country": "XX",
    "wof:created": 1578952498,
    "wof:depicts": [
      1511940679,
      1159288505,
      1159285785
    ],
    "wof:geomhash": "bd906905ce4be6c0651c90b0fc24804c",
    "wof:hierarchy": [
      {
        "arcade_id": 1511213425,
        "building_id": 1511214277,
        "campus_id": 102527513,
        "concourse_id": 1511214223,
        "continent_id": 102191575,
        "country_id": 85633793,
        "county_id": 102087579,
        "custom_id": 1527840085,
        "image_id": 1527840085,
        "locality_id": 85922583,
        "media_id": 1527840085,
        "neighbourhood_id": -1,
        "region_id": 85688637,
        "venue_id": 1511940679,
        "wing_id": 1511214203
      }
    ],
    "wof:id": 1527840085,
    "wof:lastmodified": 1788450013,
    "wof:name": "timetable: JAL (Japan Air Lines)",
    "wof:parent_id": 1511940679,
    "wof:placetype": "custom",
    "wof:placetype_alt": [
      "image"
    ],
    "wof:repo": "sfomuseum-data-media-collection",
    "wof:superseded_by": [],
    "wof:supersedes": [],
    "wof:tags": []
  },
  "bbox": [
    -122.386155,
    37.616358,
    -122.386155,
    37.616358
  ],
  "geometry": {"type":"Point","coordinates":[-122.386155,37.616358]}
}
