{
  "id": 1762924741,
  "type": "Feature",
  "properties": {
    "date:cessation_lower": "1970-01-01",
    "date:cessation_upper": "1979-12-31",
    "date:inception_lower": "1970-01-01",
    "date:inception_upper": "1979-12-31",
    "edtf:cessation": "197X",
    "edtf:inception": "197X",
    "geom:area": 2.477324999997507e-7,
    "geom:bbox": "-122.386472,37.616105,-122.385834,37.616611",
    "geom:latitude": 37.61635756125121,
    "geom:longitude": -122.38615532866096,
    "media:fingerprint": "36a052a842034de239c350e33a5227e5a2ef1d3f",
    "media:imagehash_avg": "a:ffe7c7c3c3c3c3e7",
    "media:imagehash_diff": "d:150f0f0f0f1f1f0f",
    "media:mimetype": "image/tiff",
    "media:properties": {
      "sizes": {
        "b": {
          "extension": "jpg",
          "height": 768,
          "mimetype": "image/jpeg",
          "secret": "oA5vJUKQdaZX13SEwILWR3YDxykYgxVZ",
          "width": 965
        },
        "c": {
          "extension": "jpg",
          "height": 600,
          "mimetype": "image/jpeg",
          "secret": "oA5vJUKQdaZX13SEwILWR3YDxykYgxVZ",
          "width": 754
        },
        "dc": {
          "extension": "jpg",
          "height": 600,
          "mimetype": "image/jpeg",
          "secret": "oA5vJUKQdaZX13SEwILWR3YDxykYgxVZ",
          "width": 754
        },
        "ds": {
          "extension": "jpg",
          "height": 320,
          "mimetype": "image/jpeg",
          "secret": "oA5vJUKQdaZX13SEwILWR3YDxykYgxVZ",
          "width": 320
        },
        "k": {
          "extension": "jpg",
          "height": 1536,
          "mimetype": "image/jpeg",
          "secret": "oA5vJUKQdaZX13SEwILWR3YDxykYgxVZ",
          "width": 1931
        },
        "n": {
          "extension": "jpg",
          "height": 240,
          "mimetype": "image/jpeg",
          "secret": "oA5vJUKQdaZX13SEwILWR3YDxykYgxVZ",
          "width": 301
        },
        "o": {
          "extension": "jpg",
          "height": 1667,
          "mimetype": "image/jpeg",
          "secret": "r8jSydHl7gQv07m0bfeAEd4BYMLaxY3O",
          "width": 2096
        },
        "s": {
          "extension": "jpg",
          "height": 320,
          "mimetype": "image/jpeg",
          "secret": "oA5vJUKQdaZX13SEwILWR3YDxykYgxVZ",
          "width": 320
        },
        "z": {
          "extension": "jpg",
          "height": 480,
          "mimetype": "image/jpeg",
          "secret": "oA5vJUKQdaZX13SEwILWR3YDxykYgxVZ",
          "width": 603
        }
      }
    },
    "media:source": "sfomuseum",
    "media:status_id": 1,
    "media:uri_template": "https://static.sfomuseum.org/media/176/292/474/1/1762924741_{secret}_{label}.{extension}",
    "millsfield:airline_id": [
      1159284989
    ],
    "millsfield:category_id": 1763416393,
    "millsfield:collection_id": 1511214203,
    "millsfield:company_id": [
      1159286839
    ],
    "millsfield:images_colors": [
      {
        "hex": "#b8b7b7",
        "name": "#b8b7b7",
        "reference": "marekm4"
      },
      {
        "hex": "#c0c0c0",
        "name": "silver",
        "reference": "css4"
      },
      {
        "hex": "#b0b7c6",
        "name": "Cadet Blue",
        "reference": "crayola"
      },
      {
        "hex": "#212946",
        "name": "#212946",
        "reference": "marekm4"
      },
      {
        "hex": "#2f4f4f",
        "name": "darkslategrey",
        "reference": "css4"
      },
      {
        "hex": "#414a4c",
        "name": "Outer Space",
        "reference": "crayola"
      }
    ],
    "millsfield:similar": {
      "apple/mobileclip_s0": [
        {
          "distance": 0.27393383,
          "id": 1762924165
        },
        {
          "distance": 0.28844088,
          "id": 1763446803
        },
        {
          "distance": 0.29775804,
          "id": 1763446839
        },
        {
          "distance": 0.30288112,
          "id": 1762896767
        },
        {
          "distance": 0.31204218,
          "id": 1763446837
        },
        {
          "distance": 0.32545793,
          "id": 1763446613
        },
        {
          "distance": 0.33276185,
          "id": 1762924145
        },
        {
          "distance": 0.34168923,
          "id": 1763447271
        },
        {
          "distance": 0.3443922,
          "id": 1762924745
        },
        {
          "distance": 0.35977128,
          "id": 1762924283
        }
      ],
      "apple/mobileclip_s1": [
        {
          "distance": 0.21706186,
          "id": 1763446839
        },
        {
          "distance": 0.22859795,
          "id": 1763446837
        },
        {
          "distance": 0.2419377,
          "id": 1763446613
        },
        {
          "distance": 0.25120223,
          "id": 1762924165
        },
        {
          "distance": 0.27091533,
          "id": 1763447111
        },
        {
          "distance": 0.27817148,
          "id": 1763446803
        },
        {
          "distance": 0.28674793,
          "id": 1763446913
        },
        {
          "distance": 0.2913224,
          "id": 1762924145
        },
        {
          "distance": 0.29767027,
          "id": 1762896767
        },
        {
          "distance": 0.30305785,
          "id": 1762896543
        }
      ],
      "apple/mobileclip_s2": [
        {
          "distance": 0.36241403,
          "id": 1762924165
        },
        {
          "distance": 0.37923393,
          "id": 1763446613
        },
        {
          "distance": 0.38042542,
          "id": 1763446837
        },
        {
          "distance": 0.3894332,
          "id": 1763446839
        },
        {
          "distance": 0.40345532,
          "id": 1762896543
        },
        {
          "distance": 0.40515274,
          "id": 1763446803
        },
        {
          "distance": 0.40800536,
          "id": 1880369863
        },
        {
          "distance": 0.42864123,
          "id": 1762896767
        },
        {
          "distance": 0.4297288,
          "id": 1762924145
        },
        {
          "distance": 0.43968955,
          "id": 1762924461
        }
      ]
    },
    "millsfield:subcategory_id": 1511213477,
    "mz:is_current": 1,
    "sfomuseum:filename": "2014.132.162_ft2.tif",
    "sfomuseum:image_id": 147936,
    "sfomuseum:image_index": 5,
    "sfomuseum:image_type": "studio",
    "sfomuseum:object_id": 162430,
    "sfomuseum:placetype": "image",
    "sfomuseum:primary_image": 1,
    "src:geom": "sfomuseum",
    "wof:belongsto": [
      102527513,
      1159162825,
      102191575,
      85633793,
      102087579,
      85922583,
      1762923763,
      85688637,
      1159160869
    ],
    "wof:country": "XY",
    "wof:created": 1643762364,
    "wof:depicts": [
      1159284989,
      1159286839,
      1762923763
    ],
    "wof:geomhash": "ed7c2ab3547fc3916b5edc33488deaa7",
    "wof:hierarchy": [
      {
        "building_id": -1,
        "campus_id": 102527513,
        "collection_id": 1159162825,
        "concourse_id": 1159162825,
        "continent_id": 102191575,
        "country_id": 85633793,
        "county_id": 102087579,
        "custom_id": 1762924741,
        "image_id": 1762924741,
        "locality_id": 85922583,
        "neighbourhood_id": -1,
        "object_id": 1762923763,
        "region_id": 85688637,
        "wing_id": 1159160869
      }
    ],
    "wof:id": 1762924741,
    "wof:lastmodified": 1788450867,
    "wof:name": "flight attendant apron: Pan American World Airways",
    "wof:parent_id": 1762923763,
    "wof:placetype": "custom",
    "wof:placetype_alt": [
      "image"
    ],
    "wof:repo": "sfomuseum-data-media-collection",
    "wof:superseded_by": [],
    "wof:supersedes": []
  },
  "bbox": [
    -122.386472,
    37.616105,
    -122.385834,
    37.616611
  ],
  "geometry": {"type":"Polygon","coordinates":[[[-122.386472,37.616318],[-122.386435,37.616233],[-122.386376,37.616178],[-122.386301,37.616131],[-122.386161,37.616105],[-122.386022,37.616131],[-122.385914,37.616186],[-122.385855,37.616267],[-122.385834,37.616369],[-122.385871,37.616467],[-122.385941,37.616543],[-122.386054,37.616603],[-122.386183,37.616611],[-122.386306,37.616573],[-122.386419,37.616509],[-122.386467,37.616411],[-122.386472,37.616318]]]}
}
