{
  "id": 1746682331,
  "type": "Feature",
  "properties": {
    "date:cessation_lower": "2010-01-01",
    "date:cessation_upper": "2010-12-31",
    "date:inception_lower": "2010-01-01",
    "date:inception_upper": "2010-12-31",
    "edtf:cessation": "2010~",
    "edtf:inception": "2010~",
    "geom:area": 2.477324999997507e-7,
    "geom:bbox": "-122.386472,37.616105,-122.385834,37.616611",
    "geom:latitude": 37.61635756125121,
    "geom:longitude": -122.38615532866096,
    "media:fingerprint": "b053775f199a8355b1357ea314c98d315222650d",
    "media:imagehash_avg": "a:ffffcfc3c3c3c3ff",
    "media:imagehash_diff": "d:c88c9e1f17070f0f",
    "media:mimetype": "image/jpeg",
    "media:properties": {
      "sizes": {
        "b": {
          "extension": "jpg",
          "height": 768,
          "mimetype": "image/jpeg",
          "secret": "faVJSUmhMFLYTAmhgikVdqEPjBdxIBIU",
          "width": 901
        },
        "c": {
          "extension": "jpg",
          "height": 600,
          "mimetype": "image/jpeg",
          "secret": "faVJSUmhMFLYTAmhgikVdqEPjBdxIBIU",
          "width": 704
        },
        "dc": {
          "extension": "jpg",
          "height": 600,
          "mimetype": "image/jpeg",
          "secret": "faVJSUmhMFLYTAmhgikVdqEPjBdxIBIU",
          "width": 704
        },
        "ds": {
          "extension": "jpg",
          "height": 320,
          "mimetype": "image/jpeg",
          "secret": "faVJSUmhMFLYTAmhgikVdqEPjBdxIBIU",
          "width": 320
        },
        "k": {
          "extension": "jpg",
          "height": 1536,
          "mimetype": "image/jpeg",
          "secret": "faVJSUmhMFLYTAmhgikVdqEPjBdxIBIU",
          "width": 1802
        },
        "n": {
          "extension": "jpg",
          "height": 240,
          "mimetype": "image/jpeg",
          "secret": "faVJSUmhMFLYTAmhgikVdqEPjBdxIBIU",
          "width": 281
        },
        "o": {
          "extension": "jpg",
          "height": 818,
          "mimetype": "image/jpeg",
          "secret": "uWzWwBjopgmwJXI5CnzVOuKqIV5tDkiI",
          "width": 960
        },
        "s": {
          "extension": "jpg",
          "height": 320,
          "mimetype": "image/jpeg",
          "secret": "faVJSUmhMFLYTAmhgikVdqEPjBdxIBIU",
          "width": 320
        },
        "z": {
          "extension": "jpg",
          "height": 480,
          "mimetype": "image/jpeg",
          "secret": "faVJSUmhMFLYTAmhgikVdqEPjBdxIBIU",
          "width": 563
        }
      }
    },
    "media:source": "sfomuseum",
    "media:status_id": 1,
    "media:uri_template": "https://static.sfomuseum.org/media/174/668/233/1/1746682331_{secret}_{label}.{extension}",
    "millsfield:airline_id": [
      1159284563
    ],
    "millsfield:category_id": 1746152551,
    "millsfield:collection_id": 1511214203,
    "millsfield:company_id": [
      1159288585
    ],
    "millsfield:images_colors": [
      {
        "hex": "#b4aa9d",
        "name": "#b4aa9d",
        "reference": "marekm4"
      },
      {
        "hex": "#a9a9a9",
        "name": "darkgrey",
        "reference": "css4"
      },
      {
        "hex": "#979aaa",
        "name": "Manatee",
        "reference": "crayola"
      },
      {
        "hex": "#7a6043",
        "name": "#7a6043",
        "reference": "marekm4"
      },
      {
        "hex": "#696969",
        "name": "dimgrey",
        "reference": "css4"
      },
      {
        "hex": "#85754e",
        "name": "Gold Fusion",
        "reference": "crayola"
      },
      {
        "hex": "#866f56",
        "name": "#866f56",
        "reference": "marekm4"
      },
      {
        "hex": "#9c8d79",
        "name": "#9c8d79",
        "reference": "marekm4"
      },
      {
        "hex": "#808080",
        "name": "grey",
        "reference": "css4"
      },
      {
        "hex": "#9f8170",
        "name": "Beaver",
        "reference": "crayola"
      }
    ],
    "millsfield:similar": {
      "apple/mobileclip_s0": [
        {
          "distance": 0.6773141,
          "id": 1931123317
        },
        {
          "distance": 0.70379806,
          "id": 1779984413
        },
        {
          "distance": 0.70709234,
          "id": 1779984419
        },
        {
          "distance": 0.7138301,
          "id": 1931132003
        },
        {
          "distance": 0.71899337,
          "id": 1746681987
        },
        {
          "distance": 0.71928674,
          "id": 1746682491
        },
        {
          "distance": 0.72085917,
          "id": 1913872271
        },
        {
          "distance": 0.7214075,
          "id": 1913872281
        },
        {
          "distance": 0.7281507,
          "id": 1796805245
        },
        {
          "distance": 0.7281847,
          "id": 1780028173
        }
      ],
      "apple/mobileclip_s1": [
        {
          "distance": 0.43054608,
          "id": 1913872281
        },
        {
          "distance": 0.4306397,
          "id": 1913832259
        },
        {
          "distance": 0.44918096,
          "id": 1931110703
        },
        {
          "distance": 0.4684605,
          "id": 1913872273
        },
        {
          "distance": 0.471395,
          "id": 1913832247
        },
        {
          "distance": 0.4722819,
          "id": 1913872277
        },
        {
          "distance": 0.47540173,
          "id": 1931123317
        },
        {
          "distance": 0.4779227,
          "id": 1779984419
        },
        {
          "distance": 0.4829147,
          "id": 1780027981
        },
        {
          "distance": 0.484921,
          "id": 1913872271
        }
      ],
      "apple/mobileclip_s2": [
        {
          "distance": 0.6509692,
          "id": 1913872281
        },
        {
          "distance": 0.65283716,
          "id": 1880858479
        },
        {
          "distance": 0.67710835,
          "id": 1880858481
        },
        {
          "distance": 0.6857138,
          "id": 1913832259
        },
        {
          "distance": 0.68935764,
          "id": 1931110701
        },
        {
          "distance": 0.697801,
          "id": 2014979167
        },
        {
          "distance": 0.7059944,
          "id": 1913872271
        },
        {
          "distance": 0.71695006,
          "id": 1763441749
        },
        {
          "distance": 0.71700037,
          "id": 1746681987
        },
        {
          "distance": 0.7171486,
          "id": 1913832247
        }
      ]
    },
    "millsfield:subcategory_id": 1746152569,
    "mz:is_current": 1,
    "sfomuseum:filename": "4C9612C3-9F2F-4F84-B3F7-017B3079598C_1_105_c.jpeg",
    "sfomuseum:image_id": 227908,
    "sfomuseum:image_index": 0,
    "sfomuseum:image_type": "studio",
    "sfomuseum:object_id": 220272,
    "sfomuseum:placetype": "image",
    "sfomuseum:primary_image": 1,
    "src:geom": "sfomuseum",
    "wof:belongsto": [
      102527513,
      1159162825,
      102191575,
      85633793,
      102087579,
      85922583,
      1746272005,
      85688637,
      1159160869
    ],
    "wof:country": "XY",
    "wof:created": 1637706758,
    "wof:depicts": [
      1746272005,
      1159284563,
      1159288585
    ],
    "wof:geomhash": "ed7c2ab3547fc3916b5edc33488deaa7",
    "wof:hierarchy": [
      {
        "building_id": -1,
        "campus_id": 102527513,
        "collection_id": 1159162825,
        "concourse_id": 1159162825,
        "continent_id": 102191575,
        "country_id": 85633793,
        "county_id": 102087579,
        "custom_id": 1746682331,
        "image_id": 1746682331,
        "locality_id": 85922583,
        "neighbourhood_id": -1,
        "object_id": 1746272005,
        "region_id": 85688637,
        "wing_id": 1159160869
      }
    ],
    "wof:id": 1746682331,
    "wof:lastmodified": 1788450359,
    "wof:name": "napkin ring: JAL (Japan Airlines) ",
    "wof:parent_id": 1746272005,
    "wof:placetype": "custom",
    "wof:placetype_alt": [
      "image"
    ],
    "wof:repo": "sfomuseum-data-media-collection",
    "wof:superseded_by": [],
    "wof:supersedes": []
  },
  "bbox": [
    -122.386472,
    37.616105,
    -122.385834,
    37.616611
  ],
  "geometry": {"type":"Polygon","coordinates":[[[-122.386472,37.616318],[-122.386435,37.616233],[-122.386376,37.616178],[-122.386301,37.616131],[-122.386161,37.616105],[-122.386022,37.616131],[-122.385914,37.616186],[-122.385855,37.616267],[-122.385834,37.616369],[-122.385871,37.616467],[-122.385941,37.616543],[-122.386054,37.616603],[-122.386183,37.616611],[-122.386306,37.616573],[-122.386419,37.616509],[-122.386467,37.616411],[-122.386472,37.616318]]]}
}
