{
  "id": 1527843307,
  "type": "Feature",
  "properties": {
    "date:cessation_lower": "1970-01-01",
    "date:cessation_upper": "1970-12-31",
    "date:inception_lower": "1970-01-01",
    "date:inception_upper": "1970-12-31",
    "edtf:cessation": "1970~",
    "edtf:date": "1970~",
    "edtf:inception": "1970~",
    "geom:area": 0,
    "geom:bbox": "-122.386155,37.616358,-122.386155,37.616358",
    "geom:latitude": 37.616358,
    "geom:longitude": -122.386155,
    "iso:country": "XX",
    "media:fingerprint": "75aeb3b9eaf4d18a4e0d1bea3a6ece81cfa565d8",
    "media:imagehash_avg": "a:eb83c3c3819181ff",
    "media:imagehash_diff": "d:1b0f0f0f1767270f",
    "media:imagetext": "HANDY POCKET SCHEDULE\nSan Francisco\nOakland\nSan ose\nVIA\nTWA\nFROM\n: Chicago.\n5 non-stops\nAirports: S-San Francisco, O-Oakland, J-San Jose\n0 900a S 1120a\n01145a S 203p\n0 200p S 418p\n0 350p 0 605p\n0 350p S 653p\n0 545p\n758p\n0 545p J\n923p\n0 900p S 1235a\n135\n175\n131\n337\n337\n771\n771/63\n241\nNON-STOP\nDaily\nNON-STOP\nDaily\nNON-STOP\nDaily\nNON-STOP\nDaily\nOne-stop\nDaily\nNON-STOP\nDaily\nFX1011\nSan Francisco Daily\nOne-stop\nDaily\nWHILE YOU ARE IN CHICAGO\nWE CAN ASSIST YOU\nWITH RESERVATIONS. PLEASE CALL\n332-7600",
    "media:imagetext_created": 1787951447,
    "media:imagetext_source": "com.apple.visionkit.VNImageRequestHandler#Version 26.6.2 (Build 25G83)",
    "media:medium": "image",
    "media:mimetype": "image/tiff",
    "media:properties": {
      "sizes": {
        "b": {
          "extension": "jpg",
          "height": 768,
          "mimetype": "image/jpeg",
          "secret": "4EfZFMYHchKWv9kSe75ojask3pf6i5Q4",
          "width": 381
        },
        "c": {
          "extension": "jpg",
          "height": 600,
          "mimetype": "image/jpeg",
          "secret": "4EfZFMYHchKWv9kSe75ojask3pf6i5Q4",
          "width": 297
        },
        "dc": {
          "extension": "jpg",
          "height": 600,
          "mimetype": "image/jpeg",
          "secret": "4EfZFMYHchKWv9kSe75ojask3pf6i5Q4",
          "width": 297
        },
        "ds": {
          "extension": "jpg",
          "height": 320,
          "mimetype": "image/jpeg",
          "secret": "4EfZFMYHchKWv9kSe75ojask3pf6i5Q4",
          "width": 320
        },
        "k": {
          "extension": "jpg",
          "height": 1536,
          "mimetype": "image/jpeg",
          "secret": "4EfZFMYHchKWv9kSe75ojask3pf6i5Q4",
          "width": 762
        },
        "n": {
          "extension": "jpg",
          "height": 240,
          "mimetype": "image/jpeg",
          "secret": "4EfZFMYHchKWv9kSe75ojask3pf6i5Q4",
          "width": 119
        },
        "o": {
          "extension": "jpg",
          "height": 2112,
          "mimetype": "image/jpeg",
          "secret": "N5wyOf6TCjFTjOsXqeEloHWGtZdknTAI",
          "width": 1048
        },
        "s": {
          "extension": "jpg",
          "height": 320,
          "mimetype": "image/jpeg",
          "secret": "4EfZFMYHchKWv9kSe75ojask3pf6i5Q4",
          "width": 320
        },
        "z": {
          "extension": "jpg",
          "height": 480,
          "mimetype": "image/jpeg",
          "secret": "4EfZFMYHchKWv9kSe75ojask3pf6i5Q4",
          "width": 238
        }
      }
    },
    "media:source": "sfomuseum",
    "media:status_id": 1,
    "media:uri_template": "https://static.sfomuseum.org/media/152/784/330/7/1527843307_{secret}_{label}.{extension}",
    "millsfield:airline_id": [
      1159285393
    ],
    "millsfield:category_id": 1511214223,
    "millsfield:collection_id": 1511214207,
    "millsfield:company_id": [
      1159287531
    ],
    "millsfield:images_colors": [
      {
        "hex": "#e2d5b3",
        "name": "#e2d5b3",
        "reference": "marekm4"
      },
      {
        "hex": "#f5deb3",
        "name": "wheat",
        "reference": "css4"
      },
      {
        "hex": "#efcdb8",
        "name": "Desert Sand",
        "reference": "crayola"
      },
      {
        "hex": "#c91b16",
        "name": "#c91b16",
        "reference": "marekm4"
      },
      {
        "hex": "#b22222",
        "name": "firebrick",
        "reference": "css4"
      },
      {
        "hex": "#ff2b2b",
        "name": "Orange Red",
        "reference": "crayola"
      },
      {
        "hex": "#13136f",
        "name": "#13136f",
        "reference": "marekm4"
      },
      {
        "hex": "#191970",
        "name": "midnightblue",
        "reference": "css4"
      },
      {
        "hex": "#1a4876",
        "name": "Midnight Blue",
        "reference": "crayola"
      },
      {
        "hex": "#4a4b8c",
        "name": "#4a4b8c",
        "reference": "marekm4"
      },
      {
        "hex": "#483d8b",
        "name": "darkslateblue",
        "reference": "css4"
      },
      {
        "hex": "#58427c",
        "name": "Cyber Grape",
        "reference": "crayola"
      }
    ],
    "millsfield:images_texts": [
      "HANDY POCKET SCHEDULE\nSan Francisco\nOakland\nSan ose\nVIA\nTWA\nFROM\n: Chicago.\n5 non-stops\nAirports: S-San Francisco, O-Oakland, J-San Jose\n0 900a S 1120a\n01145a S 203p\n0 200p S 418p\n0 350p 0 605p\n0 350p S 653p\n0 545p\n758p\n0 545p J\n923p\n0 900p S 1235a\n135\n175\n131\n337\n337\n771\n771/63\n241\nNON-STOP\nDaily\nNON-STOP\nDaily\nNON-STOP\nDaily\nNON-STOP\nDaily\nOne-stop\nDaily\nNON-STOP\nDaily\nFX1011\nSan Francisco Daily\nOne-stop\nDaily\nWHILE YOU ARE IN CHICAGO\nWE CAN ASSIST YOU\nWITH RESERVATIONS. PLEASE CALL\n332-7600"
    ],
    "millsfield:images_texts_ids": [
      1527843307
    ],
    "millsfield:similar": {
      "apple/mobileclip_s0": [
        {
          "distance": 0.62916934,
          "id": 1762713973
        },
        {
          "distance": 0.63810855,
          "id": 1527838829
        },
        {
          "distance": 0.6412738,
          "id": 1527849051
        },
        {
          "distance": 0.6455174,
          "id": 1527835587
        },
        {
          "distance": 0.6493186,
          "id": 1527846891
        },
        {
          "distance": 0.6508038,
          "id": 1527840671
        },
        {
          "distance": 0.6516354,
          "id": 1762898761
        },
        {
          "distance": 0.6533649,
          "id": 1762714745
        },
        {
          "distance": 0.65342885,
          "id": 1527818501
        },
        {
          "distance": 0.6561517,
          "id": 1762715191
        }
      ],
      "apple/mobileclip_s1": [
        {
          "distance": 0.4535799,
          "id": 1762713973
        },
        {
          "distance": 0.4679923,
          "id": 1762898761
        },
        {
          "distance": 0.47709882,
          "id": 1762697617
        },
        {
          "distance": 0.47991806,
          "id": 1527842917
        },
        {
          "distance": 0.4847717,
          "id": 1527847457
        },
        {
          "distance": 0.49126282,
          "id": 1763196157
        },
        {
          "distance": 0.49217105,
          "id": 1762699781
        },
        {
          "distance": 0.49322364,
          "id": 2014778843
        },
        {
          "distance": 0.49453717,
          "id": 1527847091
        },
        {
          "distance": 0.49602,
          "id": 1762701711
        }
      ],
      "apple/mobileclip_s2": [
        {
          "distance": 0.6432789,
          "id": 1762898761
        },
        {
          "distance": 0.67550933,
          "id": 1762700595
        },
        {
          "distance": 0.6789427,
          "id": 1527854811
        },
        {
          "distance": 0.68069863,
          "id": 1729566325
        },
        {
          "distance": 0.6813395,
          "id": 1527847453
        },
        {
          "distance": 0.6817806,
          "id": 1527847057
        },
        {
          "distance": 0.6825483,
          "id": 1762697505
        },
        {
          "distance": 0.68273634,
          "id": 1527849051
        },
        {
          "distance": 0.683004,
          "id": 1527842917
        },
        {
          "distance": 0.68335336,
          "id": 1746680555
        }
      ]
    },
    "millsfield:subcategory_id": 1511213425,
    "mz:hierarchy_label": 1,
    "mz:is_current": -1,
    "sfomuseum:filename": "2008.055.930.tif",
    "sfomuseum:image_id": 68097,
    "sfomuseum:image_index": 5,
    "sfomuseum:image_type": "studio",
    "sfomuseum:object_id": 91847,
    "sfomuseum:placetype": "image",
    "sfomuseum:primary_image": 1,
    "src:geom": "sfomuseum",
    "wof:belongsto": [
      1511214223,
      1511931983,
      102527513,
      102191575,
      85633793,
      1511213425,
      85922583,
      102087579,
      1511214277,
      1511214203,
      85688637
    ],
    "wof:breaches": [],
    "wof:country": "XX",
    "wof:created": 1578953017,
    "wof:depicts": [
      85633793,
      1159285393,
      1159287531,
      1511931983,
      85921881,
      85688637
    ],
    "wof:geomhash": "bd906905ce4be6c0651c90b0fc24804c",
    "wof:hierarchy": [
      {
        "arcade_id": 1511213425,
        "building_id": 1511214277,
        "campus_id": 102527513,
        "concourse_id": 1511214223,
        "continent_id": 102191575,
        "country_id": 85633793,
        "county_id": 102087579,
        "custom_id": 1527843307,
        "image_id": 1527843307,
        "locality_id": 85922583,
        "media_id": 1527843307,
        "neighbourhood_id": -1,
        "region_id": 85688637,
        "venue_id": 1511931983,
        "wing_id": 1511214203
      }
    ],
    "wof:id": 1527843307,
    "wof:lastmodified": 1788450065,
    "wof:name": "timetable card: TWA (Trans World Airlines)",
    "wof:parent_id": 1511931983,
    "wof:placetype": "custom",
    "wof:placetype_alt": [
      "image"
    ],
    "wof:repo": "sfomuseum-data-media-collection",
    "wof:superseded_by": [],
    "wof:supersedes": [],
    "wof:tags": []
  },
  "bbox": [
    -122.386155,
    37.616358,
    -122.386155,
    37.616358
  ],
  "geometry": {"type":"Point","coordinates":[-122.386155,37.616358]}
}
