{
  "id": 1527831575,
  "type": "Feature",
  "properties": {
    "date:cessation_lower": "1943-01-01",
    "date:cessation_upper": "1943-12-31",
    "date:inception_lower": "1943-01-01",
    "date:inception_upper": "1943-12-31",
    "edtf:cessation": "1943~",
    "edtf:date": "1943~",
    "edtf:inception": "1943~",
    "geom:area": 0,
    "geom:bbox": "-122.386155,37.616358,-122.386155,37.616358",
    "geom:latitude": 37.616358,
    "geom:longitude": -122.386155,
    "iso:country": "XX",
    "media:fingerprint": "b95c794795effb373a35997097a592b82c334a52",
    "media:imagehash_avg": "a:c181c1e38fdfcd81",
    "media:imagehash_diff": "d:0f07070f3f39191b",
    "media:medium": "image",
    "media:mimetype": "image/tiff",
    "media:properties": {
      "sizes": {
        "b": {
          "extension": "jpg",
          "height": 768,
          "mimetype": "image/jpeg",
          "secret": "G4pYyCzHskSiOB0eVu6Gls7amakqYc6f",
          "width": 930
        },
        "c": {
          "extension": "jpg",
          "height": 600,
          "mimetype": "image/jpeg",
          "secret": "G4pYyCzHskSiOB0eVu6Gls7amakqYc6f",
          "width": 727
        },
        "dc": {
          "extension": "jpg",
          "height": 600,
          "mimetype": "image/jpeg",
          "secret": "G4pYyCzHskSiOB0eVu6Gls7amakqYc6f",
          "width": 727
        },
        "ds": {
          "extension": "jpg",
          "height": 320,
          "mimetype": "image/jpeg",
          "secret": "G4pYyCzHskSiOB0eVu6Gls7amakqYc6f",
          "width": 320
        },
        "k": {
          "extension": "jpg",
          "height": 1536,
          "mimetype": "image/jpeg",
          "secret": "G4pYyCzHskSiOB0eVu6Gls7amakqYc6f",
          "width": 1861
        },
        "n": {
          "extension": "jpg",
          "height": 239,
          "mimetype": "image/jpeg",
          "secret": "G4pYyCzHskSiOB0eVu6Gls7amakqYc6f",
          "width": 290
        },
        "o": {
          "extension": "jpg",
          "height": 1730,
          "mimetype": "image/jpeg",
          "secret": "9Fh0pfpG2EIcgmFUZ9cs1e6GayfDsqv0",
          "width": 2097
        },
        "s": {
          "extension": "jpg",
          "height": 320,
          "mimetype": "image/jpeg",
          "secret": "G4pYyCzHskSiOB0eVu6Gls7amakqYc6f",
          "width": 320
        },
        "z": {
          "extension": "jpg",
          "height": 479,
          "mimetype": "image/jpeg",
          "secret": "G4pYyCzHskSiOB0eVu6Gls7amakqYc6f",
          "width": 581
        }
      }
    },
    "media:source": "sfomuseum",
    "media:status_id": 1,
    "media:uri_template": "https://static.sfomuseum.org/media/152/783/157/5/1527831575_{secret}_{label}.{extension}",
    "millsfield:aircraft_id": [
      1159290417
    ],
    "millsfield:airline_id": [
      1159284991
    ],
    "millsfield:category_id": 1511214209,
    "millsfield:collection_id": 1511214207,
    "millsfield:company_id": [],
    "millsfield:images_colors": [
      {
        "hex": "#b9bab4",
        "name": "#b9bab4",
        "reference": "marekm4"
      },
      {
        "hex": "#c0c0c0",
        "name": "silver",
        "reference": "css4"
      },
      {
        "hex": "#b0b7c6",
        "name": "Cadet Blue",
        "reference": "crayola"
      },
      {
        "hex": "#5e625c",
        "name": "#5e625c",
        "reference": "marekm4"
      },
      {
        "hex": "#696969",
        "name": "dimgrey",
        "reference": "css4"
      },
      {
        "hex": "#6e5160",
        "name": "Eggplant",
        "reference": "crayola"
      },
      {
        "hex": "#83857d",
        "name": "#83857d",
        "reference": "marekm4"
      },
      {
        "hex": "#808080",
        "name": "grey",
        "reference": "css4"
      },
      {
        "hex": "#757575",
        "name": "Sonic Silver",
        "reference": "crayola"
      },
      {
        "hex": "#7e817b",
        "name": "#7e817b",
        "reference": "marekm4"
      }
    ],
    "millsfield:similar": {
      "apple/mobileclip_s0": [
        {
          "distance": 0.42915425,
          "id": 1527831573
        },
        {
          "distance": 0.46598113,
          "id": 1846755635
        },
        {
          "distance": 0.5204461,
          "id": 1846755631
        },
        {
          "distance": 0.5243223,
          "id": 1762704461
        },
        {
          "distance": 0.52878773,
          "id": 1762710087
        },
        {
          "distance": 0.5299643,
          "id": 1762895563
        },
        {
          "distance": 0.54948616,
          "id": 1762710123
        },
        {
          "distance": 0.5504473,
          "id": 1762708823
        },
        {
          "distance": 0.5511175,
          "id": 1762703077
        },
        {
          "distance": 0.55872315,
          "id": 1762703059
        }
      ],
      "apple/mobileclip_s1": [
        {
          "distance": 0.26557046,
          "id": 1527831573
        },
        {
          "distance": 0.28823882,
          "id": 1527831571
        },
        {
          "distance": 0.30758786,
          "id": 1762704461
        },
        {
          "distance": 0.3430545,
          "id": 1847486297
        },
        {
          "distance": 0.35037336,
          "id": 1527831565
        },
        {
          "distance": 0.35105702,
          "id": 2014997683
        },
        {
          "distance": 0.35376942,
          "id": 2014998117
        },
        {
          "distance": 0.36015543,
          "id": 2014998045
        },
        {
          "distance": 0.3626159,
          "id": 1846755631
        },
        {
          "distance": 0.36293507,
          "id": 2014998051
        }
      ],
      "apple/mobileclip_s2": [
        {
          "distance": 0.29799724,
          "id": 1527831573
        },
        {
          "distance": 0.31522855,
          "id": 1527831571
        },
        {
          "distance": 0.35729867,
          "id": 1762704461
        },
        {
          "distance": 0.4272351,
          "id": 2014998117
        },
        {
          "distance": 0.43547806,
          "id": 2014997781
        },
        {
          "distance": 0.44032213,
          "id": 2014998045
        },
        {
          "distance": 0.44843745,
          "id": 2014997907
        },
        {
          "distance": 0.44912723,
          "id": 1527831565
        },
        {
          "distance": 0.4579047,
          "id": 1527831563
        },
        {
          "distance": 0.4612665,
          "id": 1762708819
        }
      ]
    },
    "millsfield:subcategory_id": 1511213367,
    "millsfield:tail_numbers": [
      "NC33609"
    ],
    "millsfield:tailnumbers": [
      "NC33609"
    ],
    "mz:hierarchy_label": 1,
    "mz:is_current": -1,
    "sfomuseum:filename": "60587.tif",
    "sfomuseum:image_id": 60587,
    "sfomuseum:image_index": 5,
    "sfomuseum:image_type": "studio",
    "sfomuseum:object_id": 142714,
    "sfomuseum:placetype": "image",
    "sfomuseum:primary_image": 1,
    "src:geom": "sfomuseum",
    "wof:belongsto": [
      1511214209,
      1511955785,
      102527513,
      102191575,
      85633793,
      1511213367,
      85922583,
      102087579,
      1511214277,
      1511214203,
      85688637
    ],
    "wof:breaches": [],
    "wof:country": "XX",
    "wof:created": 1578951173,
    "wof:depicts": [
      1511955785,
      1159290417,
      1159284991,
      1159286839
    ],
    "wof:geomhash": "bd906905ce4be6c0651c90b0fc24804c",
    "wof:hierarchy": [
      {
        "arcade_id": 1511213367,
        "building_id": 1511214277,
        "campus_id": 102527513,
        "concourse_id": 1511214209,
        "continent_id": 102191575,
        "country_id": 85633793,
        "county_id": 102087579,
        "custom_id": 1527831575,
        "image_id": 1527831575,
        "locality_id": 85922583,
        "media_id": 1527831575,
        "neighbourhood_id": -1,
        "region_id": 85688637,
        "venue_id": 1511955785,
        "wing_id": 1511214203
      }
    ],
    "wof:id": 1527831575,
    "wof:lastmodified": 1788449879,
    "wof:name": "photograph: Pan American Airways, Douglas DC-3",
    "wof:parent_id": 1511955785,
    "wof:placetype": "custom",
    "wof:placetype_alt": [
      "image"
    ],
    "wof:repo": "sfomuseum-data-media-collection",
    "wof:superseded_by": [],
    "wof:supersedes": [],
    "wof:tags": []
  },
  "bbox": [
    -122.386155,
    37.616358,
    -122.386155,
    37.616358
  ],
  "geometry": {"type":"Point","coordinates":[-122.386155,37.616358]}
}
