{
  "id": 1763204887,
  "type": "Feature",
  "properties": {
    "date:cessation_lower": "1980-01-01",
    "date:cessation_upper": "1989-12-31",
    "date:inception_lower": "1980-01-01",
    "date:inception_upper": "1989-12-31",
    "edtf:cessation": "198X",
    "edtf:inception": "198X",
    "geom:area": 2.477324999997507e-7,
    "geom:bbox": "-122.386472,37.616105,-122.385834,37.616611",
    "geom:latitude": 37.61635756125121,
    "geom:longitude": -122.38615532866096,
    "media:fingerprint": "549d59c7264843aff53ac66c4fb109272f5801cc",
    "media:imagehash_avg": "a:007f3f3f1f7f7921",
    "media:imagehash_diff": "d:ddcc6c6cfccccbc9",
    "media:imagetext": "II\nPARA ENJOO\nFOR AIR SICKNESS\nAIR PORTUGAL",
    "media:imagetext_created": 1787961262,
    "media:imagetext_source": "com.apple.visionkit.VNImageRequestHandler#Version 26.6.2 (Build 25G83)",
    "media:mimetype": "image/tiff",
    "media:properties": {
      "sizes": {
        "b": {
          "extension": "jpg",
          "height": 768,
          "mimetype": "image/jpeg",
          "secret": "QgljQx4HaV3J9OLqWYilbPaUVLe0friT",
          "width": 349
        },
        "c": {
          "extension": "jpg",
          "height": 600,
          "mimetype": "image/jpeg",
          "secret": "QgljQx4HaV3J9OLqWYilbPaUVLe0friT",
          "width": 273
        },
        "dc": {
          "extension": "jpg",
          "height": 600,
          "mimetype": "image/jpeg",
          "secret": "QgljQx4HaV3J9OLqWYilbPaUVLe0friT",
          "width": 273
        },
        "ds": {
          "extension": "jpg",
          "height": 320,
          "mimetype": "image/jpeg",
          "secret": "QgljQx4HaV3J9OLqWYilbPaUVLe0friT",
          "width": 320
        },
        "k": {
          "extension": "jpg",
          "height": 1536,
          "mimetype": "image/jpeg",
          "secret": "QgljQx4HaV3J9OLqWYilbPaUVLe0friT",
          "width": 698
        },
        "n": {
          "extension": "jpg",
          "height": 240,
          "mimetype": "image/jpeg",
          "secret": "QgljQx4HaV3J9OLqWYilbPaUVLe0friT",
          "width": 109
        },
        "o": {
          "extension": "jpg",
          "height": 2000,
          "mimetype": "image/jpeg",
          "secret": "4f7uZQd1zGymODOyUybLrkEjlZvMU1hW",
          "width": 910
        },
        "s": {
          "extension": "jpg",
          "height": 320,
          "mimetype": "image/jpeg",
          "secret": "QgljQx4HaV3J9OLqWYilbPaUVLe0friT",
          "width": 320
        },
        "z": {
          "extension": "jpg",
          "height": 480,
          "mimetype": "image/jpeg",
          "secret": "QgljQx4HaV3J9OLqWYilbPaUVLe0friT",
          "width": 218
        }
      }
    },
    "media:source": "sfomuseum",
    "media:status_id": 1,
    "media:uri_template": "https://static.sfomuseum.org/media/176/320/488/7/1763204887_{secret}_{label}.{extension}",
    "millsfield:airline_id": [
      1159285271
    ],
    "millsfield:category_id": 1762671311,
    "millsfield:collection_id": 1511214207,
    "millsfield:company_id": [
      1159287519
    ],
    "millsfield:images_colors": [
      {
        "hex": "#f3f4f1",
        "name": "#f3f4f1",
        "reference": "marekm4"
      },
      {
        "hex": "#f5f5f5",
        "name": "whitesmoke",
        "reference": "css4"
      },
      {
        "hex": "#ffffff",
        "name": "White",
        "reference": "crayola"
      },
      {
        "hex": "#dd2a34",
        "name": "#dd2a34",
        "reference": "marekm4"
      },
      {
        "hex": "#dc143c",
        "name": "crimson",
        "reference": "css4"
      },
      {
        "hex": "#ee204d",
        "name": "Red",
        "reference": "crayola"
      }
    ],
    "millsfield:images_texts": [
      "Jac\nPARA ENJÔO\nFOR AIR SICKNESS\nTaP\nAIR PORTUGAL",
      "II\nPARA ENJOO\nFOR AIR SICKNESS\nAIR PORTUGAL"
    ],
    "millsfield:images_texts_ids": [
      1763204883,
      1763204887
    ],
    "millsfield:similar": {
      "apple/mobileclip_s0": [
        {
          "distance": 0.49709406,
          "id": 1763204883
        },
        {
          "distance": 0.5846217,
          "id": 1779502909
        },
        {
          "distance": 0.59641653,
          "id": 1527823331
        },
        {
          "distance": 0.6179293,
          "id": 2048164377
        },
        {
          "distance": 0.6208383,
          "id": 1763205221
        },
        {
          "distance": 0.62087625,
          "id": 1763205397
        },
        {
          "distance": 0.62391484,
          "id": 1763205055
        },
        {
          "distance": 0.6265926,
          "id": 1763241077
        },
        {
          "distance": 0.627626,
          "id": 1527823501
        },
        {
          "distance": 0.62916297,
          "id": 1527824579
        }
      ],
      "apple/mobileclip_s1": [
        {
          "distance": 0.33028415,
          "id": 1763204883
        },
        {
          "distance": 0.35414916,
          "id": 1779502909
        },
        {
          "distance": 0.48428237,
          "id": 1763205025
        },
        {
          "distance": 0.49309692,
          "id": 1779502975
        },
        {
          "distance": 0.4936488,
          "id": 1763205035
        },
        {
          "distance": 0.49878186,
          "id": 1527823363
        },
        {
          "distance": 0.5019236,
          "id": 1763205115
        },
        {
          "distance": 0.5019998,
          "id": 1763204869
        },
        {
          "distance": 0.50472593,
          "id": 1527823509
        },
        {
          "distance": 0.50546324,
          "id": 1763205029
        }
      ],
      "apple/mobileclip_s2": [
        {
          "distance": 0.32061294,
          "id": 1763204883
        },
        {
          "distance": 0.4393724,
          "id": 1779502909
        },
        {
          "distance": 0.66825265,
          "id": 1763241079
        },
        {
          "distance": 0.6726251,
          "id": 1527824459
        },
        {
          "distance": 0.6781786,
          "id": 1527823363
        },
        {
          "distance": 0.68550503,
          "id": 1527823365
        },
        {
          "distance": 0.69700927,
          "id": 1763205035
        },
        {
          "distance": 0.6980141,
          "id": 1527823357
        },
        {
          "distance": 0.7046461,
          "id": 1527824461
        },
        {
          "distance": 0.72135067,
          "id": 1527823331
        }
      ]
    },
    "millsfield:subcategory_id": 1511213185,
    "mz:is_current": 1,
    "sfomuseum:filename": "41640.tif",
    "sfomuseum:image_id": 41640,
    "sfomuseum:image_index": 5,
    "sfomuseum:image_type": "studio",
    "sfomuseum:object_id": 70313,
    "sfomuseum:placetype": "image",
    "sfomuseum:primary_image": 0,
    "src:geom": "sfomuseum",
    "wof:belongsto": [
      102527513,
      1159162825,
      102191575,
      85633793,
      102087579,
      85922583,
      1763204341,
      85688637,
      1159160869
    ],
    "wof:country": "XY",
    "wof:created": 1646469466,
    "wof:depicts": [
      1159285271,
      1159287519,
      1763204341
    ],
    "wof:geomhash": "ed7c2ab3547fc3916b5edc33488deaa7",
    "wof:hierarchy": [
      {
        "building_id": -1,
        "campus_id": 102527513,
        "collection_id": 1159162825,
        "concourse_id": 1159162825,
        "continent_id": 102191575,
        "country_id": 85633793,
        "county_id": 102087579,
        "custom_id": 1763204887,
        "image_id": 1763204887,
        "locality_id": 85922583,
        "neighbourhood_id": -1,
        "object_id": 1763204341,
        "region_id": 85688637,
        "wing_id": 1159160869
      }
    ],
    "wof:id": 1763204887,
    "wof:lastmodified": 1788450984,
    "wof:name": "airsickness bag: TAP Air Portugal",
    "wof:parent_id": 1763204341,
    "wof:placetype": "custom",
    "wof:placetype_alt": [
      "image"
    ],
    "wof:repo": "sfomuseum-data-media-collection",
    "wof:superseded_by": [],
    "wof:supersedes": []
  },
  "bbox": [
    -122.386472,
    37.616105,
    -122.385834,
    37.616611
  ],
  "geometry": {"type":"Polygon","coordinates":[[[-122.386472,37.616318],[-122.386435,37.616233],[-122.386376,37.616178],[-122.386301,37.616131],[-122.386161,37.616105],[-122.386022,37.616131],[-122.385914,37.616186],[-122.385855,37.616267],[-122.385834,37.616369],[-122.385871,37.616467],[-122.385941,37.616543],[-122.386054,37.616603],[-122.386183,37.616611],[-122.386306,37.616573],[-122.386419,37.616509],[-122.386467,37.616411],[-122.386472,37.616318]]]}
}
