{
  "id": 1527847555,
  "type": "Feature",
  "properties": {
    "date:cessation_lower": "1983-01-01",
    "date:cessation_upper": "1983-12-31",
    "date:inception_lower": "1983-01-01",
    "date:inception_upper": "1983-12-31",
    "edtf:cessation": "1983",
    "edtf:date": "1983",
    "edtf:inception": "1983",
    "geom:area": 0,
    "geom:bbox": "-122.386155,37.616358,-122.386155,37.616358",
    "geom:latitude": 37.616358,
    "geom:longitude": -122.386155,
    "iso:country": "XX",
    "media:fingerprint": "5ef0b16fc0b8a6f0828e0dc72cdb2acab118e599",
    "media:imagehash_avg": "a:ffc38181818181ff",
    "media:imagehash_diff": "d:31173b3b2f371f3f",
    "media:imagetext": "•CHINA AIRLINES •\nTIMETABLE BERNOSER\nф#R®t†=#+—я—8£tł=*=я=†—8#*\nEFFECTIVE\nNOV. 1, 1983-MAR. 31, 1984",
    "media:imagetext_created": 1787952347,
    "media:imagetext_source": "com.apple.visionkit.VNImageRequestHandler#Version 26.6.2 (Build 25G83)",
    "media:medium": "image",
    "media:mimetype": "image/tiff",
    "media:properties": {
      "sizes": {
        "b": {
          "extension": "jpg",
          "height": 768,
          "mimetype": "image/jpeg",
          "secret": "ECfPlC9FMOwJxNaSis1Fb6KalroOAcq0",
          "width": 390
        },
        "c": {
          "extension": "jpg",
          "height": 600,
          "mimetype": "image/jpeg",
          "secret": "ECfPlC9FMOwJxNaSis1Fb6KalroOAcq0",
          "width": 304
        },
        "dc": {
          "extension": "jpg",
          "height": 600,
          "mimetype": "image/jpeg",
          "secret": "ECfPlC9FMOwJxNaSis1Fb6KalroOAcq0",
          "width": 304
        },
        "ds": {
          "extension": "jpg",
          "height": 320,
          "mimetype": "image/jpeg",
          "secret": "ECfPlC9FMOwJxNaSis1Fb6KalroOAcq0",
          "width": 320
        },
        "k": {
          "extension": "jpg",
          "height": 1536,
          "mimetype": "image/jpeg",
          "secret": "ECfPlC9FMOwJxNaSis1Fb6KalroOAcq0",
          "width": 780
        },
        "n": {
          "extension": "jpg",
          "height": 240,
          "mimetype": "image/jpeg",
          "secret": "ECfPlC9FMOwJxNaSis1Fb6KalroOAcq0",
          "width": 121
        },
        "o": {
          "extension": "jpg",
          "height": 2377,
          "mimetype": "image/jpeg",
          "secret": "GW1FZroK8dnEzK7XtowQwQvBxzDhsoyq",
          "width": 1208
        },
        "s": {
          "extension": "jpg",
          "height": 320,
          "mimetype": "image/jpeg",
          "secret": "ECfPlC9FMOwJxNaSis1Fb6KalroOAcq0",
          "width": 320
        },
        "z": {
          "extension": "jpg",
          "height": 480,
          "mimetype": "image/jpeg",
          "secret": "ECfPlC9FMOwJxNaSis1Fb6KalroOAcq0",
          "width": 243
        }
      }
    },
    "media:source": "sfomuseum",
    "media:status_id": 1,
    "media:uri_template": "https://static.sfomuseum.org/media/152/784/755/5/1527847555_{secret}_{label}.{extension}",
    "millsfield:airline_id": [
      1159284153
    ],
    "millsfield:category_id": 1511214223,
    "millsfield:collection_id": 1511214207,
    "millsfield:company_id": [
      1159288057
    ],
    "millsfield:images_colors": [
      {
        "hex": "#235591",
        "name": "#235591",
        "reference": "marekm4"
      },
      {
        "hex": "#483d8b",
        "name": "darkslateblue",
        "reference": "css4"
      },
      {
        "hex": "#2e5894",
        "name": "B'dazzled Blue",
        "reference": "crayola"
      },
      {
        "hex": "#4a3b32",
        "name": "#4a3b32",
        "reference": "marekm4"
      },
      {
        "hex": "#2f4f4f",
        "name": "darkslategrey",
        "reference": "css4"
      },
      {
        "hex": "#414a4c",
        "name": "Outer Space",
        "reference": "crayola"
      },
      {
        "hex": "#cdd4dc",
        "name": "#cdd4dc",
        "reference": "marekm4"
      },
      {
        "hex": "#d3d3d3",
        "name": "lightgrey",
        "reference": "css4"
      },
      {
        "hex": "#c5d0e6",
        "name": "Periwinkle",
        "reference": "crayola"
      }
    ],
    "millsfield:images_texts": [
      "•CHINA AIRLINES •\nTIMETABLE BERNOSER\nф#R®t†=#+—я—8£tł=*=я=†—8#*\nEFFECTIVE\nNOV. 1, 1983-MAR. 31, 1984"
    ],
    "millsfield:images_texts_ids": [
      1527847555
    ],
    "millsfield:similar": {
      "apple/mobileclip_s0": [
        {
          "distance": 0.2465163,
          "id": 1527847553
        },
        {
          "distance": 0.44611308,
          "id": 1762699353
        },
        {
          "distance": 0.53849775,
          "id": 1527847549
        },
        {
          "distance": 0.5452828,
          "id": 1762699351
        },
        {
          "distance": 0.5877013,
          "id": 1779736411
        },
        {
          "distance": 0.66854227,
          "id": 1527843853
        },
        {
          "distance": 0.692828,
          "id": 1763241151
        },
        {
          "distance": 0.6971269,
          "id": 1527842395
        },
        {
          "distance": 0.701823,
          "id": 1527842311
        },
        {
          "distance": 0.70370483,
          "id": 1527842303
        }
      ],
      "apple/mobileclip_s1": [
        {
          "distance": 0.25662607,
          "id": 1527847553
        },
        {
          "distance": 0.40648088,
          "id": 1762699351
        },
        {
          "distance": 0.4084974,
          "id": 1762699353
        },
        {
          "distance": 0.43940496,
          "id": 1527847549
        },
        {
          "distance": 0.5131558,
          "id": 1762697113
        },
        {
          "distance": 0.51338196,
          "id": 1779736411
        },
        {
          "distance": 0.5362744,
          "id": 1527836521
        },
        {
          "distance": 0.5419772,
          "id": 1763196421
        },
        {
          "distance": 0.5459359,
          "id": 1746681211
        },
        {
          "distance": 0.5493618,
          "id": 1527836637
        }
      ],
      "apple/mobileclip_s2": [
        {
          "distance": 0.25645587,
          "id": 1527847553
        },
        {
          "distance": 0.5153207,
          "id": 1762699353
        },
        {
          "distance": 0.63765496,
          "id": 1779736411
        },
        {
          "distance": 0.6562372,
          "id": 1762699351
        },
        {
          "distance": 0.6779953,
          "id": 1527847549
        },
        {
          "distance": 0.6903224,
          "id": 1746680937
        },
        {
          "distance": 0.69430155,
          "id": 1762700881
        },
        {
          "distance": 0.6978069,
          "id": 1762699717
        },
        {
          "distance": 0.7175398,
          "id": 1527836637
        },
        {
          "distance": 0.71759826,
          "id": 1762700261
        }
      ]
    },
    "millsfield:subcategory_id": 1511213425,
    "mz:hierarchy_label": 1,
    "mz:is_current": -1,
    "sfomuseum:filename": "2009.122.266.tif",
    "sfomuseum:image_id": 71590,
    "sfomuseum:image_index": 5,
    "sfomuseum:image_type": "studio",
    "sfomuseum:object_id": 103269,
    "sfomuseum:placetype": "image",
    "sfomuseum:primary_image": 1,
    "src:geom": "sfomuseum",
    "wof:belongsto": [
      1511214223,
      1511940507,
      102527513,
      102191575,
      85633793,
      1511213425,
      85922583,
      102087579,
      1511214277,
      1511214203,
      85688637
    ],
    "wof:breaches": [],
    "wof:country": "XX",
    "wof:created": 1578953694,
    "wof:depicts": [
      1159284153,
      1159288057,
      1511940507
    ],
    "wof:geomhash": "bd906905ce4be6c0651c90b0fc24804c",
    "wof:hierarchy": [
      {
        "arcade_id": 1511213425,
        "building_id": 1511214277,
        "campus_id": 102527513,
        "concourse_id": 1511214223,
        "continent_id": 102191575,
        "country_id": 85633793,
        "county_id": 102087579,
        "custom_id": 1527847555,
        "image_id": 1527847555,
        "locality_id": 85922583,
        "media_id": 1527847555,
        "neighbourhood_id": -1,
        "region_id": 85688637,
        "venue_id": 1511940507,
        "wing_id": 1511214203
      }
    ],
    "wof:id": 1527847555,
    "wof:lastmodified": 1788450131,
    "wof:name": "timetable: China Airlines",
    "wof:parent_id": 1511940507,
    "wof:placetype": "custom",
    "wof:placetype_alt": [
      "image"
    ],
    "wof:repo": "sfomuseum-data-media-collection",
    "wof:superseded_by": [],
    "wof:supersedes": [],
    "wof:tags": []
  },
  "bbox": [
    -122.386155,
    37.616358,
    -122.386155,
    37.616358
  ],
  "geometry": {"type":"Point","coordinates":[-122.386155,37.616358]}
}
