{
  "id": 1779668093,
  "type": "Feature",
  "properties": {
    "date:cessation_lower": "1984-01-01",
    "date:cessation_upper": "1984-12-31",
    "date:inception_lower": "1984-01-01",
    "date:inception_upper": "1984-12-31",
    "edtf:cessation": "1984",
    "edtf:inception": "1984",
    "geom:area": 2.477324999997507e-7,
    "geom:bbox": "-122.386472,37.616105,-122.385834,37.616611",
    "geom:latitude": 37.61635756125121,
    "geom:longitude": -122.38615532866096,
    "media:fingerprint": "4169f1479ffb7a7f2ad284531239d59a1770468c",
    "media:imagehash_avg": "a:f7e7e3c3e3e3c3c3",
    "media:imagehash_diff": "d:2e0e0f0f0f0f070f",
    "media:imagetext": "Menu\n*471\nCaviar served with traditional accompaniments of hard\ncooked egg, onion and toast triangles\nSelected Hors d'Oeuvres\nFresh garden salad presented from the Dining Service Cart\nTenderloin of Beef roasted on board and carved to order.\nServed with an assortment of sauces\nRoasted duckling in a Calvados cream sauce garnished with baked apple and bing cherries\n*I *2 F)E A\nFresh filet of Red Fish from the China Sea baked in a chili seasoned tomato sauce\nFried Rice\n51 *\nPotatoes Maison\nButtered Vegetable Bouquet\n8X0*472 +\nFresh Fruit and Selected Cheeses\nGinger Ice Cream Cake\nOr\nFruit Gâteau\nInternational Coffee\nPerfect after any meal! Enjoy Pan Am's world famous coffees topped with whipped cream\nCafé Parisienne\nwith Grand Marnier\nCafé Royale\nCoffee and Cognac\nIrish Coffee\nwith Baileys Irish Cream\nItalian Coffee\nwith Amaretto di Saronno\nCafé Mexicano\nCoffee and Kahlúa",
    "media:imagetext_created": 1787964659,
    "media:imagetext_source": "com.apple.visionkit.VNImageRequestHandler#Version 26.6.2 (Build 25G83)",
    "media:mimetype": "image/tiff",
    "media:properties": {
      "sizes": {
        "b": {
          "extension": "jpg",
          "height": 768,
          "mimetype": "image/jpeg",
          "secret": "pKWOCA3itM37zDoVSuUF4fyIzDh7yQvq",
          "width": 989
        },
        "c": {
          "extension": "jpg",
          "height": 600,
          "mimetype": "image/jpeg",
          "secret": "pKWOCA3itM37zDoVSuUF4fyIzDh7yQvq",
          "width": 772
        },
        "dc": {
          "extension": "jpg",
          "height": 600,
          "mimetype": "image/jpeg",
          "secret": "pKWOCA3itM37zDoVSuUF4fyIzDh7yQvq",
          "width": 772
        },
        "ds": {
          "extension": "jpg",
          "height": 320,
          "mimetype": "image/jpeg",
          "secret": "pKWOCA3itM37zDoVSuUF4fyIzDh7yQvq",
          "width": 320
        },
        "k": {
          "extension": "jpg",
          "height": 1536,
          "mimetype": "image/jpeg",
          "secret": "pKWOCA3itM37zDoVSuUF4fyIzDh7yQvq",
          "width": 1978
        },
        "n": {
          "extension": "jpg",
          "height": 240,
          "mimetype": "image/jpeg",
          "secret": "pKWOCA3itM37zDoVSuUF4fyIzDh7yQvq",
          "width": 309
        },
        "o": {
          "extension": "jpg",
          "height": 1553,
          "mimetype": "image/jpeg",
          "secret": "e0EyweqPGYBOCyAGsXezkLYmF7KpG42g",
          "width": 2000
        },
        "s": {
          "extension": "jpg",
          "height": 320,
          "mimetype": "image/jpeg",
          "secret": "pKWOCA3itM37zDoVSuUF4fyIzDh7yQvq",
          "width": 320
        },
        "z": {
          "extension": "jpg",
          "height": 480,
          "mimetype": "image/jpeg",
          "secret": "pKWOCA3itM37zDoVSuUF4fyIzDh7yQvq",
          "width": 618
        }
      }
    },
    "media:source": "sfomuseum",
    "media:status_id": 1,
    "media:uri_template": "https://static.sfomuseum.org/media/177/966/809/3/1779668093_{secret}_{label}.{extension}",
    "millsfield:aircraft_id": [
      1159289931
    ],
    "millsfield:airline_id": [
      1159284989
    ],
    "millsfield:category_id": 1762671311,
    "millsfield:collection_id": 1511214207,
    "millsfield:company_id": [
      1159293593,
      1159289873
    ],
    "millsfield:images_colors": [
      {
        "hex": "#faf1ce",
        "name": "#faf1ce",
        "reference": "marekm4"
      },
      {
        "hex": "#ffebcd",
        "name": "blanchedalmond",
        "reference": "css4"
      },
      {
        "hex": "#efdecd",
        "name": "Almond",
        "reference": "crayola"
      },
      {
        "hex": "#494129",
        "name": "#494129",
        "reference": "marekm4"
      },
      {
        "hex": "#556b2f",
        "name": "darkolivegreen",
        "reference": "css4"
      },
      {
        "hex": "#414a4c",
        "name": "Outer Space",
        "reference": "crayola"
      }
    ],
    "millsfield:images_texts": [
      "Pan American Clipper Constitution arrives over Tokyo afler flying 5,478 miles nonstop\nfrom Los Angeles, April 25, 1976\nBoding Bruz JeS",
      "Historic First Flights of Pan American Clippers\nPan American Clipper Constitution arrives over Jokyo\nafter flying 5,478 miles nonstop from Los Angeles,\nApril 25, 1976\nLos Angeles to Tokyo nonstop service is inaugurated by Pan Am's Clipper Constitution N532PA, comman-\nded by Captain Jake M. Marcum. Flying time: 11 hours, 44 minutes.\nThe following day the Clipper Freedom N531PA, under the command of Captain James Neil King, flies non-\nstop from New York to Tokyo - a distance of 6,916 miles - in 13 hours, 40 minutes.\nThe two record-breaking inaugural flights marked the first use of Pan Am's new Boeing B747SP (Special\nPerformance) jetliner. Forty-seven feet shorter than the regular B747, it has the longest range of any commercial\naircraft. Many routes that previously required a fuel stop are now flown nonstop by Pan Am's fleet of B747SPs.\nAbout the Artist\nIn 1926, John T. McCoy became a working student for the Curtiss Flying Ser-\nvice, Curtiss Field, Long Island, New York.\nWhen Charles A. Lindbergh arrived at Curtiss Field, his SPIRIT OF ST. LOUIS\nwas housed in one of the Curtiss hangars. It was at this time that McCoy met\nLindbergh, who was most cordial and friendly to those who worked on the flight\nline. In those days muscle power was the method used for starting engines, ac-\ncomplished by swinging the propeller by hand. McCoy often pulled a prop through\nfor Lindbergh.\nYears later, when McCoy was commissioned to do paintings depicting the\nhistory of Pan American World Airways, Inc. - entitled HISTORIC FIRST FLIGHTS\nOF PAN AMERICAN CLIPPERS - he consulted with Lindbergh on the selection of\naircraft and locations for the series.\nThis is one picture in a series of thirteen. If you would like to purchase 8½\" × 11\"\nor 16\" × 20\" limited edition prints, send your letter of inquiry to: Public Relations\nDepartment - Pan American World Airways, Inc., Pan Am Building, New York, New\nYork 10166. Please include code number 304 in your letter.",
      "Noilly Prat Vermouth\nManhattan\nScrewdriver\nAperitifs\nDry Sherry\nCocktails\nVodka Martini\nGin Martini\nDaiquiri\nTom Collins\nMr. and Mrs. \"T\" Bloody Mary\nHarvey Bristol Cream Campari\nWhiskey Sour\nVodka Collins\nJ. Walker Black\nCanadian Club\nSpirits\nJ\u0026B Scotch\nSmirnoff Vodka\nOld Grand Dad\nJack Daniels\nBeefeater Gin\nBacardi Rum\nWines\nGeorges Duboeuf Mâcon Villages\nGeorges Duboeuf Fleurie\nRobert Mondavi Cabernet Sauvignon\nChampagne\nMoët et Chandon Brut Impérial\nCognac, Liqueurs \u0026 Port\nBénédictine D.O.M.\nDrambuie\nGrand Marnier\nAmaretto di Saronno\nCognac Camus Napoléon\nKahlúa\nBaileys Irish Cream\nSandeman Port\nBeverages\nCoca-Cola\nDiet Coke\nCanada Dry Beverages\nAssorted Beers\nFruit Juices\nCountry Time\"\nLemonade Flavor Drink",
      "Menu\n*471\nCaviar served with traditional accompaniments of hard\ncooked egg, onion and toast triangles\nSelected Hors d'Oeuvres\nFresh garden salad presented from the Dining Service Cart\nTenderloin of Beef roasted on board and carved to order.\nServed with an assortment of sauces\nRoasted duckling in a Calvados cream sauce garnished with baked apple and bing cherries\n*I *2 F)E A\nFresh filet of Red Fish from the China Sea baked in a chili seasoned tomato sauce\nFried Rice\n51 *\nPotatoes Maison\nButtered Vegetable Bouquet\n8X0*472 +\nFresh Fruit and Selected Cheeses\nGinger Ice Cream Cake\nOr\nFruit Gâteau\nInternational Coffee\nPerfect after any meal! Enjoy Pan Am's world famous coffees topped with whipped cream\nCafé Parisienne\nwith Grand Marnier\nCafé Royale\nCoffee and Cognac\nIrish Coffee\nwith Baileys Irish Cream\nItalian Coffee\nwith Amaretto di Saronno\nCafé Mexicano\nCoffee and Kahlúa",
      "Cold Collation\nAn assortment of finger sandwiches will be offered mid-flight along with your favorite beverage\nBreakfast\nA bouquet of fresh chilled fruit\nAssorted dry cereals served with fruit and light cream or milk\nPoached eggs nestled in pastry tarts filled with spinach soufflé\nand glazed with a Mornay cheese sauce\nDelicate omelette with a filling of sautéed green peppers\nand onions in a rich tomato sauce\nYour choice of grilled breakfast steak, broiled sausages\nor tender lamb chop will be served with your entree\nAssorted Breakfast Breads\nCoffee\nButter and Preserves\nKI.\n*\nTasters Choice\nDecaffeinated Coffee\nTeal\n*\nGreen Tea\n*H*A\nJasmine Tea\nPlease accept our apology if, due to previous passenger selections, your choice is not available.\n22l\n9-18-84"
    ],
    "millsfield:images_texts_ids": [
      1779668085,
      1779668087,
      1779668089,
      1779668093,
      1779668095
    ],
    "millsfield:similar": {
      "apple/mobileclip_s0": [
        {
          "distance": 0.1893178,
          "id": 1779667995
        },
        {
          "distance": 0.22118106,
          "id": 1779668151
        },
        {
          "distance": 0.28704095,
          "id": 1779666305
        },
        {
          "distance": 0.3432405,
          "id": 1779666331
        },
        {
          "distance": 0.35046116,
          "id": 1863470125
        },
        {
          "distance": 0.35095876,
          "id": 1779666213
        },
        {
          "distance": 0.35587162,
          "id": 1779668185
        },
        {
          "distance": 0.36580127,
          "id": 1779666259
        },
        {
          "distance": 0.37481272,
          "id": 1863470085
        },
        {
          "distance": 0.39056614,
          "id": 1779666235
        }
      ],
      "apple/mobileclip_s1": [
        {
          "distance": 0.14528319,
          "id": 1779667995
        },
        {
          "distance": 0.17444198,
          "id": 1779668151
        },
        {
          "distance": 0.22422685,
          "id": 1863470125
        },
        {
          "distance": 0.22630286,
          "id": 1863470085
        },
        {
          "distance": 0.2422577,
          "id": 1779666331
        },
        {
          "distance": 0.26821455,
          "id": 1779666305
        },
        {
          "distance": 0.2967111,
          "id": 1779666169
        },
        {
          "distance": 0.30217686,
          "id": 1779668185
        },
        {
          "distance": 0.30951336,
          "id": 1779668165
        },
        {
          "distance": 0.31921855,
          "id": 1779666295
        }
      ],
      "apple/mobileclip_s2": [
        {
          "distance": 0.23044777,
          "id": 1779667995
        },
        {
          "distance": 0.28262153,
          "id": 1779666331
        },
        {
          "distance": 0.33039793,
          "id": 1863470125
        },
        {
          "distance": 0.34008947,
          "id": 1779668151
        },
        {
          "distance": 0.3420638,
          "id": 1863470085
        },
        {
          "distance": 0.3659047,
          "id": 1779668185
        },
        {
          "distance": 0.4499912,
          "id": 1779666305
        },
        {
          "distance": 0.45359042,
          "id": 1779668045
        },
        {
          "distance": 0.45760632,
          "id": 1779666169
        },
        {
          "distance": 0.48175648,
          "id": 1779666387
        }
      ]
    },
    "millsfield:subcategory_id": 1511213567,
    "mz:is_current": 1,
    "sfomuseum:filename": "2015.146.089_int3.tif",
    "sfomuseum:image_id": 222713,
    "sfomuseum:image_index": 5,
    "sfomuseum:image_type": "studio",
    "sfomuseum:object_id": 173344,
    "sfomuseum:placetype": "image",
    "sfomuseum:primary_image": 0,
    "src:geom": "sfomuseum",
    "wof:belongsto": [
      102527513,
      1159162825,
      102191575,
      85633793,
      102087579,
      85922583,
      1779667393,
      85688637,
      1159160869
    ],
    "wof:country": "XY",
    "wof:created": 1655193613,
    "wof:depicts": [
      1159289931,
      1159293593,
      1159289873,
      1159284989,
      1159286839,
      1779667393
    ],
    "wof:geomhash": "ed7c2ab3547fc3916b5edc33488deaa7",
    "wof:hierarchy": [
      {
        "building_id": -1,
        "campus_id": 102527513,
        "collection_id": 1159162825,
        "concourse_id": 1159162825,
        "continent_id": 102191575,
        "country_id": 85633793,
        "county_id": 102087579,
        "custom_id": 1779668093,
        "image_id": 1779668093,
        "locality_id": 85922583,
        "neighbourhood_id": -1,
        "object_id": 1779667393,
        "region_id": 85688637,
        "wing_id": 1159160869
      }
    ],
    "wof:id": 1779668093,
    "wof:lastmodified": 1788451339,
    "wof:name": "menu: Pan American World Airways, Historic First Flights series, Boeing 747SP",
    "wof:parent_id": 1779667393,
    "wof:placetype": "custom",
    "wof:placetype_alt": [
      "image"
    ],
    "wof:repo": "sfomuseum-data-media-collection",
    "wof:superseded_by": [],
    "wof:supersedes": []
  },
  "bbox": [
    -122.386472,
    37.616105,
    -122.385834,
    37.616611
  ],
  "geometry": {"type":"Polygon","coordinates":[[[-122.386472,37.616318],[-122.386435,37.616233],[-122.386376,37.616178],[-122.386301,37.616131],[-122.386161,37.616105],[-122.386022,37.616131],[-122.385914,37.616186],[-122.385855,37.616267],[-122.385834,37.616369],[-122.385871,37.616467],[-122.385941,37.616543],[-122.386054,37.616603],[-122.386183,37.616611],[-122.386306,37.616573],[-122.386419,37.616509],[-122.386467,37.616411],[-122.386472,37.616318]]]}
}
