{
  "id": 1762701287,
  "type": "Feature",
  "properties": {
    "date:cessation_lower": "1949-07-01",
    "date:cessation_upper": "1949-07-01",
    "date:inception_lower": "1949-07-01",
    "date:inception_upper": "1949-07-01",
    "edtf:cessation": "1949-07-01",
    "edtf:inception": "1949-07-01",
    "geom:area": 2.477324999997507e-7,
    "geom:bbox": "-122.386472,37.616105,-122.385834,37.616611",
    "geom:latitude": 37.61635756125121,
    "geom:longitude": -122.38615532866096,
    "media:fingerprint": "dcb94d8e8b8caf472f72ff45a3612a01a5598dbc",
    "media:imagehash_avg": "a:0000c1fffffff9f9",
    "media:imagehash_diff": "d:2f4f0d674f696343",
    "media:imagetext": "Canadian Cacific\nFAIRELINES\nPACIFIC TIME TABLE\nAND FARES",
    "media:imagetext_created": 1787956264,
    "media:imagetext_source": "com.apple.visionkit.VNImageRequestHandler#Version 26.6.2 (Build 25G83)",
    "media:mimetype": "image/tiff",
    "media:properties": {
      "sizes": {
        "b": {
          "extension": "jpg",
          "height": 768,
          "mimetype": "image/jpeg",
          "secret": "APKtOowLRiZiYitRSdQWVcXrwI0K4n2W",
          "width": 370
        },
        "c": {
          "extension": "jpg",
          "height": 600,
          "mimetype": "image/jpeg",
          "secret": "APKtOowLRiZiYitRSdQWVcXrwI0K4n2W",
          "width": 289
        },
        "dc": {
          "extension": "jpg",
          "height": 600,
          "mimetype": "image/jpeg",
          "secret": "APKtOowLRiZiYitRSdQWVcXrwI0K4n2W",
          "width": 289
        },
        "ds": {
          "extension": "jpg",
          "height": 320,
          "mimetype": "image/jpeg",
          "secret": "APKtOowLRiZiYitRSdQWVcXrwI0K4n2W",
          "width": 320
        },
        "k": {
          "extension": "jpg",
          "height": 1536,
          "mimetype": "image/jpeg",
          "secret": "APKtOowLRiZiYitRSdQWVcXrwI0K4n2W",
          "width": 741
        },
        "n": {
          "extension": "jpg",
          "height": 239,
          "mimetype": "image/jpeg",
          "secret": "APKtOowLRiZiYitRSdQWVcXrwI0K4n2W",
          "width": 115
        },
        "o": {
          "extension": "jpg",
          "height": 2721,
          "mimetype": "image/jpeg",
          "secret": "DVajhwZuWKusvibPlIXiDh1JRqjfvZ7S",
          "width": 1314
        },
        "s": {
          "extension": "jpg",
          "height": 320,
          "mimetype": "image/jpeg",
          "secret": "APKtOowLRiZiYitRSdQWVcXrwI0K4n2W",
          "width": 320
        },
        "z": {
          "extension": "jpg",
          "height": 479,
          "mimetype": "image/jpeg",
          "secret": "APKtOowLRiZiYitRSdQWVcXrwI0K4n2W",
          "width": 231
        }
      }
    },
    "media:source": "sfomuseum",
    "media:status_id": 1,
    "media:uri_template": "https://static.sfomuseum.org/media/176/270/128/7/1762701287_{secret}_{label}.{extension}",
    "millsfield:airline_id": [
      1159284217
    ],
    "millsfield:category_id": 1511214223,
    "millsfield:collection_id": 1511214207,
    "millsfield:company_id": [
      1159288301
    ],
    "millsfield:images_colors": [
      {
        "hex": "#e7b32f",
        "name": "#e7b32f",
        "reference": "marekm4"
      },
      {
        "hex": "#daa520",
        "name": "goldenrod",
        "reference": "css4"
      },
      {
        "hex": "#ffae42",
        "name": "Yellow Orange",
        "reference": "crayola"
      },
      {
        "hex": "#2539a5",
        "name": "#2539a5",
        "reference": "marekm4"
      },
      {
        "hex": "#483d8b",
        "name": "darkslateblue",
        "reference": "css4"
      },
      {
        "hex": "#324ab2",
        "name": "Violet Blue",
        "reference": "crayola"
      },
      {
        "hex": "#e8e2d0",
        "name": "#e8e2d0",
        "reference": "marekm4"
      },
      {
        "hex": "#dcdcdc",
        "name": "gainsboro",
        "reference": "css4"
      },
      {
        "hex": "#efdecd",
        "name": "Almond",
        "reference": "crayola"
      },
      {
        "hex": "#372830",
        "name": "#372830",
        "reference": "marekm4"
      },
      {
        "hex": "#2f4f4f",
        "name": "darkslategrey",
        "reference": "css4"
      },
      {
        "hex": "#414a4c",
        "name": "Outer Space",
        "reference": "crayola"
      },
      {
        "hex": "#b15b1a",
        "name": "#b15b1a",
        "reference": "marekm4"
      },
      {
        "hex": "#a0522d",
        "name": "sienna",
        "reference": "css4"
      },
      {
        "hex": "#c46210",
        "name": "Alloy Orange",
        "reference": "crayola"
      }
    ],
    "millsfield:images_texts": [
      "Canadian Cacific\nFAIRELINES\nPACIFIC TIME TABLE\nAND FARES"
    ],
    "millsfield:images_texts_ids": [
      1762701287
    ],
    "millsfield:similar": {
      "apple/mobileclip_s0": [
        {
          "distance": 0.6293482,
          "id": 1779736373
        },
        {
          "distance": 0.6364625,
          "id": 1762899691
        },
        {
          "distance": 0.6405478,
          "id": 1779736397
        },
        {
          "distance": 0.64170474,
          "id": 1779736375
        },
        {
          "distance": 0.6421461,
          "id": 1527820843
        },
        {
          "distance": 0.6453797,
          "id": 1527853157
        },
        {
          "distance": 0.64942247,
          "id": 1527828787
        },
        {
          "distance": 0.6617603,
          "id": 1527856271
        },
        {
          "distance": 0.6622617,
          "id": 1762894839
        },
        {
          "distance": 0.6633995,
          "id": 1763379997
        }
      ],
      "apple/mobileclip_s1": [
        {
          "distance": 0.4130341,
          "id": 1527818321
        },
        {
          "distance": 0.41972417,
          "id": 1762899691
        },
        {
          "distance": 0.42030245,
          "id": 1779736397
        },
        {
          "distance": 0.42917058,
          "id": 1779736375
        },
        {
          "distance": 0.43025607,
          "id": 1779736373
        },
        {
          "distance": 0.43941295,
          "id": 1863469669
        },
        {
          "distance": 0.44442067,
          "id": 1527820843
        },
        {
          "distance": 0.4444548,
          "id": 1527853157
        },
        {
          "distance": 0.44521663,
          "id": 1527856271
        },
        {
          "distance": 0.45241904,
          "id": 1779736395
        }
      ],
      "apple/mobileclip_s2": [
        {
          "distance": 0.59420747,
          "id": 1762899691
        },
        {
          "distance": 0.6017249,
          "id": 1527818321
        },
        {
          "distance": 0.6027244,
          "id": 1779736397
        },
        {
          "distance": 0.6042325,
          "id": 1527836935
        },
        {
          "distance": 0.6086042,
          "id": 1779736373
        },
        {
          "distance": 0.60919654,
          "id": 1863469669
        },
        {
          "distance": 0.6156541,
          "id": 1527820843
        },
        {
          "distance": 0.623848,
          "id": 1779736375
        },
        {
          "distance": 0.6304143,
          "id": 1527853157
        },
        {
          "distance": 0.6602311,
          "id": 1762701563
        }
      ]
    },
    "millsfield:subcategory_id": 1511213425,
    "mz:is_current": 1,
    "sfomuseum:filename": "2015.167.257.tif",
    "sfomuseum:image_id": 149130,
    "sfomuseum:image_index": 5,
    "sfomuseum:image_type": "studio",
    "sfomuseum:object_id": 174238,
    "sfomuseum:placetype": "image",
    "sfomuseum:primary_image": 1,
    "src:geom": "sfomuseum",
    "wof:belongsto": [
      102527513,
      1159162825,
      102191575,
      85633793,
      102087579,
      85922583,
      1762692575,
      85688637,
      1159160869
    ],
    "wof:country": "XY",
    "wof:created": 1641346752,
    "wof:depicts": [
      1159288301,
      1762692575,
      1159284217
    ],
    "wof:geomhash": "ed7c2ab3547fc3916b5edc33488deaa7",
    "wof:hierarchy": [
      {
        "building_id": -1,
        "campus_id": 102527513,
        "collection_id": 1159162825,
        "concourse_id": 1159162825,
        "continent_id": 102191575,
        "country_id": 85633793,
        "county_id": 102087579,
        "custom_id": 1762701287,
        "image_id": 1762701287,
        "locality_id": 85922583,
        "neighbourhood_id": -1,
        "object_id": 1762692575,
        "region_id": 85688637,
        "wing_id": 1159160869
      }
    ],
    "wof:id": 1762701287,
    "wof:lastmodified": 1788450465,
    "wof:name": "timetable: Canadian Pacific Air Lines",
    "wof:parent_id": 1762692575,
    "wof:placetype": "custom",
    "wof:placetype_alt": [
      "image"
    ],
    "wof:repo": "sfomuseum-data-media-collection",
    "wof:superseded_by": [],
    "wof:supersedes": []
  },
  "bbox": [
    -122.386472,
    37.616105,
    -122.385834,
    37.616611
  ],
  "geometry": {"type":"Polygon","coordinates":[[[-122.386472,37.616318],[-122.386435,37.616233],[-122.386376,37.616178],[-122.386301,37.616131],[-122.386161,37.616105],[-122.386022,37.616131],[-122.385914,37.616186],[-122.385855,37.616267],[-122.385834,37.616369],[-122.385871,37.616467],[-122.385941,37.616543],[-122.386054,37.616603],[-122.386183,37.616611],[-122.386306,37.616573],[-122.386419,37.616509],[-122.386467,37.616411],[-122.386472,37.616318]]]}
}
