{
  "id": 1762713793,
  "type": "Feature",
  "properties": {
    "date:cessation_lower": "1995-01-01",
    "date:cessation_upper": "1995-12-31",
    "date:inception_lower": "1995-01-01",
    "date:inception_upper": "1995-12-31",
    "edtf:cessation": "1995",
    "edtf:inception": "1995",
    "geom:area": 2.477324999997507e-7,
    "geom:bbox": "-122.386472,37.616105,-122.385834,37.616611",
    "geom:latitude": 37.61635756125121,
    "geom:longitude": -122.38615532866096,
    "media:fingerprint": "57ec8fc410d03364072d087d177320a96f02db29",
    "media:imagehash_avg": "a:ffff8181818181ff",
    "media:imagehash_diff": "d:757151616d250541",
    "media:imagetext": "AEROFLOT\nRussian\nInternational Airlines\nАЭРОФЛОТ\nTimetable\nWorldwide\nРасписание\n1 July 1995 - 28 October 1995",
    "media:imagetext_created": 1787958148,
    "media:imagetext_source": "com.apple.visionkit.VNImageRequestHandler#Version 26.6.2 (Build 25G83)",
    "media:mimetype": "image/tiff",
    "media:properties": {
      "sizes": {
        "b": {
          "extension": "jpg",
          "height": 768,
          "mimetype": "image/jpeg",
          "secret": "FsPcYUC4HZemwCQeCNgqdW8lTGuvb0Dm",
          "width": 459
        },
        "c": {
          "extension": "jpg",
          "height": 600,
          "mimetype": "image/jpeg",
          "secret": "FsPcYUC4HZemwCQeCNgqdW8lTGuvb0Dm",
          "width": 358
        },
        "dc": {
          "extension": "jpg",
          "height": 600,
          "mimetype": "image/jpeg",
          "secret": "FsPcYUC4HZemwCQeCNgqdW8lTGuvb0Dm",
          "width": 358
        },
        "ds": {
          "extension": "jpg",
          "height": 320,
          "mimetype": "image/jpeg",
          "secret": "FsPcYUC4HZemwCQeCNgqdW8lTGuvb0Dm",
          "width": 320
        },
        "k": {
          "extension": "jpg",
          "height": 1536,
          "mimetype": "image/jpeg",
          "secret": "FsPcYUC4HZemwCQeCNgqdW8lTGuvb0Dm",
          "width": 918
        },
        "n": {
          "extension": "jpg",
          "height": 240,
          "mimetype": "image/jpeg",
          "secret": "FsPcYUC4HZemwCQeCNgqdW8lTGuvb0Dm",
          "width": 143
        },
        "o": {
          "extension": "jpg",
          "height": 2477,
          "mimetype": "image/jpeg",
          "secret": "FkpLAyT6uR6LwOfzq8oFO98OwMApn7Ez",
          "width": 1481
        },
        "s": {
          "extension": "jpg",
          "height": 320,
          "mimetype": "image/jpeg",
          "secret": "FsPcYUC4HZemwCQeCNgqdW8lTGuvb0Dm",
          "width": 320
        },
        "z": {
          "extension": "jpg",
          "height": 480,
          "mimetype": "image/jpeg",
          "secret": "FsPcYUC4HZemwCQeCNgqdW8lTGuvb0Dm",
          "width": 286
        }
      }
    },
    "media:source": "sfomuseum",
    "media:status_id": 1,
    "media:uri_template": "https://static.sfomuseum.org/media/176/271/379/3/1762713793_{secret}_{label}.{extension}",
    "millsfield:airline_id": [
      1159283525
    ],
    "millsfield:category_id": 1511214223,
    "millsfield:collection_id": 1511214207,
    "millsfield:company_id": [
      1159288379
    ],
    "millsfield:images_colors": [
      {
        "hex": "#103c8e",
        "name": "#103c8e",
        "reference": "marekm4"
      },
      {
        "hex": "#191970",
        "name": "midnightblue",
        "reference": "css4"
      },
      {
        "hex": "#1a4876",
        "name": "Midnight Blue",
        "reference": "crayola"
      },
      {
        "hex": "#cdd2d2",
        "name": "#cdd2d2",
        "reference": "marekm4"
      },
      {
        "hex": "#d3d3d3",
        "name": "lightgrey",
        "reference": "css4"
      },
      {
        "hex": "#dbd7d2",
        "name": "Timberwolf",
        "reference": "crayola"
      },
      {
        "hex": "#3f4851",
        "name": "#3f4851",
        "reference": "marekm4"
      },
      {
        "hex": "#2f4f4f",
        "name": "darkslategrey",
        "reference": "css4"
      },
      {
        "hex": "#414a4c",
        "name": "Outer Space",
        "reference": "crayola"
      },
      {
        "hex": "#a12b2f",
        "name": "#a12b2f",
        "reference": "marekm4"
      },
      {
        "hex": "#a52a2a",
        "name": "brown",
        "reference": "css4"
      },
      {
        "hex": "#9c2542",
        "name": "Big Dip O' Ruby",
        "reference": "crayola"
      }
    ],
    "millsfield:images_texts": [
      "AEROFLOT\nRussian\nInternational Airlines\nАЭРОФЛОТ\nTimetable\nWorldwide\nРасписание\n1 July 1995 - 28 October 1995",
      "EXODOS PUBLICITAS TEL (30)31/261 393\nfoul seasons with\nkinissi\ntour operator\nHEAD OFFICE:5, Vironos Str., 546 22 THESSALONIKI GREECE E.U.\ntel. (30) 031/237.000, 237.000, Fax: Fax:(30) 031/233.839 Telex:418.242 - 410.785 KINS GR.\nBRANCH OFFICE: 2,Ploutarhou Str.Kolonaki 106 76 ATHENS\nTel: (30) 01/723 39 69, 729 06 76 Fax:(30) 01/721 73 76\n35.000 KRASNODAR - RUSSIA\nSt. Krosnaya 6, Sulte 29 Tel.: (0078612) 52 81 30\nHOTEL BELGRAD I| 8, Smolenskaya Str., MOSCOW\n18th floor - Office No 21 tel. (095) 248 99 15, 248 20 63\nFax: (095) 248 24 83\nELLADA CENTER 74, Chavchavsadge Avenue, 380062, TBILISI - GEORGIA\nTel. (007 8832) 29 48 34, 29 48 36\nTelex: 212299 MIRAJ SU Fax: (007 8832) 29 46 31\n0.7"
    ],
    "millsfield:images_texts_ids": [
      1762713793,
      1762713795
    ],
    "millsfield:similar": {
      "apple/mobileclip_s0": [
        {
          "distance": 0.349999,
          "id": 1762715125
        },
        {
          "distance": 0.36469144,
          "id": 1762698557
        },
        {
          "distance": 0.5953498,
          "id": 1527839921
        },
        {
          "distance": 0.59535384,
          "id": 1762702393
        },
        {
          "distance": 0.60549885,
          "id": 1762697645
        },
        {
          "distance": 0.610592,
          "id": 1527844443
        },
        {
          "distance": 0.6312101,
          "id": 1527844445
        },
        {
          "distance": 0.6354056,
          "id": 1527845847
        },
        {
          "distance": 0.64308184,
          "id": 1762699935
        },
        {
          "distance": 0.6482796,
          "id": 1527841385
        }
      ],
      "apple/mobileclip_s1": [
        {
          "distance": 0.18721987,
          "id": 1762715125
        },
        {
          "distance": 0.20193107,
          "id": 1762698557
        },
        {
          "distance": 0.42717257,
          "id": 1527849957
        },
        {
          "distance": 0.4355481,
          "id": 1527844443
        },
        {
          "distance": 0.4368464,
          "id": 1527849025
        },
        {
          "distance": 0.43744576,
          "id": 1527845867
        },
        {
          "distance": 0.4407356,
          "id": 1527839921
        },
        {
          "distance": 0.44115636,
          "id": 1527845869
        },
        {
          "distance": 0.44256404,
          "id": 1527849953
        },
        {
          "distance": 0.44371197,
          "id": 1527837349
        }
      ],
      "apple/mobileclip_s2": [
        {
          "distance": 0.20219079,
          "id": 1762715125
        },
        {
          "distance": 0.23763314,
          "id": 1762698557
        },
        {
          "distance": 0.58752626,
          "id": 1527849957
        },
        {
          "distance": 0.60832447,
          "id": 1527849025
        },
        {
          "distance": 0.60985196,
          "id": 1762714223
        },
        {
          "distance": 0.61847454,
          "id": 1762715371
        },
        {
          "distance": 0.6191356,
          "id": 1527849953
        },
        {
          "distance": 0.6226217,
          "id": 1527849043
        },
        {
          "distance": 0.62521535,
          "id": 1527845867
        },
        {
          "distance": 0.6295769,
          "id": 1527849951
        }
      ]
    },
    "millsfield:subcategory_id": 1511213425,
    "mz:is_current": 1,
    "sfomuseum:filename": "2016.113.042_ft.tif",
    "sfomuseum:image_id": 189674,
    "sfomuseum:image_index": 5,
    "sfomuseum:image_type": "studio",
    "sfomuseum:object_id": 183854,
    "sfomuseum:placetype": "image",
    "sfomuseum:primary_image": 1,
    "src:geom": "sfomuseum",
    "wof:belongsto": [
      102527513,
      1159162825,
      102191575,
      85633793,
      102087579,
      85922583,
      1762691047,
      85688637,
      1159160869
    ],
    "wof:country": "XY",
    "wof:created": 1641351269,
    "wof:depicts": [
      1762691047,
      1159283525,
      1159288379
    ],
    "wof:geomhash": "ed7c2ab3547fc3916b5edc33488deaa7",
    "wof:hierarchy": [
      {
        "building_id": -1,
        "campus_id": 102527513,
        "collection_id": 1159162825,
        "concourse_id": 1159162825,
        "continent_id": 102191575,
        "country_id": 85633793,
        "county_id": 102087579,
        "custom_id": 1762713793,
        "image_id": 1762713793,
        "locality_id": 85922583,
        "neighbourhood_id": -1,
        "object_id": 1762691047,
        "region_id": 85688637,
        "wing_id": 1159160869
      }
    ],
    "wof:id": 1762713793,
    "wof:lastmodified": 1788450672,
    "wof:name": "timetable: Aeroflot Russian International Airlines",
    "wof:parent_id": 1762691047,
    "wof:placetype": "custom",
    "wof:placetype_alt": [
      "image"
    ],
    "wof:repo": "sfomuseum-data-media-collection",
    "wof:superseded_by": [],
    "wof:supersedes": []
  },
  "bbox": [
    -122.386472,
    37.616105,
    -122.385834,
    37.616611
  ],
  "geometry": {"type":"Polygon","coordinates":[[[-122.386472,37.616318],[-122.386435,37.616233],[-122.386376,37.616178],[-122.386301,37.616131],[-122.386161,37.616105],[-122.386022,37.616131],[-122.385914,37.616186],[-122.385855,37.616267],[-122.385834,37.616369],[-122.385871,37.616467],[-122.385941,37.616543],[-122.386054,37.616603],[-122.386183,37.616611],[-122.386306,37.616573],[-122.386419,37.616509],[-122.386467,37.616411],[-122.386472,37.616318]]]}
}
