{
  "id": 1527856285,
  "type": "Feature",
  "properties": {
    "date:cessation_lower": "1950-01-01",
    "date:cessation_upper": "1959-12-31",
    "date:inception_lower": "1950-01-01",
    "date:inception_upper": "1959-12-31",
    "edtf:cessation": "195X",
    "edtf:date": "195x",
    "edtf:inception": "195X",
    "geom:area": 0,
    "geom:bbox": "-122.386155,37.616358,-122.386155,37.616358",
    "geom:latitude": 37.616358,
    "geom:longitude": -122.386155,
    "iso:country": "XX",
    "media:fingerprint": "b8d6f4a859b88c1fe516232ba5f28ebe5263523b",
    "media:imagehash_avg": "a:ffe7e7e3c3c3c3f7",
    "media:imagehash_diff": "d:4c4c0e0e17170e0e",
    "media:imagetext": "Pan American is pleased to serve you on your trip\nto the Stanford Campus at Stuttgart and we hope\nthat you are enjoying every moment of your\nClipper flight. Once again — Welcome Aboard!\nPAN AMERICAN",
    "media:imagetext_created": 1787954025,
    "media:imagetext_source": "com.apple.visionkit.VNImageRequestHandler#Version 26.6.2 (Build 25G83)",
    "media:medium": "image",
    "media:mimetype": "image/tiff",
    "media:properties": {
      "sizes": {
        "b": {
          "extension": "jpg",
          "height": 722,
          "mimetype": "image/jpeg",
          "secret": "aXKJ2P1lipgQE9X61vsxYeCKzJ8dxzcg",
          "width": 1024
        },
        "c": {
          "extension": "jpg",
          "height": 564,
          "mimetype": "image/jpeg",
          "secret": "aXKJ2P1lipgQE9X61vsxYeCKzJ8dxzcg",
          "width": 800
        },
        "dc": {
          "extension": "jpg",
          "height": 564,
          "mimetype": "image/jpeg",
          "secret": "aXKJ2P1lipgQE9X61vsxYeCKzJ8dxzcg",
          "width": 800
        },
        "ds": {
          "extension": "jpg",
          "height": 320,
          "mimetype": "image/jpeg",
          "secret": "aXKJ2P1lipgQE9X61vsxYeCKzJ8dxzcg",
          "width": 320
        },
        "k": {
          "extension": "jpg",
          "height": 1444,
          "mimetype": "image/jpeg",
          "secret": "aXKJ2P1lipgQE9X61vsxYeCKzJ8dxzcg",
          "width": 2048
        },
        "n": {
          "extension": "jpg",
          "height": 225,
          "mimetype": "image/jpeg",
          "secret": "aXKJ2P1lipgQE9X61vsxYeCKzJ8dxzcg",
          "width": 320
        },
        "o": {
          "extension": "jpg",
          "height": 1478,
          "mimetype": "image/jpeg",
          "secret": "fnInyDhs5LdLHbs0IPfDdZ1OMKojCKjR",
          "width": 2096
        },
        "s": {
          "extension": "jpg",
          "height": 320,
          "mimetype": "image/jpeg",
          "secret": "aXKJ2P1lipgQE9X61vsxYeCKzJ8dxzcg",
          "width": 320
        },
        "z": {
          "extension": "jpg",
          "height": 451,
          "mimetype": "image/jpeg",
          "secret": "aXKJ2P1lipgQE9X61vsxYeCKzJ8dxzcg",
          "width": 640
        }
      }
    },
    "media:source": "sfomuseum",
    "media:status_id": 1,
    "media:uri_template": "https://static.sfomuseum.org/media/152/785/628/5/1527856285_{secret}_{label}.{extension}",
    "millsfield:airline_id": [
      1159284989
    ],
    "millsfield:category_id": 1762671311,
    "millsfield:collection_id": 1511214207,
    "millsfield:company_id": [
      1159286839
    ],
    "millsfield:images_colors": [
      {
        "hex": "#f6eab4",
        "name": "#f6eab4",
        "reference": "marekm4"
      },
      {
        "hex": "#ffe4b5",
        "name": "moccasin",
        "reference": "css4"
      },
      {
        "hex": "#fae7b5",
        "name": "Banana Mania",
        "reference": "crayola"
      },
      {
        "hex": "#2b2515",
        "name": "#2b2515",
        "reference": "marekm4"
      },
      {
        "hex": "#000000",
        "name": "black",
        "reference": "css4"
      },
      {
        "hex": "#000000",
        "name": "Black",
        "reference": "crayola"
      },
      {
        "hex": "#b51511",
        "name": "#b51511",
        "reference": "marekm4"
      },
      {
        "hex": "#b22222",
        "name": "firebrick",
        "reference": "css4"
      },
      {
        "hex": "#9c2542",
        "name": "Big Dip O' Ruby",
        "reference": "crayola"
      }
    ],
    "millsfield:images_texts": [
      "STANFORD\nWelcome Aboard!",
      "Pan American is pleased to serve you on your trip\nto the Stanford Campus at Stuttgart and we hope\nthat you are enjoying every moment of your\nClipper flight. Once again — Welcome Aboard!\nPAN AMERICAN",
      "MONR\nSAN FRANCISCO - STUTTGART\nLuncheon\nRelishes\nChicken Consomme\nMonte Cristo Sandwich\nCottage Cheese and Pear Salad\nClipper Ice Cream\nFruit Basket\nCoffee\nTea\nMilk\nDinner\nVegetable Juice\nCheese Wafers\nSalted Nuts\nOlives\nWhite Wine, Pouilly Fuisse\nShrimp Cocktail\nStuffed Idlewild Farm Rock Cornish Game Hen\nChampagne Sauce\nButtered Peas and Carrots\nParisienne Potatoes\nSalad in Season\nFrench Pastries\nCoffee\nTea\nFruit Basket\nMilk\nJelly\nCoffee\nBreakfast\nChilled Orange Juice\nBreakfast Fruit\nMushroom Omelet\nPork Link Sausage\nPetit Danish\nButter\nJam\nTea\nToast\nHoney\nMilk\nChampagne Service\nChampagne, Charles Heidsieck\nAmerican College Sandwich\nStanford Cake\nCoffee\nTea\nMilk"
    ],
    "millsfield:images_texts_ids": [
      1527856283,
      1527856285,
      1527856287
    ],
    "millsfield:similar": {
      "apple/mobileclip_s0": [
        {
          "distance": 0.6294198,
          "id": 1779736693
        },
        {
          "distance": 0.6353043,
          "id": 1762893167
        },
        {
          "distance": 0.63754797,
          "id": 1527829801
        },
        {
          "distance": 0.638753,
          "id": 1779666269
        },
        {
          "distance": 0.63922083,
          "id": 1527856359
        },
        {
          "distance": 0.64934725,
          "id": 1779668023
        },
        {
          "distance": 0.65225124,
          "id": 1762893347
        },
        {
          "distance": 0.6530816,
          "id": 1527853827
        },
        {
          "distance": 0.65802914,
          "id": 2014998211
        },
        {
          "distance": 0.65972537,
          "id": 1796454973
        }
      ],
      "apple/mobileclip_s1": [
        {
          "distance": 0.5052026,
          "id": 1527829843
        },
        {
          "distance": 0.50617033,
          "id": 1527856359
        },
        {
          "distance": 0.5104068,
          "id": 1527829795
        },
        {
          "distance": 0.5119746,
          "id": 1527829835
        },
        {
          "distance": 0.5129025,
          "id": 1527829823
        },
        {
          "distance": 0.5137401,
          "id": 1762895391
        },
        {
          "distance": 0.51383257,
          "id": 1796454973
        },
        {
          "distance": 0.5152747,
          "id": 1527829809
        },
        {
          "distance": 0.51950306,
          "id": 1527829849
        },
        {
          "distance": 0.52024317,
          "id": 1527829867
        }
      ],
      "apple/mobileclip_s2": [
        {
          "distance": 0.7799429,
          "id": 1779668013
        },
        {
          "distance": 0.7885939,
          "id": 1527856359
        },
        {
          "distance": 0.7996125,
          "id": 1527820693
        },
        {
          "distance": 0.80479026,
          "id": 1779668105
        },
        {
          "distance": 0.8109272,
          "id": 1779666193
        },
        {
          "distance": 0.81374407,
          "id": 1762895451
        },
        {
          "distance": 0.8151553,
          "id": 1762893167
        },
        {
          "distance": 0.8171249,
          "id": 1796454973
        },
        {
          "distance": 0.8172058,
          "id": 1729567009
        },
        {
          "distance": 0.82016677,
          "id": 1779736063
        }
      ]
    },
    "millsfield:subcategory_id": 1511213567,
    "mz:hierarchy_label": 1,
    "mz:is_current": -1,
    "sfomuseum:filename": "2014.095.203_lt_int.tif",
    "sfomuseum:image_id": 105373,
    "sfomuseum:image_index": 5,
    "sfomuseum:image_type": "studio",
    "sfomuseum:object_id": 158339,
    "sfomuseum:placetype": "image",
    "sfomuseum:primary_image": 0,
    "src:geom": "sfomuseum",
    "wof:belongsto": [
      1511956967,
      102527513,
      102191575,
      85633793,
      85922583,
      102087579,
      1511214277,
      85688637
    ],
    "wof:breaches": [],
    "wof:country": "XX",
    "wof:created": 1578955110,
    "wof:depicts": [
      1511956967,
      1159286839,
      1159284989
    ],
    "wof:geomhash": "bd906905ce4be6c0651c90b0fc24804c",
    "wof:hierarchy": [
      {
        "building_id": 1511214277,
        "campus_id": 102527513,
        "continent_id": 102191575,
        "country_id": 85633793,
        "county_id": 102087579,
        "custom_id": 1527856285,
        "image_id": 1527856285,
        "locality_id": 85922583,
        "media_id": 1527856285,
        "neighbourhood_id": -1,
        "region_id": 85688637,
        "venue_id": 1511956967
      }
    ],
    "wof:id": 1527856285,
    "wof:lastmodified": 1788450256,
    "wof:name": "menu: Pan American World Airways",
    "wof:parent_id": 1511956967,
    "wof:placetype": "custom",
    "wof:placetype_alt": [
      "image"
    ],
    "wof:repo": "sfomuseum-data-media-collection",
    "wof:superseded_by": [],
    "wof:supersedes": [],
    "wof:tags": []
  },
  "bbox": [
    -122.386155,
    37.616358,
    -122.386155,
    37.616358
  ],
  "geometry": {"type":"Point","coordinates":[-122.386155,37.616358]}
}
