{
  "id": 1914590471,
  "type": "Feature",
  "properties": {
    "date:cessation_lower": "1980-01-01",
    "date:cessation_upper": "1989-12-31",
    "date:inception_lower": "1980-01-01",
    "date:inception_upper": "1989-12-31",
    "edtf:cessation": "198X",
    "edtf:inception": "198X",
    "geom:area": 2.477324999997507e-7,
    "geom:bbox": "-122.386472,37.616105,-122.385834,37.616611",
    "geom:latitude": 37.61635756125121,
    "geom:longitude": -122.38615532866096,
    "media:fingerprint": "d44ef92c1a8412cd407f981889b1445cb9040ba8",
    "media:imagehash_avg": "a:fcc0c0fefec0c0c0",
    "media:imagehash_diff": "d:0000049898060000",
    "media:imagetext": "",
    "media:mimetype": "image/jpeg",
    "media:properties": {
      "sizes": {
        "b": {
          "extension": "jpg",
          "height": 768,
          "mimetype": "image/jpeg",
          "secret": "DwhiaAdud4LrkDcNfHIn6ZmEsHWiqubg",
          "width": 1024
        },
        "c": {
          "extension": "jpg",
          "height": 600,
          "mimetype": "image/jpeg",
          "secret": "DwhiaAdud4LrkDcNfHIn6ZmEsHWiqubg",
          "width": 800
        },
        "dc": {
          "extension": "jpg",
          "height": 600,
          "mimetype": "image/jpeg",
          "secret": "DwhiaAdud4LrkDcNfHIn6ZmEsHWiqubg",
          "width": 800
        },
        "ds": {
          "extension": "jpg",
          "height": 320,
          "mimetype": "image/jpeg",
          "secret": "DwhiaAdud4LrkDcNfHIn6ZmEsHWiqubg",
          "width": 320
        },
        "k": {
          "extension": "jpg",
          "height": 1536,
          "mimetype": "image/jpeg",
          "secret": "DwhiaAdud4LrkDcNfHIn6ZmEsHWiqubg",
          "width": 2048
        },
        "n": {
          "extension": "jpg",
          "height": 240,
          "mimetype": "image/jpeg",
          "secret": "DwhiaAdud4LrkDcNfHIn6ZmEsHWiqubg",
          "width": 320
        },
        "o": {
          "extension": "jpg",
          "height": 768,
          "mimetype": "image/jpeg",
          "secret": "9p3yor5VoiWh0ZvT7SxyTzZBFurc047k",
          "width": 1024
        },
        "s": {
          "extension": "jpg",
          "height": 320,
          "mimetype": "image/jpeg",
          "secret": "DwhiaAdud4LrkDcNfHIn6ZmEsHWiqubg",
          "width": 320
        },
        "z": {
          "extension": "jpg",
          "height": 480,
          "mimetype": "image/jpeg",
          "secret": "DwhiaAdud4LrkDcNfHIn6ZmEsHWiqubg",
          "width": 640
        }
      }
    },
    "media:source": "sfomuseum",
    "media:status_id": 1,
    "media:uri_template": "https://static.sfomuseum.org/media/191/459/047/1/1914590471_{secret}_{label}.{extention}",
    "millsfield:airline_id": [
      1159285447
    ],
    "millsfield:category_id": 1746152551,
    "millsfield:collection_id": 1511214203,
    "millsfield:company_id": [
      1159288239
    ],
    "millsfield:images_colors": [
      {
        "hex": "#b4b4b0",
        "name": "#b4b4b0",
        "reference": "marekm4"
      },
      {
        "hex": "#a9a9a9",
        "name": "darkgrey",
        "reference": "css4"
      },
      {
        "hex": "#b0b7c6",
        "name": "Cadet Blue",
        "reference": "crayola"
      }
    ],
    "millsfield:similar": {
      "apple/mobileclip_s0": [
        {
          "distance": 0.36901996,
          "id": 1914590469
        },
        {
          "distance": 0.5407474,
          "id": 1914590461
        },
        {
          "distance": 0.54377735,
          "id": 1914590463
        },
        {
          "distance": 0.6021611,
          "id": 1914590467
        },
        {
          "distance": 0.64556885,
          "id": 1746681967
        },
        {
          "distance": 0.65800613,
          "id": 2014778715
        },
        {
          "distance": 0.6662235,
          "id": 1796476639
        },
        {
          "distance": 0.6680037,
          "id": 1796484853
        },
        {
          "distance": 0.673797,
          "id": 1762705355
        },
        {
          "distance": 0.678491,
          "id": 1762705337
        }
      ],
      "apple/mobileclip_s1": [
        {
          "distance": 0.3270939,
          "id": 1914590469
        },
        {
          "distance": 0.4231088,
          "id": 1914590461
        },
        {
          "distance": 0.43070698,
          "id": 1914590463
        },
        {
          "distance": 0.48638824,
          "id": 1914590467
        },
        {
          "distance": 0.51271594,
          "id": 1763441597
        },
        {
          "distance": 0.53076464,
          "id": 2014778715
        },
        {
          "distance": 0.5321364,
          "id": 1796684217
        },
        {
          "distance": 0.53976256,
          "id": 1796476637
        },
        {
          "distance": 0.53978586,
          "id": 1796476639
        },
        {
          "distance": 0.54981405,
          "id": 1763441735
        }
      ],
      "apple/mobileclip_s2": [
        {
          "distance": 0.42104492,
          "id": 1914590469
        },
        {
          "distance": 0.51301074,
          "id": 1914590467
        },
        {
          "distance": 0.57430065,
          "id": 1914590463
        },
        {
          "distance": 0.6315601,
          "id": 2048167631
        },
        {
          "distance": 0.66667104,
          "id": 1914590461
        },
        {
          "distance": 0.6818363,
          "id": 1763588807
        },
        {
          "distance": 0.69413054,
          "id": 2014978809
        },
        {
          "distance": 0.6974528,
          "id": 2048167555
        },
        {
          "distance": 0.7076909,
          "id": 2048167137
        },
        {
          "distance": 0.7088422,
          "id": 1931131979
        }
      ]
    },
    "millsfield:subcategory_id": 1746152569,
    "mz:is_current": 1,
    "sfomuseum:filename": "57D5B2E7-D3F7-4E1E-8084-75981BCA3F3D_1_105_c.jpeg",
    "sfomuseum:image_id": 270976,
    "sfomuseum:image_index": 1,
    "sfomuseum:image_type": "studio",
    "sfomuseum:object_id": 69431,
    "sfomuseum:placetype": "image",
    "sfomuseum:primary_image": 1,
    "src:geom": "sfomuseum",
    "wof:belongsto": [
      102527513,
      1159162825,
      102191575,
      85633793,
      102087579,
      85922583,
      1914590273,
      85688637,
      1159160869
    ],
    "wof:country": "XY",
    "wof:created": 1720769854,
    "wof:depicts": [
      1159285447,
      1159288239,
      1914590273
    ],
    "wof:geomhash": "ed7c2ab3547fc3916b5edc33488deaa7",
    "wof:hierarchy": [
      {
        "building_id": -1,
        "campus_id": 102527513,
        "collection_id": 1159162825,
        "concourse_id": 1159162825,
        "continent_id": 102191575,
        "country_id": 85633793,
        "county_id": 102087579,
        "custom_id": 1914590471,
        "locality_id": 85922583,
        "neighbourhood_id": -1,
        "object_id": 1914590273,
        "region_id": 85688637,
        "wing_id": 1159160869
      }
    ],
    "wof:id": 1914590471,
    "wof:lastmodified": 1788452394,
    "wof:name": "napkin ring: USAir",
    "wof:parent_id": 1914590273,
    "wof:placetype": "custom",
    "wof:repo": "sfomuseum-data-media-collection",
    "wof:superseded_by": [],
    "wof:supersedes": []
  },
  "bbox": [
    -122.386472,
    37.616105,
    -122.385834,
    37.616611
  ],
  "geometry": {"type":"Polygon","coordinates":[[[-122.386472,37.616318],[-122.386435,37.616233],[-122.386376,37.616178],[-122.386301,37.616131],[-122.386161,37.616105],[-122.386022,37.616131],[-122.385914,37.616186],[-122.385855,37.616267],[-122.385834,37.616369],[-122.385871,37.616467],[-122.385941,37.616543],[-122.386054,37.616603],[-122.386183,37.616611],[-122.386306,37.616573],[-122.386419,37.616509],[-122.386467,37.616411],[-122.386472,37.616318]]]}
}
