{
  "id": 1527856413,
  "type": "Feature",
  "properties": {
    "date:cessation_lower": "1932-12-01",
    "date:cessation_upper": "1932-12-01",
    "date:inception_lower": "1932-12-01",
    "date:inception_upper": "1932-12-01",
    "edtf:cessation": "1932-12-01",
    "edtf:date": "1932-12-01",
    "edtf:inception": "1932-12-01",
    "geom:area": 0,
    "geom:bbox": "-122.386155,37.616358,-122.386155,37.616358",
    "geom:latitude": 37.616358,
    "geom:longitude": -122.386155,
    "iso:country": "XX",
    "media:fingerprint": "7ceabd5e1b8f10d1fa7295acb3118c476be217a5",
    "media:imagehash_avg": "a:ffe0008f8f898fff",
    "media:imagehash_diff": "d:4941491d3d3b7f6d",
    "media:imagetext": "LUMS\nDEC :\n10 AMI\n1932\nFIRST FLIGHT • AIR MAIL\nROUTE AM I9 • PO.D.\nSTATE\nHOUSE\nCOLUMBIA S.C\nCOLUMBIA\nSOUTH CAROLINA\nDECEMBER I\n1932\nBAY URI\n8\nMiss Virginia Le Count\n40-41 68th. St.\nFoodside, New York.",
    "media:imagetext_created": 1787954049,
    "media:imagetext_source": "com.apple.visionkit.VNImageRequestHandler#Version 26.6.2 (Build 25G83)",
    "media:medium": "image",
    "media:mimetype": "image/tiff",
    "media:properties": {
      "sizes": {
        "b": {
          "extension": "jpg",
          "height": 605,
          "mimetype": "image/jpeg",
          "secret": "LRCyAHAQXpsBK8x92bVI3OIlR93WZx78",
          "width": 1023
        },
        "c": {
          "extension": "jpg",
          "height": 473,
          "mimetype": "image/jpeg",
          "secret": "LRCyAHAQXpsBK8x92bVI3OIlR93WZx78",
          "width": 800
        },
        "dc": {
          "extension": "jpg",
          "height": 473,
          "mimetype": "image/jpeg",
          "secret": "LRCyAHAQXpsBK8x92bVI3OIlR93WZx78",
          "width": 800
        },
        "ds": {
          "extension": "jpg",
          "height": 320,
          "mimetype": "image/jpeg",
          "secret": "LRCyAHAQXpsBK8x92bVI3OIlR93WZx78",
          "width": 320
        },
        "k": {
          "extension": "jpg",
          "height": 1211,
          "mimetype": "image/jpeg",
          "secret": "LRCyAHAQXpsBK8x92bVI3OIlR93WZx78",
          "width": 2047
        },
        "n": {
          "extension": "jpg",
          "height": 189,
          "mimetype": "image/jpeg",
          "secret": "LRCyAHAQXpsBK8x92bVI3OIlR93WZx78",
          "width": 320
        },
        "o": {
          "extension": "jpg",
          "height": 986,
          "mimetype": "image/jpeg",
          "secret": "6dw57CMzjmwDYhWwUI4RrK6vw0t85DLb",
          "width": 1667
        },
        "s": {
          "extension": "jpg",
          "height": 320,
          "mimetype": "image/jpeg",
          "secret": "LRCyAHAQXpsBK8x92bVI3OIlR93WZx78",
          "width": 320
        },
        "z": {
          "extension": "jpg",
          "height": 378,
          "mimetype": "image/jpeg",
          "secret": "LRCyAHAQXpsBK8x92bVI3OIlR93WZx78",
          "width": 640
        }
      }
    },
    "media:source": "sfomuseum",
    "media:status_id": 1,
    "media:uri_template": "https://static.sfomuseum.org/media/152/785/641/3/1527856413_{secret}_{label}.{extension}",
    "millsfield:category_id": 1511214215,
    "millsfield:collection_id": 1511214207,
    "millsfield:images_colors": [
      {
        "hex": "#dacdaa",
        "name": "#dacdaa",
        "reference": "marekm4"
      },
      {
        "hex": "#f5deb3",
        "name": "wheat",
        "reference": "css4"
      },
      {
        "hex": "#edd19c",
        "name": "Maize",
        "reference": "crayola"
      },
      {
        "hex": "#5b4b3f",
        "name": "#5b4b3f",
        "reference": "marekm4"
      },
      {
        "hex": "#556b2f",
        "name": "darkolivegreen",
        "reference": "css4"
      },
      {
        "hex": "#414a4c",
        "name": "Outer Space",
        "reference": "crayola"
      },
      {
        "hex": "#b5a551",
        "name": "#b5a551",
        "reference": "marekm4"
      },
      {
        "hex": "#bdb76b",
        "name": "darkkhaki",
        "reference": "css4"
      },
      {
        "hex": "#bab86c",
        "name": "Olive Green",
        "reference": "crayola"
      },
      {
        "hex": "#905f55",
        "name": "#905f55",
        "reference": "marekm4"
      },
      {
        "hex": "#696969",
        "name": "dimgrey",
        "reference": "css4"
      },
      {
        "hex": "#a5694f",
        "name": "Sepia",
        "reference": "crayola"
      }
    ],
    "millsfield:images_texts": [
      "LUMS\nDEC :\n10 AMI\n1932\nFIRST FLIGHT • AIR MAIL\nROUTE AM I9 • PO.D.\nSTATE\nHOUSE\nCOLUMBIA S.C\nCOLUMBIA\nSOUTH CAROLINA\nDECEMBER I\n1932\nBAY URI\n8\nMiss Virginia Le Count\n40-41 68th. St.\nFoodside, New York.",
      "CLIMBE S\n6CC.107 T09\nA.ML18\nFIRSTA\n-FLIGHT\n2014.1\n,IS6"
    ],
    "millsfield:images_texts_ids": [
      1527856413,
      1527856415
    ],
    "millsfield:similar": {
      "apple/mobileclip_s0": [
        {
          "distance": 0.52082944,
          "id": 1527856475
        },
        {
          "distance": 0.52889544,
          "id": 1527856507
        },
        {
          "distance": 0.53921777,
          "id": 1527833359
        },
        {
          "distance": 0.54046655,
          "id": 1527820175
        },
        {
          "distance": 0.54644734,
          "id": 1527830077
        },
        {
          "distance": 0.54882175,
          "id": 1527820141
        },
        {
          "distance": 0.55176914,
          "id": 1527853033
        },
        {
          "distance": 0.5518434,
          "id": 1527819887
        },
        {
          "distance": 0.55277866,
          "id": 1527833915
        },
        {
          "distance": 0.554775,
          "id": 1527856409
        }
      ],
      "apple/mobileclip_s1": [
        {
          "distance": 0.3439958,
          "id": 1527856481
        },
        {
          "distance": 0.35966173,
          "id": 1527856475
        },
        {
          "distance": 0.36923844,
          "id": 1527856511
        },
        {
          "distance": 0.37153542,
          "id": 1527854423
        },
        {
          "distance": 0.3716557,
          "id": 1527819869
        },
        {
          "distance": 0.37687102,
          "id": 1527856411
        },
        {
          "distance": 0.3817417,
          "id": 1527856539
        },
        {
          "distance": 0.38183376,
          "id": 1527833915
        },
        {
          "distance": 0.3828574,
          "id": 1527820095
        },
        {
          "distance": 0.38290405,
          "id": 1527856499
        }
      ],
      "apple/mobileclip_s2": [
        {
          "distance": 0.4842049,
          "id": 1527856481
        },
        {
          "distance": 0.5221419,
          "id": 1527856489
        },
        {
          "distance": 0.52467483,
          "id": 1527820095
        },
        {
          "distance": 0.52613163,
          "id": 1527856475
        },
        {
          "distance": 0.53665566,
          "id": 1527856449
        },
        {
          "distance": 0.54436684,
          "id": 1527820145
        },
        {
          "distance": 0.5490297,
          "id": 1527820205
        },
        {
          "distance": 0.551621,
          "id": 1527856113
        },
        {
          "distance": 0.55490804,
          "id": 1527856499
        },
        {
          "distance": 0.55529314,
          "id": 1527820163
        }
      ]
    },
    "millsfield:subcategory_id": 1511213159,
    "mz:hierarchy_label": 1,
    "mz:is_current": -1,
    "sfomuseum:filename": "2014.156.156_front.tif",
    "sfomuseum:image_id": 152332,
    "sfomuseum:image_index": 5,
    "sfomuseum:image_type": "studio",
    "sfomuseum:object_id": 163652,
    "sfomuseum:placetype": "image",
    "sfomuseum:primary_image": 1,
    "src:geom": "sfomuseum",
    "wof:belongsto": [
      1511213159,
      1511214215,
      1511957455,
      102527513,
      102191575,
      85688637,
      1511214203,
      85633793,
      102087579,
      85922583,
      1511214277
    ],
    "wof:breaches": [],
    "wof:country": "XX",
    "wof:created": 1578955131,
    "wof:depicts": [
      1511957455
    ],
    "wof:geomhash": "bd906905ce4be6c0651c90b0fc24804c",
    "wof:hierarchy": [
      {
        "arcade_id": 1511213159,
        "building_id": 1511214277,
        "campus_id": 102527513,
        "concourse_id": 1511214215,
        "continent_id": 102191575,
        "country_id": 85633793,
        "county_id": 102087579,
        "custom_id": 1527856413,
        "image_id": 1527856413,
        "locality_id": 85922583,
        "media_id": 1527856413,
        "neighbourhood_id": -1,
        "region_id": 85688637,
        "venue_id": 1511957455,
        "wing_id": 1511214203
      }
    ],
    "wof:id": 1527856413,
    "wof:lastmodified": 1788450258,
    "wof:name": "airmail flight cover: AM-19, Columbia, South Carolina",
    "wof:parent_id": 1511957455,
    "wof:placetype": "custom",
    "wof:placetype_alt": [
      "image"
    ],
    "wof:repo": "sfomuseum-data-media-collection",
    "wof:superseded_by": [],
    "wof:supersedes": [],
    "wof:tags": []
  },
  "bbox": [
    -122.386155,
    37.616358,
    -122.386155,
    37.616358
  ],
  "geometry": {"type":"Point","coordinates":[-122.386155,37.616358]}
}
