{
  "id": 1527848723,
  "type": "Feature",
  "properties": {
    "date:cessation_lower": "1950-01-01",
    "date:cessation_upper": "1950-12-31",
    "date:inception_lower": "1950-01-01",
    "date:inception_upper": "1950-12-31",
    "edtf:cessation": "1950",
    "edtf:date": "1950",
    "edtf:inception": "1950",
    "geom:area": 0,
    "geom:bbox": "-122.386155,37.616358,-122.386155,37.616358",
    "geom:latitude": 37.616358,
    "geom:longitude": -122.386155,
    "iso:country": "XX",
    "media:fingerprint": "039fd17f576f466f8a7ccac3d688a2536aa2ea93",
    "media:imagehash_avg": "a:ffad010111a181ff",
    "media:imagehash_diff": "d:69597373734149bc",
    "media:imagetext": "- August, 1950\nEASTERN\nAIR LINES\nThere's no substitute for\nEASTERN'S EXPERIENCE\nSAVE 10% ON RETURN TICKET\nALWAYS BUY ROUND TRIP",
    "media:imagetext_created": 1787952646,
    "media:imagetext_source": "com.apple.visionkit.VNImageRequestHandler#Version 26.6.2 (Build 25G83)",
    "media:medium": "image",
    "media:mimetype": "image/tiff",
    "media:properties": {
      "sizes": {
        "b": {
          "extension": "jpg",
          "height": 768,
          "mimetype": "image/jpeg",
          "secret": "aGd0UgIw5plMSKpB0iIak3XZx7FtgXme",
          "width": 343
        },
        "c": {
          "extension": "jpg",
          "height": 600,
          "mimetype": "image/jpeg",
          "secret": "aGd0UgIw5plMSKpB0iIak3XZx7FtgXme",
          "width": 268
        },
        "dc": {
          "extension": "jpg",
          "height": 600,
          "mimetype": "image/jpeg",
          "secret": "aGd0UgIw5plMSKpB0iIak3XZx7FtgXme",
          "width": 268
        },
        "ds": {
          "extension": "jpg",
          "height": 320,
          "mimetype": "image/jpeg",
          "secret": "aGd0UgIw5plMSKpB0iIak3XZx7FtgXme",
          "width": 320
        },
        "k": {
          "extension": "jpg",
          "height": 1536,
          "mimetype": "image/jpeg",
          "secret": "aGd0UgIw5plMSKpB0iIak3XZx7FtgXme",
          "width": 687
        },
        "n": {
          "extension": "jpg",
          "height": 240,
          "mimetype": "image/jpeg",
          "secret": "aGd0UgIw5plMSKpB0iIak3XZx7FtgXme",
          "width": 107
        },
        "o": {
          "extension": "jpg",
          "height": 2797,
          "mimetype": "image/jpeg",
          "secret": "cPO9R9Qvp9MLsCJOTFP3Pf7xL5mgPn0h",
          "width": 1252
        },
        "s": {
          "extension": "jpg",
          "height": 320,
          "mimetype": "image/jpeg",
          "secret": "aGd0UgIw5plMSKpB0iIak3XZx7FtgXme",
          "width": 320
        },
        "z": {
          "extension": "jpg",
          "height": 480,
          "mimetype": "image/jpeg",
          "secret": "aGd0UgIw5plMSKpB0iIak3XZx7FtgXme",
          "width": 214
        }
      }
    },
    "media:source": "sfomuseum",
    "media:status_id": 1,
    "media:uri_template": "https://static.sfomuseum.org/media/152/784/872/3/1527848723_{secret}_{label}.{extension}",
    "millsfield:airline_id": [
      1159284309
    ],
    "millsfield:category_id": 1511214223,
    "millsfield:collection_id": 1511214207,
    "millsfield:company_id": [
      1159287349
    ],
    "millsfield:images_colors": [
      {
        "hex": "#0c0d4b",
        "name": "#0c0d4b",
        "reference": "marekm4"
      },
      {
        "hex": "#191970",
        "name": "midnightblue",
        "reference": "css4"
      },
      {
        "hex": "#1a4876",
        "name": "Midnight Blue",
        "reference": "crayola"
      },
      {
        "hex": "#dcd4c9",
        "name": "#dcd4c9",
        "reference": "marekm4"
      },
      {
        "hex": "#d3d3d3",
        "name": "lightgrey",
        "reference": "css4"
      },
      {
        "hex": "#dbd7d2",
        "name": "Timberwolf",
        "reference": "crayola"
      },
      {
        "hex": "#c81108",
        "name": "#c81108",
        "reference": "marekm4"
      },
      {
        "hex": "#b22222",
        "name": "firebrick",
        "reference": "css4"
      },
      {
        "hex": "#ff2b2b",
        "name": "Orange Red",
        "reference": "crayola"
      }
    ],
    "millsfield:images_texts": [
      "- August, 1950\nEASTERN\nAIR LINES\nThere's no substitute for\nEASTERN'S EXPERIENCE\nSAVE 10% ON RETURN TICKET\nALWAYS BUY ROUND TRIP"
    ],
    "millsfield:images_texts_ids": [
      1527848723
    ],
    "millsfield:similar": {
      "apple/mobileclip_s0": [
        {
          "distance": 0.1654091,
          "id": 1762701463
        },
        {
          "distance": 0.18300416,
          "id": 1527848719
        },
        {
          "distance": 0.18760744,
          "id": 1527848731
        },
        {
          "distance": 0.21268272,
          "id": 1527848729
        },
        {
          "distance": 0.26637867,
          "id": 1762701465
        },
        {
          "distance": 0.27318725,
          "id": 1762701461
        },
        {
          "distance": 0.27401862,
          "id": 1762701455
        },
        {
          "distance": 0.31352505,
          "id": 1527848773
        },
        {
          "distance": 0.31857836,
          "id": 1527848717
        },
        {
          "distance": 0.3214475,
          "id": 1762701449
        }
      ],
      "apple/mobileclip_s1": [
        {
          "distance": 0.103593476,
          "id": 1527848719
        },
        {
          "distance": 0.109714754,
          "id": 1527848731
        },
        {
          "distance": 0.13101676,
          "id": 1762701463
        },
        {
          "distance": 0.1483698,
          "id": 1762701461
        },
        {
          "distance": 0.15866324,
          "id": 1762701465
        },
        {
          "distance": 0.17147782,
          "id": 1762701455
        },
        {
          "distance": 0.17478883,
          "id": 1762701451
        },
        {
          "distance": 0.1861675,
          "id": 1527848729
        },
        {
          "distance": 0.20171084,
          "id": 1762701449
        },
        {
          "distance": 0.20201834,
          "id": 1527848717
        }
      ],
      "apple/mobileclip_s2": [
        {
          "distance": 0.13263652,
          "id": 1527848719
        },
        {
          "distance": 0.14321187,
          "id": 1527848731
        },
        {
          "distance": 0.16667731,
          "id": 1762701465
        },
        {
          "distance": 0.20216024,
          "id": 1762701463
        },
        {
          "distance": 0.20414522,
          "id": 1527848717
        },
        {
          "distance": 0.20450896,
          "id": 1762701461
        },
        {
          "distance": 0.22072071,
          "id": 1762701455
        },
        {
          "distance": 0.22390105,
          "id": 1762701451
        },
        {
          "distance": 0.22483422,
          "id": 1527848773
        },
        {
          "distance": 0.23051079,
          "id": 1527848729
        }
      ]
    },
    "millsfield:subcategory_id": 1511213425,
    "mz:hierarchy_label": 1,
    "mz:is_current": -1,
    "sfomuseum:filename": "2005.132.019.008.tif",
    "sfomuseum:image_id": 73575,
    "sfomuseum:image_index": 5,
    "sfomuseum:image_type": "studio",
    "sfomuseum:object_id": 97781,
    "sfomuseum:placetype": "image",
    "sfomuseum:primary_image": 1,
    "src:geom": "sfomuseum",
    "wof:belongsto": [
      1511214223,
      1511936353,
      102527513,
      102191575,
      85633793,
      1511213425,
      85922583,
      102087579,
      1511214277,
      1511214203,
      85688637
    ],
    "wof:breaches": [],
    "wof:country": "XX",
    "wof:created": 1578953901,
    "wof:depicts": [
      1159287349,
      1511936353,
      1159284309
    ],
    "wof:geomhash": "bd906905ce4be6c0651c90b0fc24804c",
    "wof:hierarchy": [
      {
        "arcade_id": 1511213425,
        "building_id": 1511214277,
        "campus_id": 102527513,
        "concourse_id": 1511214223,
        "continent_id": 102191575,
        "country_id": 85633793,
        "county_id": 102087579,
        "custom_id": 1527848723,
        "image_id": 1527848723,
        "locality_id": 85922583,
        "media_id": 1527848723,
        "neighbourhood_id": -1,
        "region_id": 85688637,
        "venue_id": 1511936353,
        "wing_id": 1511214203
      }
    ],
    "wof:id": 1527848723,
    "wof:lastmodified": 1788450149,
    "wof:name": "timetable: Eastern Air Lines",
    "wof:parent_id": 1511936353,
    "wof:placetype": "custom",
    "wof:placetype_alt": [
      "image"
    ],
    "wof:repo": "sfomuseum-data-media-collection",
    "wof:superseded_by": [],
    "wof:supersedes": [],
    "wof:tags": []
  },
  "bbox": [
    -122.386155,
    37.616358,
    -122.386155,
    37.616358
  ],
  "geometry": {"type":"Point","coordinates":[-122.386155,37.616358]}
}
