{
  "id": 1527824957,
  "type": "Feature",
  "properties": {
    "date:cessation_lower": "1964-01-01",
    "date:cessation_upper": "1964-12-31",
    "date:inception_lower": "1964-01-01",
    "date:inception_upper": "1964-12-31",
    "edtf:cessation": "1964",
    "edtf:date": "1964",
    "edtf:inception": "1964",
    "geom:area": 0,
    "geom:bbox": "-122.386155,37.616358,-122.386155,37.616358",
    "geom:latitude": 37.616358,
    "geom:longitude": -122.386155,
    "iso:country": "US",
    "media:fingerprint": "c5ba54c0bc57adc1997b17e590075b89fa7a1377",
    "media:imagehash_avg": "a:78fcf800007cfce0",
    "media:imagehash_diff": "d:e0c0808773f08000",
    "media:medium": "image",
    "media:mimetype": "image/tiff",
    "media:properties": {
      "sizes": {
        "b": {
          "extension": "jpg",
          "height": 768,
          "mimetype": "image/jpeg",
          "secret": "vQWywmFXBh3poialuV14OetsUGrPeRiT",
          "width": 784
        },
        "c": {
          "extension": "jpg",
          "height": 600,
          "mimetype": "image/jpeg",
          "secret": "vQWywmFXBh3poialuV14OetsUGrPeRiT",
          "width": 612
        },
        "dc": {
          "extension": "jpg",
          "height": 600,
          "mimetype": "image/jpeg",
          "secret": "vQWywmFXBh3poialuV14OetsUGrPeRiT",
          "width": 612
        },
        "ds": {
          "extension": "jpg",
          "height": 320,
          "mimetype": "image/jpeg",
          "secret": "vQWywmFXBh3poialuV14OetsUGrPeRiT",
          "width": 320
        },
        "k": {
          "extension": "jpg",
          "height": 1536,
          "mimetype": "image/jpeg",
          "secret": "vQWywmFXBh3poialuV14OetsUGrPeRiT",
          "width": 1568
        },
        "n": {
          "extension": "jpg",
          "height": 240,
          "mimetype": "image/jpeg",
          "secret": "vQWywmFXBh3poialuV14OetsUGrPeRiT",
          "width": 245
        },
        "o": {
          "extension": "jpg",
          "height": 2536,
          "mimetype": "image/jpeg",
          "secret": "Ghf9KT4srIH2rPv9mes0hTYDz6mJnWsm",
          "width": 2590
        },
        "s": {
          "extension": "jpg",
          "height": 320,
          "mimetype": "image/jpeg",
          "secret": "vQWywmFXBh3poialuV14OetsUGrPeRiT",
          "width": 320
        },
        "z": {
          "extension": "jpg",
          "height": 480,
          "mimetype": "image/jpeg",
          "secret": "vQWywmFXBh3poialuV14OetsUGrPeRiT",
          "width": 490
        }
      }
    },
    "media:source": "sfomuseum",
    "media:status_id": 1,
    "media:uri_template": "https://static.sfomuseum.org/media/152/782/495/7/1527824957_{secret}_{label}.{extension}",
    "millsfield:airport_id": [
      102527513
    ],
    "millsfield:category_id": 1511214209,
    "millsfield:collection_id": 1511214207,
    "millsfield:images_colors": [
      {
        "hex": "#4d4d4d",
        "name": "#4d4d4d",
        "reference": "marekm4"
      },
      {
        "hex": "#2f4f4f",
        "name": "darkslategrey",
        "reference": "css4"
      },
      {
        "hex": "#414a4c",
        "name": "Outer Space",
        "reference": "crayola"
      },
      {
        "hex": "#b9b9b9",
        "name": "#b9b9b9",
        "reference": "marekm4"
      },
      {
        "hex": "#c0c0c0",
        "name": "silver",
        "reference": "css4"
      },
      {
        "hex": "#b0b7c6",
        "name": "Cadet Blue",
        "reference": "crayola"
      }
    ],
    "millsfield:similar": {
      "apple/mobileclip_s0": [
        {
          "distance": 0.016965859,
          "id": 1527819227
        },
        {
          "distance": 0.59967715,
          "id": 1527826821
        },
        {
          "distance": 0.6072173,
          "id": 1527826885
        },
        {
          "distance": 0.61603564,
          "id": 1527824973
        },
        {
          "distance": 0.6178931,
          "id": 1762891015
        },
        {
          "distance": 0.61867386,
          "id": 1762891223
        },
        {
          "distance": 0.62009215,
          "id": 1527825179
        },
        {
          "distance": 0.62737626,
          "id": 1527826825
        },
        {
          "distance": 0.6303561,
          "id": 1762891059
        },
        {
          "distance": 0.636104,
          "id": 1762891219
        }
      ],
      "apple/mobileclip_s1": [
        {
          "distance": 0.010173036,
          "id": 1527819227
        },
        {
          "distance": 0.4717659,
          "id": 1762891015
        },
        {
          "distance": 0.47217894,
          "id": 1527826817
        },
        {
          "distance": 0.47349906,
          "id": 1762891069
        },
        {
          "distance": 0.4898292,
          "id": 1762891017
        },
        {
          "distance": 0.4998867,
          "id": 1762890925
        },
        {
          "distance": 0.50903493,
          "id": 1527826827
        },
        {
          "distance": 0.5128169,
          "id": 1762891199
        },
        {
          "distance": 0.51418275,
          "id": 1527826897
        },
        {
          "distance": 0.51564175,
          "id": 1527826825
        }
      ],
      "apple/mobileclip_s2": [
        {
          "distance": 0.013176112,
          "id": 1527819227
        },
        {
          "distance": 0.62596166,
          "id": 1527826821
        },
        {
          "distance": 0.6262351,
          "id": 1527826825
        },
        {
          "distance": 0.6676209,
          "id": 1762891017
        },
        {
          "distance": 0.6715857,
          "id": 1762891069
        },
        {
          "distance": 0.6716617,
          "id": 1762891015
        },
        {
          "distance": 0.6739365,
          "id": 1527826817
        },
        {
          "distance": 0.67552716,
          "id": 1762890925
        },
        {
          "distance": 0.68526757,
          "id": 1527826897
        },
        {
          "distance": 0.68642503,
          "id": 1527824959
        }
      ]
    },
    "millsfield:subcategory_id": 1511213367,
    "mz:hierarchy_label": 1,
    "mz:is_current": -1,
    "sfomuseum:filename": "42900.tif",
    "sfomuseum:image_id": 42900,
    "sfomuseum:image_index": 5,
    "sfomuseum:image_type": "studio",
    "sfomuseum:object_id": 115219,
    "sfomuseum:placetype": "image",
    "sfomuseum:primary_image": 1,
    "src:geom": "sfomuseum",
    "wof:belongsto": [
      1511214209,
      1511945839,
      102527513,
      102191575,
      85633793,
      1511213367,
      85922583,
      102087579,
      1511214277,
      1511214203,
      85688637
    ],
    "wof:breaches": [],
    "wof:country": "US",
    "wof:created": 1578950134,
    "wof:depicts": [
      102527513,
      1511945839
    ],
    "wof:geomhash": "bd906905ce4be6c0651c90b0fc24804c",
    "wof:hierarchy": [
      {
        "arcade_id": 1511213367,
        "building_id": 1511214277,
        "campus_id": 102527513,
        "concourse_id": 1511214209,
        "continent_id": 102191575,
        "country_id": 85633793,
        "county_id": 102087579,
        "custom_id": 1527824957,
        "image_id": 1527824957,
        "locality_id": 85922583,
        "media_id": 1527824957,
        "neighbourhood_id": -1,
        "region_id": 85688637,
        "venue_id": 1511945839,
        "wing_id": 1511214203
      }
    ],
    "wof:id": 1527824957,
    "wof:lastmodified": 1788449798,
    "wof:name": "photograph: San Francisco International Airport (SFO), parking garage construction",
    "wof:parent_id": 1511945839,
    "wof:placetype": "custom",
    "wof:placetype_alt": [
      "image"
    ],
    "wof:repo": "sfomuseum-data-media-collection",
    "wof:superseded_by": [],
    "wof:supersedes": [],
    "wof:tags": []
  },
  "bbox": [
    -122.386155,
    37.616358,
    -122.386155,
    37.616358
  ],
  "geometry": {"type":"Point","coordinates":[-122.386155,37.616358]}
}
