{
  "id": 1796506565,
  "type": "Feature",
  "properties": {
    "date:cessation_lower": "1960-01-01",
    "date:cessation_upper": "1969-12-31",
    "date:inception_lower": "1960-01-01",
    "date:inception_upper": "1969-12-31",
    "edtf:cessation": "196X",
    "edtf:inception": "196X",
    "geom:area": 2.477324999997507e-7,
    "geom:bbox": "-122.386472,37.616105,-122.385834,37.616611",
    "geom:latitude": 37.61635756125121,
    "geom:longitude": -122.38615532866096,
    "media:fingerprint": "64d4abe5928d4cef4b4149b9c7e92b290d8dc7f4",
    "media:imagehash_avg": "a:3e1f7f0f0d260700",
    "media:imagehash_diff": "d:6070407099ec66e2",
    "media:mimetype": "image/tiff",
    "media:properties": {
      "sizes": {
        "b": {
          "extension": "jpg",
          "height": 768,
          "mimetype": "image/jpeg",
          "secret": "CMpw2um5Qy1kUFZ6dpGA45XGbkUkf6iH",
          "width": 965
        },
        "c": {
          "extension": "jpg",
          "height": 600,
          "mimetype": "image/jpeg",
          "secret": "CMpw2um5Qy1kUFZ6dpGA45XGbkUkf6iH",
          "width": 754
        },
        "dc": {
          "extension": "jpg",
          "height": 600,
          "mimetype": "image/jpeg",
          "secret": "CMpw2um5Qy1kUFZ6dpGA45XGbkUkf6iH",
          "width": 754
        },
        "ds": {
          "extension": "jpg",
          "height": 320,
          "mimetype": "image/jpeg",
          "secret": "CMpw2um5Qy1kUFZ6dpGA45XGbkUkf6iH",
          "width": 320
        },
        "k": {
          "extension": "jpg",
          "height": 1536,
          "mimetype": "image/jpeg",
          "secret": "CMpw2um5Qy1kUFZ6dpGA45XGbkUkf6iH",
          "width": 1931
        },
        "n": {
          "extension": "jpg",
          "height": 240,
          "mimetype": "image/jpeg",
          "secret": "CMpw2um5Qy1kUFZ6dpGA45XGbkUkf6iH",
          "width": 301
        },
        "o": {
          "extension": "jpg",
          "height": 1247,
          "mimetype": "image/jpeg",
          "secret": "tTrIXHm5yAiznBrqk7ptB6nNJdIu5xcE",
          "width": 1568
        },
        "s": {
          "extension": "jpg",
          "height": 320,
          "mimetype": "image/jpeg",
          "secret": "CMpw2um5Qy1kUFZ6dpGA45XGbkUkf6iH",
          "width": 320
        },
        "z": {
          "extension": "jpg",
          "height": 480,
          "mimetype": "image/jpeg",
          "secret": "CMpw2um5Qy1kUFZ6dpGA45XGbkUkf6iH",
          "width": 603
        }
      }
    },
    "media:source": "sfomuseum",
    "media:status_id": 1,
    "media:uri_template": "https://static.sfomuseum.org/media/179/650/656/5/1796506565_{secret}_{label}.{extension}",
    "millsfield:airline_id": [
      1159283649
    ],
    "millsfield:category_id": 1746152551,
    "millsfield:collection_id": 1511214203,
    "millsfield:company_id": [
      1159287863
    ],
    "millsfield:images_colors": [
      {
        "hex": "#ababa9",
        "name": "#ababa9",
        "reference": "marekm4"
      },
      {
        "hex": "#a9a9a9",
        "name": "darkgrey",
        "reference": "css4"
      },
      {
        "hex": "#979aaa",
        "name": "Manatee",
        "reference": "crayola"
      },
      {
        "hex": "#585550",
        "name": "#585550",
        "reference": "marekm4"
      },
      {
        "hex": "#696969",
        "name": "dimgrey",
        "reference": "css4"
      },
      {
        "hex": "#414a4c",
        "name": "Outer Space",
        "reference": "crayola"
      }
    ],
    "millsfield:similar": {
      "apple/mobileclip_s0": [
        {
          "distance": 0.27172115,
          "id": 1863469375
        },
        {
          "distance": 0.28874174,
          "id": 1796506559
        },
        {
          "distance": 0.29846108,
          "id": 1796506639
        },
        {
          "distance": 0.30669296,
          "id": 1796503391
        },
        {
          "distance": 0.30909225,
          "id": 1796506419
        },
        {
          "distance": 0.31466904,
          "id": 1796506561
        },
        {
          "distance": 0.3153237,
          "id": 1796509601
        },
        {
          "distance": 0.31725183,
          "id": 1796472557
        },
        {
          "distance": 0.32280818,
          "id": 1763372849
        },
        {
          "distance": 0.3229187,
          "id": 1796472561
        }
      ],
      "apple/mobileclip_s1": [
        {
          "distance": 0.13021322,
          "id": 1863469375
        },
        {
          "distance": 0.15242761,
          "id": 1796506561
        },
        {
          "distance": 0.1747956,
          "id": 1796503511
        },
        {
          "distance": 0.18275356,
          "id": 1796509649
        },
        {
          "distance": 0.19233884,
          "id": 1796506559
        },
        {
          "distance": 0.19249731,
          "id": 1796506593
        },
        {
          "distance": 0.19363801,
          "id": 1897762367
        },
        {
          "distance": 0.19723639,
          "id": 1796509645
        },
        {
          "distance": 0.20071763,
          "id": 1796503391
        },
        {
          "distance": 0.20095024,
          "id": 1796506639
        }
      ],
      "apple/mobileclip_s2": [
        {
          "distance": 0.1817615,
          "id": 1863469375
        },
        {
          "distance": 0.20650016,
          "id": 1796506561
        },
        {
          "distance": 0.21302187,
          "id": 1796503511
        },
        {
          "distance": 0.22390041,
          "id": 1796506559
        },
        {
          "distance": 0.22476156,
          "id": 1796509649
        },
        {
          "distance": 0.22506264,
          "id": 1796472561
        },
        {
          "distance": 0.22531247,
          "id": 1796509589
        },
        {
          "distance": 0.22895198,
          "id": 1796506639
        },
        {
          "distance": 0.23103078,
          "id": 1796506593
        },
        {
          "distance": 0.2324093,
          "id": 1796472557
        }
      ]
    },
    "millsfield:subcategory_id": 1511213417,
    "mz:is_current": 1,
    "sfomuseum:filename": "2012.061.022a.tif",
    "sfomuseum:image_id": 198196,
    "sfomuseum:image_index": 1,
    "sfomuseum:image_type": "studio",
    "sfomuseum:object_id": 130633,
    "sfomuseum:placetype": "image",
    "sfomuseum:primary_image": 1,
    "src:geom": "sfomuseum",
    "wof:belongsto": [
      102527513,
      1159162825,
      102191575,
      85633793,
      102087579,
      85922583,
      1796506107,
      85688637,
      1159160869
    ],
    "wof:country": "XY",
    "wof:created": 1666943501,
    "wof:depicts": [
      1159283649,
      1159287863,
      1796506107
    ],
    "wof:geomhash": "ed7c2ab3547fc3916b5edc33488deaa7",
    "wof:hierarchy": [
      {
        "building_id": -1,
        "campus_id": 102527513,
        "collection_id": 1159162825,
        "concourse_id": 1159162825,
        "continent_id": 102191575,
        "country_id": 85633793,
        "county_id": 102087579,
        "custom_id": 1796506565,
        "image_id": 1796506565,
        "locality_id": 85922583,
        "neighbourhood_id": -1,
        "object_id": 1796506107,
        "region_id": 85688637,
        "wing_id": 1159160869
      }
    ],
    "wof:id": 1796506565,
    "wof:lastmodified": 1788451556,
    "wof:name": "spoon: Air India",
    "wof:parent_id": 1796506107,
    "wof:placetype": "custom",
    "wof:placetype_alt": [
      "image"
    ],
    "wof:repo": "sfomuseum-data-media-collection",
    "wof:superseded_by": [],
    "wof:supersedes": []
  },
  "bbox": [
    -122.386472,
    37.616105,
    -122.385834,
    37.616611
  ],
  "geometry": {"type":"Polygon","coordinates":[[[-122.386472,37.616318],[-122.386435,37.616233],[-122.386376,37.616178],[-122.386301,37.616131],[-122.386161,37.616105],[-122.386022,37.616131],[-122.385914,37.616186],[-122.385855,37.616267],[-122.385834,37.616369],[-122.385871,37.616467],[-122.385941,37.616543],[-122.386054,37.616603],[-122.386183,37.616611],[-122.386306,37.616573],[-122.386419,37.616509],[-122.386467,37.616411],[-122.386472,37.616318]]]}
}
