{
  "id": 1813567817,
  "type": "Feature",
  "properties": {
    "date:cessation_lower": "1930-01-01",
    "date:cessation_upper": "1939-12-31",
    "date:inception_lower": "1930-01-01",
    "date:inception_upper": "1939-12-31",
    "edtf:cessation": "193X",
    "edtf:inception": "193X",
    "geom:area": 2.477324999997507e-7,
    "geom:bbox": "-122.386472,37.616105,-122.385834,37.616611",
    "geom:latitude": 37.61635756125121,
    "geom:longitude": -122.38615532866096,
    "media:fingerprint": "8a0b1266b9a4d3ae4bb32fabfacbeb3a3e3f4985",
    "media:imagehash_avg": "a:007e7e7e7e7e7e00",
    "media:imagehash_diff": "d:d8d898c0e8c8c4c4",
    "media:imagetext": "PHOTO POST CARD\n--Kodak--\nPLACE\nSTAMP\nHERE\nADDRESS\n-- Paper--",
    "media:imagetext_created": 1787967334,
    "media:imagetext_source": "com.apple.visionkit.VNImageRequestHandler#Version 26.6.2 (Build 25G83)",
    "media:mimetype": "image/jpeg",
    "media:properties": {
      "sizes": {
        "b": {
          "extension": "jpg",
          "height": 692,
          "mimetype": "image/jpeg",
          "secret": "zsjTSpuQ9xbqEv8euc6dmQCeJVRcMEIe",
          "width": 1024
        },
        "c": {
          "extension": "jpg",
          "height": 540,
          "mimetype": "image/jpeg",
          "secret": "zsjTSpuQ9xbqEv8euc6dmQCeJVRcMEIe",
          "width": 800
        },
        "dc": {
          "extension": "jpg",
          "height": 540,
          "mimetype": "image/jpeg",
          "secret": "zsjTSpuQ9xbqEv8euc6dmQCeJVRcMEIe",
          "width": 800
        },
        "ds": {
          "extension": "jpg",
          "height": 320,
          "mimetype": "image/jpeg",
          "secret": "zsjTSpuQ9xbqEv8euc6dmQCeJVRcMEIe",
          "width": 320
        },
        "k": {
          "extension": "jpg",
          "height": 1384,
          "mimetype": "image/jpeg",
          "secret": "zsjTSpuQ9xbqEv8euc6dmQCeJVRcMEIe",
          "width": 2048
        },
        "n": {
          "extension": "jpg",
          "height": 216,
          "mimetype": "image/jpeg",
          "secret": "zsjTSpuQ9xbqEv8euc6dmQCeJVRcMEIe",
          "width": 320
        },
        "o": {
          "extension": "jpg",
          "height": 1161,
          "mimetype": "image/jpeg",
          "secret": "hVk4qu2RPhsT2F6qNduHl3z6FqKnYWpn",
          "width": 1718
        },
        "s": {
          "extension": "jpg",
          "height": 320,
          "mimetype": "image/jpeg",
          "secret": "zsjTSpuQ9xbqEv8euc6dmQCeJVRcMEIe",
          "width": 320
        },
        "z": {
          "extension": "jpg",
          "height": 432,
          "mimetype": "image/jpeg",
          "secret": "zsjTSpuQ9xbqEv8euc6dmQCeJVRcMEIe",
          "width": 640
        }
      }
    },
    "media:source": "sfomuseum",
    "media:status_id": 1,
    "media:uri_template": "https://static.sfomuseum.org/media/181/356/781/7/1813567817_{secret}_{label}.{extension}",
    "millsfield:aircraft_id": [
      1159291669
    ],
    "millsfield:airline_id": [
      1159284991
    ],
    "millsfield:category_id": 1511214215,
    "millsfield:collection_id": 1511214207,
    "millsfield:company_id": [
      1159293917
    ],
    "millsfield:images_colors": [
      {
        "hex": "#cfc8b1",
        "name": "#cfc8b1",
        "reference": "marekm4"
      },
      {
        "hex": "#c0c0c0",
        "name": "silver",
        "reference": "css4"
      },
      {
        "hex": "#cdc5c2",
        "name": "Silver",
        "reference": "crayola"
      },
      {
        "hex": "#a19475",
        "name": "#a19475",
        "reference": "marekm4"
      },
      {
        "hex": "#bc8f8f",
        "name": "rosybrown",
        "reference": "css4"
      },
      {
        "hex": "#9f8170",
        "name": "Beaver",
        "reference": "crayola"
      }
    ],
    "millsfield:images_texts": [
      "PHOTO POST CARD\n--Kodak--\nPLACE\nSTAMP\nHERE\nADDRESS\n-- Paper--"
    ],
    "millsfield:images_texts_ids": [
      1813567817
    ],
    "millsfield:similar": {
      "apple/mobileclip_s0": [
        {
          "distance": 0.26421902,
          "id": 1846706141
        },
        {
          "distance": 0.29006696,
          "id": 1846705701
        },
        {
          "distance": 0.34039658,
          "id": 1846706145
        },
        {
          "distance": 0.373994,
          "id": 1846706019
        },
        {
          "distance": 0.37864435,
          "id": 1762713269
        },
        {
          "distance": 0.38149288,
          "id": 1846756083
        },
        {
          "distance": 0.3851592,
          "id": 1762713273
        },
        {
          "distance": 0.38661745,
          "id": 1762711367
        },
        {
          "distance": 0.39330363,
          "id": 1846705805
        },
        {
          "distance": 0.40136987,
          "id": 1846756079
        }
      ],
      "apple/mobileclip_s1": [
        {
          "distance": 0.14164858,
          "id": 1846705701
        },
        {
          "distance": 0.19934762,
          "id": 1846706019
        },
        {
          "distance": 0.21155602,
          "id": 1846706145
        },
        {
          "distance": 0.21488778,
          "id": 1846706141
        },
        {
          "distance": 0.21621098,
          "id": 1762704359
        },
        {
          "distance": 0.21651469,
          "id": 1762708943
        },
        {
          "distance": 0.21658818,
          "id": 1762709525
        },
        {
          "distance": 0.21787806,
          "id": 1762704471
        },
        {
          "distance": 0.22589023,
          "id": 1762713179
        },
        {
          "distance": 0.22677067,
          "id": 1762713269
        }
      ],
      "apple/mobileclip_s2": [
        {
          "distance": 0.24760777,
          "id": 1846705701
        },
        {
          "distance": 0.25469473,
          "id": 1846706145
        },
        {
          "distance": 0.2712196,
          "id": 1846706141
        },
        {
          "distance": 0.29194283,
          "id": 1846706019
        },
        {
          "distance": 0.30863336,
          "id": 1762707787
        },
        {
          "distance": 0.31633183,
          "id": 1762709525
        },
        {
          "distance": 0.32033938,
          "id": 1762704471
        },
        {
          "distance": 0.32885632,
          "id": 1762713273
        },
        {
          "distance": 0.33232972,
          "id": 1762709615
        },
        {
          "distance": 0.3327172,
          "id": 1813567811
        }
      ]
    },
    "millsfield:subcategory_id": 1511213363,
    "mz:is_current": 1,
    "sfomuseum:filename": "066b.jpg",
    "sfomuseum:image_id": 264923,
    "sfomuseum:image_index": 0,
    "sfomuseum:image_type": "studio",
    "sfomuseum:object_id": 232566,
    "sfomuseum:placetype": "image",
    "sfomuseum:primary_image": 0,
    "src:geom": "sfomuseum",
    "wof:belongsto": [
      102527513,
      1159162825,
      102191575,
      85633793,
      102087579,
      85922583,
      1813567449,
      85688637,
      1159160869
    ],
    "wof:country": "XY",
    "wof:created": 1678868065,
    "wof:depicts": [
      1159284991,
      1159291669,
      1159293917,
      1159286839,
      1813567449
    ],
    "wof:geomhash": "ed7c2ab3547fc3916b5edc33488deaa7",
    "wof:hierarchy": [
      {
        "building_id": -1,
        "campus_id": 102527513,
        "collection_id": 1159162825,
        "concourse_id": 1159162825,
        "continent_id": 102191575,
        "country_id": 85633793,
        "county_id": 102087579,
        "custom_id": 1813567817,
        "image_id": 1813567817,
        "locality_id": 85922583,
        "neighbourhood_id": -1,
        "object_id": 1813567449,
        "region_id": 85688637,
        "wing_id": 1159160869
      }
    ],
    "wof:id": 1813567817,
    "wof:lastmodified": 1788451617,
    "wof:name": "postcard: Pan American Airways, Sikorsky S-42",
    "wof:parent_id": 1813567449,
    "wof:placetype": "custom",
    "wof:placetype_alt": [
      "image"
    ],
    "wof:repo": "sfomuseum-data-media-collection",
    "wof:superseded_by": [],
    "wof:supersedes": []
  },
  "bbox": [
    -122.386472,
    37.616105,
    -122.385834,
    37.616611
  ],
  "geometry": {"type":"Polygon","coordinates":[[[-122.386472,37.616318],[-122.386435,37.616233],[-122.386376,37.616178],[-122.386301,37.616131],[-122.386161,37.616105],[-122.386022,37.616131],[-122.385914,37.616186],[-122.385855,37.616267],[-122.385834,37.616369],[-122.385871,37.616467],[-122.385941,37.616543],[-122.386054,37.616603],[-122.386183,37.616611],[-122.386306,37.616573],[-122.386419,37.616509],[-122.386467,37.616411],[-122.386472,37.616318]]]}
}
