{
  "id": 1762893923,
  "type": "Feature",
  "properties": {
    "date:cessation_lower": "1970-01-01",
    "date:cessation_upper": "1970-12-31",
    "date:inception_lower": "1970-01-01",
    "date:inception_upper": "1970-12-31",
    "edtf:cessation": "1970~",
    "edtf:inception": "1970~",
    "geom:area": 2.477324999997507e-7,
    "geom:bbox": "-122.386472,37.616105,-122.385834,37.616611",
    "geom:latitude": 37.61635756125121,
    "geom:longitude": -122.38615532866096,
    "media:fingerprint": "6cdae4c94e84cc326316de101626e4ccf9bab5d1",
    "media:imagehash_avg": "a:fc80080080013f3f",
    "media:imagehash_diff": "d:3139795115757577",
    "media:imagetext": "The\nAstroliner\nFRANKIE VALLI\nAND THE\n4\nSEASONS\nEntertainment in Flight on AmericanAirlines\nNumber OH-3",
    "media:imagetext_created": 1787958906,
    "media:imagetext_source": "com.apple.visionkit.VNImageRequestHandler#Version 26.6.2 (Build 25G83)",
    "media:mimetype": "image/tiff",
    "media:properties": {
      "sizes": {
        "b": {
          "extension": "jpg",
          "height": 768,
          "mimetype": "image/jpeg",
          "secret": "vwIAOWorT2gL3OqKEaqQMEGx10znG9KL",
          "width": 517
        },
        "c": {
          "extension": "jpg",
          "height": 600,
          "mimetype": "image/jpeg",
          "secret": "vwIAOWorT2gL3OqKEaqQMEGx10znG9KL",
          "width": 404
        },
        "dc": {
          "extension": "jpg",
          "height": 600,
          "mimetype": "image/jpeg",
          "secret": "vwIAOWorT2gL3OqKEaqQMEGx10znG9KL",
          "width": 404
        },
        "ds": {
          "extension": "jpg",
          "height": 320,
          "mimetype": "image/jpeg",
          "secret": "vwIAOWorT2gL3OqKEaqQMEGx10znG9KL",
          "width": 320
        },
        "k": {
          "extension": "jpg",
          "height": 1536,
          "mimetype": "image/jpeg",
          "secret": "vwIAOWorT2gL3OqKEaqQMEGx10znG9KL",
          "width": 1034
        },
        "n": {
          "extension": "jpg",
          "height": 240,
          "mimetype": "image/jpeg",
          "secret": "vwIAOWorT2gL3OqKEaqQMEGx10znG9KL",
          "width": 161
        },
        "o": {
          "extension": "jpg",
          "height": 2000,
          "mimetype": "image/jpeg",
          "secret": "YRiw7LGOFYxwmlkXtL4dnpLsQ1r0KzRt",
          "width": 1347
        },
        "s": {
          "extension": "jpg",
          "height": 320,
          "mimetype": "image/jpeg",
          "secret": "vwIAOWorT2gL3OqKEaqQMEGx10znG9KL",
          "width": 320
        },
        "z": {
          "extension": "jpg",
          "height": 480,
          "mimetype": "image/jpeg",
          "secret": "vwIAOWorT2gL3OqKEaqQMEGx10znG9KL",
          "width": 323
        }
      }
    },
    "media:source": "sfomuseum",
    "media:status_id": 1,
    "media:uri_template": "https://static.sfomuseum.org/media/176/289/392/3/1762893923_{secret}_{label}.{extension}",
    "millsfield:aircraft_id": [
      1159289873
    ],
    "millsfield:airline_id": [
      1159283849
    ],
    "millsfield:category_id": 1762671311,
    "millsfield:collection_id": 1511214207,
    "millsfield:company_id": [
      1159293593
    ],
    "millsfield:images_colors": [
      {
        "hex": "#050942",
        "name": "#050942",
        "reference": "marekm4"
      },
      {
        "hex": "#191970",
        "name": "midnightblue",
        "reference": "css4"
      },
      {
        "hex": "#000000",
        "name": "Black",
        "reference": "crayola"
      },
      {
        "hex": "#cb1204",
        "name": "#cb1204",
        "reference": "marekm4"
      },
      {
        "hex": "#b22222",
        "name": "firebrick",
        "reference": "css4"
      },
      {
        "hex": "#ff2b2b",
        "name": "Orange Red",
        "reference": "crayola"
      },
      {
        "hex": "#ece4d5",
        "name": "#ece4d5",
        "reference": "marekm4"
      },
      {
        "hex": "#faebd7",
        "name": "antiquewhite",
        "reference": "css4"
      },
      {
        "hex": "#efdecd",
        "name": "Almond",
        "reference": "crayola"
      },
      {
        "hex": "#bc933f",
        "name": "#bc933f",
        "reference": "marekm4"
      },
      {
        "hex": "#cd853f",
        "name": "peru",
        "reference": "css4"
      },
      {
        "hex": "#d68a59",
        "name": "Raw Sienna",
        "reference": "crayola"
      }
    ],
    "millsfield:images_texts": [
      "The\nAstroliner\nFRANKIE VALLI\nAND THE\n4\nSEASONS\nEntertainment in Flight on AmericanAirlines\nNumber OH-3"
    ],
    "millsfield:images_texts_ids": [
      1762893923
    ],
    "millsfield:similar": {
      "apple/mobileclip_s0": [
        {
          "distance": 0.7274838,
          "id": 1763455997
        },
        {
          "distance": 0.7331483,
          "id": 1527849865
        },
        {
          "distance": 0.74453187,
          "id": 1964107527
        },
        {
          "distance": 0.7501734,
          "id": 1763455999
        },
        {
          "distance": 0.7502567,
          "id": 1763588761
        },
        {
          "distance": 0.75208914,
          "id": 1746680693
        },
        {
          "distance": 0.7542292,
          "id": 1527840305
        },
        {
          "distance": 0.7555225,
          "id": 1762701775
        },
        {
          "distance": 0.76170254,
          "id": 1527843225
        },
        {
          "distance": 0.763022,
          "id": 1527837519
        }
      ],
      "apple/mobileclip_s1": [
        {
          "distance": 0.51531947,
          "id": 1527818477
        },
        {
          "distance": 0.51545477,
          "id": 1762714347
        },
        {
          "distance": 0.519713,
          "id": 1527847167
        },
        {
          "distance": 0.53379905,
          "id": 1779489971
        },
        {
          "distance": 0.5344556,
          "id": 1527836551
        },
        {
          "distance": 0.5350606,
          "id": 1763455997
        },
        {
          "distance": 0.53912365,
          "id": 1763256211
        },
        {
          "distance": 0.54218304,
          "id": 1779490039
        },
        {
          "distance": 0.54297423,
          "id": 1746838351
        },
        {
          "distance": 0.5433261,
          "id": 1527838329
        }
      ],
      "apple/mobileclip_s2": [
        {
          "distance": 0.7181498,
          "id": 1762713609
        },
        {
          "distance": 0.7286926,
          "id": 1527838465
        },
        {
          "distance": 0.73767644,
          "id": 1527855033
        },
        {
          "distance": 0.7404657,
          "id": 1527847707
        },
        {
          "distance": 0.74057907,
          "id": 1527818477
        },
        {
          "distance": 0.7409718,
          "id": 1527841841
        },
        {
          "distance": 0.74456304,
          "id": 1779436531
        },
        {
          "distance": 0.74482393,
          "id": 1746680707
        },
        {
          "distance": 0.74642956,
          "id": 2014778319
        },
        {
          "distance": 0.75004613,
          "id": 1527849865
        }
      ]
    },
    "millsfield:subcategory_id": 1511213711,
    "mz:is_current": 1,
    "sfomuseum:filename": "72953.tif",
    "sfomuseum:image_id": 72953,
    "sfomuseum:image_index": 5,
    "sfomuseum:image_type": "studio",
    "sfomuseum:object_id": 128214,
    "sfomuseum:placetype": "image",
    "sfomuseum:primary_image": 1,
    "src:geom": "sfomuseum",
    "wof:belongsto": [
      102527513,
      1159162825,
      102191575,
      85633793,
      102087579,
      85922583,
      1762828899,
      85688637,
      1159160869
    ],
    "wof:country": "XY",
    "wof:created": 1643413905,
    "wof:depicts": [
      1159293593,
      1762828899,
      1159283849,
      1360700619,
      1159289873
    ],
    "wof:geomhash": "ed7c2ab3547fc3916b5edc33488deaa7",
    "wof:hierarchy": [
      {
        "building_id": -1,
        "campus_id": 102527513,
        "collection_id": 1159162825,
        "concourse_id": 1159162825,
        "continent_id": 102191575,
        "country_id": 85633793,
        "county_id": 102087579,
        "custom_id": 1762893923,
        "image_id": 1762893923,
        "locality_id": 85922583,
        "neighbourhood_id": -1,
        "object_id": 1762828899,
        "region_id": 85688637,
        "wing_id": 1159160869
      }
    ],
    "wof:id": 1762893923,
    "wof:lastmodified": 1788450758,
    "wof:name": "inflight entertainment guide: American Airlines, Boeing 747",
    "wof:parent_id": 1762828899,
    "wof:placetype": "custom",
    "wof:placetype_alt": [
      "image"
    ],
    "wof:repo": "sfomuseum-data-media-collection",
    "wof:superseded_by": [],
    "wof:supersedes": []
  },
  "bbox": [
    -122.386472,
    37.616105,
    -122.385834,
    37.616611
  ],
  "geometry": {"type":"Polygon","coordinates":[[[-122.386472,37.616318],[-122.386435,37.616233],[-122.386376,37.616178],[-122.386301,37.616131],[-122.386161,37.616105],[-122.386022,37.616131],[-122.385914,37.616186],[-122.385855,37.616267],[-122.385834,37.616369],[-122.385871,37.616467],[-122.385941,37.616543],[-122.386054,37.616603],[-122.386183,37.616611],[-122.386306,37.616573],[-122.386419,37.616509],[-122.386467,37.616411],[-122.386472,37.616318]]]}
}
