{
  "id": 1729565247,
  "type": "Feature",
  "properties": {
    "date:cessation_lower": "1950-01-01",
    "date:cessation_upper": "1950-12-31",
    "date:inception_lower": "1950-01-01",
    "date:inception_upper": "1950-12-31",
    "edtf:cessation": "1950",
    "edtf:date": "1950",
    "edtf:inception": "1950",
    "geom:area": 0,
    "geom:bbox": "-122.386155,37.616357,-122.386155,37.616357",
    "geom:latitude": 37.616357,
    "geom:longitude": -122.386155,
    "iso:country": "XX",
    "media:fingerprint": "452fb689f14804129d70bc002d4b732e6f8dcec3",
    "media:imagehash_avg": "a:efefe200070ffdfe",
    "media:imagehash_diff": "d:8b9b1286bebfa1a0",
    "media:imagetext": "500\nNC86500\nTRANS WORLD AIRLINE\n100000000\n-TWA®",
    "media:imagetext_created": 1787954427,
    "media:imagetext_source": "com.apple.visionkit.VNImageRequestHandler#Version 26.6.2 (Build 25G83)",
    "media:medium": "image",
    "media:mimetype": "image/tiff",
    "media:properties": {
      "sizes": {
        "b": {
          "extension": "jpg",
          "height": 659,
          "mimetype": "image/jpeg",
          "secret": "gUuLuk6kmD8pJ3QmDBz3kvc9X73pq6pP",
          "width": 1024
        },
        "c": {
          "extension": "jpg",
          "height": 515,
          "mimetype": "image/jpeg",
          "secret": "gUuLuk6kmD8pJ3QmDBz3kvc9X73pq6pP",
          "width": 800
        },
        "dc": {
          "extension": "jpg",
          "height": 515,
          "mimetype": "image/jpeg",
          "secret": "gUuLuk6kmD8pJ3QmDBz3kvc9X73pq6pP",
          "width": 800
        },
        "ds": {
          "extension": "jpg",
          "height": 320,
          "mimetype": "image/jpeg",
          "secret": "gUuLuk6kmD8pJ3QmDBz3kvc9X73pq6pP",
          "width": 320
        },
        "k": {
          "extension": "jpg",
          "height": 1318,
          "mimetype": "image/jpeg",
          "secret": "gUuLuk6kmD8pJ3QmDBz3kvc9X73pq6pP",
          "width": 2048
        },
        "n": {
          "extension": "jpg",
          "height": 206,
          "mimetype": "image/jpeg",
          "secret": "gUuLuk6kmD8pJ3QmDBz3kvc9X73pq6pP",
          "width": 320
        },
        "o": {
          "extension": "jpg",
          "height": 846,
          "mimetype": "image/jpeg",
          "secret": "ezUyruMbNvafJEaDwA1pcAsmcHn1i3gO",
          "width": 1314
        },
        "s": {
          "extension": "jpg",
          "height": 320,
          "mimetype": "image/jpeg",
          "secret": "gUuLuk6kmD8pJ3QmDBz3kvc9X73pq6pP",
          "width": 320
        },
        "z": {
          "extension": "jpg",
          "height": 412,
          "mimetype": "image/jpeg",
          "secret": "gUuLuk6kmD8pJ3QmDBz3kvc9X73pq6pP",
          "width": 640
        }
      }
    },
    "media:source": "sfomuseum",
    "media:status_id": 1,
    "media:uri_template": "https://static.sfomuseum.org/media/172/956/524/7/1729565247_{secret}_{label}.{extension}",
    "millsfield:aircraft_id": [
      1159291095
    ],
    "millsfield:airline_id": [
      1159285393
    ],
    "millsfield:category_id": 1511214209,
    "millsfield:collection_id": 1511214207,
    "millsfield:company_id": [
      1159293697
    ],
    "millsfield:images_colors": [
      {
        "hex": "#e0e1e1",
        "name": "#e0e1e1",
        "reference": "marekm4"
      },
      {
        "hex": "#dcdcdc",
        "name": "gainsboro",
        "reference": "css4"
      },
      {
        "hex": "#dbd7d2",
        "name": "Timberwolf",
        "reference": "crayola"
      },
      {
        "hex": "#2c2f30",
        "name": "#2c2f30",
        "reference": "marekm4"
      },
      {
        "hex": "#2f4f4f",
        "name": "darkslategrey",
        "reference": "css4"
      },
      {
        "hex": "#414a4c",
        "name": "Outer Space",
        "reference": "crayola"
      }
    ],
    "millsfield:images_texts": [
      "500\nNC86500\nTRANS WORLD AIRLINE\n100000000\n-TWA®"
    ],
    "millsfield:images_texts_ids": [
      1729565247
    ],
    "millsfield:similar": {
      "apple/mobileclip_s0": [
        {
          "distance": 0.56825984,
          "id": 2014997883
        },
        {
          "distance": 0.56853896,
          "id": 1729565161
        },
        {
          "distance": 0.57152176,
          "id": 1762712125
        },
        {
          "distance": 0.5739634,
          "id": 1762891937
        },
        {
          "distance": 0.5828524,
          "id": 1762895085
        },
        {
          "distance": 0.58339804,
          "id": 1763445827
        },
        {
          "distance": 0.583689,
          "id": 1762706353
        },
        {
          "distance": 0.5840128,
          "id": 1998536979
        },
        {
          "distance": 0.5850683,
          "id": 2014998135
        },
        {
          "distance": 0.5878981,
          "id": 1762708705
        }
      ],
      "apple/mobileclip_s1": [
        {
          "distance": 0.42950672,
          "id": 1763445845
        },
        {
          "distance": 0.4490689,
          "id": 1847515463
        },
        {
          "distance": 0.45105204,
          "id": 1763445847
        },
        {
          "distance": 0.45179972,
          "id": 1527821413
        },
        {
          "distance": 0.45290452,
          "id": 1729565705
        },
        {
          "distance": 0.4548519,
          "id": 1729565825
        },
        {
          "distance": 0.4582657,
          "id": 1527821417
        },
        {
          "distance": 0.46375012,
          "id": 2014998119
        },
        {
          "distance": 0.46604854,
          "id": 1729565161
        },
        {
          "distance": 0.467498,
          "id": 1863469321
        }
      ],
      "apple/mobileclip_s2": [
        {
          "distance": 0.47234452,
          "id": 1746281427
        },
        {
          "distance": 0.49702415,
          "id": 1763445845
        },
        {
          "distance": 0.49883366,
          "id": 1863469321
        },
        {
          "distance": 0.53231084,
          "id": 1729565705
        },
        {
          "distance": 0.54067856,
          "id": 1729565165
        },
        {
          "distance": 0.5519591,
          "id": 1763445809
        },
        {
          "distance": 0.5524265,
          "id": 1527822501
        },
        {
          "distance": 0.552983,
          "id": 1762712125
        },
        {
          "distance": 0.55427617,
          "id": 2014997707
        },
        {
          "distance": 0.55544347,
          "id": 1527821417
        }
      ]
    },
    "millsfield:subcategory_id": 1511213367,
    "mz:hierarchy_label": 1,
    "mz:is_current": -1,
    "sfomuseum:filename": "31932.tif",
    "sfomuseum:image_id": 31932,
    "sfomuseum:image_index": 0,
    "sfomuseum:image_type": "studio",
    "sfomuseum:object_id": 79559,
    "sfomuseum:placetype": "image",
    "sfomuseum:primary_image": 1,
    "src:geom": "sfomuseum",
    "wof:belongsto": [
      1511214277,
      102191575,
      85633793,
      1729564599,
      102527513,
      85922583,
      1511214207,
      1511214209,
      85688637,
      1511213367,
      102087579
    ],
    "wof:breaches": [],
    "wof:country": "XX",
    "wof:created": 1607038337,
    "wof:depicts": [
      1159293697,
      1729564599,
      1159285393,
      1159291095
    ],
    "wof:geomhash": "30c8a918561c84bb2daa2b97fc7c5353",
    "wof:hierarchy": [
      {
        "arcade_id": 1511213367,
        "building_id": 1511214277,
        "campus_id": 102527513,
        "concourse_id": 1511214209,
        "continent_id": 102191575,
        "country_id": 85633793,
        "county_id": 102087579,
        "custom_id": 1729565247,
        "image_id": 1729565247,
        "locality_id": 85922583,
        "media_id": 1729565247,
        "neighbourhood_id": -1,
        "region_id": 85688637,
        "venue_id": 1729564599,
        "wing_id": 1511214207
      }
    ],
    "wof:id": 1729565247,
    "wof:lastmodified": 1788450290,
    "wof:name": "photograph: TWA (Trans World Airlines), Lockheed L-049 Constellation",
    "wof:parent_id": 1729564599,
    "wof:placetype": "custom",
    "wof:placetype_alt": [
      "image"
    ],
    "wof:repo": "sfomuseum-data-media-collection",
    "wof:superseded_by": [],
    "wof:supersedes": [],
    "wof:tags": []
  },
  "bbox": [
    -122.386155,
    37.616357,
    -122.386155,
    37.616357
  ],
  "geometry": {"type":"Point","coordinates":[-122.386155,37.616357]}
}
