{
  "id": 1762711903,
  "type": "Feature",
  "properties": {
    "date:cessation_lower": "1950-01-01",
    "date:cessation_upper": "1959-12-31",
    "date:inception_lower": "1950-01-01",
    "date:inception_upper": "1959-12-31",
    "edtf:cessation": "195X",
    "edtf:inception": "195X",
    "geom:area": 2.477324999997507e-7,
    "geom:bbox": "-122.386472,37.616105,-122.385834,37.616611",
    "geom:latitude": 37.61635756125121,
    "geom:longitude": -122.38615532866096,
    "iso:country": "US",
    "media:fingerprint": "26895fc2bf9e063288523e633bfdb495d3db7399",
    "media:imagehash_avg": "a:9d8ce0228786a7fd",
    "media:imagehash_diff": "d:3979476a4a484c45",
    "media:imagetext": "MUNICIPAL AIRPORT AND\nU. S. WEATHER BUREAU, OMAHA, NEBRASKA\nERIC\nNELSON NEWS CO., OMAHA, NEB\nGenuine Curteich-Chicago \"C. J. Photochrom\" Post Card (Reg. U. S. Pat. Of.)\n150\nPLACE\nSTAMP\nHERE\nPost Card\n2C-P2192\n2015,166.2166",
    "media:imagetext_created": 1787957863,
    "media:imagetext_source": "com.apple.visionkit.VNImageRequestHandler#Version 26.6.2 (Build 25G83)",
    "media:mimetype": "image/tiff",
    "media:properties": {
      "sizes": {
        "b": {
          "extension": "jpg",
          "height": 660,
          "mimetype": "image/jpeg",
          "secret": "bd5b9BtQnqKGu1xHUA4aXNPXpfc5R2VC",
          "width": 1024
        },
        "c": {
          "extension": "jpg",
          "height": 515,
          "mimetype": "image/jpeg",
          "secret": "bd5b9BtQnqKGu1xHUA4aXNPXpfc5R2VC",
          "width": 800
        },
        "dc": {
          "extension": "jpg",
          "height": 515,
          "mimetype": "image/jpeg",
          "secret": "bd5b9BtQnqKGu1xHUA4aXNPXpfc5R2VC",
          "width": 800
        },
        "ds": {
          "extension": "jpg",
          "height": 320,
          "mimetype": "image/jpeg",
          "secret": "bd5b9BtQnqKGu1xHUA4aXNPXpfc5R2VC",
          "width": 320
        },
        "k": {
          "extension": "jpg",
          "height": 1320,
          "mimetype": "image/jpeg",
          "secret": "bd5b9BtQnqKGu1xHUA4aXNPXpfc5R2VC",
          "width": 2048
        },
        "n": {
          "extension": "jpg",
          "height": 206,
          "mimetype": "image/jpeg",
          "secret": "bd5b9BtQnqKGu1xHUA4aXNPXpfc5R2VC",
          "width": 320
        },
        "o": {
          "extension": "jpg",
          "height": 1083,
          "mimetype": "image/jpeg",
          "secret": "4Ae7taebXLTGxIB4tedLYUPmwK0jbCLq",
          "width": 1680
        },
        "s": {
          "extension": "jpg",
          "height": 320,
          "mimetype": "image/jpeg",
          "secret": "bd5b9BtQnqKGu1xHUA4aXNPXpfc5R2VC",
          "width": 320
        },
        "z": {
          "extension": "jpg",
          "height": 412,
          "mimetype": "image/jpeg",
          "secret": "bd5b9BtQnqKGu1xHUA4aXNPXpfc5R2VC",
          "width": 640
        }
      }
    },
    "media:source": "sfomuseum",
    "media:status_id": 1,
    "media:uri_template": "https://static.sfomuseum.org/media/176/271/190/3/1762711903_{secret}_{label}.{extension}",
    "millsfield:aircraft_id": [
      1159290417
    ],
    "millsfield:airline_id": [
      1159284787
    ],
    "millsfield:airport_id": [
      102524739
    ],
    "millsfield:category_id": 1511214215,
    "millsfield:collection_id": 1511214207,
    "millsfield:company_id": [],
    "millsfield:images_colors": [
      {
        "hex": "#e3dbc5",
        "name": "#e3dbc5",
        "reference": "marekm4"
      },
      {
        "hex": "#d3d3d3",
        "name": "lightgrey",
        "reference": "css4"
      },
      {
        "hex": "#efdecd",
        "name": "Almond",
        "reference": "crayola"
      },
      {
        "hex": "#9da15f",
        "name": "#9da15f",
        "reference": "marekm4"
      },
      {
        "hex": "#bdb76b",
        "name": "darkkhaki",
        "reference": "css4"
      },
      {
        "hex": "#87a96b",
        "name": "Asparagus",
        "reference": "crayola"
      }
    ],
    "millsfield:images_texts": [
      "TubS",
      "MUNICIPAL AIRPORT AND\nU. S. WEATHER BUREAU, OMAHA, NEBRASKA\nERIC\nNELSON NEWS CO., OMAHA, NEB\nGenuine Curteich-Chicago \"C. J. Photochrom\" Post Card (Reg. U. S. Pat. Of.)\n150\nPLACE\nSTAMP\nHERE\nPost Card\n2C-P2192\n2015,166.2166"
    ],
    "millsfield:images_texts_ids": [
      1762711901,
      1762711903
    ],
    "millsfield:similar": {
      "apple/mobileclip_s0": [
        {
          "distance": 0.4202454,
          "id": 1762710217
        },
        {
          "distance": 0.4241263,
          "id": 1762710459
        },
        {
          "distance": 0.42707643,
          "id": 1762708451
        },
        {
          "distance": 0.44458628,
          "id": 1762710869
        },
        {
          "distance": 0.44602585,
          "id": 1762710981
        },
        {
          "distance": 0.4463169,
          "id": 1762711705
        },
        {
          "distance": 0.44905603,
          "id": 1762711773
        },
        {
          "distance": 0.4515857,
          "id": 1762707307
        },
        {
          "distance": 0.45261154,
          "id": 1762711669
        },
        {
          "distance": 0.45401117,
          "id": 1762710221
        }
      ],
      "apple/mobileclip_s1": [
        {
          "distance": 0.31424344,
          "id": 1762710521
        },
        {
          "distance": 0.32176954,
          "id": 1762710517
        },
        {
          "distance": 0.32408375,
          "id": 1762712039
        },
        {
          "distance": 0.32873383,
          "id": 1762711669
        },
        {
          "distance": 0.33053705,
          "id": 1762710395
        },
        {
          "distance": 0.33111057,
          "id": 1762712015
        },
        {
          "distance": 0.33197775,
          "id": 1762712105
        },
        {
          "distance": 0.33198377,
          "id": 1762710589
        },
        {
          "distance": 0.33274448,
          "id": 1762708451
        },
        {
          "distance": 0.33772436,
          "id": 1762710985
        }
      ],
      "apple/mobileclip_s2": [
        {
          "distance": 0.45429245,
          "id": 1762707307
        },
        {
          "distance": 0.45756945,
          "id": 1762708451
        },
        {
          "distance": 0.4584704,
          "id": 1762711025
        },
        {
          "distance": 0.46027812,
          "id": 1762710395
        },
        {
          "distance": 0.46286356,
          "id": 1762711133
        },
        {
          "distance": 0.46557283,
          "id": 1762713057
        },
        {
          "distance": 0.47294682,
          "id": 1762711669
        },
        {
          "distance": 0.47847566,
          "id": 1762711773
        },
        {
          "distance": 0.47883216,
          "id": 1762705207
        },
        {
          "distance": 0.4789315,
          "id": 1762707311
        }
      ]
    },
    "millsfield:subcategory_id": 1511213363,
    "mz:is_current": 1,
    "sfomuseum:filename": "2015.166.2166_bk.tif",
    "sfomuseum:image_id": 159126,
    "sfomuseum:image_index": 5,
    "sfomuseum:image_type": "studio",
    "sfomuseum:object_id": 181927,
    "sfomuseum:placetype": "image",
    "sfomuseum:primary_image": 0,
    "src:geom": "sfomuseum",
    "wof:belongsto": [
      102527513,
      1159162825,
      102191575,
      85633793,
      102087579,
      85922583,
      1762688179,
      85688637,
      1159160869
    ],
    "wof:country": "US",
    "wof:created": 1641350612,
    "wof:depicts": [
      1159284787,
      102524739,
      1159290417,
      1159287807,
      1762688179
    ],
    "wof:geomhash": "ed7c2ab3547fc3916b5edc33488deaa7",
    "wof:hierarchy": [
      {
        "building_id": -1,
        "campus_id": 102527513,
        "collection_id": 1159162825,
        "concourse_id": 1159162825,
        "continent_id": 102191575,
        "country_id": 85633793,
        "county_id": 102087579,
        "custom_id": 1762711903,
        "image_id": 1762711903,
        "locality_id": 85922583,
        "neighbourhood_id": -1,
        "object_id": 1762688179,
        "region_id": 85688637,
        "wing_id": 1159160869
      }
    ],
    "wof:id": 1762711903,
    "wof:lastmodified": 1788450640,
    "wof:name": "postcard: Omaha Municipal Airport, Mid-Continent Airlines, Douglas DC-3",
    "wof:parent_id": 1762688179,
    "wof:placetype": "custom",
    "wof:placetype_alt": [
      "image"
    ],
    "wof:repo": "sfomuseum-data-media-collection",
    "wof:superseded_by": [],
    "wof:supersedes": []
  },
  "bbox": [
    -122.386472,
    37.616105,
    -122.385834,
    37.616611
  ],
  "geometry": {"type":"Polygon","coordinates":[[[-122.386472,37.616318],[-122.386435,37.616233],[-122.386376,37.616178],[-122.386301,37.616131],[-122.386161,37.616105],[-122.386022,37.616131],[-122.385914,37.616186],[-122.385855,37.616267],[-122.385834,37.616369],[-122.385871,37.616467],[-122.385941,37.616543],[-122.386054,37.616603],[-122.386183,37.616611],[-122.386306,37.616573],[-122.386419,37.616509],[-122.386467,37.616411],[-122.386472,37.616318]]]}
}
