{
  "id": 1527837841,
  "type": "Feature",
  "properties": {
    "date:cessation_lower": "1984-01-01",
    "date:cessation_upper": "1984-12-31",
    "date:inception_lower": "1984-01-01",
    "date:inception_upper": "1984-12-31",
    "edtf:cessation": "1984",
    "edtf:date": "1984",
    "edtf:inception": "1984",
    "geom:area": 0,
    "geom:bbox": "-122.386155,37.616358,-122.386155,37.616358",
    "geom:latitude": 37.616358,
    "geom:longitude": -122.386155,
    "iso:country": "XX",
    "media:fingerprint": "0ebe045bded28a3ed31aa322af45e1d92ae1dd8a",
    "media:imagehash_avg": "a:ffffff0038140000",
    "media:imagehash_diff": "d:070e0771696d7939",
    "media:imagetext": "NORTHWEST\nORIENT\nSystem Timetable Effective December 19, 1984\nL",
    "media:imagetext_created": 1787950358,
    "media:imagetext_source": "com.apple.visionkit.VNImageRequestHandler#Version 26.6.2 (Build 25G83)",
    "media:medium": "image",
    "media:mimetype": "image/tiff",
    "media:properties": {
      "sizes": {
        "b": {
          "extension": "jpg",
          "height": 768,
          "mimetype": "image/jpeg",
          "secret": "UVB89mghNWnc303h6ftWLp4VPuG1maQX",
          "width": 358
        },
        "c": {
          "extension": "jpg",
          "height": 600,
          "mimetype": "image/jpeg",
          "secret": "UVB89mghNWnc303h6ftWLp4VPuG1maQX",
          "width": 280
        },
        "dc": {
          "extension": "jpg",
          "height": 600,
          "mimetype": "image/jpeg",
          "secret": "UVB89mghNWnc303h6ftWLp4VPuG1maQX",
          "width": 280
        },
        "ds": {
          "extension": "jpg",
          "height": 320,
          "mimetype": "image/jpeg",
          "secret": "UVB89mghNWnc303h6ftWLp4VPuG1maQX",
          "width": 320
        },
        "k": {
          "extension": "jpg",
          "height": 1536,
          "mimetype": "image/jpeg",
          "secret": "UVB89mghNWnc303h6ftWLp4VPuG1maQX",
          "width": 717
        },
        "n": {
          "extension": "jpg",
          "height": 239,
          "mimetype": "image/jpeg",
          "secret": "UVB89mghNWnc303h6ftWLp4VPuG1maQX",
          "width": 112
        },
        "o": {
          "extension": "jpg",
          "height": 2713,
          "mimetype": "image/jpeg",
          "secret": "OyXJU7madp4baOmp6fhjD5NlU2dxZxqd",
          "width": 1267
        },
        "s": {
          "extension": "jpg",
          "height": 320,
          "mimetype": "image/jpeg",
          "secret": "UVB89mghNWnc303h6ftWLp4VPuG1maQX",
          "width": 320
        },
        "z": {
          "extension": "jpg",
          "height": 479,
          "mimetype": "image/jpeg",
          "secret": "UVB89mghNWnc303h6ftWLp4VPuG1maQX",
          "width": 224
        }
      }
    },
    "media:source": "sfomuseum",
    "media:status_id": 1,
    "media:uri_template": "https://static.sfomuseum.org/media/152/783/784/1/1527837841_{secret}_{label}.{extension}",
    "millsfield:airline_id": [
      1159284907
    ],
    "millsfield:category_id": 1511214223,
    "millsfield:collection_id": 1511214207,
    "millsfield:company_id": [],
    "millsfield:images_colors": [
      {
        "hex": "#141d2b",
        "name": "#141d2b",
        "reference": "marekm4"
      },
      {
        "hex": "#000000",
        "name": "black",
        "reference": "css4"
      },
      {
        "hex": "#000000",
        "name": "Black",
        "reference": "crayola"
      },
      {
        "hex": "#e2dfd1",
        "name": "#e2dfd1",
        "reference": "marekm4"
      },
      {
        "hex": "#dcdcdc",
        "name": "gainsboro",
        "reference": "css4"
      },
      {
        "hex": "#dbd7d2",
        "name": "Timberwolf",
        "reference": "crayola"
      },
      {
        "hex": "#a1291c",
        "name": "#a1291c",
        "reference": "marekm4"
      },
      {
        "hex": "#a52a2a",
        "name": "brown",
        "reference": "css4"
      },
      {
        "hex": "#9c2542",
        "name": "Big Dip O' Ruby",
        "reference": "crayola"
      }
    ],
    "millsfield:images_texts": [
      "NORTHWEST\nORIENT\nSystem Timetable Effective December 19, 1984\nL"
    ],
    "millsfield:images_texts_ids": [
      1527837841
    ],
    "millsfield:similar": {
      "apple/mobileclip_s0": [
        {
          "distance": 0.34514302,
          "id": 1527837851
        },
        {
          "distance": 0.370841,
          "id": 1527837861
        },
        {
          "distance": 0.37533286,
          "id": 1527837871
        },
        {
          "distance": 0.37543255,
          "id": 1527837879
        },
        {
          "distance": 0.37916207,
          "id": 1527837749
        },
        {
          "distance": 0.38059866,
          "id": 1527837833
        },
        {
          "distance": 0.39301932,
          "id": 1762714901
        },
        {
          "distance": 0.4016829,
          "id": 1746542789
        },
        {
          "distance": 0.40770835,
          "id": 1527837869
        },
        {
          "distance": 0.40786287,
          "id": 1527837839
        }
      ],
      "apple/mobileclip_s1": [
        {
          "distance": 0.15196723,
          "id": 1527837851
        },
        {
          "distance": 0.21024935,
          "id": 1527837881
        },
        {
          "distance": 0.21997197,
          "id": 1527837871
        },
        {
          "distance": 0.22207332,
          "id": 1746542789
        },
        {
          "distance": 0.22665834,
          "id": 1527837861
        },
        {
          "distance": 0.22778505,
          "id": 1527837859
        },
        {
          "distance": 0.23395504,
          "id": 1527837877
        },
        {
          "distance": 0.24070416,
          "id": 1762714901
        },
        {
          "distance": 0.24239437,
          "id": 1527837839
        },
        {
          "distance": 0.25336868,
          "id": 1527837755
        }
      ],
      "apple/mobileclip_s2": [
        {
          "distance": 0.22286223,
          "id": 1527837851
        },
        {
          "distance": 0.29265004,
          "id": 1527837881
        },
        {
          "distance": 0.29326415,
          "id": 1527837871
        },
        {
          "distance": 0.29990542,
          "id": 1527837709
        },
        {
          "distance": 0.30374378,
          "id": 1746542789
        },
        {
          "distance": 0.30710533,
          "id": 1527837859
        },
        {
          "distance": 0.32526892,
          "id": 1527837861
        },
        {
          "distance": 0.33522272,
          "id": 1527837877
        },
        {
          "distance": 0.3441459,
          "id": 1527837869
        },
        {
          "distance": 0.34762293,
          "id": 1527837839
        }
      ]
    },
    "millsfield:subcategory_id": 1511213425,
    "mz:hierarchy_label": 1,
    "mz:is_current": -1,
    "sfomuseum:filename": "2003.105.077.004.tif",
    "sfomuseum:image_id": 65123,
    "sfomuseum:image_index": 5,
    "sfomuseum:image_type": "studio",
    "sfomuseum:object_id": 100243,
    "sfomuseum:placetype": "image",
    "sfomuseum:primary_image": 1,
    "src:geom": "sfomuseum",
    "wof:belongsto": [
      1511214223,
      1511939393,
      102527513,
      102191575,
      85633793,
      1511213425,
      85922583,
      102087579,
      1511214277,
      1511214203,
      85688637
    ],
    "wof:breaches": [],
    "wof:country": "XX",
    "wof:created": 1578952156,
    "wof:depicts": [
      1511939393,
      1159284913,
      1159287407,
      1159284907
    ],
    "wof:geomhash": "bd906905ce4be6c0651c90b0fc24804c",
    "wof:hierarchy": [
      {
        "arcade_id": 1511213425,
        "building_id": 1511214277,
        "campus_id": 102527513,
        "concourse_id": 1511214223,
        "continent_id": 102191575,
        "country_id": 85633793,
        "county_id": 102087579,
        "custom_id": 1527837841,
        "image_id": 1527837841,
        "locality_id": 85922583,
        "media_id": 1527837841,
        "neighbourhood_id": -1,
        "region_id": 85688637,
        "venue_id": 1511939393,
        "wing_id": 1511214203
      }
    ],
    "wof:id": 1527837841,
    "wof:lastmodified": 1788449975,
    "wof:name": "timetable: Northwest Orient Airlines",
    "wof:parent_id": 1511939393,
    "wof:placetype": "custom",
    "wof:placetype_alt": [
      "image"
    ],
    "wof:repo": "sfomuseum-data-media-collection",
    "wof:superseded_by": [],
    "wof:supersedes": [],
    "wof:tags": []
  },
  "bbox": [
    -122.386155,
    37.616358,
    -122.386155,
    37.616358
  ],
  "geometry": {"type":"Point","coordinates":[-122.386155,37.616358]}
}
