{
  "id": 1527827655,
  "type": "Feature",
  "properties": {
    "date:cessation_lower": "1970-01-01",
    "date:cessation_upper": "1970-12-31",
    "date:inception_lower": "1970-01-01",
    "date:inception_upper": "1970-12-31",
    "edtf:cessation": "1970~",
    "edtf:date": "1970~",
    "edtf:inception": "1970~",
    "geom:area": 0,
    "geom:bbox": "-122.386155,37.616358,-122.386155,37.616358",
    "geom:latitude": 37.616358,
    "geom:longitude": -122.386155,
    "iso:country": "US",
    "media:fingerprint": "9a9ba42d8c774de6ca731c8a9fd72b1140321729",
    "media:imagehash_avg": "a:fffffffc00000000",
    "media:imagehash_diff": "d:f0f0e0c0cc8c8cd4",
    "media:imagetext": "N47\nN20M",
    "media:imagetext_created": 1787948876,
    "media:imagetext_source": "com.apple.visionkit.VNImageRequestHandler#Version 26.6.2 (Build 25G83)",
    "media:medium": "image",
    "media:mimetype": "image/tiff",
    "media:properties": {
      "sizes": {
        "b": {
          "extension": "jpg",
          "height": 669,
          "mimetype": "image/jpeg",
          "secret": "pkSTY3mPmqDLUwftG5sI8VSkQE6HKJsn",
          "width": 1024
        },
        "c": {
          "extension": "jpg",
          "height": 522,
          "mimetype": "image/jpeg",
          "secret": "pkSTY3mPmqDLUwftG5sI8VSkQE6HKJsn",
          "width": 800
        },
        "dc": {
          "extension": "jpg",
          "height": 522,
          "mimetype": "image/jpeg",
          "secret": "pkSTY3mPmqDLUwftG5sI8VSkQE6HKJsn",
          "width": 800
        },
        "ds": {
          "extension": "jpg",
          "height": 320,
          "mimetype": "image/jpeg",
          "secret": "pkSTY3mPmqDLUwftG5sI8VSkQE6HKJsn",
          "width": 320
        },
        "k": {
          "extension": "jpg",
          "height": 1338,
          "mimetype": "image/jpeg",
          "secret": "pkSTY3mPmqDLUwftG5sI8VSkQE6HKJsn",
          "width": 2048
        },
        "n": {
          "extension": "jpg",
          "height": 209,
          "mimetype": "image/jpeg",
          "secret": "pkSTY3mPmqDLUwftG5sI8VSkQE6HKJsn",
          "width": 320
        },
        "o": {
          "extension": "jpg",
          "height": 1059,
          "mimetype": "image/jpeg",
          "secret": "invjf9vDHTWx9ESYUBtDiMZaGFntfyYd",
          "width": 1620
        },
        "s": {
          "extension": "jpg",
          "height": 320,
          "mimetype": "image/jpeg",
          "secret": "pkSTY3mPmqDLUwftG5sI8VSkQE6HKJsn",
          "width": 320
        },
        "z": {
          "extension": "jpg",
          "height": 418,
          "mimetype": "image/jpeg",
          "secret": "pkSTY3mPmqDLUwftG5sI8VSkQE6HKJsn",
          "width": 640
        }
      }
    },
    "media:source": "sfomuseum",
    "media:status_id": 1,
    "media:uri_template": "https://static.sfomuseum.org/media/152/782/765/5/1527827655_{secret}_{label}.{extension}",
    "millsfield:airport_id": [
      102527513
    ],
    "millsfield:category_id": 1511214209,
    "millsfield:collection_id": 1511214207,
    "millsfield:images_colors": [
      {
        "hex": "#dddfd8",
        "name": "#dddfd8",
        "reference": "marekm4"
      },
      {
        "hex": "#dcdcdc",
        "name": "gainsboro",
        "reference": "css4"
      },
      {
        "hex": "#dbd7d2",
        "name": "Timberwolf",
        "reference": "crayola"
      },
      {
        "hex": "#42403c",
        "name": "#42403c",
        "reference": "marekm4"
      },
      {
        "hex": "#2f4f4f",
        "name": "darkslategrey",
        "reference": "css4"
      },
      {
        "hex": "#414a4c",
        "name": "Outer Space",
        "reference": "crayola"
      },
      {
        "hex": "#a4976f",
        "name": "#a4976f",
        "reference": "marekm4"
      },
      {
        "hex": "#bc8f8f",
        "name": "rosybrown",
        "reference": "css4"
      },
      {
        "hex": "#9f8170",
        "name": "Beaver",
        "reference": "crayola"
      },
      {
        "hex": "#9a684a",
        "name": "#9a684a",
        "reference": "marekm4"
      },
      {
        "hex": "#a0522d",
        "name": "sienna",
        "reference": "css4"
      },
      {
        "hex": "#a5694f",
        "name": "Sepia",
        "reference": "crayola"
      }
    ],
    "millsfield:images_texts": [
      "N47\nN20M"
    ],
    "millsfield:images_texts_ids": [
      1527827655
    ],
    "millsfield:similar": {
      "apple/mobileclip_s0": [
        {
          "distance": 0.6217694,
          "id": 1527827675
        },
        {
          "distance": 0.664012,
          "id": 1527828321
        },
        {
          "distance": 0.66412646,
          "id": 1527827681
        },
        {
          "distance": 0.6823535,
          "id": 1527822113
        },
        {
          "distance": 0.6830498,
          "id": 1527822775
        },
        {
          "distance": 0.70715684,
          "id": 1762706749
        },
        {
          "distance": 0.7105791,
          "id": 1527821459
        },
        {
          "distance": 0.7106383,
          "id": 1880201505
        },
        {
          "distance": 0.71329796,
          "id": 1527828187
        },
        {
          "distance": 0.7218984,
          "id": 1847553567
        }
      ],
      "apple/mobileclip_s1": [
        {
          "distance": 0.3869711,
          "id": 1527827675
        },
        {
          "distance": 0.44347048,
          "id": 1527827681
        },
        {
          "distance": 0.48546627,
          "id": 1762892995
        },
        {
          "distance": 0.48729986,
          "id": 1527828213
        },
        {
          "distance": 0.48942053,
          "id": 1527819479
        },
        {
          "distance": 0.49309337,
          "id": 1527827651
        },
        {
          "distance": 0.4998939,
          "id": 1762899331
        },
        {
          "distance": 0.5047306,
          "id": 1527828321
        },
        {
          "distance": 0.50641835,
          "id": 1762703143
        },
        {
          "distance": 0.5065838,
          "id": 1762703135
        }
      ],
      "apple/mobileclip_s2": [
        {
          "distance": 0.51783204,
          "id": 1527827675
        },
        {
          "distance": 0.59655035,
          "id": 1527827681
        },
        {
          "distance": 0.6702571,
          "id": 1527828321
        },
        {
          "distance": 0.67840827,
          "id": 1762712035
        },
        {
          "distance": 0.67946035,
          "id": 1527828313
        },
        {
          "distance": 0.6957636,
          "id": 1527821459
        },
        {
          "distance": 0.69706815,
          "id": 1527828319
        },
        {
          "distance": 0.7003029,
          "id": 1527822775
        },
        {
          "distance": 0.7026297,
          "id": 1527828205
        },
        {
          "distance": 0.71005565,
          "id": 1527827677
        }
      ]
    },
    "millsfield:subcategory_id": 1511213801,
    "mz:hierarchy_label": 1,
    "mz:is_current": -1,
    "sfomuseum:filename": "44184.tif",
    "sfomuseum:image_id": 44184,
    "sfomuseum:image_index": 5,
    "sfomuseum:image_type": "studio",
    "sfomuseum:object_id": 116923,
    "sfomuseum:placetype": "image",
    "sfomuseum:primary_image": 1,
    "src:geom": "sfomuseum",
    "wof:belongsto": [
      1511214209,
      1511948689,
      102527513,
      102191575,
      85633793,
      1511213801,
      85922583,
      102087579,
      1511214277,
      1511214203,
      85688637
    ],
    "wof:breaches": [],
    "wof:country": "US",
    "wof:created": 1578950559,
    "wof:depicts": [
      1511948689,
      102527513
    ],
    "wof:geomhash": "bd906905ce4be6c0651c90b0fc24804c",
    "wof:hierarchy": [
      {
        "arcade_id": 1511213801,
        "building_id": 1511214277,
        "campus_id": 102527513,
        "concourse_id": 1511214209,
        "continent_id": 102191575,
        "country_id": 85633793,
        "county_id": 102087579,
        "custom_id": 1527827655,
        "image_id": 1527827655,
        "locality_id": 85922583,
        "media_id": 1527827655,
        "neighbourhood_id": -1,
        "region_id": 85688637,
        "venue_id": 1511948689,
        "wing_id": 1511214203
      }
    ],
    "wof:id": 1527827655,
    "wof:lastmodified": 1788449836,
    "wof:name": "negative: San Francisco International Airport (SFO), film crews",
    "wof:parent_id": 1511948689,
    "wof:placetype": "custom",
    "wof:placetype_alt": [
      "image"
    ],
    "wof:repo": "sfomuseum-data-media-collection",
    "wof:superseded_by": [],
    "wof:supersedes": [],
    "wof:tags": []
  },
  "bbox": [
    -122.386155,
    37.616358,
    -122.386155,
    37.616358
  ],
  "geometry": {"type":"Point","coordinates":[-122.386155,37.616358]}
}
