{
  "id": 1527852385,
  "type": "Feature",
  "properties": {
    "date:cessation_lower": "1946-11-01",
    "date:cessation_upper": "1946-11-01",
    "date:inception_lower": "1946-11-01",
    "date:inception_upper": "1946-11-01",
    "edtf:cessation": "1946-11-01",
    "edtf:date": "1946-11-01",
    "edtf:inception": "1946-11-01",
    "geom:area": 0,
    "geom:bbox": "-122.386155,37.616358,-122.386155,37.616358",
    "geom:latitude": 37.616358,
    "geom:longitude": -122.386155,
    "iso:country": "XX",
    "media:fingerprint": "dce25b149a5813706009d9be5d8156c6fa692ec6",
    "media:imagehash_avg": "a:bf0705ff8f8f8f8f",
    "media:imagehash_diff": "d:6f6d5d697d3f3c39",
    "media:imagetext": "4X1:615\nPAT AMERICAN ARACE AIRWATE 1RG.\nVix Panagra\nAIR MAIL TEST\nRECEIVED\nQuito = 4 NOV. 1946\n1012149, 2279a",
    "media:imagetext_created": 1787953396,
    "media:imagetext_source": "com.apple.visionkit.VNImageRequestHandler#Version 26.6.2 (Build 25G83)",
    "media:medium": "image",
    "media:mimetype": "image/tiff",
    "media:properties": {
      "sizes": {
        "b": {
          "extension": "jpg",
          "height": 682,
          "mimetype": "image/jpeg",
          "secret": "TVBQ3qlWbURMLKPqgSI18hWSaIcjemUN",
          "width": 1023
        },
        "c": {
          "extension": "jpg",
          "height": 533,
          "mimetype": "image/jpeg",
          "secret": "TVBQ3qlWbURMLKPqgSI18hWSaIcjemUN",
          "width": 800
        },
        "dc": {
          "extension": "jpg",
          "height": 533,
          "mimetype": "image/jpeg",
          "secret": "TVBQ3qlWbURMLKPqgSI18hWSaIcjemUN",
          "width": 800
        },
        "ds": {
          "extension": "jpg",
          "height": 320,
          "mimetype": "image/jpeg",
          "secret": "TVBQ3qlWbURMLKPqgSI18hWSaIcjemUN",
          "width": 320
        },
        "k": {
          "extension": "jpg",
          "height": 1364,
          "mimetype": "image/jpeg",
          "secret": "TVBQ3qlWbURMLKPqgSI18hWSaIcjemUN",
          "width": 2047
        },
        "n": {
          "extension": "jpg",
          "height": 213,
          "mimetype": "image/jpeg",
          "secret": "TVBQ3qlWbURMLKPqgSI18hWSaIcjemUN",
          "width": 320
        },
        "o": {
          "extension": "jpg",
          "height": 1176,
          "mimetype": "image/jpeg",
          "secret": "tQOZT4s5Y1IWuP4I4U2kLNmsZ3cbYbxk",
          "width": 1765
        },
        "s": {
          "extension": "jpg",
          "height": 320,
          "mimetype": "image/jpeg",
          "secret": "TVBQ3qlWbURMLKPqgSI18hWSaIcjemUN",
          "width": 320
        },
        "z": {
          "extension": "jpg",
          "height": 426,
          "mimetype": "image/jpeg",
          "secret": "TVBQ3qlWbURMLKPqgSI18hWSaIcjemUN",
          "width": 640
        }
      }
    },
    "media:source": "sfomuseum",
    "media:status_id": 1,
    "media:uri_template": "https://static.sfomuseum.org/media/152/785/238/5/1527852385_{secret}_{label}.{extension}",
    "millsfield:airline_id": [
      1159284991
    ],
    "millsfield:category_id": 1511214215,
    "millsfield:collection_id": 1511214207,
    "millsfield:company_id": [
      1159286839
    ],
    "millsfield:images_colors": [
      {
        "hex": "#e8d19f",
        "name": "#e8d19f",
        "reference": "marekm4"
      },
      {
        "hex": "#eee8aa",
        "name": "palegoldenrod",
        "reference": "css4"
      },
      {
        "hex": "#edd19c",
        "name": "Maize",
        "reference": "crayola"
      },
      {
        "hex": "#ccb071",
        "name": "#ccb071",
        "reference": "marekm4"
      },
      {
        "hex": "#bdb76b",
        "name": "darkkhaki",
        "reference": "css4"
      },
      {
        "hex": "#bab86c",
        "name": "Olive Green",
        "reference": "crayola"
      },
      {
        "hex": "#c83324",
        "name": "#c83324",
        "reference": "marekm4"
      },
      {
        "hex": "#b22222",
        "name": "firebrick",
        "reference": "css4"
      },
      {
        "hex": "#cd4a4c",
        "name": "Mahogany",
        "reference": "crayola"
      },
      {
        "hex": "#393630",
        "name": "#393630",
        "reference": "marekm4"
      },
      {
        "hex": "#2f4f4f",
        "name": "darkslategrey",
        "reference": "css4"
      },
      {
        "hex": "#414a4c",
        "name": "Outer Space",
        "reference": "crayola"
      }
    ],
    "millsfield:images_texts": [
      "X Lean.\nJon vent.\nWaterbury 16\nCom-%.12.\nTERBO\nNOV I\n12.\n1946\nCON\ngh IX\nDEVUELVASE A SOLARSTE\nRETURNTO BENDEA,\nAIR\n10 MAIL\nCENTS\nUNITED STATES OF AMERICA\nBOLIVARIANA DE 1938\nWENICAN BANK NOTE COMPANY.\n40230% 40\n08",
      "4X1:615\nPAT AMERICAN ARACE AIRWATE 1RG.\nVix Panagra\nAIR MAIL TEST\nRECEIVED\nQuito = 4 NOV. 1946\n1012149, 2279a"
    ],
    "millsfield:images_texts_ids": [
      1527852383,
      1527852385
    ],
    "millsfield:similar": {
      "apple/mobileclip_s0": [
        {
          "distance": 0.55631524,
          "id": 1527834323
        },
        {
          "distance": 0.5921503,
          "id": 1527830079
        },
        {
          "distance": 0.6013871,
          "id": 1527852399
        },
        {
          "distance": 0.60548186,
          "id": 1527820385
        },
        {
          "distance": 0.60983515,
          "id": 1527856431
        },
        {
          "distance": 0.61026293,
          "id": 1527831741
        },
        {
          "distance": 0.61141765,
          "id": 1746281417
        },
        {
          "distance": 0.61386997,
          "id": 1527852389
        },
        {
          "distance": 0.6181948,
          "id": 1527831807
        },
        {
          "distance": 0.61823803,
          "id": 1527853047
        }
      ],
      "apple/mobileclip_s1": [
        {
          "distance": 0.33754447,
          "id": 1527852399
        },
        {
          "distance": 0.35592106,
          "id": 1527834323
        },
        {
          "distance": 0.3697807,
          "id": 1763388705
        },
        {
          "distance": 0.37313828,
          "id": 1527852319
        },
        {
          "distance": 0.37368286,
          "id": 1527853047
        },
        {
          "distance": 0.3818002,
          "id": 1527820599
        },
        {
          "distance": 0.38200846,
          "id": 1527852343
        },
        {
          "distance": 0.38403097,
          "id": 1527852307
        },
        {
          "distance": 0.38450262,
          "id": 1527856373
        },
        {
          "distance": 0.3848423,
          "id": 1527852301
        }
      ],
      "apple/mobileclip_s2": [
        {
          "distance": 0.5077123,
          "id": 1527852399
        },
        {
          "distance": 0.5101387,
          "id": 1527834323
        },
        {
          "distance": 0.5263247,
          "id": 1527820599
        },
        {
          "distance": 0.5418972,
          "id": 1527852347
        },
        {
          "distance": 0.54625845,
          "id": 1527852315
        },
        {
          "distance": 0.5501229,
          "id": 1527852345
        },
        {
          "distance": 0.55122435,
          "id": 1527820609
        },
        {
          "distance": 0.5558361,
          "id": 1527852397
        },
        {
          "distance": 0.5588114,
          "id": 1527829627
        },
        {
          "distance": 0.5610866,
          "id": 1527829081
        }
      ]
    },
    "millsfield:subcategory_id": 1511213159,
    "mz:hierarchy_label": 1,
    "mz:is_current": -1,
    "sfomuseum:filename": "2012.149.2279a_verso.tif",
    "sfomuseum:image_id": 86423,
    "sfomuseum:image_index": 5,
    "sfomuseum:image_type": "studio",
    "sfomuseum:object_id": 139704,
    "sfomuseum:placetype": "image",
    "sfomuseum:primary_image": 0,
    "src:geom": "sfomuseum",
    "wof:belongsto": [
      1511214215,
      1511954399,
      102527513,
      102191575,
      85633793,
      1511213159,
      85922583,
      102087579,
      1511214277,
      1511214203,
      85688637
    ],
    "wof:breaches": [],
    "wof:country": "XX",
    "wof:created": 1578954502,
    "wof:depicts": [
      1159286839,
      1159284991,
      1159284989,
      1511954399
    ],
    "wof:geomhash": "bd906905ce4be6c0651c90b0fc24804c",
    "wof:hierarchy": [
      {
        "arcade_id": 1511213159,
        "building_id": 1511214277,
        "campus_id": 102527513,
        "concourse_id": 1511214215,
        "continent_id": 102191575,
        "country_id": 85633793,
        "county_id": 102087579,
        "custom_id": 1527852385,
        "image_id": 1527852385,
        "locality_id": 85922583,
        "media_id": 1527852385,
        "neighbourhood_id": -1,
        "region_id": 85688637,
        "venue_id": 1511954399,
        "wing_id": 1511214203
      }
    ],
    "wof:id": 1527852385,
    "wof:lastmodified": 1788450202,
    "wof:name": "airmail flight cover: Pan American Airways, 1946 airmail test",
    "wof:parent_id": 1511954399,
    "wof:placetype": "custom",
    "wof:placetype_alt": [
      "image"
    ],
    "wof:repo": "sfomuseum-data-media-collection",
    "wof:superseded_by": [],
    "wof:supersedes": [],
    "wof:tags": []
  },
  "bbox": [
    -122.386155,
    37.616358,
    -122.386155,
    37.616358
  ],
  "geometry": {"type":"Point","coordinates":[-122.386155,37.616358]}
}
