{
  "id": 1880319863,
  "type": "Feature",
  "properties": {
    "date:cessation_lower": "1982-01-01",
    "date:cessation_upper": "1982-12-31",
    "date:inception_lower": "1982-01-01",
    "date:inception_upper": "1982-12-31",
    "edtf:cessation": "1982",
    "edtf:inception": "1982",
    "geom:area": 2.477324999997507e-7,
    "geom:bbox": "-122.386472,37.616105,-122.385834,37.616611",
    "geom:latitude": 37.61635756125121,
    "geom:longitude": -122.38615532866096,
    "media:fingerprint": "ad78b95433ca3180f3bffbbed6c5687aba6e416e",
    "media:imagehash_avg": "a:7fffff878181ffff",
    "media:imagehash_diff": "d:fcf8360f0f3339fc",
    "media:imagetext": "SASI\nS INSTONE S CY\nAIR TRANSPORT DK",
    "media:imagetext_created": 1787968638,
    "media:imagetext_source": "com.apple.visionkit.VNImageRequestHandler#Version 26.6.2 (Build 25G83)",
    "media:mimetype": "image/tiff",
    "media:properties": {
      "sizes": {
        "b": {
          "extension": "jpg",
          "height": 768,
          "mimetype": "image/jpeg",
          "secret": "XxioFt9wTt7qi9mhbk7B721OnBSbIOcu",
          "width": 965
        },
        "c": {
          "extension": "jpg",
          "height": 600,
          "mimetype": "image/jpeg",
          "secret": "XxioFt9wTt7qi9mhbk7B721OnBSbIOcu",
          "width": 754
        },
        "dc": {
          "extension": "jpg",
          "height": 600,
          "mimetype": "image/jpeg",
          "secret": "XxioFt9wTt7qi9mhbk7B721OnBSbIOcu",
          "width": 754
        },
        "ds": {
          "extension": "jpg",
          "height": 320,
          "mimetype": "image/jpeg",
          "secret": "XxioFt9wTt7qi9mhbk7B721OnBSbIOcu",
          "width": 320
        },
        "k": {
          "extension": "jpg",
          "height": 1536,
          "mimetype": "image/jpeg",
          "secret": "XxioFt9wTt7qi9mhbk7B721OnBSbIOcu",
          "width": 1931
        },
        "n": {
          "extension": "jpg",
          "height": 240,
          "mimetype": "image/jpeg",
          "secret": "XxioFt9wTt7qi9mhbk7B721OnBSbIOcu",
          "width": 301
        },
        "o": {
          "extension": "jpg",
          "height": 1667,
          "mimetype": "image/jpeg",
          "secret": "T7i3HRgdcp7BLzTgJusOcVi3FtpXe4vR",
          "width": 2096
        },
        "s": {
          "extension": "jpg",
          "height": 320,
          "mimetype": "image/jpeg",
          "secret": "XxioFt9wTt7qi9mhbk7B721OnBSbIOcu",
          "width": 320
        },
        "z": {
          "extension": "jpg",
          "height": 480,
          "mimetype": "image/jpeg",
          "secret": "XxioFt9wTt7qi9mhbk7B721OnBSbIOcu",
          "width": 603
        }
      }
    },
    "media:source": "sfomuseum",
    "media:status_id": 1,
    "media:uri_template": "https://static.sfomuseum.org/media/188/031/986/3/1880319863_{secret}_{label}.{extension}",
    "millsfield:aircraft_id": [
      1159292653
    ],
    "millsfield:airline_id": [
      1159286021
    ],
    "millsfield:category_id": 1511214235,
    "millsfield:collection_id": 1511214203,
    "millsfield:company_id": [
      1159293777,
      1159292883
    ],
    "millsfield:exhibition_ids": [
      1159160707
    ],
    "millsfield:images_colors": [
      {
        "hex": "#aaaaab",
        "name": "#aaaaab",
        "reference": "marekm4"
      },
      {
        "hex": "#a9a9a9",
        "name": "darkgrey",
        "reference": "css4"
      },
      {
        "hex": "#979aaa",
        "name": "Manatee",
        "reference": "crayola"
      },
      {
        "hex": "#474748",
        "name": "#474748",
        "reference": "marekm4"
      },
      {
        "hex": "#2f4f4f",
        "name": "darkslategrey",
        "reference": "css4"
      },
      {
        "hex": "#414a4c",
        "name": "Outer Space",
        "reference": "crayola"
      }
    ],
    "millsfield:images_texts": [
      "CITE\nOF",
      "SASI\nS INSTONE S CY\nAIR TRANSPORT DK",
      "S INSTOÑES CO U\nAIR TRANSPORT DI"
    ],
    "millsfield:images_texts_ids": [
      1880319857,
      1880319863,
      1880319867
    ],
    "millsfield:on_view": 0,
    "millsfield:similar": {
      "apple/mobileclip_s0": [
        {
          "distance": 0.34340066,
          "id": 1880319867
        },
        {
          "distance": 0.59640527,
          "id": 1880320355
        },
        {
          "distance": 0.60772204,
          "id": 1880319551
        },
        {
          "distance": 0.60772914,
          "id": 1880320353
        },
        {
          "distance": 0.61655307,
          "id": 1880321027
        },
        {
          "distance": 0.62095743,
          "id": 1914058939
        },
        {
          "distance": 0.62492883,
          "id": 1914058937
        },
        {
          "distance": 0.62546974,
          "id": 1880320537
        },
        {
          "distance": 0.62650347,
          "id": 1880440457
        },
        {
          "distance": 0.63126945,
          "id": 1763145179
        }
      ],
      "apple/mobileclip_s1": [
        {
          "distance": 0.23211668,
          "id": 1880319867
        },
        {
          "distance": 0.37991714,
          "id": 1880320535
        },
        {
          "distance": 0.38378647,
          "id": 1880320193
        },
        {
          "distance": 0.38561004,
          "id": 1880320537
        },
        {
          "distance": 0.4018582,
          "id": 1880319859
        },
        {
          "distance": 0.40355104,
          "id": 1880320783
        },
        {
          "distance": 0.4100881,
          "id": 1880319857
        },
        {
          "distance": 0.41251045,
          "id": 1914676739
        },
        {
          "distance": 0.41441777,
          "id": 1880319823
        },
        {
          "distance": 0.41515213,
          "id": 1880321591
        }
      ],
      "apple/mobileclip_s2": [
        {
          "distance": 0.34269184,
          "id": 1880319867
        },
        {
          "distance": 0.5659452,
          "id": 1880319859
        },
        {
          "distance": 0.5821241,
          "id": 1880320193
        },
        {
          "distance": 0.59013367,
          "id": 1880319857
        },
        {
          "distance": 0.59289575,
          "id": 1914676751
        },
        {
          "distance": 0.6034723,
          "id": 1880319759
        },
        {
          "distance": 0.60568833,
          "id": 1880320355
        },
        {
          "distance": 0.6065351,
          "id": 1914676743
        },
        {
          "distance": 0.60704625,
          "id": 1880319823
        },
        {
          "distance": 0.61406076,
          "id": 1880320353
        }
      ]
    },
    "millsfield:subcategory_id": 1511213161,
    "mz:is_current": 1,
    "sfomuseum:filename": "2014.145.021_03.tif",
    "sfomuseum:image_id": 167299,
    "sfomuseum:image_index": 5,
    "sfomuseum:image_type": "studio",
    "sfomuseum:object_id": 161613,
    "sfomuseum:placetype": "image",
    "sfomuseum:primary_image": 0,
    "src:geom": "sfomuseum",
    "wof:belongsto": [
      102527513,
      1159162825,
      102191575,
      85633793,
      102087579,
      85922583,
      1880318899,
      85688637,
      1159160869
    ],
    "wof:country": "XY",
    "wof:created": 1694022870,
    "wof:depicts": [
      1159293777,
      1159292883,
      1880318899,
      1159286021,
      1159292653
    ],
    "wof:geomhash": "ed7c2ab3547fc3916b5edc33488deaa7",
    "wof:hierarchy": [
      {
        "building_id": -1,
        "campus_id": 102527513,
        "collection_id": 1159162825,
        "concourse_id": 1159162825,
        "continent_id": 102191575,
        "country_id": 85633793,
        "county_id": 102087579,
        "custom_id": 1880319863,
        "image_id": 1880319863,
        "locality_id": 85922583,
        "neighbourhood_id": -1,
        "object_id": 1880318899,
        "region_id": 85688637,
        "wing_id": 1159160869
      }
    ],
    "wof:id": 1880319863,
    "wof:lastmodified": 1788451791,
    "wof:name": "model airplane: S. Instone \u0026 Company Limited, Vickers Vimy Commercial City of London",
    "wof:parent_id": 1880318899,
    "wof:placetype": "custom",
    "wof:placetype_alt": [
      "image"
    ],
    "wof:repo": "sfomuseum-data-media-collection",
    "wof:superseded_by": [],
    "wof:supersedes": []
  },
  "bbox": [
    -122.386472,
    37.616105,
    -122.385834,
    37.616611
  ],
  "geometry": {"type":"Polygon","coordinates":[[[-122.386472,37.616318],[-122.386435,37.616233],[-122.386376,37.616178],[-122.386301,37.616131],[-122.386161,37.616105],[-122.386022,37.616131],[-122.385914,37.616186],[-122.385855,37.616267],[-122.385834,37.616369],[-122.385871,37.616467],[-122.385941,37.616543],[-122.386054,37.616603],[-122.386183,37.616611],[-122.386306,37.616573],[-122.386419,37.616509],[-122.386467,37.616411],[-122.386472,37.616318]]]}
}
