{
  "id": 1913727895,
  "type": "Feature",
  "properties": {
    "date:cessation_lower": "1956-01-01",
    "date:cessation_upper": "1956-12-31",
    "date:inception_lower": "1956-01-01",
    "date:inception_upper": "1956-12-31",
    "edtf:cessation": "1956",
    "edtf:inception": "1956",
    "geom:area": 2.477324999997507e-7,
    "geom:bbox": "-122.386472,37.616105,-122.385834,37.616611",
    "geom:latitude": 37.61635756125121,
    "geom:longitude": -122.38615532866096,
    "media:fingerprint": "09e01837516274b4720aa2349ecc393311bd7cbd",
    "media:imagehash_avg": "a:ff8fff81818181ff",
    "media:imagehash_diff": "d:35595d476369292b",
    "media:imagetext": "",
    "media:mimetype": "image/tiff",
    "media:properties": {
      "sizes": {
        "b": {
          "extension": "jpg",
          "height": 768,
          "mimetype": "image/jpeg",
          "secret": "oSjKCA3mV8El6HF3yLeucrwoUqz9pzIu",
          "width": 942
        },
        "c": {
          "extension": "jpg",
          "height": 600,
          "mimetype": "image/jpeg",
          "secret": "oSjKCA3mV8El6HF3yLeucrwoUqz9pzIu",
          "width": 736
        },
        "dc": {
          "extension": "jpg",
          "height": 600,
          "mimetype": "image/jpeg",
          "secret": "oSjKCA3mV8El6HF3yLeucrwoUqz9pzIu",
          "width": 736
        },
        "ds": {
          "extension": "jpg",
          "height": 320,
          "mimetype": "image/jpeg",
          "secret": "oSjKCA3mV8El6HF3yLeucrwoUqz9pzIu",
          "width": 320
        },
        "k": {
          "extension": "jpg",
          "height": 1536,
          "mimetype": "image/jpeg",
          "secret": "oSjKCA3mV8El6HF3yLeucrwoUqz9pzIu",
          "width": 1884
        },
        "n": {
          "extension": "jpg",
          "height": 240,
          "mimetype": "image/jpeg",
          "secret": "oSjKCA3mV8El6HF3yLeucrwoUqz9pzIu",
          "width": 294
        },
        "o": {
          "extension": "jpg",
          "height": 1630,
          "mimetype": "image/jpeg",
          "secret": "nvsqCklLABORkZCWKhjoYH7Egh6ukdET",
          "width": 2000
        },
        "s": {
          "extension": "jpg",
          "height": 320,
          "mimetype": "image/jpeg",
          "secret": "oSjKCA3mV8El6HF3yLeucrwoUqz9pzIu",
          "width": 320
        },
        "z": {
          "extension": "jpg",
          "height": 480,
          "mimetype": "image/jpeg",
          "secret": "oSjKCA3mV8El6HF3yLeucrwoUqz9pzIu",
          "width": 588
        }
      }
    },
    "media:source": "sfomuseum",
    "media:status_id": 1,
    "media:uri_template": "https://static.sfomuseum.org/media/191/372/789/5/1913727895_{secret}_{label}.{extension}",
    "millsfield:aircraft_id": [
      1159292797
    ],
    "millsfield:airline_id": [
      1159284989
    ],
    "millsfield:category_id": 1511214209,
    "millsfield:collection_id": 1511214207,
    "millsfield:company_id": [
      1159293593
    ],
    "millsfield:images_colors": [
      {
        "hex": "#34352c",
        "name": "#34352c",
        "reference": "marekm4"
      },
      {
        "hex": "#2f4f4f",
        "name": "darkslategrey",
        "reference": "css4"
      },
      {
        "hex": "#414a4c",
        "name": "Outer Space",
        "reference": "crayola"
      },
      {
        "hex": "#d7d5cd",
        "name": "#d7d5cd",
        "reference": "marekm4"
      },
      {
        "hex": "#d3d3d3",
        "name": "lightgrey",
        "reference": "css4"
      },
      {
        "hex": "#dbd7d2",
        "name": "Timberwolf",
        "reference": "crayola"
      },
      {
        "hex": "#878678",
        "name": "#878678",
        "reference": "marekm4"
      },
      {
        "hex": "#808080",
        "name": "grey",
        "reference": "css4"
      },
      {
        "hex": "#757575",
        "name": "Sonic Silver",
        "reference": "crayola"
      }
    ],
    "millsfield:images_texts": [
      "PAA\nBOEING\nAIRPLANE COMPANY • SEATTLE • 14• WASHINGTON",
      "PAN AMERICAN WORLD AIRWAYS SYSTEM\nCHRYSLER BUILDING, 135 EAST 42ND STREET, NEW YORK 17, N. X.\nOFFICE OF THE\nPRESIDENT\nApril 12, 1956\nMr. Harold Bixby\nWestbury Hotel\nMadison Avenue at 69th Street\nNew York, New York\nDear Harold:\nSeveral days ago the Boeing people forwarded a\nnumber of photographs taken during our recent •\nflight on the jet transport prototype - the 707.\nDebbie and you are included in several which I am\nenclosing herewith.\nHope you had a chance to catch up on some well\ndeserved rest after our strenuous trip through\nthe Orient.\nSincerely,",
      "EXPERIMENTAL\nBOEING",
      "TINTH TId A3d0\n1/1.7\n0).2",
      "BORING",
      "BOEING\nEXPERIMENTAL",
      "BOEING\nBOEING"
    ],
    "millsfield:images_texts_ids": [
      1913727873,
      1913727875,
      1913727881,
      1913727887,
      1913727905,
      1913727907,
      1913727911
    ],
    "millsfield:similar": {
      "apple/mobileclip_s0": [
        {
          "distance": 0.65918845,
          "id": 1998537029
        },
        {
          "distance": 0.66178036,
          "id": 1998537023
        },
        {
          "distance": 0.6795197,
          "id": 1998537025
        },
        {
          "distance": 0.7078704,
          "id": 2014997537
        },
        {
          "distance": 0.72587895,
          "id": 1847553535
        },
        {
          "distance": 0.7275412,
          "id": 1998537103
        },
        {
          "distance": 0.7298522,
          "id": 1846754869
        },
        {
          "distance": 0.730636,
          "id": 2014997785
        },
        {
          "distance": 0.7374602,
          "id": 1998537305
        },
        {
          "distance": 0.7380883,
          "id": 1998537017
        }
      ],
      "apple/mobileclip_s1": [
        {
          "distance": 0.4506619,
          "id": 2014997785
        },
        {
          "distance": 0.4930788,
          "id": 1897872197
        },
        {
          "distance": 0.50760406,
          "id": 1998537241
        },
        {
          "distance": 0.50970405,
          "id": 2014997849
        },
        {
          "distance": 0.5097429,
          "id": 1897872173
        },
        {
          "distance": 0.51864016,
          "id": 1846754869
        },
        {
          "distance": 0.52061707,
          "id": 1913727889
        },
        {
          "distance": 0.5256282,
          "id": 1897872207
        },
        {
          "distance": 0.53124624,
          "id": 1527831597
        },
        {
          "distance": 0.532593,
          "id": 1897872203
        }
      ],
      "apple/mobileclip_s2": [
        {
          "distance": 0.6544116,
          "id": 2014997785
        },
        {
          "distance": 0.6996619,
          "id": 2014997531
        },
        {
          "distance": 0.70994717,
          "id": 1913727883
        },
        {
          "distance": 0.7162397,
          "id": 1998537023
        },
        {
          "distance": 0.7195491,
          "id": 1847553535
        },
        {
          "distance": 0.7473456,
          "id": 1897872173
        },
        {
          "distance": 0.74786323,
          "id": 1998537029
        },
        {
          "distance": 0.74858516,
          "id": 2014997911
        },
        {
          "distance": 0.7513341,
          "id": 2014997529
        },
        {
          "distance": 0.7528132,
          "id": 1527831685
        }
      ]
    },
    "millsfield:subcategory_id": 1511213367,
    "mz:is_current": 1,
    "sfomuseum:filename": "2019.121.0398k.tif",
    "sfomuseum:image_id": 230744,
    "sfomuseum:image_index": 0,
    "sfomuseum:image_type": "studio",
    "sfomuseum:object_id": 210673,
    "sfomuseum:placetype": "image",
    "sfomuseum:primary_image": 0,
    "src:geom": "sfomuseum",
    "wof:belongsto": [
      102527513,
      1159162825,
      102191575,
      85633793,
      102087579,
      85922583,
      1913727759,
      85688637,
      1159160869
    ],
    "wof:country": "XY",
    "wof:created": 1713944261,
    "wof:depicts": [
      1159293593,
      1913727759,
      1159284989,
      1159292797
    ],
    "wof:geomhash": "ed7c2ab3547fc3916b5edc33488deaa7",
    "wof:hierarchy": [
      {
        "building_id": -1,
        "campus_id": 102527513,
        "collection_id": 1159162825,
        "concourse_id": 1159162825,
        "continent_id": 102191575,
        "country_id": 85633793,
        "county_id": 102087579,
        "custom_id": 1913727895,
        "image_id": 1913727895,
        "locality_id": 85922583,
        "neighbourhood_id": -1,
        "object_id": 1913727759,
        "region_id": 85688637,
        "wing_id": 1159160869
      }
    ],
    "wof:id": 1913727895,
    "wof:lastmodified": 1788452188,
    "wof:name": "photographs: early aviation; Boeing 367-80",
    "wof:parent_id": 1913727759,
    "wof:placetype": "custom",
    "wof:placetype_alt": [
      "image"
    ],
    "wof:repo": "sfomuseum-data-media-collection",
    "wof:superseded_by": [],
    "wof:supersedes": []
  },
  "bbox": [
    -122.386472,
    37.616105,
    -122.385834,
    37.616611
  ],
  "geometry": {"type":"Polygon","coordinates":[[[-122.386472,37.616318],[-122.386435,37.616233],[-122.386376,37.616178],[-122.386301,37.616131],[-122.386161,37.616105],[-122.386022,37.616131],[-122.385914,37.616186],[-122.385855,37.616267],[-122.385834,37.616369],[-122.385871,37.616467],[-122.385941,37.616543],[-122.386054,37.616603],[-122.386183,37.616611],[-122.386306,37.616573],[-122.386419,37.616509],[-122.386467,37.616411],[-122.386472,37.616318]]]}
}
