{
  "id": 1796506279,
  "type": "Feature",
  "properties": {
    "date:cessation_lower": "1980-04-01",
    "date:cessation_upper": "1980-04-30",
    "date:inception_lower": "1980-01-01",
    "date:inception_upper": "1980-01-31",
    "edtf:cessation": "1980-04",
    "edtf:inception": "1980-01",
    "geom:area": 2.477324999997507e-7,
    "geom:bbox": "-122.386472,37.616105,-122.385834,37.616611",
    "geom:latitude": 37.61635756125121,
    "geom:longitude": -122.38615532866096,
    "media:fingerprint": "6ad8c65c0a7f4de24f51cfeaa7a5c80aed3a947d",
    "media:imagehash_avg": "a:f7c3c1c1c1c3efff",
    "media:imagehash_diff": "d:8e0f0713130f0f0e",
    "media:imagetext": "7\nJAL\n2003.014.073",
    "media:imagetext_created": 1787966840,
    "media:imagetext_source": "com.apple.visionkit.VNImageRequestHandler#Version 26.6.2 (Build 25G83)",
    "media:mimetype": "image/jpeg",
    "media:properties": {
      "sizes": {
        "b": {
          "extension": "jpg",
          "height": 768,
          "mimetype": "image/jpeg",
          "secret": "1OVrAVAtoDiVUWReFoIhxYXHBUjahOIv",
          "width": 1024
        },
        "c": {
          "extension": "jpg",
          "height": 600,
          "mimetype": "image/jpeg",
          "secret": "1OVrAVAtoDiVUWReFoIhxYXHBUjahOIv",
          "width": 800
        },
        "dc": {
          "extension": "jpg",
          "height": 600,
          "mimetype": "image/jpeg",
          "secret": "1OVrAVAtoDiVUWReFoIhxYXHBUjahOIv",
          "width": 800
        },
        "ds": {
          "extension": "jpg",
          "height": 320,
          "mimetype": "image/jpeg",
          "secret": "1OVrAVAtoDiVUWReFoIhxYXHBUjahOIv",
          "width": 320
        },
        "k": {
          "extension": "jpg",
          "height": 1536,
          "mimetype": "image/jpeg",
          "secret": "1OVrAVAtoDiVUWReFoIhxYXHBUjahOIv",
          "width": 2048
        },
        "n": {
          "extension": "jpg",
          "height": 240,
          "mimetype": "image/jpeg",
          "secret": "1OVrAVAtoDiVUWReFoIhxYXHBUjahOIv",
          "width": 320
        },
        "o": {
          "extension": "jpg",
          "height": 2448,
          "mimetype": "image/jpeg",
          "secret": "GgCYGdav7vXUkzIsAqnlXa01znk4KV3i",
          "width": 3264
        },
        "s": {
          "extension": "jpg",
          "height": 320,
          "mimetype": "image/jpeg",
          "secret": "1OVrAVAtoDiVUWReFoIhxYXHBUjahOIv",
          "width": 320
        },
        "z": {
          "extension": "jpg",
          "height": 480,
          "mimetype": "image/jpeg",
          "secret": "1OVrAVAtoDiVUWReFoIhxYXHBUjahOIv",
          "width": 640
        }
      }
    },
    "media:source": "sfomuseum",
    "media:status_id": 1,
    "media:uri_template": "https://static.sfomuseum.org/media/179/650/627/9/1796506279_{secret}_{label}.{extension}",
    "millsfield:airline_id": [
      1159285785
    ],
    "millsfield:category_id": 1746152533,
    "millsfield:collection_id": 1511214203,
    "millsfield:company_id": [
      1159288505
    ],
    "millsfield:exhibition_ids": [
      1159160109
    ],
    "millsfield:images_colors": [
      {
        "hex": "#ebecec",
        "name": "#ebecec",
        "reference": "marekm4"
      },
      {
        "hex": "#e6e6fa",
        "name": "lavender",
        "reference": "css4"
      },
      {
        "hex": "#fddde6",
        "name": "Piggy Pink",
        "reference": "crayola"
      },
      {
        "hex": "#0b0d0d",
        "name": "#0b0d0d",
        "reference": "marekm4"
      },
      {
        "hex": "#000000",
        "name": "black",
        "reference": "css4"
      },
      {
        "hex": "#000000",
        "name": "Black",
        "reference": "crayola"
      },
      {
        "hex": "#d3c766",
        "name": "#d3c766",
        "reference": "marekm4"
      },
      {
        "hex": "#bdb76b",
        "name": "darkkhaki",
        "reference": "css4"
      },
      {
        "hex": "#bab86c",
        "name": "Olive Green",
        "reference": "crayola"
      }
    ],
    "millsfield:images_texts": [
      "7\nJAL\n2003.014.073",
      "JAL"
    ],
    "millsfield:images_texts_ids": [
      1796506279,
      1897771075
    ],
    "millsfield:on_view": 0,
    "millsfield:similar": {
      "apple/mobileclip_s0": [
        {
          "distance": 0.50913745,
          "id": 1897771075
        },
        {
          "distance": 0.5571393,
          "id": 1914489069
        },
        {
          "distance": 0.58190095,
          "id": 1914489067
        },
        {
          "distance": 0.61990774,
          "id": 1863470899
        },
        {
          "distance": 0.6310953,
          "id": 1863470903
        },
        {
          "distance": 0.6467266,
          "id": 1763372879
        },
        {
          "distance": 0.6504505,
          "id": 1897762857
        },
        {
          "distance": 0.6532202,
          "id": 1780279351
        },
        {
          "distance": 0.65348047,
          "id": 1763110667
        },
        {
          "distance": 0.65874594,
          "id": 1897762281
        }
      ],
      "apple/mobileclip_s1": [
        {
          "distance": 0.29965276,
          "id": 1897771075
        },
        {
          "distance": 0.4204938,
          "id": 1914489067
        },
        {
          "distance": 0.44494867,
          "id": 1914489069
        },
        {
          "distance": 0.45649463,
          "id": 1897762813
        },
        {
          "distance": 0.48317018,
          "id": 1780279351
        },
        {
          "distance": 0.5054663,
          "id": 1897762805
        },
        {
          "distance": 0.5087507,
          "id": 1897762675
        },
        {
          "distance": 0.51966125,
          "id": 1780047935
        },
        {
          "distance": 0.52079487,
          "id": 1914489349
        },
        {
          "distance": 0.52115583,
          "id": 1763110667
        }
      ],
      "apple/mobileclip_s2": [
        {
          "distance": 0.4488065,
          "id": 1897771075
        },
        {
          "distance": 0.57469225,
          "id": 1914489069
        },
        {
          "distance": 0.63224435,
          "id": 1914489067
        },
        {
          "distance": 0.65200675,
          "id": 1914489367
        },
        {
          "distance": 0.6595473,
          "id": 1914489371
        },
        {
          "distance": 0.6714935,
          "id": 1913872317
        },
        {
          "distance": 0.67547286,
          "id": 1780279351
        },
        {
          "distance": 0.67709607,
          "id": 1897762813
        },
        {
          "distance": 0.6842056,
          "id": 1780047935
        },
        {
          "distance": 0.69219583,
          "id": 1780047939
        }
      ]
    },
    "millsfield:subcategory_id": 1746152579,
    "mz:is_current": 1,
    "sfomuseum:filename": "10997.JPG",
    "sfomuseum:image_id": 10997,
    "sfomuseum:image_index": 1,
    "sfomuseum:image_type": "curator",
    "sfomuseum:object_id": 68752,
    "sfomuseum:placetype": "image",
    "sfomuseum:primary_image": 1,
    "src:geom": "sfomuseum",
    "wof:belongsto": [
      102527513,
      1159162825,
      102191575,
      85633793,
      102087579,
      85922583,
      1796506195,
      85688637,
      1159160869
    ],
    "wof:country": "XY",
    "wof:created": 1666943436,
    "wof:depicts": [
      1796506195,
      1159285785,
      1159288505
    ],
    "wof:geomhash": "ed7c2ab3547fc3916b5edc33488deaa7",
    "wof:hierarchy": [
      {
        "building_id": -1,
        "campus_id": 102527513,
        "collection_id": 1159162825,
        "concourse_id": 1159162825,
        "continent_id": 102191575,
        "country_id": 85633793,
        "county_id": 102087579,
        "custom_id": 1796506279,
        "image_id": 1796506279,
        "locality_id": 85922583,
        "neighbourhood_id": -1,
        "object_id": 1796506195,
        "region_id": 85688637,
        "wing_id": 1159160869
      }
    ],
    "wof:id": 1796506279,
    "wof:lastmodified": 1788451553,
    "wof:name": "sake cup: Japan Air Lines",
    "wof:parent_id": 1796506195,
    "wof:placetype": "custom",
    "wof:placetype_alt": [
      "image"
    ],
    "wof:repo": "sfomuseum-data-media-collection",
    "wof:superseded_by": [],
    "wof:supersedes": []
  },
  "bbox": [
    -122.386472,
    37.616105,
    -122.385834,
    37.616611
  ],
  "geometry": {"type":"Polygon","coordinates":[[[-122.386472,37.616318],[-122.386435,37.616233],[-122.386376,37.616178],[-122.386301,37.616131],[-122.386161,37.616105],[-122.386022,37.616131],[-122.385914,37.616186],[-122.385855,37.616267],[-122.385834,37.616369],[-122.385871,37.616467],[-122.385941,37.616543],[-122.386054,37.616603],[-122.386183,37.616611],[-122.386306,37.616573],[-122.386419,37.616509],[-122.386467,37.616411],[-122.386472,37.616318]]]}
}
