{
  "id": 1763372895,
  "type": "Feature",
  "properties": {
    "date:cessation_lower": "1980-01-01",
    "date:cessation_upper": "1989-12-31",
    "date:inception_lower": "1980-01-01",
    "date:inception_upper": "1989-12-31",
    "edtf:cessation": "198X",
    "edtf:inception": "198X",
    "geom:area": 2.477324999997507e-7,
    "geom:bbox": "-122.386472,37.616105,-122.385834,37.616611",
    "geom:latitude": 37.61635756125121,
    "geom:longitude": -122.38615532866096,
    "media:fingerprint": "4cbcf2c652efbeb020562a4091d191fef5cdf0a8",
    "media:imagehash_avg": "a:ffffe7e3e3626264",
    "media:imagehash_diff": "d:f0cccecece8ecc8c",
    "media:mimetype": "image/tiff",
    "media:properties": {
      "sizes": {
        "b": {
          "extension": "jpg",
          "height": 768,
          "mimetype": "image/jpeg",
          "secret": "lAVngu8gRTDwIe7oh9dp5lO5Fe7aL3w3",
          "width": 966
        },
        "c": {
          "extension": "jpg",
          "height": 600,
          "mimetype": "image/jpeg",
          "secret": "lAVngu8gRTDwIe7oh9dp5lO5Fe7aL3w3",
          "width": 754
        },
        "dc": {
          "extension": "jpg",
          "height": 600,
          "mimetype": "image/jpeg",
          "secret": "lAVngu8gRTDwIe7oh9dp5lO5Fe7aL3w3",
          "width": 754
        },
        "ds": {
          "extension": "jpg",
          "height": 320,
          "mimetype": "image/jpeg",
          "secret": "lAVngu8gRTDwIe7oh9dp5lO5Fe7aL3w3",
          "width": 320
        },
        "k": {
          "extension": "jpg",
          "height": 1536,
          "mimetype": "image/jpeg",
          "secret": "lAVngu8gRTDwIe7oh9dp5lO5Fe7aL3w3",
          "width": 1932
        },
        "n": {
          "extension": "jpg",
          "height": 240,
          "mimetype": "image/jpeg",
          "secret": "lAVngu8gRTDwIe7oh9dp5lO5Fe7aL3w3",
          "width": 301
        },
        "o": {
          "extension": "jpg",
          "height": 1667,
          "mimetype": "image/jpeg",
          "secret": "O3BZuJ9zbpCLp5I4l7nG4rg2RiAtLgf5",
          "width": 2097
        },
        "s": {
          "extension": "jpg",
          "height": 320,
          "mimetype": "image/jpeg",
          "secret": "lAVngu8gRTDwIe7oh9dp5lO5Fe7aL3w3",
          "width": 320
        },
        "z": {
          "extension": "jpg",
          "height": 480,
          "mimetype": "image/jpeg",
          "secret": "lAVngu8gRTDwIe7oh9dp5lO5Fe7aL3w3",
          "width": 603
        }
      }
    },
    "media:source": "sfomuseum",
    "media:status_id": 1,
    "media:uri_template": "https://static.sfomuseum.org/media/176/337/289/5/1763372895_{secret}_{label}.{extension}",
    "millsfield:airline_id": [
      1159284261
    ],
    "millsfield:category_id": 1762679663,
    "millsfield:collection_id": 1511214203,
    "millsfield:company_id": [
      1159287931
    ],
    "millsfield:images_colors": [
      {
        "hex": "#a5a5a4",
        "name": "#a5a5a4",
        "reference": "marekm4"
      },
      {
        "hex": "#a9a9a9",
        "name": "darkgrey",
        "reference": "css4"
      },
      {
        "hex": "#979aaa",
        "name": "Manatee",
        "reference": "crayola"
      },
      {
        "hex": "#524b46",
        "name": "#524b46",
        "reference": "marekm4"
      },
      {
        "hex": "#2f4f4f",
        "name": "darkslategrey",
        "reference": "css4"
      },
      {
        "hex": "#414a4c",
        "name": "Outer Space",
        "reference": "crayola"
      }
    ],
    "millsfield:similar": {
      "apple/mobileclip_s0": [
        {
          "distance": 0.59158456,
          "id": 1896966533
        },
        {
          "distance": 0.6110063,
          "id": 1763381085
        },
        {
          "distance": 0.6182635,
          "id": 1931110545
        },
        {
          "distance": 0.62655747,
          "id": 2014778461
        },
        {
          "distance": 0.62717474,
          "id": 2015183467
        },
        {
          "distance": 0.6291015,
          "id": 1763380405
        },
        {
          "distance": 0.63174933,
          "id": 1863470645
        },
        {
          "distance": 0.6327444,
          "id": 1763379799
        },
        {
          "distance": 0.6378245,
          "id": 2015007113
        },
        {
          "distance": 0.64185953,
          "id": 2015006937
        }
      ],
      "apple/mobileclip_s1": [
        {
          "distance": 0.43918917,
          "id": 1763379679
        },
        {
          "distance": 0.46489447,
          "id": 1896966533
        },
        {
          "distance": 0.465377,
          "id": 1763381085
        },
        {
          "distance": 0.46754453,
          "id": 2015006937
        },
        {
          "distance": 0.4707074,
          "id": 1763567133
        },
        {
          "distance": 0.47247252,
          "id": 1897771107
        },
        {
          "distance": 0.47467738,
          "id": 1880369671
        },
        {
          "distance": 0.4791894,
          "id": 2015006927
        },
        {
          "distance": 0.481963,
          "id": 1763441787
        },
        {
          "distance": 0.48584804,
          "id": 1763567137
        }
      ],
      "apple/mobileclip_s2": [
        {
          "distance": 0.5846043,
          "id": 1763381081
        },
        {
          "distance": 0.6066197,
          "id": 1763381085
        },
        {
          "distance": 0.64769644,
          "id": 1763567137
        },
        {
          "distance": 0.66403025,
          "id": 1964368103
        },
        {
          "distance": 0.6776252,
          "id": 1763381077
        },
        {
          "distance": 0.67797965,
          "id": 1763567133
        },
        {
          "distance": 0.6783575,
          "id": 1964107353
        },
        {
          "distance": 0.67949736,
          "id": 1897771107
        },
        {
          "distance": 0.688571,
          "id": 1763380405
        },
        {
          "distance": 0.69014084,
          "id": 1763379875
        }
      ]
    },
    "millsfield:subcategory_id": 1511213429,
    "mz:is_current": 1,
    "sfomuseum:filename": "108986.tif",
    "sfomuseum:image_id": 108986,
    "sfomuseum:image_index": 5,
    "sfomuseum:image_type": "studio",
    "sfomuseum:object_id": 71447,
    "sfomuseum:placetype": "image",
    "sfomuseum:primary_image": 1,
    "src:geom": "sfomuseum",
    "wof:belongsto": [
      102527513,
      1159162825,
      102191575,
      85633793,
      102087579,
      85922583,
      1763300337,
      85688637,
      1159160869
    ],
    "wof:country": "XY",
    "wof:created": 1648626225,
    "wof:depicts": [
      1763300337,
      1159284261,
      1159287931
    ],
    "wof:geomhash": "ed7c2ab3547fc3916b5edc33488deaa7",
    "wof:hierarchy": [
      {
        "building_id": -1,
        "campus_id": 102527513,
        "collection_id": 1159162825,
        "concourse_id": 1159162825,
        "continent_id": 102191575,
        "country_id": 85633793,
        "county_id": 102087579,
        "custom_id": 1763372895,
        "image_id": 1763372895,
        "locality_id": 85922583,
        "neighbourhood_id": -1,
        "object_id": 1763300337,
        "region_id": 85688637,
        "wing_id": 1159160869
      }
    ],
    "wof:id": 1763372895,
    "wof:lastmodified": 1788451070,
    "wof:name": "sewing kit: Delta Air Lines",
    "wof:parent_id": 1763300337,
    "wof:placetype": "custom",
    "wof:placetype_alt": [
      "image"
    ],
    "wof:repo": "sfomuseum-data-media-collection",
    "wof:superseded_by": [],
    "wof:supersedes": []
  },
  "bbox": [
    -122.386472,
    37.616105,
    -122.385834,
    37.616611
  ],
  "geometry": {"type":"Polygon","coordinates":[[[-122.386472,37.616318],[-122.386435,37.616233],[-122.386376,37.616178],[-122.386301,37.616131],[-122.386161,37.616105],[-122.386022,37.616131],[-122.385914,37.616186],[-122.385855,37.616267],[-122.385834,37.616369],[-122.385871,37.616467],[-122.385941,37.616543],[-122.386054,37.616603],[-122.386183,37.616611],[-122.386306,37.616573],[-122.386419,37.616509],[-122.386467,37.616411],[-122.386472,37.616318]]]}
}
