{
  "id": 1779968665,
  "type": "Feature",
  "properties": {
    "date:cessation_lower": "1980-01-01",
    "date:cessation_upper": "1989-12-31",
    "date:inception_lower": "1980-01-01",
    "date:inception_upper": "1989-12-31",
    "edtf:cessation": "198X",
    "edtf:inception": "198X",
    "geom:area": 2.477324999997507e-7,
    "geom:bbox": "-122.386472,37.616105,-122.385834,37.616611",
    "geom:latitude": 37.61635756125121,
    "geom:longitude": -122.38615532866096,
    "media:fingerprint": "92467e659f86cc09cdb62cd4a76e4ce5ec03a5f1",
    "media:imagehash_avg": "a:003c3e3c3c3c2000",
    "media:imagehash_diff": "d:e0f0f0f0f8e4e8a0",
    "media:imagetext": "DIPAN AM.",
    "media:imagetext_created": 1787965458,
    "media:imagetext_source": "com.apple.visionkit.VNImageRequestHandler#Version 26.6.2 (Build 25G83)",
    "media:mimetype": "image/tiff",
    "media:properties": {
      "sizes": {
        "b": {
          "extension": "jpg",
          "height": 768,
          "mimetype": "image/jpeg",
          "secret": "gxY56zCWZeGRG6NPIjJiBGoM4PKhmCbN",
          "width": 965
        },
        "c": {
          "extension": "jpg",
          "height": 600,
          "mimetype": "image/jpeg",
          "secret": "gxY56zCWZeGRG6NPIjJiBGoM4PKhmCbN",
          "width": 754
        },
        "dc": {
          "extension": "jpg",
          "height": 600,
          "mimetype": "image/jpeg",
          "secret": "gxY56zCWZeGRG6NPIjJiBGoM4PKhmCbN",
          "width": 754
        },
        "ds": {
          "extension": "jpg",
          "height": 320,
          "mimetype": "image/jpeg",
          "secret": "gxY56zCWZeGRG6NPIjJiBGoM4PKhmCbN",
          "width": 320
        },
        "k": {
          "extension": "jpg",
          "height": 1536,
          "mimetype": "image/jpeg",
          "secret": "gxY56zCWZeGRG6NPIjJiBGoM4PKhmCbN",
          "width": 1931
        },
        "n": {
          "extension": "jpg",
          "height": 240,
          "mimetype": "image/jpeg",
          "secret": "gxY56zCWZeGRG6NPIjJiBGoM4PKhmCbN",
          "width": 301
        },
        "o": {
          "extension": "jpg",
          "height": 1667,
          "mimetype": "image/jpeg",
          "secret": "v9Q34hwo5GbwyMgrQCENc32Vzmt0YWax",
          "width": 2096
        },
        "s": {
          "extension": "jpg",
          "height": 320,
          "mimetype": "image/jpeg",
          "secret": "gxY56zCWZeGRG6NPIjJiBGoM4PKhmCbN",
          "width": 320
        },
        "z": {
          "extension": "jpg",
          "height": 480,
          "mimetype": "image/jpeg",
          "secret": "gxY56zCWZeGRG6NPIjJiBGoM4PKhmCbN",
          "width": 603
        }
      }
    },
    "media:source": "sfomuseum",
    "media:status_id": 1,
    "media:uri_template": "https://static.sfomuseum.org/media/177/996/866/5/1779968665_{secret}_{label}.{extension}",
    "millsfield:airline_id": [
      1159284989
    ],
    "millsfield:category_id": 1746152533,
    "millsfield:collection_id": 1511214203,
    "millsfield:company_id": [
      1159286839
    ],
    "millsfield:images_colors": [
      {
        "hex": "#b7b6b3",
        "name": "#b7b6b3",
        "reference": "marekm4"
      },
      {
        "hex": "#c0c0c0",
        "name": "silver",
        "reference": "css4"
      },
      {
        "hex": "#b0b7c6",
        "name": "Cadet Blue",
        "reference": "crayola"
      }
    ],
    "millsfield:images_texts": [
      "DIPAN AM."
    ],
    "millsfield:images_texts_ids": [
      1779968665
    ],
    "millsfield:similar": {
      "apple/mobileclip_s0": [
        {
          "distance": 0.21393311,
          "id": 1779968843
        },
        {
          "distance": 0.3233595,
          "id": 2048167329
        },
        {
          "distance": 0.36315417,
          "id": 2048167337
        },
        {
          "distance": 0.3684115,
          "id": 2048167339
        },
        {
          "distance": 0.38166723,
          "id": 1779968955
        },
        {
          "distance": 0.39749524,
          "id": 2048167333
        },
        {
          "distance": 0.40383846,
          "id": 1796455033
        },
        {
          "distance": 0.40589035,
          "id": 2048167335
        },
        {
          "distance": 0.44265994,
          "id": 1796455055
        },
        {
          "distance": 0.48189977,
          "id": 1863469123
        }
      ],
      "apple/mobileclip_s1": [
        {
          "distance": 0.15720199,
          "id": 1779968843
        },
        {
          "distance": 0.1967832,
          "id": 1779968955
        },
        {
          "distance": 0.26920727,
          "id": 2048167329
        },
        {
          "distance": 0.28429407,
          "id": 2048167337
        },
        {
          "distance": 0.2978774,
          "id": 2048167333
        },
        {
          "distance": 0.30135375,
          "id": 2048167339
        },
        {
          "distance": 0.30818343,
          "id": 2048167335
        },
        {
          "distance": 0.326459,
          "id": 1796455033
        },
        {
          "distance": 0.3509498,
          "id": 1763444501
        },
        {
          "distance": 0.36061615,
          "id": 1779736261
        }
      ],
      "apple/mobileclip_s2": [
        {
          "distance": 0.25672603,
          "id": 1779968843
        },
        {
          "distance": 0.31851432,
          "id": 1779968955
        },
        {
          "distance": 0.37961143,
          "id": 1796455033
        },
        {
          "distance": 0.3931009,
          "id": 2048167329
        },
        {
          "distance": 0.3973027,
          "id": 2048167339
        },
        {
          "distance": 0.40719327,
          "id": 1796455055
        },
        {
          "distance": 0.4099776,
          "id": 2048167337
        },
        {
          "distance": 0.41281578,
          "id": 2048167333
        },
        {
          "distance": 0.43782398,
          "id": 2048167335
        },
        {
          "distance": 0.49585006,
          "id": 1779736261
        }
      ]
    },
    "millsfield:subcategory_id": 1511213839,
    "mz:is_current": 1,
    "sfomuseum:filename": "2004.005.198.tif",
    "sfomuseum:image_id": 83472,
    "sfomuseum:image_index": 5,
    "sfomuseum:image_type": "studio",
    "sfomuseum:object_id": 77022,
    "sfomuseum:placetype": "image",
    "sfomuseum:primary_image": 1,
    "src:geom": "sfomuseum",
    "wof:belongsto": [
      102527513,
      1159162825,
      102191575,
      85633793,
      102087579,
      85922583,
      1779968357,
      85688637,
      1159160869
    ],
    "wof:country": "XY",
    "wof:created": 1658822020,
    "wof:depicts": [
      1159286839,
      1779968357,
      1159284989
    ],
    "wof:geomhash": "ed7c2ab3547fc3916b5edc33488deaa7",
    "wof:hierarchy": [
      {
        "building_id": -1,
        "campus_id": 102527513,
        "collection_id": 1159162825,
        "concourse_id": 1159162825,
        "continent_id": 102191575,
        "country_id": 85633793,
        "county_id": 102087579,
        "custom_id": 1779968665,
        "image_id": 1779968665,
        "locality_id": 85922583,
        "neighbourhood_id": -1,
        "object_id": 1779968357,
        "region_id": 85688637,
        "wing_id": 1159160869
      }
    ],
    "wof:id": 1779968665,
    "wof:lastmodified": 1788451416,
    "wof:name": "cocktail napkin: Pan American World Airways",
    "wof:parent_id": 1779968357,
    "wof:placetype": "custom",
    "wof:placetype_alt": [
      "image"
    ],
    "wof:repo": "sfomuseum-data-media-collection",
    "wof:superseded_by": [],
    "wof:supersedes": []
  },
  "bbox": [
    -122.386472,
    37.616105,
    -122.385834,
    37.616611
  ],
  "geometry": {"type":"Polygon","coordinates":[[[-122.386472,37.616318],[-122.386435,37.616233],[-122.386376,37.616178],[-122.386301,37.616131],[-122.386161,37.616105],[-122.386022,37.616131],[-122.385914,37.616186],[-122.385855,37.616267],[-122.385834,37.616369],[-122.385871,37.616467],[-122.385941,37.616543],[-122.386054,37.616603],[-122.386183,37.616611],[-122.386306,37.616573],[-122.386419,37.616509],[-122.386467,37.616411],[-122.386472,37.616318]]]}
}
