{
  "id": 1763443829,
  "type": "Feature",
  "properties": {
    "date:cessation_lower": "1979-01-01",
    "date:cessation_upper": "1979-12-31",
    "date:inception_lower": "1979-01-01",
    "date:inception_upper": "1979-12-31",
    "edtf:cessation": "1979",
    "edtf:inception": "1979",
    "geom:area": 2.477324999997507e-7,
    "geom:bbox": "-122.386472,37.616105,-122.385834,37.616611",
    "geom:latitude": 37.61635756125121,
    "geom:longitude": -122.38615532866096,
    "media:fingerprint": "9d0858f846771f5e1263c6936d9f1d5f964a9503",
    "media:imagehash_avg": "a:7e3c1c00003c7e7e",
    "media:imagehash_diff": "d:cce8e8d4f4f8f0f0",
    "media:imagetext": "(14\n15)",
    "media:imagetext_created": 1787963096,
    "media:imagetext_source": "com.apple.visionkit.VNImageRequestHandler#Version 26.6.2 (Build 25G83)",
    "media:mimetype": "image/tiff",
    "media:properties": {
      "sizes": {
        "b": {
          "extension": "jpg",
          "height": 695,
          "mimetype": "image/jpeg",
          "secret": "rRGfweWEDMRC57SDBRpD9ZAU9EjIXgyK",
          "width": 1024
        },
        "c": {
          "extension": "jpg",
          "height": 543,
          "mimetype": "image/jpeg",
          "secret": "rRGfweWEDMRC57SDBRpD9ZAU9EjIXgyK",
          "width": 800
        },
        "dc": {
          "extension": "jpg",
          "height": 543,
          "mimetype": "image/jpeg",
          "secret": "rRGfweWEDMRC57SDBRpD9ZAU9EjIXgyK",
          "width": 800
        },
        "ds": {
          "extension": "jpg",
          "height": 320,
          "mimetype": "image/jpeg",
          "secret": "rRGfweWEDMRC57SDBRpD9ZAU9EjIXgyK",
          "width": 320
        },
        "k": {
          "extension": "jpg",
          "height": 1391,
          "mimetype": "image/jpeg",
          "secret": "rRGfweWEDMRC57SDBRpD9ZAU9EjIXgyK",
          "width": 2048
        },
        "n": {
          "extension": "jpg",
          "height": 217,
          "mimetype": "image/jpeg",
          "secret": "rRGfweWEDMRC57SDBRpD9ZAU9EjIXgyK",
          "width": 320
        },
        "o": {
          "extension": "jpg",
          "height": 1223,
          "mimetype": "image/jpeg",
          "secret": "DdPvt9iQJcbgydgCMGgafZFXzLlaFOc9",
          "width": 1800
        },
        "s": {
          "extension": "jpg",
          "height": 320,
          "mimetype": "image/jpeg",
          "secret": "rRGfweWEDMRC57SDBRpD9ZAU9EjIXgyK",
          "width": 320
        },
        "z": {
          "extension": "jpg",
          "height": 434,
          "mimetype": "image/jpeg",
          "secret": "rRGfweWEDMRC57SDBRpD9ZAU9EjIXgyK",
          "width": 640
        }
      }
    },
    "media:source": "sfomuseum",
    "media:status_id": 1,
    "media:uri_template": "https://static.sfomuseum.org/media/176/344/382/9/1763443829_{secret}_{label}.{extension}",
    "millsfield:airport_id": [
      102527513
    ],
    "millsfield:category_id": 1511214209,
    "millsfield:collection_id": 1511214207,
    "millsfield:images_colors": [
      {
        "hex": "#271218",
        "name": "#271218",
        "reference": "marekm4"
      },
      {
        "hex": "#000000",
        "name": "black",
        "reference": "css4"
      },
      {
        "hex": "#000000",
        "name": "Black",
        "reference": "crayola"
      },
      {
        "hex": "#dddce2",
        "name": "#dddce2",
        "reference": "marekm4"
      },
      {
        "hex": "#dcdcdc",
        "name": "gainsboro",
        "reference": "css4"
      },
      {
        "hex": "#dbd7d2",
        "name": "Timberwolf",
        "reference": "crayola"
      }
    ],
    "millsfield:images_texts": [
      "(14\n15)"
    ],
    "millsfield:images_texts_ids": [
      1763443829
    ],
    "millsfield:similar": {
      "apple/mobileclip_s0": [
        {
          "distance": 0.61598104,
          "id": 1763443831
        },
        {
          "distance": 0.6237054,
          "id": 1913663417
        },
        {
          "distance": 0.62914354,
          "id": 1763443823
        },
        {
          "distance": 0.6325234,
          "id": 1763388269
        },
        {
          "distance": 0.634262,
          "id": 1763443733
        },
        {
          "distance": 0.63718486,
          "id": 1763443709
        },
        {
          "distance": 0.64081603,
          "id": 1763388273
        },
        {
          "distance": 0.655935,
          "id": 1763441371
        },
        {
          "distance": 0.6582492,
          "id": 1913663329
        },
        {
          "distance": 0.66030467,
          "id": 1763441515
        }
      ],
      "apple/mobileclip_s1": [
        {
          "distance": 0.50845605,
          "id": 1763443837
        },
        {
          "distance": 0.5140334,
          "id": 1763443813
        },
        {
          "distance": 0.5287995,
          "id": 1913663325
        },
        {
          "distance": 0.53256696,
          "id": 1763441427
        },
        {
          "distance": 0.53269106,
          "id": 1763443823
        },
        {
          "distance": 0.53308105,
          "id": 1527828539
        },
        {
          "distance": 0.53453046,
          "id": 1763443733
        },
        {
          "distance": 0.53685117,
          "id": 1913663185
        },
        {
          "distance": 0.5395421,
          "id": 1763388469
        },
        {
          "distance": 0.5412274,
          "id": 1763388273
        }
      ],
      "apple/mobileclip_s2": [
        {
          "distance": 0.66815215,
          "id": 1763443733
        },
        {
          "distance": 0.6951696,
          "id": 1763443823
        },
        {
          "distance": 0.7103698,
          "id": 1913663325
        },
        {
          "distance": 0.72576135,
          "id": 1527828279
        },
        {
          "distance": 0.73543775,
          "id": 1913663729
        },
        {
          "distance": 0.73994976,
          "id": 1763443839
        },
        {
          "distance": 0.74806947,
          "id": 1763443831
        },
        {
          "distance": 0.7559928,
          "id": 1763443837
        },
        {
          "distance": 0.7563645,
          "id": 1913663417
        },
        {
          "distance": 0.75683284,
          "id": 1763443813
        }
      ]
    },
    "millsfield:subcategory_id": 1511213401,
    "mz:is_current": 1,
    "sfomuseum:filename": "126791.tif",
    "sfomuseum:image_id": 126791,
    "sfomuseum:image_index": 5,
    "sfomuseum:image_type": "studio",
    "sfomuseum:object_id": 166266,
    "sfomuseum:placetype": "image",
    "sfomuseum:primary_image": 1,
    "src:geom": "sfomuseum",
    "wof:belongsto": [
      102527513,
      1159162825,
      102191575,
      85633793,
      102087579,
      85922583,
      1762829745,
      85688637,
      1159160869
    ],
    "wof:country": "XY",
    "wof:created": 1649404660,
    "wof:depicts": [
      1762829745,
      102527513
    ],
    "wof:geomhash": "ed7c2ab3547fc3916b5edc33488deaa7",
    "wof:hierarchy": [
      {
        "building_id": -1,
        "campus_id": 102527513,
        "collection_id": 1159162825,
        "concourse_id": 1159162825,
        "continent_id": 102191575,
        "country_id": 85633793,
        "county_id": 102087579,
        "custom_id": 1763443829,
        "image_id": 1763443829,
        "locality_id": 85922583,
        "neighbourhood_id": -1,
        "object_id": 1762829745,
        "region_id": 85688637,
        "wing_id": 1159160869
      }
    ],
    "wof:id": 1763443829,
    "wof:lastmodified": 1788451181,
    "wof:name": "slide: San Francisco International Airport (SFO), interior [digital image]",
    "wof:parent_id": 1762829745,
    "wof:placetype": "custom",
    "wof:placetype_alt": [
      "image"
    ],
    "wof:repo": "sfomuseum-data-media-collection",
    "wof:superseded_by": [],
    "wof:supersedes": []
  },
  "bbox": [
    -122.386472,
    37.616105,
    -122.385834,
    37.616611
  ],
  "geometry": {"type":"Polygon","coordinates":[[[-122.386472,37.616318],[-122.386435,37.616233],[-122.386376,37.616178],[-122.386301,37.616131],[-122.386161,37.616105],[-122.386022,37.616131],[-122.385914,37.616186],[-122.385855,37.616267],[-122.385834,37.616369],[-122.385871,37.616467],[-122.385941,37.616543],[-122.386054,37.616603],[-122.386183,37.616611],[-122.386306,37.616573],[-122.386419,37.616509],[-122.386467,37.616411],[-122.386472,37.616318]]]}
}
