{
  "id": 1913928577,
  "type": "Feature",
  "properties": {
    "date:cessation_lower": "1975-01-01",
    "date:cessation_upper": "1975-12-31",
    "date:inception_lower": "1975-01-01",
    "date:inception_upper": "1975-12-31",
    "edtf:cessation": "1975~",
    "edtf:inception": "1975~",
    "geom:area": 2.477324999997507e-7,
    "geom:bbox": "-122.386472,37.616105,-122.385834,37.616611",
    "geom:latitude": 37.61635756125121,
    "geom:longitude": -122.38615532866096,
    "media:fingerprint": "a8ad00fb080aab248cb125b9f6380dad85565da9",
    "media:imagehash_avg": "a:ffdf0cff80028082",
    "media:imagehash_diff": "d:2138193955765555",
    "media:imagetext": "For your safety\nPara su seguridad\nPour votre sécurité\nSeat belt • Cinturón de seguridad • Ceinture de sécurité\nTo fasten\nComó abrocharlo\nComment l'attacher\nTo tighten\nComó ajustarlo\nComment la serrer\nDC-10 OverWater\nAmericanAirlines\nTo release\nComó desabrocharlo\nComment la déattacher\nLift flap to release\nLevante la aleta para desabrochar\nLevez la languette pour détacher\nOxygen... No Smoking... Mask locations • Oxígeno...No fumar....Sitio para la máscaras • Oxygène... Ne pas fumer...Emplaceinat de masques\nIn first class\nEn primera clase\nEn première\nIn coach\nTurista\nTouriste\nAt overhead locations\nAt bulkhead locations\nSobre su cabeza\nEn los compartimientos del techo\nAu dessus de votre tete\nAux cloisons dans le plafond\nTo use oxygen mask • Para usar la máscara de oxígeno • Pour utiliser les masques d' oxigene\nPlease do not remove this card from airplane • Esta tarjeta debe quedarse a bordo • Veuillez bien laisser cette carte à bord",
    "media:imagetext_created": 1787973254,
    "media:imagetext_source": "com.apple.visionkit.VNImageRequestHandler#Version 26.6.2 (Build 25G83)",
    "media:mimetype": "image/tiff",
    "media:properties": {
      "sizes": {
        "b": {
          "extension": "jpg",
          "height": 768,
          "mimetype": "image/jpeg",
          "secret": "rZKozUZnrLCVNXlWZWQxb25GAXtrbaQS",
          "width": 616
        },
        "c": {
          "extension": "jpg",
          "height": 600,
          "mimetype": "image/jpeg",
          "secret": "rZKozUZnrLCVNXlWZWQxb25GAXtrbaQS",
          "width": 481
        },
        "dc": {
          "extension": "jpg",
          "height": 600,
          "mimetype": "image/jpeg",
          "secret": "rZKozUZnrLCVNXlWZWQxb25GAXtrbaQS",
          "width": 481
        },
        "ds": {
          "extension": "jpg",
          "height": 320,
          "mimetype": "image/jpeg",
          "secret": "rZKozUZnrLCVNXlWZWQxb25GAXtrbaQS",
          "width": 320
        },
        "k": {
          "extension": "jpg",
          "height": 1536,
          "mimetype": "image/jpeg",
          "secret": "rZKozUZnrLCVNXlWZWQxb25GAXtrbaQS",
          "width": 1233
        },
        "n": {
          "extension": "jpg",
          "height": 240,
          "mimetype": "image/jpeg",
          "secret": "rZKozUZnrLCVNXlWZWQxb25GAXtrbaQS",
          "width": 192
        },
        "o": {
          "extension": "jpg",
          "height": 2000,
          "mimetype": "image/jpeg",
          "secret": "GjLG6rlfjZG7mScs4k5O5ZvIiqIHv6x4",
          "width": 1606
        },
        "s": {
          "extension": "jpg",
          "height": 320,
          "mimetype": "image/jpeg",
          "secret": "rZKozUZnrLCVNXlWZWQxb25GAXtrbaQS",
          "width": 320
        },
        "z": {
          "extension": "jpg",
          "height": 480,
          "mimetype": "image/jpeg",
          "secret": "rZKozUZnrLCVNXlWZWQxb25GAXtrbaQS",
          "width": 385
        }
      }
    },
    "media:source": "sfomuseum",
    "media:status_id": 1,
    "media:uri_template": "https://static.sfomuseum.org/media/191/392/857/7/1913928577_{secret}_{label}.{extention}",
    "millsfield:aircraft_id": [
      1159291259
    ],
    "millsfield:airline_id": [
      1159283849
    ],
    "millsfield:category_id": 1762671311,
    "millsfield:collection_id": 1511214207,
    "millsfield:company_id": [
      1159293561
    ],
    "millsfield:images_colors": [
      {
        "hex": "#e2d7c2",
        "name": "#e2d7c2",
        "reference": "marekm4"
      },
      {
        "hex": "#d3d3d3",
        "name": "lightgrey",
        "reference": "css4"
      },
      {
        "hex": "#dbd7d2",
        "name": "Timberwolf",
        "reference": "crayola"
      },
      {
        "hex": "#41261b",
        "name": "#41261b",
        "reference": "marekm4"
      },
      {
        "hex": "#2f4f4f",
        "name": "darkslategrey",
        "reference": "css4"
      },
      {
        "hex": "#414a4c",
        "name": "Outer Space",
        "reference": "crayola"
      },
      {
        "hex": "#964829",
        "name": "#964829",
        "reference": "marekm4"
      },
      {
        "hex": "#a0522d",
        "name": "sienna",
        "reference": "css4"
      },
      {
        "hex": "#714b23",
        "name": "Raw Umber",
        "reference": "crayola"
      },
      {
        "hex": "#a69166",
        "name": "#a69166",
        "reference": "marekm4"
      },
      {
        "hex": "#bdb76b",
        "name": "darkkhaki",
        "reference": "css4"
      },
      {
        "hex": "#9f8170",
        "name": "Beaver",
        "reference": "crayola"
      },
      {
        "hex": "#2e8c2c",
        "name": "#2e8c2c",
        "reference": "marekm4"
      },
      {
        "hex": "#228b22",
        "name": "forestgreen",
        "reference": "css4"
      },
      {
        "hex": "#17806d",
        "name": "Tropical Rain Forest",
        "reference": "crayola"
      }
    ],
    "millsfield:images_texts": [
      "For your safety\nPara su seguridad\nPour votre sécurité\nSeat belt • Cinturón de seguridad • Ceinture de sécurité\nTo fasten\nComó abrocharlo\nComment l'attacher\nTo tighten\nComó ajustarlo\nComment la serrer\nDC-10 OverWater\nAmericanAirlines\nTo release\nComó desabrocharlo\nComment la déattacher\nLift flap to release\nLevante la aleta para desabrochar\nLevez la languette pour détacher\nOxygen... No Smoking... Mask locations • Oxígeno...No fumar....Sitio para la máscaras • Oxygène... Ne pas fumer...Emplaceinat de masques\nIn first class\nEn primera clase\nEn première\nIn coach\nTurista\nTouriste\nAt overhead locations\nAt bulkhead locations\nSobre su cabeza\nEn los compartimientos del techo\nAu dessus de votre tete\nAux cloisons dans le plafond\nTo use oxygen mask • Para usar la máscara de oxígeno • Pour utiliser les masques d' oxigene\nPlease do not remove this card from airplane • Esta tarjeta debe quedarse a bordo • Veuillez bien laisser cette carte à bord",
      "Life vest under seat\nChaleco salvavidas debajo\ndel asiento\nGilet de sauvetage sous\nle siège\nAA\nOP117\nDC-10\nAA\nAA\nAA\n.127\n. 104\nPrinted in U.S.A.",
      "To open door exits 1\nPara abrir las puertas de salida 1\nPour ouvrir les portes de sortie 1\nSlide/Raft located in door\nCanot de emergencia Balsa lo-\ncalizada en la puerta\nTobogan d'émergence Canot lo-\ncalisez dans la porte\nTo open door exits 2,3,4\nPara abrir las puertas de salida 2,3,4\nPour ouvrir les portes de sortie 2,3,4\nSlide/Raft located in door\nCanot de emergencia Balsa lo-\ncalizada enla bienal\nTobogan d'émergence Canot lo-\ncalisez dans la porte\nIn the event of an emergency landing • En caso de aterrizaje de emergencia • En cas d'atterrissage forcé\nBrace position-normal\nPosición de emergencia\nPosition d'émergence\nBrace position-alternate\nAlternativa en posición\nde emergencia\nAlternative pour\nposition d'émergence\nElatation cont cuchion\nAsiento flotante\nSiège flottant\nEvacuation • Evacuacion • Evacuation\nOn land • Por tierra • Sur terre\nStay on your feet and jump\nManténgase de pie y salte\nRestez debout et sautez\nAt wing exit jump on slide here\nSi sale por el ala, salte aqui\nSi vous sortez sur l'aile. sautez ici\nMove away from slide area\nAleiese del deslizador\nEcartez-vous de la chute\nOn water • En agua • Sur eau\nRafts automatically inflate when doors 1,2,4 are opened\nLas balsas salvavidas se inflan automaticamente al abrirse las 1,2,4\nLes canots de sauvetage se gonfler automatiquement a l'ouverture 1,2,4\nDetaching raft\nSoltar la balsa salvavidas\nDetachez le canot de sauvetage\nInflating vest\nChaleco salvavidas que se infla\nGilet de sauvetage qui se gonfle\nBoarding raft\nBalsa salvavidas\nConat de calvetace\nLift flap\nLevante la lengúeta\nLevez la langette\nPull lanyard\nTire de la cuerde\nTirar la lanidro"
    ],
    "millsfield:images_texts_ids": [
      1913928577,
      1913928581,
      1913928583
    ],
    "millsfield:similar": {
      "apple/mobileclip_s0": [
        {
          "distance": 0.30791748,
          "id": 1931096051
        },
        {
          "distance": 0.33543745,
          "id": 1913928589
        },
        {
          "distance": 0.35917553,
          "id": 1913928585
        },
        {
          "distance": 0.38036767,
          "id": 1762894291
        },
        {
          "distance": 0.5715053,
          "id": 1762894295
        },
        {
          "distance": 0.58153546,
          "id": 1914622535
        },
        {
          "distance": 0.5899402,
          "id": 1913928553
        },
        {
          "distance": 0.6062493,
          "id": 1931096033
        },
        {
          "distance": 0.60708094,
          "id": 1913928549
        },
        {
          "distance": 0.60897785,
          "id": 1913928613
        }
      ],
      "apple/mobileclip_s1": [
        {
          "distance": 0.1633016,
          "id": 1931096051
        },
        {
          "distance": 0.24058244,
          "id": 1913928589
        },
        {
          "distance": 0.25017908,
          "id": 1913928585
        },
        {
          "distance": 0.2927032,
          "id": 1762894291
        },
        {
          "distance": 0.38740787,
          "id": 1913928613
        },
        {
          "distance": 0.42258298,
          "id": 1913928553
        },
        {
          "distance": 0.42461547,
          "id": 1913928549
        },
        {
          "distance": 0.436063,
          "id": 1913928473
        },
        {
          "distance": 0.4414006,
          "id": 1913928491
        },
        {
          "distance": 0.44425488,
          "id": 1931096033
        }
      ],
      "apple/mobileclip_s2": [
        {
          "distance": 0.29432216,
          "id": 1931096051
        },
        {
          "distance": 0.34781483,
          "id": 1913928585
        },
        {
          "distance": 0.355492,
          "id": 1913928589
        },
        {
          "distance": 0.42175594,
          "id": 1762894291
        },
        {
          "distance": 0.5698786,
          "id": 1913928553
        },
        {
          "distance": 0.5786698,
          "id": 1913928549
        },
        {
          "distance": 0.58022904,
          "id": 1913928473
        },
        {
          "distance": 0.5871026,
          "id": 1913928491
        },
        {
          "distance": 0.5906793,
          "id": 1931096039
        },
        {
          "distance": 0.6006338,
          "id": 1762894295
        }
      ]
    },
    "millsfield:subcategory_id": 1511213703,
    "mz:is_current": 1,
    "sfomuseum:filename": "75799.tif",
    "sfomuseum:image_id": 75799,
    "sfomuseum:image_index": 5,
    "sfomuseum:image_type": "studio",
    "sfomuseum:object_id": 68498,
    "sfomuseum:placetype": "image",
    "sfomuseum:primary_image": 1,
    "src:geom": "sfomuseum",
    "wof:belongsto": [
      102527513,
      1159162825,
      102191575,
      85633793,
      102087579,
      85922583,
      1913928305,
      85688637,
      1159160869
    ],
    "wof:country": "XY",
    "wof:created": 1715650291,
    "wof:depicts": [
      1159283849,
      1159291259,
      1159293561,
      1913928305
    ],
    "wof:geomhash": "ed7c2ab3547fc3916b5edc33488deaa7",
    "wof:hierarchy": [
      {
        "building_id": -1,
        "campus_id": 102527513,
        "collection_id": 1159162825,
        "concourse_id": 1159162825,
        "continent_id": 102191575,
        "country_id": 85633793,
        "county_id": 102087579,
        "custom_id": 1913928577,
        "image_id": 1913928577,
        "locality_id": 85922583,
        "neighbourhood_id": -1,
        "object_id": 1913928305,
        "region_id": 85688637,
        "wing_id": 1159160869
      }
    ],
    "wof:id": 1913928577,
    "wof:lastmodified": 1788220582,
    "wof:name": "safety information card: American Airlines, McDonnell Douglas DC-10",
    "wof:parent_id": 1913928305,
    "wof:placetype": "custom",
    "wof:placetype_alt": [
      "image"
    ],
    "wof:repo": "sfomuseum-data-media-collection",
    "wof:superseded_by": [],
    "wof:supersedes": []
  },
  "bbox": [
    -122.386472,
    37.616105,
    -122.385834,
    37.616611
  ],
  "geometry": {"type":"Polygon","coordinates":[[[-122.386472,37.616318],[-122.386435,37.616233],[-122.386376,37.616178],[-122.386301,37.616131],[-122.386161,37.616105],[-122.386022,37.616131],[-122.385914,37.616186],[-122.385855,37.616267],[-122.385834,37.616369],[-122.385871,37.616467],[-122.385941,37.616543],[-122.386054,37.616603],[-122.386183,37.616611],[-122.386306,37.616573],[-122.386419,37.616509],[-122.386467,37.616411],[-122.386472,37.616318]]]}
}
