{
  "id": 1762701523,
  "type": "Feature",
  "properties": {
    "date:cessation_lower": "1950-07-01",
    "date:cessation_upper": "1950-07-31",
    "date:inception_lower": "1950-07-01",
    "date:inception_upper": "1950-07-31",
    "edtf:cessation": "1950-07",
    "edtf:inception": "1950-07",
    "geom:area": 2.477324999997507e-7,
    "geom:bbox": "-122.386472,37.616105,-122.385834,37.616611",
    "geom:latitude": 37.61635756125121,
    "geom:longitude": -122.38615532866096,
    "media:fingerprint": "b8213abc9dceda50706742492315f23b729e3d5a",
    "media:imagehash_avg": "a:8080bfffff8080ff",
    "media:imagehash_diff": "d:6d613b170f43431f",
    "media:imagetext": "Alugfelag\nIslands!\n1SE\nINNANLANDS\nFLUG\nFLUGAÆTLUN\n•i allar attir\nmed röxunum..\nGILDIR FRÁ 1. JÚLÍ 1950.",
    "media:imagetext_created": 1787956309,
    "media:imagetext_source": "com.apple.visionkit.VNImageRequestHandler#Version 26.6.2 (Build 25G83)",
    "media:mimetype": "image/tiff",
    "media:properties": {
      "sizes": {
        "b": {
          "extension": "jpg",
          "height": 768,
          "mimetype": "image/jpeg",
          "secret": "iYOWDouOzPOC1bXb7VX4EZuyTbrqHdmy",
          "width": 351
        },
        "c": {
          "extension": "jpg",
          "height": 600,
          "mimetype": "image/jpeg",
          "secret": "iYOWDouOzPOC1bXb7VX4EZuyTbrqHdmy",
          "width": 274
        },
        "dc": {
          "extension": "jpg",
          "height": 600,
          "mimetype": "image/jpeg",
          "secret": "iYOWDouOzPOC1bXb7VX4EZuyTbrqHdmy",
          "width": 274
        },
        "ds": {
          "extension": "jpg",
          "height": 320,
          "mimetype": "image/jpeg",
          "secret": "iYOWDouOzPOC1bXb7VX4EZuyTbrqHdmy",
          "width": 320
        },
        "k": {
          "extension": "jpg",
          "height": 1536,
          "mimetype": "image/jpeg",
          "secret": "iYOWDouOzPOC1bXb7VX4EZuyTbrqHdmy",
          "width": 702
        },
        "n": {
          "extension": "jpg",
          "height": 240,
          "mimetype": "image/jpeg",
          "secret": "iYOWDouOzPOC1bXb7VX4EZuyTbrqHdmy",
          "width": 109
        },
        "o": {
          "extension": "jpg",
          "height": 2495,
          "mimetype": "image/jpeg",
          "secret": "F3LTEprHYKNgqk7g6sCqNkP4M1rhGDiC",
          "width": 1141
        },
        "s": {
          "extension": "jpg",
          "height": 320,
          "mimetype": "image/jpeg",
          "secret": "iYOWDouOzPOC1bXb7VX4EZuyTbrqHdmy",
          "width": 320
        },
        "z": {
          "extension": "jpg",
          "height": 480,
          "mimetype": "image/jpeg",
          "secret": "iYOWDouOzPOC1bXb7VX4EZuyTbrqHdmy",
          "width": 219
        }
      }
    },
    "media:source": "sfomuseum",
    "media:status_id": 1,
    "media:uri_template": "https://static.sfomuseum.org/media/176/270/152/3/1762701523_{secret}_{label}.{extension}",
    "millsfield:airline_id": [
      1159285861
    ],
    "millsfield:category_id": 1511214223,
    "millsfield:collection_id": 1511214207,
    "millsfield:company_id": [
      1159288391
    ],
    "millsfield:images_colors": [
      {
        "hex": "#aa1d1b",
        "name": "#aa1d1b",
        "reference": "marekm4"
      },
      {
        "hex": "#b22222",
        "name": "firebrick",
        "reference": "css4"
      },
      {
        "hex": "#9c2542",
        "name": "Big Dip O' Ruby",
        "reference": "crayola"
      },
      {
        "hex": "#e9d6be",
        "name": "#e9d6be",
        "reference": "marekm4"
      },
      {
        "hex": "#f5deb3",
        "name": "wheat",
        "reference": "css4"
      },
      {
        "hex": "#efcdb8",
        "name": "Desert Sand",
        "reference": "crayola"
      }
    ],
    "millsfield:images_texts": [
      "Alugfelag\nIslands!\n1SE\nINNANLANDS\nFLUG\nFLUGAÆTLUN\n•i allar attir\nmed röxunum..\nGILDIR FRÁ 1. JÚLÍ 1950."
    ],
    "millsfield:images_texts_ids": [
      1762701523
    ],
    "millsfield:similar": {
      "apple/mobileclip_s0": [
        {
          "distance": 0.59247726,
          "id": 1763196049
        },
        {
          "distance": 0.6407919,
          "id": 1763249173
        },
        {
          "distance": 0.66283065,
          "id": 1763241479
        },
        {
          "distance": 0.76781875,
          "id": 1527840305
        },
        {
          "distance": 0.76985836,
          "id": 1762893619
        },
        {
          "distance": 0.7708847,
          "id": 1762702289
        },
        {
          "distance": 0.77542454,
          "id": 1527844421
        },
        {
          "distance": 0.7793477,
          "id": 1763196227
        },
        {
          "distance": 0.77986735,
          "id": 1762701617
        },
        {
          "distance": 0.78918993,
          "id": 1762701191
        }
      ],
      "apple/mobileclip_s1": [
        {
          "distance": 0.41170567,
          "id": 1763241479
        },
        {
          "distance": 0.41909006,
          "id": 1763249173
        },
        {
          "distance": 0.4559544,
          "id": 1763196049
        },
        {
          "distance": 0.49903816,
          "id": 1762898765
        },
        {
          "distance": 0.51087093,
          "id": 1527844421
        },
        {
          "distance": 0.5113195,
          "id": 1729565195
        },
        {
          "distance": 0.5138213,
          "id": 1763249153
        },
        {
          "distance": 0.5159436,
          "id": 1762714183
        },
        {
          "distance": 0.5169089,
          "id": 1763196227
        },
        {
          "distance": 0.52314407,
          "id": 1762701613
        }
      ],
      "apple/mobileclip_s2": [
        {
          "distance": 0.5770925,
          "id": 1763249173
        },
        {
          "distance": 0.61559504,
          "id": 1763241479
        },
        {
          "distance": 0.6335271,
          "id": 1763196049
        },
        {
          "distance": 0.7034545,
          "id": 1762701613
        },
        {
          "distance": 0.7129681,
          "id": 1763249153
        },
        {
          "distance": 0.71355724,
          "id": 1763301221
        },
        {
          "distance": 0.72245663,
          "id": 1762715127
        },
        {
          "distance": 0.7266155,
          "id": 1762701617
        },
        {
          "distance": 0.7299014,
          "id": 1762714183
        },
        {
          "distance": 0.7334723,
          "id": 1762898765
        }
      ]
    },
    "millsfield:subcategory_id": 1511213425,
    "mz:is_current": 1,
    "sfomuseum:filename": "2015.167.400.tif",
    "sfomuseum:image_id": 149270,
    "sfomuseum:image_index": 5,
    "sfomuseum:image_type": "studio",
    "sfomuseum:object_id": 174381,
    "sfomuseum:placetype": "image",
    "sfomuseum:primary_image": 1,
    "src:geom": "sfomuseum",
    "wof:belongsto": [
      102527513,
      1159162825,
      102191575,
      85633793,
      102087579,
      85922583,
      1762682881,
      85688637,
      1159160869
    ],
    "wof:country": "XY",
    "wof:created": 1641346833,
    "wof:depicts": [
      1159288391,
      1762682881,
      1159285861
    ],
    "wof:geomhash": "ed7c2ab3547fc3916b5edc33488deaa7",
    "wof:hierarchy": [
      {
        "building_id": -1,
        "campus_id": 102527513,
        "collection_id": 1159162825,
        "concourse_id": 1159162825,
        "continent_id": 102191575,
        "country_id": 85633793,
        "county_id": 102087579,
        "custom_id": 1762701523,
        "image_id": 1762701523,
        "locality_id": 85922583,
        "neighbourhood_id": -1,
        "object_id": 1762682881,
        "region_id": 85688637,
        "wing_id": 1159160869
      }
    ],
    "wof:id": 1762701523,
    "wof:lastmodified": 1788450469,
    "wof:name": "timetable: Iceland Airways",
    "wof:parent_id": 1762682881,
    "wof:placetype": "custom",
    "wof:placetype_alt": [
      "image"
    ],
    "wof:repo": "sfomuseum-data-media-collection",
    "wof:superseded_by": [],
    "wof:supersedes": []
  },
  "bbox": [
    -122.386472,
    37.616105,
    -122.385834,
    37.616611
  ],
  "geometry": {"type":"Polygon","coordinates":[[[-122.386472,37.616318],[-122.386435,37.616233],[-122.386376,37.616178],[-122.386301,37.616131],[-122.386161,37.616105],[-122.386022,37.616131],[-122.385914,37.616186],[-122.385855,37.616267],[-122.385834,37.616369],[-122.385871,37.616467],[-122.385941,37.616543],[-122.386054,37.616603],[-122.386183,37.616611],[-122.386306,37.616573],[-122.386419,37.616509],[-122.386467,37.616411],[-122.386472,37.616318]]]}
}
