{
  "id": 1527819843,
  "type": "Feature",
  "properties": {
    "date:cessation_lower": "1955-01-01",
    "date:cessation_upper": "1955-12-31",
    "date:inception_lower": "1955-01-01",
    "date:inception_upper": "1955-12-31",
    "edtf:cessation": "1955",
    "edtf:date": "1955",
    "edtf:inception": "1955",
    "geom:area": 0,
    "geom:bbox": "-122.386155,37.616358,-122.386155,37.616358",
    "geom:latitude": 37.616358,
    "geom:longitude": -122.386155,
    "iso:country": "US",
    "media:fingerprint": "500385cad2693afcfa55c06f9a6a685165b5c652",
    "media:imagehash_avg": "a:ffffffff00000000",
    "media:imagehash_diff": "d:60e088180001c24b",
    "media:medium": "image",
    "media:mimetype": "image/jpeg",
    "media:properties": {
      "sizes": {
        "b": {
          "extension": "jpg",
          "height": 768,
          "mimetype": "image/jpeg",
          "secret": "4VLcKnWbKLhQtTpt1a4fXQ8hcd2Oz9NO",
          "width": 486
        },
        "c": {
          "extension": "jpg",
          "height": 600,
          "mimetype": "image/jpeg",
          "secret": "4VLcKnWbKLhQtTpt1a4fXQ8hcd2Oz9NO",
          "width": 380
        },
        "dc": {
          "extension": "jpg",
          "height": 600,
          "mimetype": "image/jpeg",
          "secret": "4VLcKnWbKLhQtTpt1a4fXQ8hcd2Oz9NO",
          "width": 380
        },
        "ds": {
          "extension": "jpg",
          "height": 320,
          "mimetype": "image/jpeg",
          "secret": "4VLcKnWbKLhQtTpt1a4fXQ8hcd2Oz9NO",
          "width": 320
        },
        "k": {
          "extension": "jpg",
          "height": 1536,
          "mimetype": "image/jpeg",
          "secret": "4VLcKnWbKLhQtTpt1a4fXQ8hcd2Oz9NO",
          "width": 973
        },
        "n": {
          "extension": "jpg",
          "height": 240,
          "mimetype": "image/jpeg",
          "secret": "4VLcKnWbKLhQtTpt1a4fXQ8hcd2Oz9NO",
          "width": 152
        },
        "o": {
          "extension": "jpg",
          "height": 1633,
          "mimetype": "image/jpeg",
          "secret": "ZyYOerCTqa9FbsKuxNT7U3oLcOz4Ba6P",
          "width": 1035
        },
        "s": {
          "extension": "jpg",
          "height": 320,
          "mimetype": "image/jpeg",
          "secret": "4VLcKnWbKLhQtTpt1a4fXQ8hcd2Oz9NO",
          "width": 320
        },
        "z": {
          "extension": "jpg",
          "height": 480,
          "mimetype": "image/jpeg",
          "secret": "4VLcKnWbKLhQtTpt1a4fXQ8hcd2Oz9NO",
          "width": 304
        }
      }
    },
    "media:source": "sfomuseum",
    "media:status_id": 1,
    "media:uri_template": "https://static.sfomuseum.org/media/152/781/984/3/1527819843_{secret}_{label}.{extension}",
    "millsfield:aircraft_id": [
      1159290443
    ],
    "millsfield:airline_id": [
      1159284993
    ],
    "millsfield:category_id": 1762671311,
    "millsfield:collection_id": 1511214207,
    "millsfield:company_id": [],
    "millsfield:images_colors": [
      {
        "hex": "#b4c2d4",
        "name": "#b4c2d4",
        "reference": "marekm4"
      },
      {
        "hex": "#b0c4de",
        "name": "lightsteelblue",
        "reference": "css4"
      },
      {
        "hex": "#b0b7c6",
        "name": "Cadet Blue",
        "reference": "crayola"
      },
      {
        "hex": "#2d63ab",
        "name": "#2d63ab",
        "reference": "marekm4"
      },
      {
        "hex": "#4682b4",
        "name": "steelblue",
        "reference": "css4"
      },
      {
        "hex": "#2e5894",
        "name": "B'dazzled Blue",
        "reference": "crayola"
      },
      {
        "hex": "#6394cf",
        "name": "#6394cf",
        "reference": "marekm4"
      },
      {
        "hex": "#6495ed",
        "name": "cornflowerblue",
        "reference": "css4"
      },
      {
        "hex": "#6699cc",
        "name": "Blue Gray",
        "reference": "crayola"
      },
      {
        "hex": "#293f5c",
        "name": "#293f5c",
        "reference": "marekm4"
      },
      {
        "hex": "#2f4f4f",
        "name": "darkslategrey",
        "reference": "css4"
      },
      {
        "hex": "#414a4c",
        "name": "Outer Space",
        "reference": "crayola"
      }
    ],
    "millsfield:images_texts": [
      "PANAGRA\nPANAGRA\nN 8274H\nPANAGRA\nPAN AMERICAN-GRACE\nROUTE MAP\nMAPA de RUTAS",
      "Mr. Andrew B. Shea\nPresident\nPAN AMERICAN-GRACE AIRWAYS\nChrysler Building\nN.Y. 17, N.Y., U.S.A.",
      "PAN AMERICAN - GRACE\nPANAGRA\nN8274W",
      "Un recuerdo de su vuelo\nYour souvenir flight packet\n950 figs /1\nPAÑAGRA\nWORLD'S FRIENDLIEST AIRLINE\nPAN AMERICAN -GRACE AIRWAYS"
    ],
    "millsfield:images_texts_ids": [
      1527819835,
      1527819839,
      1527819855,
      1527855253
    ],
    "millsfield:similar": {
      "apple/mobileclip_s0": [
        {
          "distance": 0.60088855,
          "id": 1762706105
        },
        {
          "distance": 0.7703125,
          "id": 1762706083
        },
        {
          "distance": 0.7974993,
          "id": 1527854847
        },
        {
          "distance": 0.80812985,
          "id": 1779436509
        },
        {
          "distance": 0.8114093,
          "id": 1762706087
        },
        {
          "distance": 0.8674609,
          "id": 1897914563
        },
        {
          "distance": 0.87064296,
          "id": 2048167733
        },
        {
          "distance": 0.878385,
          "id": 1779436561
        },
        {
          "distance": 0.89011747,
          "id": 1779436859
        },
        {
          "distance": 0.9113485,
          "id": 1762705943
        }
      ],
      "apple/mobileclip_s1": [
        {
          "distance": 0.46607545,
          "id": 1762706105
        },
        {
          "distance": 0.60608256,
          "id": 1527854847
        },
        {
          "distance": 0.6126982,
          "id": 1779436509
        },
        {
          "distance": 0.6208904,
          "id": 1762706083
        },
        {
          "distance": 0.6214425,
          "id": 1762701619
        },
        {
          "distance": 0.6431322,
          "id": 1863469703
        },
        {
          "distance": 0.64367676,
          "id": 1779736073
        },
        {
          "distance": 0.644785,
          "id": 1779736109
        },
        {
          "distance": 0.65098244,
          "id": 1779489309
        },
        {
          "distance": 0.6570181,
          "id": 1527846951
        }
      ],
      "apple/mobileclip_s2": [
        {
          "distance": 0.6179734,
          "id": 1762706105
        },
        {
          "distance": 0.77330554,
          "id": 1779436859
        },
        {
          "distance": 0.78116,
          "id": 2048167733
        },
        {
          "distance": 0.7949147,
          "id": 1762706083
        },
        {
          "distance": 0.8173445,
          "id": 1527854847
        },
        {
          "distance": 0.822541,
          "id": 1779436561
        },
        {
          "distance": 0.8510065,
          "id": 1779436509
        },
        {
          "distance": 0.8543316,
          "id": 1897914563
        },
        {
          "distance": 0.89431465,
          "id": 1762706087
        },
        {
          "distance": 0.89772785,
          "id": 1527836243
        }
      ]
    },
    "millsfield:subcategory_id": 1511213565,
    "mz:hierarchy_label": 1,
    "mz:is_current": -1,
    "sfomuseum:filename": "31135.jpg",
    "sfomuseum:image_id": 31135,
    "sfomuseum:image_index": 5,
    "sfomuseum:image_type": "studio",
    "sfomuseum:object_id": 42825,
    "sfomuseum:placetype": "image",
    "sfomuseum:primary_image": 0,
    "src:geom": "sfomuseum",
    "wof:belongsto": [
      1511214243,
      1511906813,
      102527513,
      102191575,
      85633793,
      1511213565,
      85922583,
      102087579,
      1511214277,
      1511214203,
      85688637,
      136253057
    ],
    "wof:breaches": [],
    "wof:country": "US",
    "wof:created": 1578949324,
    "wof:depicts": [
      1159288567,
      1159290443,
      1159284993,
      1511906813
    ],
    "wof:geomhash": "bd906905ce4be6c0651c90b0fc24804c",
    "wof:hierarchy": [
      {
        "arcade_id": 1511213565,
        "building_id": 1511214277,
        "campus_id": 102527513,
        "concourse_id": 1511214243,
        "continent_id": 102191575,
        "country_id": 85633793,
        "county_id": 102087579,
        "custom_id": 1527819843,
        "image_id": 1527819843,
        "locality_id": 85922583,
        "media_id": 1527819843,
        "neighbourhood_id": -1,
        "region_id": 85688637,
        "venue_id": 1511906813,
        "wing_id": 1511214203
      },
      {
        "continent_id": 102191575,
        "country_id": 85633793,
        "custom_id": 1527819843,
        "empire_id": 136253057,
        "image_id": 1527819843,
        "media_id": 1527819843,
        "venue_id": 1511906813
      }
    ],
    "wof:id": 1527819843,
    "wof:lastmodified": 1788449727,
    "wof:name": "flight information packet: Panagra (Pan American-Grace Airways)",
    "wof:parent_id": 1511906813,
    "wof:placetype": "custom",
    "wof:placetype_alt": [
      "image"
    ],
    "wof:repo": "sfomuseum-data-media-collection",
    "wof:superseded_by": [],
    "wof:supersedes": [],
    "wof:tags": []
  },
  "bbox": [
    -122.386155,
    37.616358,
    -122.386155,
    37.616358
  ],
  "geometry": {"type":"Point","coordinates":[-122.386155,37.616358]}
}
