{
  "id": 1897763117,
  "type": "Feature",
  "properties": {
    "date:cessation_lower": "1990-01-01",
    "date:cessation_upper": "1999-12-31",
    "date:inception_lower": "1990-01-01",
    "date:inception_upper": "1999-12-31",
    "edtf:cessation": "199X",
    "edtf:inception": "199X",
    "geom:area": 2.477324999997507e-7,
    "geom:bbox": "-122.386472,37.616105,-122.385834,37.616611",
    "geom:latitude": 37.61635756125121,
    "geom:longitude": -122.38615532866096,
    "media:fingerprint": "da9a7a7bb402d4a67ae61d0cda6408aff92332f0",
    "media:imagehash_avg": "a:ff0f07070307170f",
    "media:imagehash_diff": "d:be3f3f3f0f45f7ff",
    "media:imagetext": "",
    "media:imagetext_created": 1711611399,
    "media:imagetext_source": "com.apple.visionkit.VNImageRequestHandler#Version 14.2 (Build 23C64)",
    "media:mimetype": "image/jpeg",
    "media:properties": {
      "sizes": {
        "b": {
          "extension": "jpg",
          "height": 767,
          "mimetype": "image/jpeg",
          "secret": "Yrf2hgT1O8gWvsV3SJfU7dD14fMRf1wS",
          "width": 1024
        },
        "c": {
          "extension": "jpg",
          "height": 599,
          "mimetype": "image/jpeg",
          "secret": "Yrf2hgT1O8gWvsV3SJfU7dD14fMRf1wS",
          "width": 800
        },
        "dc": {
          "extension": "jpg",
          "height": 599,
          "mimetype": "image/jpeg",
          "secret": "Yrf2hgT1O8gWvsV3SJfU7dD14fMRf1wS",
          "width": 800
        },
        "ds": {
          "extension": "jpg",
          "height": 320,
          "mimetype": "image/jpeg",
          "secret": "Yrf2hgT1O8gWvsV3SJfU7dD14fMRf1wS",
          "width": 320
        },
        "k": {
          "extension": "jpg",
          "height": 1535,
          "mimetype": "image/jpeg",
          "secret": "Yrf2hgT1O8gWvsV3SJfU7dD14fMRf1wS",
          "width": 2048
        },
        "n": {
          "extension": "jpg",
          "height": 239,
          "mimetype": "image/jpeg",
          "secret": "Yrf2hgT1O8gWvsV3SJfU7dD14fMRf1wS",
          "width": 320
        },
        "o": {
          "extension": "jpg",
          "height": 2425,
          "mimetype": "image/jpeg",
          "secret": "b3sWzZaIsmKmhi04jn120A3cjB1iOnzn",
          "width": 3234
        },
        "s": {
          "extension": "jpg",
          "height": 320,
          "mimetype": "image/jpeg",
          "secret": "Yrf2hgT1O8gWvsV3SJfU7dD14fMRf1wS",
          "width": 320
        },
        "z": {
          "extension": "jpg",
          "height": 479,
          "mimetype": "image/jpeg",
          "secret": "Yrf2hgT1O8gWvsV3SJfU7dD14fMRf1wS",
          "width": 640
        }
      }
    },
    "media:source": "sfomuseum",
    "media:status_id": 1,
    "media:uri_template": "https://static.sfomuseum.org/media/189/776/311/7/1897763117_{secret}_{label}.{extension}",
    "millsfield:airline_id": [
      1159285413
    ],
    "millsfield:category_id": 1746152551,
    "millsfield:collection_id": 1511214203,
    "millsfield:company_id": [
      1159288779
    ],
    "millsfield:images_colors": [
      {
        "hex": "#9d9b9c",
        "name": "#9d9b9c",
        "reference": "marekm4"
      },
      {
        "hex": "#a9a9a9",
        "name": "darkgrey",
        "reference": "css4"
      },
      {
        "hex": "#979aaa",
        "name": "Manatee",
        "reference": "crayola"
      },
      {
        "hex": "#5a5959",
        "name": "#5a5959",
        "reference": "marekm4"
      },
      {
        "hex": "#696969",
        "name": "dimgrey",
        "reference": "css4"
      },
      {
        "hex": "#6e5160",
        "name": "Eggplant",
        "reference": "crayola"
      }
    ],
    "millsfield:similar": {
      "apple/mobileclip_s0": [
        {
          "distance": 0.14342071,
          "id": 1897763091
        },
        {
          "distance": 0.15855522,
          "id": 1897763115
        },
        {
          "distance": 0.18158579,
          "id": 1897763003
        },
        {
          "distance": 0.19246726,
          "id": 1897762983
        },
        {
          "distance": 0.19415335,
          "id": 1897763183
        },
        {
          "distance": 0.2079884,
          "id": 1897763093
        },
        {
          "distance": 0.23074287,
          "id": 1897762981
        },
        {
          "distance": 0.23841834,
          "id": 1897763035
        },
        {
          "distance": 0.25806957,
          "id": 1897762975
        },
        {
          "distance": 0.26142386,
          "id": 1796597285
        }
      ],
      "apple/mobileclip_s1": [
        {
          "distance": 0.08773661,
          "id": 1897763091
        },
        {
          "distance": 0.10059582,
          "id": 1897763183
        },
        {
          "distance": 0.121929094,
          "id": 1897763115
        },
        {
          "distance": 0.14555538,
          "id": 1897762983
        },
        {
          "distance": 0.16017412,
          "id": 1796597313
        },
        {
          "distance": 0.16057828,
          "id": 1897762981
        },
        {
          "distance": 0.16153881,
          "id": 1897763003
        },
        {
          "distance": 0.16354781,
          "id": 1897763005
        },
        {
          "distance": 0.16416073,
          "id": 1897763019
        },
        {
          "distance": 0.16473976,
          "id": 1796597311
        }
      ],
      "apple/mobileclip_s2": [
        {
          "distance": 0.07983431,
          "id": 1897763091
        },
        {
          "distance": 0.10360081,
          "id": 1897763183
        },
        {
          "distance": 0.113246955,
          "id": 1897763115
        },
        {
          "distance": 0.16447805,
          "id": 1897762983
        },
        {
          "distance": 0.17617704,
          "id": 1897763003
        },
        {
          "distance": 0.1907208,
          "id": 1897762981
        },
        {
          "distance": 0.19937603,
          "id": 1746682507
        },
        {
          "distance": 0.20004049,
          "id": 1897763005
        },
        {
          "distance": 0.212615,
          "id": 1796597283
        },
        {
          "distance": 0.21784888,
          "id": 1897763093
        }
      ]
    },
    "millsfield:subcategory_id": 1511213417,
    "mz:is_current": 1,
    "sfomuseum:filename": "IMG_0593.jpg",
    "sfomuseum:image_id": 229499,
    "sfomuseum:image_index": 3,
    "sfomuseum:image_type": "studio",
    "sfomuseum:object_id": 220559,
    "sfomuseum:placetype": "image",
    "sfomuseum:primary_image": 0,
    "src:geom": "sfomuseum",
    "wof:belongsto": [
      102527513,
      1159162825,
      102191575,
      85633793,
      102087579,
      85922583,
      1796596675,
      85688637,
      1159160869
    ],
    "wof:country": "XY",
    "wof:created": 1711611400,
    "wof:depicts": [
      1159288779,
      1796596675,
      1159285413
    ],
    "wof:geomhash": "ed7c2ab3547fc3916b5edc33488deaa7",
    "wof:hierarchy": [
      {
        "building_id": -1,
        "campus_id": 102527513,
        "collection_id": 1159162825,
        "concourse_id": 1159162825,
        "continent_id": 102191575,
        "country_id": 85633793,
        "county_id": 102087579,
        "custom_id": 1897763117,
        "image_id": 1897763117,
        "locality_id": 85922583,
        "neighbourhood_id": -1,
        "object_id": 1796596675,
        "region_id": 85688637,
        "wing_id": 1159160869
      }
    ],
    "wof:id": 1897763117,
    "wof:lastmodified": 1788452098,
    "wof:name": "fork: United Airlines",
    "wof:parent_id": 1796596675,
    "wof:placetype": "custom",
    "wof:placetype_alt": [
      "image"
    ],
    "wof:repo": "sfomuseum-data-media-collection",
    "wof:superseded_by": [],
    "wof:supersedes": []
  },
  "bbox": [
    -122.386472,
    37.616105,
    -122.385834,
    37.616611
  ],
  "geometry": {"type":"Polygon","coordinates":[[[-122.386472,37.616318],[-122.386435,37.616233],[-122.386376,37.616178],[-122.386301,37.616131],[-122.386161,37.616105],[-122.386022,37.616131],[-122.385914,37.616186],[-122.385855,37.616267],[-122.385834,37.616369],[-122.385871,37.616467],[-122.385941,37.616543],[-122.386054,37.616603],[-122.386183,37.616611],[-122.386306,37.616573],[-122.386419,37.616509],[-122.386467,37.616411],[-122.386472,37.616318]]]}
}
