{
  "id": 1763373077,
  "type": "Feature",
  "properties": {
    "date:cessation_lower": "1930-01-01",
    "date:cessation_upper": "1939-12-31",
    "date:inception_lower": "1930-01-01",
    "date:inception_upper": "1939-12-31",
    "edtf:cessation": "193X",
    "edtf:inception": "193X",
    "geom:area": 2.477324999997507e-7,
    "geom:bbox": "-122.386472,37.616105,-122.385834,37.616611",
    "geom:latitude": 37.61635756125121,
    "geom:longitude": -122.38615532866096,
    "media:fingerprint": "f06110e6934c0371859fa9ccdb7ba3602b034e1b",
    "media:imagehash_avg": "a:ffffff81c3c3c1ff",
    "media:imagehash_diff": "d:880629370f0f0f0f",
    "media:imagetext": "US\nAHR\nMAIL",
    "media:imagetext_created": 1787962155,
    "media:imagetext_source": "com.apple.visionkit.VNImageRequestHandler#Version 26.6.2 (Build 25G83)",
    "media:mimetype": "image/tiff",
    "media:properties": {
      "sizes": {
        "b": {
          "extension": "jpg",
          "height": 768,
          "mimetype": "image/jpeg",
          "secret": "sorQMqJ9rwHpHRSBjhieU9aDuwjwL5Oi",
          "width": 965
        },
        "c": {
          "extension": "jpg",
          "height": 600,
          "mimetype": "image/jpeg",
          "secret": "sorQMqJ9rwHpHRSBjhieU9aDuwjwL5Oi",
          "width": 754
        },
        "dc": {
          "extension": "jpg",
          "height": 600,
          "mimetype": "image/jpeg",
          "secret": "sorQMqJ9rwHpHRSBjhieU9aDuwjwL5Oi",
          "width": 754
        },
        "ds": {
          "extension": "jpg",
          "height": 320,
          "mimetype": "image/jpeg",
          "secret": "sorQMqJ9rwHpHRSBjhieU9aDuwjwL5Oi",
          "width": 320
        },
        "k": {
          "extension": "jpg",
          "height": 1536,
          "mimetype": "image/jpeg",
          "secret": "sorQMqJ9rwHpHRSBjhieU9aDuwjwL5Oi",
          "width": 1931
        },
        "n": {
          "extension": "jpg",
          "height": 240,
          "mimetype": "image/jpeg",
          "secret": "sorQMqJ9rwHpHRSBjhieU9aDuwjwL5Oi",
          "width": 301
        },
        "o": {
          "extension": "jpg",
          "height": 1667,
          "mimetype": "image/jpeg",
          "secret": "YctbgFhLbMqZiuqwOjLwFI2X5q1yZGNT",
          "width": 2096
        },
        "s": {
          "extension": "jpg",
          "height": 320,
          "mimetype": "image/jpeg",
          "secret": "sorQMqJ9rwHpHRSBjhieU9aDuwjwL5Oi",
          "width": 320
        },
        "z": {
          "extension": "jpg",
          "height": 480,
          "mimetype": "image/jpeg",
          "secret": "sorQMqJ9rwHpHRSBjhieU9aDuwjwL5Oi",
          "width": 603
        }
      }
    },
    "media:source": "sfomuseum",
    "media:status_id": 1,
    "media:uri_template": "https://static.sfomuseum.org/media/176/337/307/7/1763373077_{secret}_{label}.{extension}",
    "millsfield:airline_id": [
      1159285415
    ],
    "millsfield:category_id": 1511214225,
    "millsfield:collection_id": 1511214203,
    "millsfield:company_id": [
      1159288779
    ],
    "millsfield:images_colors": [
      {
        "hex": "#bab7b4",
        "name": "#bab7b4",
        "reference": "marekm4"
      },
      {
        "hex": "#c0c0c0",
        "name": "silver",
        "reference": "css4"
      },
      {
        "hex": "#b0b7c6",
        "name": "Cadet Blue",
        "reference": "crayola"
      },
      {
        "hex": "#ac906f",
        "name": "#ac906f",
        "reference": "marekm4"
      },
      {
        "hex": "#bc8f8f",
        "name": "rosybrown",
        "reference": "css4"
      },
      {
        "hex": "#9f8170",
        "name": "Beaver",
        "reference": "crayola"
      },
      {
        "hex": "#947659",
        "name": "#947659",
        "reference": "marekm4"
      },
      {
        "hex": "#808080",
        "name": "grey",
        "reference": "css4"
      },
      {
        "hex": "#8a795d",
        "name": "Shadow",
        "reference": "crayola"
      }
    ],
    "millsfield:images_texts": [
      "US\nAHR\nMAIL"
    ],
    "millsfield:images_texts_ids": [
      1763373077
    ],
    "millsfield:similar": {
      "apple/mobileclip_s0": [
        {
          "distance": 0.32675505,
          "id": 1763373053
        },
        {
          "distance": 0.4687633,
          "id": 1763379049
        },
        {
          "distance": 0.47432792,
          "id": 1763379355
        },
        {
          "distance": 0.4841579,
          "id": 1729566905
        },
        {
          "distance": 0.48590493,
          "id": 1763379113
        },
        {
          "distance": 0.48710626,
          "id": 1796444561
        },
        {
          "distance": 0.49042076,
          "id": 1863469403
        },
        {
          "distance": 0.49188435,
          "id": 1763101905
        },
        {
          "distance": 0.49571994,
          "id": 1796414325
        },
        {
          "distance": 0.5004171,
          "id": 1763379043
        }
      ],
      "apple/mobileclip_s1": [
        {
          "distance": 0.13170984,
          "id": 1763373053
        },
        {
          "distance": 0.29669008,
          "id": 1763379355
        },
        {
          "distance": 0.31528452,
          "id": 1729566905
        },
        {
          "distance": 0.32072258,
          "id": 1796444391
        },
        {
          "distance": 0.3321089,
          "id": 1779736317
        },
        {
          "distance": 0.3334214,
          "id": 1796335939
        },
        {
          "distance": 0.33652326,
          "id": 1796414405
        },
        {
          "distance": 0.33739182,
          "id": 1763079275
        },
        {
          "distance": 0.33798534,
          "id": 1796444575
        },
        {
          "distance": 0.34081545,
          "id": 1763373215
        }
      ],
      "apple/mobileclip_s2": [
        {
          "distance": 0.23821567,
          "id": 1763373053
        },
        {
          "distance": 0.469416,
          "id": 1729566905
        },
        {
          "distance": 0.50691843,
          "id": 1796444575
        },
        {
          "distance": 0.5077823,
          "id": 1763094621
        },
        {
          "distance": 0.51056516,
          "id": 1762973625
        },
        {
          "distance": 0.5133842,
          "id": 1763379355
        },
        {
          "distance": 0.51404107,
          "id": 1763373215
        },
        {
          "distance": 0.5237297,
          "id": 1796444305
        },
        {
          "distance": 0.5242558,
          "id": 1763101905
        },
        {
          "distance": 0.526477,
          "id": 1763373119
        }
      ]
    },
    "millsfield:subcategory_id": 1511213741,
    "mz:is_current": 1,
    "sfomuseum:filename": "110630.tif",
    "sfomuseum:image_id": 110630,
    "sfomuseum:image_index": 5,
    "sfomuseum:image_type": "studio",
    "sfomuseum:object_id": 88623,
    "sfomuseum:placetype": "image",
    "sfomuseum:primary_image": 1,
    "src:geom": "sfomuseum",
    "wof:belongsto": [
      102527513,
      1159162825,
      102191575,
      85633793,
      102087579,
      85922583,
      1762946553,
      85688637,
      1159160869
    ],
    "wof:country": "XY",
    "wof:created": 1648626267,
    "wof:depicts": [
      1159288779,
      1762946553,
      1159285415
    ],
    "wof:geomhash": "ed7c2ab3547fc3916b5edc33488deaa7",
    "wof:hierarchy": [
      {
        "building_id": -1,
        "campus_id": 102527513,
        "collection_id": 1159162825,
        "concourse_id": 1159162825,
        "continent_id": 102191575,
        "country_id": 85633793,
        "county_id": 102087579,
        "custom_id": 1763373077,
        "image_id": 1763373077,
        "locality_id": 85922583,
        "neighbourhood_id": -1,
        "object_id": 1762946553,
        "region_id": 85688637,
        "wing_id": 1159160869
      }
    ],
    "wof:id": 1763373077,
    "wof:lastmodified": 1788451071,
    "wof:name": "flight officer wings: United Air Lines, U.S. Air Mail",
    "wof:parent_id": 1762946553,
    "wof:placetype": "custom",
    "wof:placetype_alt": [
      "image"
    ],
    "wof:repo": "sfomuseum-data-media-collection",
    "wof:superseded_by": [],
    "wof:supersedes": []
  },
  "bbox": [
    -122.386472,
    37.616105,
    -122.385834,
    37.616611
  ],
  "geometry": {"type":"Polygon","coordinates":[[[-122.386472,37.616318],[-122.386435,37.616233],[-122.386376,37.616178],[-122.386301,37.616131],[-122.386161,37.616105],[-122.386022,37.616131],[-122.385914,37.616186],[-122.385855,37.616267],[-122.385834,37.616369],[-122.385871,37.616467],[-122.385941,37.616543],[-122.386054,37.616603],[-122.386183,37.616611],[-122.386306,37.616573],[-122.386419,37.616509],[-122.386467,37.616411],[-122.386472,37.616318]]]}
}
