{
  "id": 1914623141,
  "type": "Feature",
  "properties": {
    "date:cessation_lower": "1992-01-01",
    "date:cessation_upper": "1992-12-31",
    "date:inception_lower": "1992-01-01",
    "date:inception_upper": "1992-12-31",
    "edtf:cessation": "1992",
    "edtf:inception": "1992",
    "geom:area": 2.477324999997507e-7,
    "geom:bbox": "-122.386472,37.616105,-122.385834,37.616611",
    "geom:latitude": 37.61635756125121,
    "geom:longitude": -122.38615532866096,
    "media:fingerprint": "e5280be33dfb4d938635c32d18d4d899f32835a7",
    "media:imagehash_avg": "a:01cbe1e1e1ffdf01",
    "media:imagehash_diff": "d:793b010b0b053fbb",
    "media:imagetext": "Flotation cushion\n#**\n\"t\nSchwimmfahige sitzkissen\nCoussins flotteurs\nAsiento flotante\n2\n2\nCA 344 3/00\nPrinted in the U.S.A.",
    "media:imagetext_created": 1787973911,
    "media:imagetext_source": "com.apple.visionkit.VNImageRequestHandler#Version 26.6.2 (Build 25G83)",
    "media:mimetype": "image/tiff",
    "media:properties": {
      "sizes": {
        "b": {
          "extension": "jpg",
          "height": 768,
          "mimetype": "image/jpeg",
          "secret": "eZeVSiSzEQGk6DmuMOAuGl7XQkjK4qCi",
          "width": 377
        },
        "c": {
          "extension": "jpg",
          "height": 600,
          "mimetype": "image/jpeg",
          "secret": "eZeVSiSzEQGk6DmuMOAuGl7XQkjK4qCi",
          "width": 295
        },
        "dc": {
          "extension": "jpg",
          "height": 600,
          "mimetype": "image/jpeg",
          "secret": "eZeVSiSzEQGk6DmuMOAuGl7XQkjK4qCi",
          "width": 295
        },
        "ds": {
          "extension": "jpg",
          "height": 320,
          "mimetype": "image/jpeg",
          "secret": "eZeVSiSzEQGk6DmuMOAuGl7XQkjK4qCi",
          "width": 320
        },
        "k": {
          "extension": "jpg",
          "height": 1536,
          "mimetype": "image/jpeg",
          "secret": "eZeVSiSzEQGk6DmuMOAuGl7XQkjK4qCi",
          "width": 755
        },
        "n": {
          "extension": "jpg",
          "height": 240,
          "mimetype": "image/jpeg",
          "secret": "eZeVSiSzEQGk6DmuMOAuGl7XQkjK4qCi",
          "width": 118
        },
        "o": {
          "extension": "jpg",
          "height": 2000,
          "mimetype": "image/jpeg",
          "secret": "5mn9qfac72cTmymxgyrGdG9AxmJafqSg",
          "width": 984
        },
        "s": {
          "extension": "jpg",
          "height": 320,
          "mimetype": "image/jpeg",
          "secret": "eZeVSiSzEQGk6DmuMOAuGl7XQkjK4qCi",
          "width": 320
        },
        "z": {
          "extension": "jpg",
          "height": 480,
          "mimetype": "image/jpeg",
          "secret": "eZeVSiSzEQGk6DmuMOAuGl7XQkjK4qCi",
          "width": 236
        }
      }
    },
    "media:source": "sfomuseum",
    "media:status_id": 1,
    "media:uri_template": "https://static.sfomuseum.org/media/191/462/314/1/1914623141_{secret}_{label}.{extention}",
    "millsfield:aircraft_id": [
      1159289819
    ],
    "millsfield:airline_id": [
      1159285413
    ],
    "millsfield:category_id": 1762671311,
    "millsfield:collection_id": 1511214207,
    "millsfield:company_id": [
      1159293593
    ],
    "millsfield:images_colors": [
      {
        "hex": "#d4c3b1",
        "name": "#d4c3b1",
        "reference": "marekm4"
      },
      {
        "hex": "#c0c0c0",
        "name": "silver",
        "reference": "css4"
      },
      {
        "hex": "#cdc5c2",
        "name": "Silver",
        "reference": "crayola"
      },
      {
        "hex": "#4b1d4a",
        "name": "#4b1d4a",
        "reference": "marekm4"
      },
      {
        "hex": "#2f4f4f",
        "name": "darkslategrey",
        "reference": "css4"
      },
      {
        "hex": "#414a4c",
        "name": "Outer Space",
        "reference": "crayola"
      },
      {
        "hex": "#5c8ca6",
        "name": "#5c8ca6",
        "reference": "marekm4"
      },
      {
        "hex": "#5f9ea0",
        "name": "cadetblue",
        "reference": "css4"
      },
      {
        "hex": "#6699cc",
        "name": "Blue Gray",
        "reference": "crayola"
      },
      {
        "hex": "#ba4060",
        "name": "#ba4060",
        "reference": "marekm4"
      },
      {
        "hex": "#cd5c5c",
        "name": "indianred",
        "reference": "css4"
      },
      {
        "hex": "#c8385a",
        "name": "Maroon",
        "reference": "crayola"
      },
      {
        "hex": "#ce995d",
        "name": "#ce995d",
        "reference": "marekm4"
      },
      {
        "hex": "#cd853f",
        "name": "peru",
        "reference": "css4"
      },
      {
        "hex": "#d68a59",
        "name": "Raw Sienna",
        "reference": "crayola"
      }
    ],
    "millsfield:images_texts": [
      "Safety\nIf you are sitting in an exit row\nand you cannot understand this\ncard or cannot see well enough\nto follow these instructions,\nplease tell a crew member.\nSicherheit\nSécurité\nSeguridad\nB737\nWenn Sie neben einem Ausgang sitzen und Sie verstehen\nkein Englisch, bitte verständigen Sie die Flugzeugbesatzung.\nSi vous êtes assis dans une rangée de sièges à côté d'une\nsortie et ne comprenez pas la langue anglaise, veuillez le dire\nà un membre de l'équipage.\nSi usted se encuentra sentado en una corrida de asientos\npróxima a una salida y no entiende el idioma Inglés como para\nseguir estas instrucciones por favor avísele a una azafata.\nEmergency exits are often heavy, awkward to litt, push, pull,\nand maneuver when opening. Because of this, and for the\nsafety of all passengers, Federal Law requires that we only\nseat qualified passengers next to exits.\nIf you are sitting in an exit row, you may be asked to open the\nexit and assist our crew in the event of an emergency.\nPlease ask to be reseated if you:\n• Have a physical condition which may not be visible and\nwhich may prevent you from assisting\n• Lack the strength, mobility, dexterity, in both arms and hands or\nlack the balance required to open the exit and assist our crew.\n• Do not think you could reach the exit, open it, and get out quickly.\n• Believe the physical exertion required to open the exit would\ninjure you.\n• Are hearing impaired and could not hear commands from our crew.\n• Lack suficient visual capacity to assess outside conditions\nor perform any necessary function without the assistance of\nvisual aids beyond eye glasses or contact lenses.\n• Are not able to give oral commands to others.\n• Do not understand the instructions in this brochure.\n• Have other responsibilities (such as a small child to care for)\nwhich would prevent you from helping\n• Are less than 15 years old.\n• Do not wish to assist.\nFederal regulations require all passengers, regardless of\nwhere they are sitting or their physical condition, to\nreview this card, for their safety.\nFollow these instructions, the directions of crew\nmembers, and placarded signs.\nWhen finished reviewing this card please return it to the\nseat pocket for our next customer.\nUNITEDAIRLINES",
      "Flotation cushion\n#**\n\"t\nSchwimmfahige sitzkissen\nCoussins flotteurs\nAsiento flotante\n2\n2\nCA 344 3/00\nPrinted in the U.S.A.",
      "Take-off \u0026 landing\nStart und Landung\nDécollage et atterissage\nDespegar y aterrizar\nBefore opening an exit,\nquickly look through a\nwindow to check outside\nfor the following:\nSmoke\nIf smoke is so thick you can not see out,\ndirect passengers to other exits.\nFire\nIf there is fire outside the aircraft,\ndirect passengers to other exits.\nDebris/\nObstructions\nIf there is metal debris or obstructions,\ndirect passengers to other exits.\nEmergency exits\n**0\n*187\nNotausgänge\nSorties de secours\nSalidas de emergencia\nA\nA\nDirect passengers\naway from aircraft.\nNo smoking\nRauchen verboten\nDefense de fumer\nNo fumar\nJIA\nA\nEXIT\nExit\n**0\nAusgang\nSortie\nSalida\nA\nB\nOxygen\nSauerstoff\nOxygene\nOxigeno\nCheck that the slide has properly\ninflated and is in good condition.\nUse handles to stabilize slide.\n1.....\"\nCopyright © Aero Safety Graphics Inc. 1992. 1998. All richts reserved."
    ],
    "millsfield:images_texts_ids": [
      1914623139,
      1914623141,
      1914623143
    ],
    "millsfield:similar": {
      "apple/mobileclip_s0": [
        {
          "distance": 0.2477387,
          "id": 1914623041
        },
        {
          "distance": 0.31679493,
          "id": 1914623033
        },
        {
          "distance": 0.3878489,
          "id": 1914623027
        },
        {
          "distance": 0.4839707,
          "id": 1914623089
        },
        {
          "distance": 0.4889544,
          "id": 1914623053
        },
        {
          "distance": 0.5120279,
          "id": 1914623061
        },
        {
          "distance": 0.5190307,
          "id": 1930466245
        },
        {
          "distance": 0.5190307,
          "id": 1930466237
        },
        {
          "distance": 0.5201343,
          "id": 1931096699
        },
        {
          "distance": 0.52324915,
          "id": 1914623067
        }
      ],
      "apple/mobileclip_s1": [
        {
          "distance": 0.18644218,
          "id": 1914623041
        },
        {
          "distance": 0.28739765,
          "id": 1914623027
        },
        {
          "distance": 0.29344612,
          "id": 1914623033
        },
        {
          "distance": 0.40074125,
          "id": 1914623089
        },
        {
          "distance": 0.40110257,
          "id": 1914623053
        },
        {
          "distance": 0.42912883,
          "id": 1914623067
        },
        {
          "distance": 0.43724906,
          "id": 1914623061
        },
        {
          "distance": 0.4501055,
          "id": 1914556245
        },
        {
          "distance": 0.45201975,
          "id": 1931096699
        },
        {
          "distance": 0.45476034,
          "id": 1914622529
        }
      ],
      "apple/mobileclip_s2": [
        {
          "distance": 0.28520885,
          "id": 1914623041
        },
        {
          "distance": 0.29052997,
          "id": 1914623033
        },
        {
          "distance": 0.2946915,
          "id": 1914623027
        },
        {
          "distance": 0.47879392,
          "id": 1914623089
        },
        {
          "distance": 0.48290047,
          "id": 1914623053
        },
        {
          "distance": 0.49599534,
          "id": 1914623067
        },
        {
          "distance": 0.5018279,
          "id": 1914623061
        },
        {
          "distance": 0.5229101,
          "id": 1931096699
        },
        {
          "distance": 0.5329547,
          "id": 1930466245
        },
        {
          "distance": 0.5329547,
          "id": 1930466237
        }
      ]
    },
    "millsfield:subcategory_id": 1511213703,
    "mz:is_current": 1,
    "sfomuseum:filename": "80901.tif",
    "sfomuseum:image_id": 80901,
    "sfomuseum:image_index": 5,
    "sfomuseum:image_type": "studio",
    "sfomuseum:object_id": 70611,
    "sfomuseum:placetype": "image",
    "sfomuseum:primary_image": 0,
    "src:geom": "sfomuseum",
    "wof:belongsto": [
      102527513,
      1159162825,
      102191575,
      85633793,
      102087579,
      85922583,
      1914622481,
      85688637,
      1159160869
    ],
    "wof:country": "XY",
    "wof:created": 1721029340,
    "wof:depicts": [
      1159293593,
      1914622481,
      1159285413,
      1159289819
    ],
    "wof:geomhash": "ed7c2ab3547fc3916b5edc33488deaa7",
    "wof:hierarchy": [
      {
        "building_id": -1,
        "campus_id": 102527513,
        "collection_id": 1159162825,
        "concourse_id": 1159162825,
        "continent_id": 102191575,
        "country_id": 85633793,
        "county_id": 102087579,
        "custom_id": 1914623141,
        "locality_id": 85922583,
        "neighbourhood_id": -1,
        "object_id": 1914622481,
        "region_id": 85688637,
        "wing_id": 1159160869
      }
    ],
    "wof:id": 1914623141,
    "wof:lastmodified": 1788220757,
    "wof:name": "safety information card: United Airlines, Boeing 737",
    "wof:parent_id": 1914622481,
    "wof:placetype": "custom",
    "wof:repo": "sfomuseum-data-media-collection",
    "wof:superseded_by": [],
    "wof:supersedes": []
  },
  "bbox": [
    -122.386472,
    37.616105,
    -122.385834,
    37.616611
  ],
  "geometry": {"type":"Polygon","coordinates":[[[-122.386472,37.616318],[-122.386435,37.616233],[-122.386376,37.616178],[-122.386301,37.616131],[-122.386161,37.616105],[-122.386022,37.616131],[-122.385914,37.616186],[-122.385855,37.616267],[-122.385834,37.616369],[-122.385871,37.616467],[-122.385941,37.616543],[-122.386054,37.616603],[-122.386183,37.616611],[-122.386306,37.616573],[-122.386419,37.616509],[-122.386467,37.616411],[-122.386472,37.616318]]]}
}
