{
  "id": 1881085701,
  "type": "Feature",
  "properties": {
    "date:cessation_lower": "1982-01-01",
    "date:cessation_upper": "1982-12-31",
    "date:inception_lower": "1982-01-01",
    "date:inception_upper": "1982-12-31",
    "edtf:cessation": "1982",
    "edtf:inception": "1982",
    "geom:area": 2.477324999997507e-7,
    "geom:bbox": "-122.386472,37.616105,-122.385834,37.616611",
    "geom:latitude": 37.61635756125121,
    "geom:longitude": -122.38615532866096,
    "media:fingerprint": "37f83a6d50619143f41a1a4680b2963304b3ce9b",
    "media:imagehash_avg": "a:78feff9f8381c3ff",
    "media:imagehash_diff": "d:e0e0e03c3f170f0e",
    "media:imagetext": "",
    "media:mimetype": "image/tiff",
    "media:properties": {
      "sizes": {
        "b": {
          "extension": "jpg",
          "height": 768,
          "mimetype": "image/jpeg",
          "secret": "qNz7cRFjrtrQITt2GgwtvfDFvKoKEhkV",
          "width": 960
        },
        "c": {
          "extension": "jpg",
          "height": 600,
          "mimetype": "image/jpeg",
          "secret": "qNz7cRFjrtrQITt2GgwtvfDFvKoKEhkV",
          "width": 750
        },
        "dc": {
          "extension": "jpg",
          "height": 600,
          "mimetype": "image/jpeg",
          "secret": "qNz7cRFjrtrQITt2GgwtvfDFvKoKEhkV",
          "width": 750
        },
        "ds": {
          "extension": "jpg",
          "height": 320,
          "mimetype": "image/jpeg",
          "secret": "qNz7cRFjrtrQITt2GgwtvfDFvKoKEhkV",
          "width": 320
        },
        "k": {
          "extension": "jpg",
          "height": 1536,
          "mimetype": "image/jpeg",
          "secret": "qNz7cRFjrtrQITt2GgwtvfDFvKoKEhkV",
          "width": 1920
        },
        "n": {
          "extension": "jpg",
          "height": 240,
          "mimetype": "image/jpeg",
          "secret": "qNz7cRFjrtrQITt2GgwtvfDFvKoKEhkV",
          "width": 300
        },
        "o": {
          "extension": "jpg",
          "height": 1680,
          "mimetype": "image/jpeg",
          "secret": "q6B31Q7AkQe2h2K4Irnc2eDwTRqkMxWJ",
          "width": 2100
        },
        "s": {
          "extension": "jpg",
          "height": 320,
          "mimetype": "image/jpeg",
          "secret": "qNz7cRFjrtrQITt2GgwtvfDFvKoKEhkV",
          "width": 320
        },
        "z": {
          "extension": "jpg",
          "height": 480,
          "mimetype": "image/jpeg",
          "secret": "qNz7cRFjrtrQITt2GgwtvfDFvKoKEhkV",
          "width": 600
        }
      }
    },
    "media:source": "sfomuseum",
    "media:status_id": 1,
    "media:uri_template": "https://static.sfomuseum.org/media/188/108/570/1/1881085701_{secret}_{label}.{extension}",
    "millsfield:airline_id": [
      1159283791
    ],
    "millsfield:category_id": 1763416381,
    "millsfield:collection_id": 1511214203,
    "millsfield:company_id": [
      1159286809
    ],
    "millsfield:exhibition_ids": [
      1159160543
    ],
    "millsfield:images_colors": [
      {
        "hex": "#bababe",
        "name": "#bababe",
        "reference": "marekm4"
      },
      {
        "hex": "#c0c0c0",
        "name": "silver",
        "reference": "css4"
      },
      {
        "hex": "#b0b7c6",
        "name": "Cadet Blue",
        "reference": "crayola"
      },
      {
        "hex": "#374561",
        "name": "#374561",
        "reference": "marekm4"
      },
      {
        "hex": "#2f4f4f",
        "name": "darkslategrey",
        "reference": "css4"
      },
      {
        "hex": "#414a4c",
        "name": "Outer Space",
        "reference": "crayola"
      },
      {
        "hex": "#566994",
        "name": "#566994",
        "reference": "marekm4"
      },
      {
        "hex": "#708090",
        "name": "slategrey",
        "reference": "css4"
      },
      {
        "hex": "#4a646c",
        "name": "Deep Space Sparkle",
        "reference": "crayola"
      },
      {
        "hex": "#7589b6",
        "name": "#7589b6",
        "reference": "marekm4"
      },
      {
        "hex": "#778899",
        "name": "lightslategrey",
        "reference": "css4"
      },
      {
        "hex": "#6699cc",
        "name": "Blue Gray",
        "reference": "crayola"
      }
    ],
    "millsfield:on_view": 0,
    "millsfield:similar": {
      "apple/mobileclip_s0": [
        {
          "distance": 0.10850148,
          "id": 1881085699
        },
        {
          "distance": 0.19519438,
          "id": 1881085703
        },
        {
          "distance": 0.39194745,
          "id": 1930724233
        },
        {
          "distance": 0.39399868,
          "id": 1930724247
        },
        {
          "distance": 0.40787464,
          "id": 1930724243
        },
        {
          "distance": 0.42536938,
          "id": 1930724231
        },
        {
          "distance": 0.43042544,
          "id": 1930724241
        },
        {
          "distance": 0.436726,
          "id": 1880370273
        },
        {
          "distance": 0.4437958,
          "id": 1880712897
        },
        {
          "distance": 0.45030394,
          "id": 1930724229
        }
      ],
      "apple/mobileclip_s1": [
        {
          "distance": 0.08295858,
          "id": 1881085699
        },
        {
          "distance": 0.17541702,
          "id": 1881085703
        },
        {
          "distance": 0.26923865,
          "id": 1930724243
        },
        {
          "distance": 0.27049494,
          "id": 1930724241
        },
        {
          "distance": 0.28743866,
          "id": 1930724233
        },
        {
          "distance": 0.3041553,
          "id": 1930724231
        },
        {
          "distance": 0.30957472,
          "id": 1930724247
        },
        {
          "distance": 0.3206198,
          "id": 1880465097
        },
        {
          "distance": 0.32485974,
          "id": 1930724245
        },
        {
          "distance": 0.3351865,
          "id": 1746679703
        }
      ],
      "apple/mobileclip_s2": [
        {
          "distance": 0.10344848,
          "id": 1881085699
        },
        {
          "distance": 0.22037087,
          "id": 1881085703
        },
        {
          "distance": 0.4240879,
          "id": 1930724243
        },
        {
          "distance": 0.42803964,
          "id": 1930724241
        },
        {
          "distance": 0.43699652,
          "id": 1930724229
        },
        {
          "distance": 0.4408797,
          "id": 1880465097
        },
        {
          "distance": 0.44797415,
          "id": 1880644921
        },
        {
          "distance": 0.44822308,
          "id": 1880858449
        },
        {
          "distance": 0.45991677,
          "id": 1930724195
        },
        {
          "distance": 0.4603846,
          "id": 1930724247
        }
      ]
    },
    "millsfield:subcategory_id": 1511213291,
    "mz:is_current": 1,
    "sfomuseum:filename": "2001.016.155_1.tif",
    "sfomuseum:image_id": 273088,
    "sfomuseum:image_index": 0,
    "sfomuseum:image_type": "studio",
    "sfomuseum:object_id": 60772,
    "sfomuseum:placetype": "image",
    "sfomuseum:primary_image": 0,
    "src:geom": "sfomuseum",
    "wof:belongsto": [
      102527513,
      1159162825,
      102191575,
      85633793,
      102087579,
      85922583,
      1746766289,
      85688637,
      1159160869
    ],
    "wof:country": "XY",
    "wof:created": 1701883493,
    "wof:depicts": [
      1159286809,
      1746766289,
      1159283791
    ],
    "wof:geomhash": "ed7c2ab3547fc3916b5edc33488deaa7",
    "wof:hierarchy": [
      {
        "building_id": -1,
        "campus_id": 102527513,
        "collection_id": 1159162825,
        "concourse_id": 1159162825,
        "continent_id": 102191575,
        "country_id": 85633793,
        "county_id": 102087579,
        "custom_id": 1881085701,
        "image_id": 1881085701,
        "locality_id": 85922583,
        "neighbourhood_id": -1,
        "object_id": 1746766289,
        "region_id": 85688637,
        "wing_id": 1159160869
      }
    ],
    "wof:id": 1881085701,
    "wof:lastmodified": 1788451982,
    "wof:name": "flight attendant hat: AirCal",
    "wof:parent_id": 1746766289,
    "wof:placetype": "custom",
    "wof:placetype_alt": [
      "image"
    ],
    "wof:repo": "sfomuseum-data-media-collection",
    "wof:superseded_by": [],
    "wof:supersedes": []
  },
  "bbox": [
    -122.386472,
    37.616105,
    -122.385834,
    37.616611
  ],
  "geometry": {"type":"Polygon","coordinates":[[[-122.386472,37.616318],[-122.386435,37.616233],[-122.386376,37.616178],[-122.386301,37.616131],[-122.386161,37.616105],[-122.386022,37.616131],[-122.385914,37.616186],[-122.385855,37.616267],[-122.385834,37.616369],[-122.385871,37.616467],[-122.385941,37.616543],[-122.386054,37.616603],[-122.386183,37.616611],[-122.386306,37.616573],[-122.386419,37.616509],[-122.386467,37.616411],[-122.386472,37.616318]]]}
}
