{
  "id": 1880712987,
  "type": "Feature",
  "properties": {
    "date:cessation_lower": "1980-01-01",
    "date:cessation_upper": "1989-12-31",
    "date:inception_lower": "1980-01-01",
    "date:inception_upper": "1989-12-31",
    "edtf:cessation": "198X",
    "edtf:inception": "198X",
    "geom:area": 2.477324999997507e-7,
    "geom:bbox": "-122.386472,37.616105,-122.385834,37.616611",
    "geom:latitude": 37.61635756125121,
    "geom:longitude": -122.38615532866096,
    "media:fingerprint": "ee0617a13df1fca9777dfe81839a6b62d3b5746e",
    "media:imagehash_avg": "a:ffffc3818183c7ff",
    "media:imagehash_diff": "d:f08c0f0f27071f3f",
    "media:imagetext": "",
    "media:mimetype": "image/tiff",
    "media:properties": {
      "sizes": {
        "b": {
          "extension": "jpg",
          "height": 768,
          "mimetype": "image/jpeg",
          "secret": "o7RyIqjDrCHfcB8m4ehwM0Lh94cvjMbF",
          "width": 965
        },
        "c": {
          "extension": "jpg",
          "height": 600,
          "mimetype": "image/jpeg",
          "secret": "o7RyIqjDrCHfcB8m4ehwM0Lh94cvjMbF",
          "width": 754
        },
        "dc": {
          "extension": "jpg",
          "height": 600,
          "mimetype": "image/jpeg",
          "secret": "o7RyIqjDrCHfcB8m4ehwM0Lh94cvjMbF",
          "width": 754
        },
        "ds": {
          "extension": "jpg",
          "height": 320,
          "mimetype": "image/jpeg",
          "secret": "o7RyIqjDrCHfcB8m4ehwM0Lh94cvjMbF",
          "width": 320
        },
        "k": {
          "extension": "jpg",
          "height": 1536,
          "mimetype": "image/jpeg",
          "secret": "o7RyIqjDrCHfcB8m4ehwM0Lh94cvjMbF",
          "width": 1931
        },
        "n": {
          "extension": "jpg",
          "height": 240,
          "mimetype": "image/jpeg",
          "secret": "o7RyIqjDrCHfcB8m4ehwM0Lh94cvjMbF",
          "width": 301
        },
        "o": {
          "extension": "jpg",
          "height": 1667,
          "mimetype": "image/jpeg",
          "secret": "mrvTYNUV3u8JqS8d4m2LXmtC6uzkbc71",
          "width": 2096
        },
        "s": {
          "extension": "jpg",
          "height": 320,
          "mimetype": "image/jpeg",
          "secret": "o7RyIqjDrCHfcB8m4ehwM0Lh94cvjMbF",
          "width": 320
        },
        "z": {
          "extension": "jpg",
          "height": 480,
          "mimetype": "image/jpeg",
          "secret": "o7RyIqjDrCHfcB8m4ehwM0Lh94cvjMbF",
          "width": 603
        }
      }
    },
    "media:source": "sfomuseum",
    "media:status_id": 1,
    "media:uri_template": "https://static.sfomuseum.org/media/188/071/298/7/1880712987_{secret}_{label}.{extension}",
    "millsfield:category_id": 1763416381,
    "millsfield:collection_id": 1511214203,
    "millsfield:images_colors": [
      {
        "hex": "#afaeac",
        "name": "#afaeac",
        "reference": "marekm4"
      },
      {
        "hex": "#a9a9a9",
        "name": "darkgrey",
        "reference": "css4"
      },
      {
        "hex": "#b0b7c6",
        "name": "Cadet Blue",
        "reference": "crayola"
      },
      {
        "hex": "#444447",
        "name": "#444447",
        "reference": "marekm4"
      },
      {
        "hex": "#2f4f4f",
        "name": "darkslategrey",
        "reference": "css4"
      },
      {
        "hex": "#414a4c",
        "name": "Outer Space",
        "reference": "crayola"
      }
    ],
    "millsfield:similar": {
      "apple/mobileclip_s0": [
        {
          "distance": 0.27649024,
          "id": 1880712923
        },
        {
          "distance": 0.2931133,
          "id": 1880713005
        },
        {
          "distance": 0.2974647,
          "id": 1880712969
        },
        {
          "distance": 0.3463618,
          "id": 1880712879
        },
        {
          "distance": 0.35757273,
          "id": 1880712977
        },
        {
          "distance": 0.37563482,
          "id": 1880713095
        },
        {
          "distance": 0.3795864,
          "id": 1880712959
        },
        {
          "distance": 0.38796785,
          "id": 1880712915
        },
        {
          "distance": 0.39666668,
          "id": 1880712995
        },
        {
          "distance": 0.40551132,
          "id": 1880712905
        }
      ],
      "apple/mobileclip_s1": [
        {
          "distance": 0.16553037,
          "id": 1880712923
        },
        {
          "distance": 0.26017928,
          "id": 1880712977
        },
        {
          "distance": 0.26029018,
          "id": 1880712969
        },
        {
          "distance": 0.2658237,
          "id": 1880712959
        },
        {
          "distance": 0.27928045,
          "id": 1880713291
        },
        {
          "distance": 0.2937149,
          "id": 1880713085
        },
        {
          "distance": 0.29431617,
          "id": 1880712879
        },
        {
          "distance": 0.29515758,
          "id": 1880712933
        },
        {
          "distance": 0.30592763,
          "id": 1880713095
        },
        {
          "distance": 0.30969426,
          "id": 1746683135
        }
      ],
      "apple/mobileclip_s2": [
        {
          "distance": 0.25646833,
          "id": 1880712923
        },
        {
          "distance": 0.30047816,
          "id": 1880713005
        },
        {
          "distance": 0.32760745,
          "id": 1880712969
        },
        {
          "distance": 0.3464406,
          "id": 1880712959
        },
        {
          "distance": 0.3850551,
          "id": 1880712977
        },
        {
          "distance": 0.39705724,
          "id": 1880712879
        },
        {
          "distance": 0.4110665,
          "id": 1880713095
        },
        {
          "distance": 0.41255465,
          "id": 1880712983
        },
        {
          "distance": 0.4134922,
          "id": 1880712985
        },
        {
          "distance": 0.4199358,
          "id": 1880712869
        }
      ]
    },
    "millsfield:subcategory_id": 1511213291,
    "mz:is_current": 1,
    "sfomuseum:filename": "2016.111.014_04.tif",
    "sfomuseum:image_id": 167069,
    "sfomuseum:image_index": 5,
    "sfomuseum:image_type": "studio",
    "sfomuseum:object_id": 184402,
    "sfomuseum:placetype": "image",
    "sfomuseum:primary_image": 0,
    "src:geom": "sfomuseum",
    "wof:belongsto": [
      102527513,
      1159162825,
      102191575,
      85633793,
      102087579,
      85922583,
      1880712795,
      85688637,
      1159160869
    ],
    "wof:country": "XY",
    "wof:created": 1697787794,
    "wof:depicts": [
      1880712795
    ],
    "wof:geomhash": "ed7c2ab3547fc3916b5edc33488deaa7",
    "wof:hierarchy": [
      {
        "building_id": -1,
        "campus_id": 102527513,
        "collection_id": 1159162825,
        "concourse_id": 1159162825,
        "continent_id": 102191575,
        "country_id": 85633793,
        "county_id": 102087579,
        "custom_id": 1880712987,
        "image_id": 1880712987,
        "locality_id": 85922583,
        "neighbourhood_id": -1,
        "object_id": 1880712795,
        "region_id": 85688637,
        "wing_id": 1159160869
      }
    ],
    "wof:id": 1880712987,
    "wof:lastmodified": 1788451936,
    "wof:name": "flight officer cap: unknown airline",
    "wof:parent_id": 1880712795,
    "wof:placetype": "custom",
    "wof:placetype_alt": [
      "image"
    ],
    "wof:repo": "sfomuseum-data-media-collection",
    "wof:superseded_by": [],
    "wof:supersedes": []
  },
  "bbox": [
    -122.386472,
    37.616105,
    -122.385834,
    37.616611
  ],
  "geometry": {"type":"Polygon","coordinates":[[[-122.386472,37.616318],[-122.386435,37.616233],[-122.386376,37.616178],[-122.386301,37.616131],[-122.386161,37.616105],[-122.386022,37.616131],[-122.385914,37.616186],[-122.385855,37.616267],[-122.385834,37.616369],[-122.385871,37.616467],[-122.385941,37.616543],[-122.386054,37.616603],[-122.386183,37.616611],[-122.386306,37.616573],[-122.386419,37.616509],[-122.386467,37.616411],[-122.386472,37.616318]]]}
}
