{
  "id": 1527823439,
  "type": "Feature",
  "properties": {
    "date:cessation_lower": "1970-01-01",
    "date:cessation_upper": "1979-12-31",
    "date:inception_lower": "1970-01-01",
    "date:inception_upper": "1979-12-31",
    "edtf:cessation": "197X",
    "edtf:date": "197x",
    "edtf:inception": "197X",
    "geom:area": 0,
    "geom:bbox": "-122.386155,37.616358,-122.386155,37.616358",
    "geom:latitude": 37.616358,
    "geom:longitude": -122.386155,
    "iso:country": "XX",
    "media:fingerprint": "65dbb0539d262a4d5bcdb03027742887a4b60979",
    "media:imagehash_avg": "a:c101010101fff7ff",
    "media:imagehash_diff": "d:9b9b9b9b9b978e8f",
    "media:imagetext": "AIRINTER\nRINTER AIRI\n•AIR INTER\nRINTER AIRA\n• AIR INTER :\nRINTER AIRA\nAIR INTER,\nRINTER AIRI\nAIR INTER\nMORQUIN • MUGUET • NOVOSAC\n60 rue du Rendez-vous\n75012 Paris\nTél. 347-10-73\n2006.026.006",
    "media:imagetext_created": 1787948337,
    "media:imagetext_source": "com.apple.visionkit.VNImageRequestHandler#Version 26.6.2 (Build 25G83)",
    "media:medium": "image",
    "media:mimetype": "image/tiff",
    "media:properties": {
      "sizes": {
        "b": {
          "extension": "jpg",
          "height": 768,
          "mimetype": "image/jpeg",
          "secret": "8BsLIqhLCjZiHVSy4qVTQ8q2yWV7U2BW",
          "width": 408
        },
        "c": {
          "extension": "jpg",
          "height": 600,
          "mimetype": "image/jpeg",
          "secret": "8BsLIqhLCjZiHVSy4qVTQ8q2yWV7U2BW",
          "width": 318
        },
        "dc": {
          "extension": "jpg",
          "height": 600,
          "mimetype": "image/jpeg",
          "secret": "8BsLIqhLCjZiHVSy4qVTQ8q2yWV7U2BW",
          "width": 318
        },
        "ds": {
          "extension": "jpg",
          "height": 320,
          "mimetype": "image/jpeg",
          "secret": "8BsLIqhLCjZiHVSy4qVTQ8q2yWV7U2BW",
          "width": 320
        },
        "k": {
          "extension": "jpg",
          "height": 1536,
          "mimetype": "image/jpeg",
          "secret": "8BsLIqhLCjZiHVSy4qVTQ8q2yWV7U2BW",
          "width": 816
        },
        "n": {
          "extension": "jpg",
          "height": 240,
          "mimetype": "image/jpeg",
          "secret": "8BsLIqhLCjZiHVSy4qVTQ8q2yWV7U2BW",
          "width": 127
        },
        "o": {
          "extension": "jpg",
          "height": 2880,
          "mimetype": "image/jpeg",
          "secret": "qxGudowTN2SL8IuVOE0R4LcFcBqZGtfO",
          "width": 1530
        },
        "s": {
          "extension": "jpg",
          "height": 320,
          "mimetype": "image/jpeg",
          "secret": "8BsLIqhLCjZiHVSy4qVTQ8q2yWV7U2BW",
          "width": 320
        },
        "z": {
          "extension": "jpg",
          "height": 480,
          "mimetype": "image/jpeg",
          "secret": "8BsLIqhLCjZiHVSy4qVTQ8q2yWV7U2BW",
          "width": 255
        }
      }
    },
    "media:source": "sfomuseum",
    "media:status_id": 1,
    "media:uri_template": "https://static.sfomuseum.org/media/152/782/343/9/1527823439_{secret}_{label}.{extension}",
    "millsfield:airline_id": [
      1159283651
    ],
    "millsfield:category_id": 1762671311,
    "millsfield:collection_id": 1511214207,
    "millsfield:company_id": [
      1159286621
    ],
    "millsfield:images_colors": [
      {
        "hex": "#f1e5d4",
        "name": "#f1e5d4",
        "reference": "marekm4"
      },
      {
        "hex": "#faebd7",
        "name": "antiquewhite",
        "reference": "css4"
      },
      {
        "hex": "#efdecd",
        "name": "Almond",
        "reference": "crayola"
      },
      {
        "hex": "#eb6239",
        "name": "#eb6239",
        "reference": "marekm4"
      },
      {
        "hex": "#ff6347",
        "name": "tomato",
        "reference": "css4"
      },
      {
        "hex": "#ff7538",
        "name": "Orange",
        "reference": "crayola"
      },
      {
        "hex": "#635c59",
        "name": "#635c59",
        "reference": "marekm4"
      },
      {
        "hex": "#696969",
        "name": "dimgrey",
        "reference": "css4"
      },
      {
        "hex": "#6e5160",
        "name": "Eggplant",
        "reference": "crayola"
      }
    ],
    "millsfield:images_texts": [
      "AIRINTER\nRINTER AIRI\n•AIR INTER\nRINTER AIRA\n• AIR INTER :\nRINTER AIRA\nAIR INTER,\nRINTER AIRI\nAIR INTER\nMORQUIN • MUGUET • NOVOSAC\n60 rue du Rendez-vous\n75012 Paris\nTél. 347-10-73\n2006.026.006",
      "AIR INTER\nRINTER AIRI\nAIR INTER\nRINTER AIRI\nAIR INTER\nRINTER AIRI\nAIR INTER\nRINTER AIRI\nAIR INTER\nRINTER AIRI\nAIR INTER\nRINTER AIRI\nAIR INTER"
    ],
    "millsfield:images_texts_ids": [
      1527823439,
      1527823441
    ],
    "millsfield:similar": {
      "apple/mobileclip_s0": [
        {
          "distance": 0.28960434,
          "id": 1527823407
        },
        {
          "distance": 0.49169752,
          "id": 1527823409
        },
        {
          "distance": 0.4957638,
          "id": 1527823441
        },
        {
          "distance": 0.66679895,
          "id": 1527823405
        },
        {
          "distance": 0.6906758,
          "id": 1527823445
        },
        {
          "distance": 0.78426355,
          "id": 1763204845
        },
        {
          "distance": 0.82049876,
          "id": 1779969157
        },
        {
          "distance": 0.8297173,
          "id": 1763204829
        },
        {
          "distance": 0.83360034,
          "id": 1763204847
        },
        {
          "distance": 0.83629036,
          "id": 1527823453
        }
      ],
      "apple/mobileclip_s1": [
        {
          "distance": 0.11839497,
          "id": 1527823407
        },
        {
          "distance": 0.19322076,
          "id": 1527823441
        },
        {
          "distance": 0.25396216,
          "id": 1527823409
        },
        {
          "distance": 0.4178393,
          "id": 1527823405
        },
        {
          "distance": 0.4197474,
          "id": 1527823445
        },
        {
          "distance": 0.55219364,
          "id": 1527823481
        },
        {
          "distance": 0.5566648,
          "id": 1527856235
        },
        {
          "distance": 0.56638205,
          "id": 1763204847
        },
        {
          "distance": 0.5667922,
          "id": 1527823477
        },
        {
          "distance": 0.5689896,
          "id": 1527823369
        }
      ],
      "apple/mobileclip_s2": [
        {
          "distance": 0.1480404,
          "id": 1527823407
        },
        {
          "distance": 0.29848236,
          "id": 1527823441
        },
        {
          "distance": 0.36453354,
          "id": 1527823409
        },
        {
          "distance": 0.5793941,
          "id": 1527823405
        },
        {
          "distance": 0.5980853,
          "id": 1527823445
        },
        {
          "distance": 0.80367416,
          "id": 1527823335
        },
        {
          "distance": 0.8070107,
          "id": 1527823369
        },
        {
          "distance": 0.8070107,
          "id": 1527823373
        },
        {
          "distance": 0.8090451,
          "id": 1527823477
        },
        {
          "distance": 0.8120176,
          "id": 1763204847
        }
      ]
    },
    "millsfield:subcategory_id": 1511213185,
    "mz:hierarchy_label": 1,
    "mz:is_current": -1,
    "sfomuseum:filename": "41569.tif",
    "sfomuseum:image_id": 41569,
    "sfomuseum:image_index": 5,
    "sfomuseum:image_type": "studio",
    "sfomuseum:object_id": 80076,
    "sfomuseum:placetype": "image",
    "sfomuseum:primary_image": 0,
    "src:geom": "sfomuseum",
    "wof:belongsto": [
      1511927341,
      102527513,
      102191575,
      85633793,
      85922583,
      102087579,
      1511214277,
      85688637
    ],
    "wof:breaches": [],
    "wof:country": "XX",
    "wof:created": 1578949902,
    "wof:depicts": [
      1159286621,
      1159283651,
      1511927341
    ],
    "wof:geomhash": "bd906905ce4be6c0651c90b0fc24804c",
    "wof:hierarchy": [
      {
        "building_id": 1511214277,
        "campus_id": 102527513,
        "continent_id": 102191575,
        "country_id": 85633793,
        "county_id": 102087579,
        "custom_id": 1527823439,
        "image_id": 1527823439,
        "locality_id": 85922583,
        "media_id": 1527823439,
        "neighbourhood_id": -1,
        "region_id": 85688637,
        "venue_id": 1511927341
      }
    ],
    "wof:id": 1527823439,
    "wof:lastmodified": 1788449775,
    "wof:name": "airsickness bag: Air Inter",
    "wof:parent_id": 1511927341,
    "wof:placetype": "custom",
    "wof:placetype_alt": [
      "image"
    ],
    "wof:repo": "sfomuseum-data-media-collection",
    "wof:superseded_by": [],
    "wof:supersedes": [],
    "wof:tags": []
  },
  "bbox": [
    -122.386155,
    37.616358,
    -122.386155,
    37.616358
  ],
  "geometry": {"type":"Point","coordinates":[-122.386155,37.616358]}
}
