{
  "id": 2048165113,
  "type": "Feature",
  "properties": {
    "date:cessation_lower": "2022-01-01",
    "date:cessation_upper": "2022-12-31",
    "date:inception_lower": "2022-01-01",
    "date:inception_upper": "2022-12-31",
    "edtf:cessation": "2022",
    "edtf:inception": "2022",
    "geom:area": 2.475047457570636e-7,
    "geom:bbox": "-122.386472,37.616105,-122.385834,37.616611",
    "geom:latitude": 37.61635747477365,
    "geom:longitude": -122.38615540108617,
    "media:fingerprint": "6466c9147a14b147cd8621199951599256ff03da",
    "media:imagehash_avg": "a:ffc3c3c08080c1ff",
    "media:imagehash_diff": "d:1f170f1f03692931",
    "media:imagetext": "KIX-ITM\nCARD\n*1T\nKIX-ITM CARD\n10%\nOFF\n17x-35\n# 10% OFF !\nOsaka\nITAMI Apartional\nAirport\nShaping a New Journey\nKANSAI AIRPORTS",
    "media:imagetext_created": 1787976371,
    "media:imagetext_source": "com.apple.visionkit.VNImageRequestHandler#Version 26.6.2 (Build 25G83)",
    "media:mimetype": "image/tiff",
    "media:properties": {
      "colours": null,
      "sizes": {
        "b": {
          "extension": "jpg",
          "height": 768,
          "mimetype": "image/jpeg",
          "secret": "ImP2DLb9THovRB9NMCg9Nn25z4QsjMTr",
          "width": 551
        },
        "c": {
          "extension": "jpg",
          "height": 600,
          "mimetype": "image/jpeg",
          "secret": "ImP2DLb9THovRB9NMCg9Nn25z4QsjMTr",
          "width": 430
        },
        "dc": {
          "extension": "jpg",
          "height": 320,
          "mimetype": "image/jpeg",
          "secret": "ImP2DLb9THovRB9NMCg9Nn25z4QsjMTr",
          "width": 320
        },
        "ds": {
          "extension": "jpg",
          "height": 320,
          "mimetype": "image/jpeg",
          "secret": "ImP2DLb9THovRB9NMCg9Nn25z4QsjMTr",
          "width": 320
        },
        "k": {
          "extension": "jpg",
          "height": 1536,
          "mimetype": "image/jpeg",
          "secret": "ImP2DLb9THovRB9NMCg9Nn25z4QsjMTr",
          "width": 1102
        },
        "n": {
          "extension": "jpg",
          "height": 240,
          "mimetype": "image/jpeg",
          "secret": "ImP2DLb9THovRB9NMCg9Nn25z4QsjMTr",
          "width": 172
        },
        "o": {
          "extension": "jpg",
          "height": 2050,
          "mimetype": "image/jpeg",
          "secret": "mFiTD1PU0vMIWVHBhur3DRm4PkXmvncD",
          "width": 1471
        },
        "s": {
          "extension": "jpg",
          "height": 320,
          "mimetype": "image/jpeg",
          "secret": "ImP2DLb9THovRB9NMCg9Nn25z4QsjMTr",
          "width": 320
        },
        "z": {
          "extension": "jpg",
          "height": 480,
          "mimetype": "image/jpeg",
          "secret": "ImP2DLb9THovRB9NMCg9Nn25z4QsjMTr",
          "width": 344
        }
      }
    },
    "media:source": "sfomuseum",
    "media:status_id": 1,
    "media:uri_template": "https://static.sfomuseum.org/media/204/816/511/3/2048165113_{secret}_{label}.{extention}",
    "millsfield:airport_id": [
      -1
    ],
    "millsfield:category_id": 1762671311,
    "millsfield:collection_id": 1511214207,
    "millsfield:images_colors": [
      {
        "hex": "#ddd4df",
        "name": "#ddd4df",
        "reference": "marekm4"
      },
      {
        "hex": "#dcdcdc",
        "name": "gainsboro",
        "reference": "css4"
      },
      {
        "hex": "#dbd7d2",
        "name": "Timberwolf",
        "reference": "crayola"
      },
      {
        "hex": "#e8e63e",
        "name": "#e8e63e",
        "reference": "marekm4"
      },
      {
        "hex": "#adff2f",
        "name": "greenyellow",
        "reference": "css4"
      },
      {
        "hex": "#fff44f",
        "name": "Lemon Yellow",
        "reference": "crayola"
      },
      {
        "hex": "#1e2231",
        "name": "#1e2231",
        "reference": "marekm4"
      },
      {
        "hex": "#2f4f4f",
        "name": "darkslategrey",
        "reference": "css4"
      },
      {
        "hex": "#414a4c",
        "name": "Outer Space",
        "reference": "crayola"
      },
      {
        "hex": "#4367ab",
        "name": "#4367ab",
        "reference": "marekm4"
      },
      {
        "hex": "#4682b4",
        "name": "steelblue",
        "reference": "css4"
      },
      {
        "hex": "#324ab2",
        "name": "Violet Blue",
        "reference": "crayola"
      },
      {
        "hex": "#6e8bc4",
        "name": "#6e8bc4",
        "reference": "marekm4"
      },
      {
        "hex": "#6495ed",
        "name": "cornflowerblue",
        "reference": "css4"
      },
      {
        "hex": "#6699cc",
        "name": "Blue Gray",
        "reference": "crayola"
      }
    ],
    "millsfield:images_texts": [
      "BørneLund\n®\n*—*J•*\nzüo k\nEARTH",
      "Уитту!! //\nTAKE\nOUT\nTAMIN\n\u003e GOURMET\n717P4+X=1 -\n\\ good\nTAKE OUT\n555515\nOsaka\nITAMI Alpontonal\nAirport\nShaping a New Journey\nKANSAI AIRPORTS",
      "KIX-ITM\nCARD\n*1T\nKIX-ITM CARD\n10%\nOFF\n17x-35\n# 10% OFF !\nOsaka\nITAMI Apartional\nAirport\nShaping a New Journey\nKANSAI AIRPORTS",
      "[ANAFESTA,\n#05#T\npon pon x Chris. PJ\n½ Best wishes from\n\"ITAMI\n2721187/27282071\n-(21-x3-t-)\n9155+488\n(13-3t)\nI SORAMISE J\n9**3-:ts258\nCheck!\n=55\nOsaka\nITAMI Arportonal\nAirport\nKANSAI\nAIRPORTS"
    ],
    "millsfield:images_texts_ids": [
      2048165107,
      2048165111,
      2048165113,
      2048165117
    ],
    "millsfield:similar": {
      "apple/mobileclip_s0": [
        {
          "distance": 0.7455414,
          "id": 1763380369
        },
        {
          "distance": 0.7688703,
          "id": 1931110253
        },
        {
          "distance": 0.77159566,
          "id": 1763504025
        },
        {
          "distance": 0.77175575,
          "id": 1964107523
        },
        {
          "distance": 0.7774017,
          "id": 1964107081
        },
        {
          "distance": 0.77830786,
          "id": 1763504035
        },
        {
          "distance": 0.778949,
          "id": 1763138539
        },
        {
          "distance": 0.77905124,
          "id": 1762699915
        },
        {
          "distance": 0.78335154,
          "id": 2014778531
        },
        {
          "distance": 0.7835829,
          "id": 2015172977
        }
      ],
      "apple/mobileclip_s1": [
        {
          "distance": 0.58425504,
          "id": 2047987873
        },
        {
          "distance": 0.58425504,
          "id": 2048003273
        },
        {
          "distance": 0.58425504,
          "id": 2048046413
        },
        {
          "distance": 0.58425504,
          "id": 2031679703
        },
        {
          "distance": 0.58425504,
          "id": 2031698875
        },
        {
          "distance": 0.58425504,
          "id": 2031709061
        },
        {
          "distance": 0.58425504,
          "id": 2031726653
        },
        {
          "distance": 0.58425504,
          "id": 2031743023
        },
        {
          "distance": 0.58425504,
          "id": 2031753281
        },
        {
          "distance": 0.58425504,
          "id": 2031763211
        }
      ],
      "apple/mobileclip_s2": [
        {
          "distance": 0.83193433,
          "id": 1763456205
        },
        {
          "distance": 0.8399242,
          "id": 1763504033
        },
        {
          "distance": 0.8429668,
          "id": 1964107705
        },
        {
          "distance": 0.8445122,
          "id": 1763381047
        },
        {
          "distance": 0.84883744,
          "id": 1763138539
        },
        {
          "distance": 0.85022295,
          "id": 1763381053
        },
        {
          "distance": 0.8507065,
          "id": 1763380961
        },
        {
          "distance": 0.85109276,
          "id": 1763456159
        },
        {
          "distance": 0.8581661,
          "id": 1763504039
        },
        {
          "distance": 0.8608083,
          "id": 2014979143
        }
      ]
    },
    "millsfield:subcategory_id": 1511213737,
    "mz:is_current": 1,
    "sfomuseum:filename": "2023.002.037b.tif",
    "sfomuseum:image_id": 284105,
    "sfomuseum:image_index": 0,
    "sfomuseum:image_type": "studio",
    "sfomuseum:object_id": 234144,
    "sfomuseum:placetype": "image",
    "sfomuseum:primary_image": 0,
    "src:geom": "sfomuseum",
    "wof:belongsto": [
      102527513,
      1159162825,
      102191575,
      85633793,
      102087579,
      85922583,
      2048162795,
      85688637,
      1159160869
    ],
    "wof:country": "XY",
    "wof:created": 1787793395,
    "wof:depicts": [
      2048162795
    ],
    "wof:geomhash": "c281b9d9eefc83b5710e64b9d646067d",
    "wof:hierarchy": [
      {
        "building_id": -1,
        "campus_id": 102527513,
        "collection_id": 1159162825,
        "concourse_id": 1159162825,
        "continent_id": 102191575,
        "country_id": 85633793,
        "county_id": 102087579,
        "custom_id": 2048165113,
        "locality_id": 85922583,
        "neighbourhood_id": -1,
        "object_id": 2048162795,
        "region_id": 85688637,
        "wing_id": 1159160869
      }
    ],
    "wof:id": 2048165113,
    "wof:lastmodified": 1788221531,
    "wof:name": "traveler information guide: Osaka International Airport, Itami (ITM)",
    "wof:parent_id": 2048162795,
    "wof:placetype": "custom",
    "wof:repo": "sfomuseum-data-media-collection",
    "wof:superseded_by": [],
    "wof:supersedes": []
  },
  "bbox": [
    -122.38647222518921,
    37.6161053594541,
    -122.38583385944366,
    37.61661101879963
  ],
  "geometry": {"type":"Polygon","coordinates":[[[-122.38647222518921,37.61631782178288],[-122.386434674263,37.61623283692423],[-122.38637566566466,37.61617759671399],[-122.38630056381224,37.6161308549656],[-122.38616108894348,37.6161053594541],[-122.38602161407469,37.6161308549656],[-122.38591432571411,37.61618609521055],[-122.38585531711577,37.61626683087935],[-122.38583385944366,37.61636881265146],[-122.38587141036987,37.61646654505181],[-122.38594114780425,37.61654303118856],[-122.38605380058287,37.61660252035167],[-122.38618254661559,37.61661101879963],[-122.3863059282303,37.61657277577607],[-122.3864185810089,37.61650903735973],[-122.3864668607712,37.61641130501523],[-122.38647222518921,37.61631782178288]]]}
}
