{
  "id": 1830487045,
  "type": "Feature",
  "properties": {
    "date:cessation_lower": "1978-01-01",
    "date:cessation_upper": "1978-12-31",
    "date:inception_lower": "1978-01-01",
    "date:inception_upper": "1978-12-31",
    "edtf:cessation": "1978~",
    "edtf:inception": "1978~",
    "geom:area": 2.477324999997507e-7,
    "geom:bbox": "-122.386472,37.616105,-122.385834,37.616611",
    "geom:latitude": 37.61635756125121,
    "geom:longitude": -122.38615532866096,
    "media:fingerprint": "c9b9d1eab27e931c6d1bfbd38591478a5e6fe0af",
    "media:imagehash_avg": "a:ffffffff80000000",
    "media:imagehash_diff": "d:930727d51107776f",
    "media:imagetext": "N44829\nAmerican Inter-slana",
    "media:imagetext_created": 1787967339,
    "media:imagetext_source": "com.apple.visionkit.VNImageRequestHandler#Version 26.6.2 (Build 25G83)",
    "media:mimetype": "image/tiff",
    "media:properties": {
      "sizes": {
        "b": {
          "extension": "jpg",
          "height": 656,
          "mimetype": "image/jpeg",
          "secret": "IriXLmBv5ZzYBaw0AojN6fuzx38tqdlO",
          "width": 1024
        },
        "c": {
          "extension": "jpg",
          "height": 512,
          "mimetype": "image/jpeg",
          "secret": "IriXLmBv5ZzYBaw0AojN6fuzx38tqdlO",
          "width": 800
        },
        "dc": {
          "extension": "jpg",
          "height": 512,
          "mimetype": "image/jpeg",
          "secret": "IriXLmBv5ZzYBaw0AojN6fuzx38tqdlO",
          "width": 800
        },
        "ds": {
          "extension": "jpg",
          "height": 320,
          "mimetype": "image/jpeg",
          "secret": "IriXLmBv5ZzYBaw0AojN6fuzx38tqdlO",
          "width": 320
        },
        "k": {
          "extension": "jpg",
          "height": 1313,
          "mimetype": "image/jpeg",
          "secret": "IriXLmBv5ZzYBaw0AojN6fuzx38tqdlO",
          "width": 2048
        },
        "n": {
          "extension": "jpg",
          "height": 205,
          "mimetype": "image/jpeg",
          "secret": "IriXLmBv5ZzYBaw0AojN6fuzx38tqdlO",
          "width": 320
        },
        "o": {
          "extension": "jpg",
          "height": 1056,
          "mimetype": "image/jpeg",
          "secret": "ElEIrci6rXBY5kezoXgHa4iIq2RV4R3T",
          "width": 1647
        },
        "s": {
          "extension": "jpg",
          "height": 320,
          "mimetype": "image/jpeg",
          "secret": "IriXLmBv5ZzYBaw0AojN6fuzx38tqdlO",
          "width": 320
        },
        "z": {
          "extension": "jpg",
          "height": 410,
          "mimetype": "image/jpeg",
          "secret": "IriXLmBv5ZzYBaw0AojN6fuzx38tqdlO",
          "width": 640
        }
      }
    },
    "media:source": "sfomuseum",
    "media:status_id": 1,
    "media:uri_template": "https://static.sfomuseum.org/media/183/048/704/5/1830487045_{secret}_{label}.{extension}",
    "millsfield:aircraft_id": [
      1159290205
    ],
    "millsfield:airline_id": [
      1159283849
    ],
    "millsfield:category_id": 1511214215,
    "millsfield:collection_id": 1511214207,
    "millsfield:company_id": [
      1159293605,
      1159290201
    ],
    "millsfield:images_colors": [
      {
        "hex": "#2e3611",
        "name": "#2e3611",
        "reference": "marekm4"
      },
      {
        "hex": "#2f4f4f",
        "name": "darkslategrey",
        "reference": "css4"
      },
      {
        "hex": "#414a4c",
        "name": "Outer Space",
        "reference": "crayola"
      },
      {
        "hex": "#4d9cbf",
        "name": "#4d9cbf",
        "reference": "marekm4"
      },
      {
        "hex": "#4682b4",
        "name": "steelblue",
        "reference": "css4"
      },
      {
        "hex": "#6699cc",
        "name": "Blue Gray",
        "reference": "crayola"
      },
      {
        "hex": "#b7cac2",
        "name": "#b7cac2",
        "reference": "marekm4"
      },
      {
        "hex": "#c0c0c0",
        "name": "silver",
        "reference": "css4"
      },
      {
        "hex": "#b0b7c6",
        "name": "Cadet Blue",
        "reference": "crayola"
      },
      {
        "hex": "#5e8e29",
        "name": "#5e8e29",
        "reference": "marekm4"
      },
      {
        "hex": "#6b8e23",
        "name": "olivedrab",
        "reference": "css4"
      },
      {
        "hex": "#85754e",
        "name": "Gold Fusion",
        "reference": "crayola"
      },
      {
        "hex": "#2871ac",
        "name": "#2871ac",
        "reference": "marekm4"
      },
      {
        "hex": "#2b6cc4",
        "name": "Denim",
        "reference": "crayola"
      }
    ],
    "millsfield:images_texts": [
      "N44829\nAmerican Inter-slana",
      "AMERICAN INTER ISLAND\nCONVAIR 440\nAmerican Airlines established American Inter Island\nlate in 1978 as a wholly owned subsidiary based at\nSt. Croix in the United States Virgin Islands. A fleet\nof\nfive Convair 440s provides connecting\nservice\nto St. Thomas\nfor passengers arriving at St. Croix\non American's jets from the U.S. mainland.\nPhoto by Stephen Piercey\nN44829\nPublished by Aviation World, Inc., P.O. Box 188, Bethel, Conn. 06801 U.S.A.\nc/n\nC-009\n62272-D\npost card\n439\nW01.082.006"
    ],
    "millsfield:images_texts_ids": [
      1830487045,
      1830487061
    ],
    "millsfield:similar": {
      "apple/mobileclip_s0": [
        {
          "distance": 0.4959545,
          "id": 1762708363
        },
        {
          "distance": 0.5102998,
          "id": 1762892255
        },
        {
          "distance": 0.5217718,
          "id": 1762894337
        },
        {
          "distance": 0.525075,
          "id": 1762712611
        },
        {
          "distance": 0.5300056,
          "id": 1527831661
        },
        {
          "distance": 0.53379655,
          "id": 1762712333
        },
        {
          "distance": 0.5354224,
          "id": 1729565861
        },
        {
          "distance": 0.53989667,
          "id": 1762713051
        },
        {
          "distance": 0.5469309,
          "id": 1763442395
        },
        {
          "distance": 0.5473066,
          "id": 1763443327
        }
      ],
      "apple/mobileclip_s1": [
        {
          "distance": 0.3589494,
          "id": 1763443563
        },
        {
          "distance": 0.36882627,
          "id": 1762892255
        },
        {
          "distance": 0.37797922,
          "id": 1762712611
        },
        {
          "distance": 0.3831573,
          "id": 1762898253
        },
        {
          "distance": 0.38832211,
          "id": 1762708363
        },
        {
          "distance": 0.39248103,
          "id": 1762713607
        },
        {
          "distance": 0.39403436,
          "id": 1763443461
        },
        {
          "distance": 0.39465714,
          "id": 1527854587
        },
        {
          "distance": 0.39958778,
          "id": 1527831661
        },
        {
          "distance": 0.4003585,
          "id": 1762898261
        }
      ],
      "apple/mobileclip_s2": [
        {
          "distance": 0.45734796,
          "id": 1763388745
        },
        {
          "distance": 0.46724233,
          "id": 1763443563
        },
        {
          "distance": 0.47399348,
          "id": 1763388755
        },
        {
          "distance": 0.50464094,
          "id": 1762898261
        },
        {
          "distance": 0.5081251,
          "id": 1763443461
        },
        {
          "distance": 0.50973594,
          "id": 1762712611
        },
        {
          "distance": 0.51296777,
          "id": 1762892255
        },
        {
          "distance": 0.51412505,
          "id": 1762898253
        },
        {
          "distance": 0.5141935,
          "id": 1762894337
        },
        {
          "distance": 0.51634645,
          "id": 1763444417
        }
      ]
    },
    "millsfield:subcategory_id": 1511213363,
    "mz:is_current": 1,
    "sfomuseum:filename": "2001.082.006.tif",
    "sfomuseum:image_id": 49329,
    "sfomuseum:image_index": 5,
    "sfomuseum:image_type": "studio",
    "sfomuseum:object_id": 60510,
    "sfomuseum:placetype": "image",
    "sfomuseum:primary_image": 1,
    "src:geom": "sfomuseum",
    "wof:belongsto": [
      102527513,
      1159162825,
      102191575,
      85633793,
      102087579,
      85922583,
      1830487035,
      85688637,
      1159160869
    ],
    "wof:country": "XY",
    "wof:created": 1679127173,
    "wof:depicts": [
      1830487035,
      1159283849,
      1159290205,
      1159293605,
      1159290201
    ],
    "wof:geomhash": "ed7c2ab3547fc3916b5edc33488deaa7",
    "wof:hierarchy": [
      {
        "building_id": -1,
        "campus_id": 102527513,
        "collection_id": 1159162825,
        "concourse_id": 1159162825,
        "continent_id": 102191575,
        "country_id": 85633793,
        "county_id": 102087579,
        "custom_id": 1830487045,
        "image_id": 1830487045,
        "locality_id": 85922583,
        "neighbourhood_id": -1,
        "object_id": 1830487035,
        "region_id": 85688637,
        "wing_id": 1159160869
      }
    ],
    "wof:id": 1830487045,
    "wof:lastmodified": 1788451618,
    "wof:name": "postcard: American Inter-Island Airlines, Convair 440 Metropolitan",
    "wof:parent_id": 1830487035,
    "wof:placetype": "custom",
    "wof:placetype_alt": [
      "image"
    ],
    "wof:repo": "sfomuseum-data-media-collection",
    "wof:superseded_by": [],
    "wof:supersedes": []
  },
  "bbox": [
    -122.386472,
    37.616105,
    -122.385834,
    37.616611
  ],
  "geometry": {"type":"Polygon","coordinates":[[[-122.386472,37.616318],[-122.386435,37.616233],[-122.386376,37.616178],[-122.386301,37.616131],[-122.386161,37.616105],[-122.386022,37.616131],[-122.385914,37.616186],[-122.385855,37.616267],[-122.385834,37.616369],[-122.385871,37.616467],[-122.385941,37.616543],[-122.386054,37.616603],[-122.386183,37.616611],[-122.386306,37.616573],[-122.386419,37.616509],[-122.386467,37.616411],[-122.386472,37.616318]]]}
}
