{
  "id": 1527851291,
  "type": "Feature",
  "properties": {
    "date:cessation_lower": "1976-01-01",
    "date:cessation_upper": "1976-12-31",
    "date:inception_lower": "1976-01-01",
    "date:inception_upper": "1976-12-31",
    "edtf:cessation": "1976",
    "edtf:date": "1976",
    "edtf:inception": "1976",
    "geom:area": 0,
    "geom:bbox": "-122.386155,37.616358,-122.386155,37.616358",
    "geom:latitude": 37.616358,
    "geom:longitude": -122.386155,
    "iso:country": "XX",
    "media:fingerprint": "290b102fb74202675e18018e4663ce450711c939",
    "media:imagehash_avg": "a:ff013923090101bf",
    "media:imagehash_diff": "d:d95bdbdbd355515b",
    "media:imagetext": "Concorde Connections\nTo Washington\nYou'll find that all the flights listed below allow you easy connections with\nBA Flight 578 in Washington:\nCITY AND CODE\nAlbany, NY (ALB)\nAsheville, NC (AVL)\nAtlanta, GA (ATL)\nBaltimore, MD (BAL)\nBoston, MA (BOS)\nBuffalo,\nNY (BUF)\nChampaign, ILL (CMI)\nCharleston, SC (CHS)\nCharleston, WV (CRW)\nCharlotte, NC (CLT)\nCharlottesville, VA (CHO)\nChicago, ILL (CHI)\nCincinnati, OH (CVG)\ncleverano\nOH (CLE)\nColumbia, SC (CAE)\ncolumous.\nColumbus,\nGA\nОН (СМН)\nDallas, TX (DFW)\nDayton, OH (DAY)\nDetroit, MI (DTT)\nEvansville, ILL (EVV)\nFayetteville, NC (FAY)\nFort Lauderdale, FL (FLL)\nGreenville, SC (GSP)\nHartford,\nCN (HFD)\nHouston,\nTX (HOU)\nIndianapolis, IN (IND)\nJacksonville, FL (JAX)\nKansas City\nMO (MCI)\nLansing, Mi\nLexington,\n(LAN)\nKY (LEX)\nLouisville,\nKY\n(SDF)\nLynchburg,\nVA (LYH)\nMiami,\nFL\nMinneapolis,\nMINN (MSP)\nNashville,\n(BNA)\nNew York,\nNY\n(EWR) **\n(LGA) **\n(JFK) **\nFLIGHT\nNO.\nAL 476\nAL 169\nDL\n214\nAL 626\nAA\n621\nUA 565\nOZ 906\nNA 426\nPI\n60\nEA 370\n940\nUA 322\nAA 312\nAA\n400\nUA 908\nEA 588\nSO\nUA\n684\nAA 258\nTW\n530\nUA 442\nEA\n139\n40\n96\n409\nAA 236\nA 878\nTW 374\nUA 908\nEA 504\nPI\n139\n980\nEA 158\n304\nAA 258\nBN\n107\nSO 713\nAA\n055\nDEP.\n0900\n0820\n0745\n0910\n0700\n0820\n0800\n0910\n0805\n0815\n0715\n0640\n0745\n0830\n0950\n0615\n0915\n0714\n0735\n0804\nUSUU\n0755\nUSSU\n0847\n0820\n0812\n0909\n073/\n0805\n0740\n0835\n1000\n1050\n0845\nARRIVAL\nAIRPORT\n1057*\n1015ф\n0959*\n0190*\n1050*\n1048\n1043\n0856*\n0954\n0918\n0856\n1100\n0938\n0913*\n1048\n1100\n1020\n0914\n1020\n0902\n1017\n0859\n0910ф\n1150\n1014\n1022\n1100\n09\n20\n1020\n1050*\n1100\n1110\n1003\n00222\nNorfolk,\nVA\nOrlando,\n(ORF)\nFLA (MCO)\nPeoria.\n(PIA)\nPhiladelphia,\nPittsburgh,\nPA\n(PHL)\nPA (PIT)\nPortland, ME (PWM)\nProvidence,\nRI (PVD)\nRichmond, VA (RIC)\nNA\n404\nTW\nPPPS\n99\n638\nUA 59\n0927\n0900\n1035\n0825\n0729\n1035\n1016'\n1045\n1043\n1136\n1042\n0840*\n**Perfect connections for passengers from the New York area\n• at an amazingly low\nincrease in air fare over the Washington - London air fare. Ask your travel agent!\nCITY AND CODE\nRoanoke, VA (ROA\nRochester NY(ROCI\nSt. Louis, MO (STL)\nSyracuse,\nTampa, FLA (TPA)\nTrenton, NY (TEN)\nWest Palm Beach, FLA (PBI)\nWhite Plains, NY (HPN)\nWilkes Barre, PA (AVP)\nWilmington, NC (ILM)\nWinston-Salem, NC (INT)\nN = National Airport\nFLIGHT\nNO.\n984\nAL ZU/\nTW 374\nNA 428\nAL 3/1\nEA 175\n46\nPI\nDEP.\n0925\n0815\nUNISS\n0820\n0754\n0845\n0715\n0725\nD = Dulles Airport\n* = No Sunday Operation\nARRIVAL\n1023\n0945*\n1100\nUSU\n1004\n1017\n0927\n0902\n0855\nAIRPORT\n22222\nSundays only\nConcorde Connections\nFrom Washington\nAll passengers arriving Washington from London on BA Flight 579 can easily\nconnect with the following flights to major cities in the United States.\nCITY AND CODE\nAtlanta, GA (ATL)\nAlbany, NY (ALB)\nBaltimore, MD (BAL)\nBoston, MA (BOS)\nBristol, TN (TRI)\nBuffalo, NY (BUF)\nBurlington, VT (BTV)\nChampaign, IL (CMI)\nCharleston, SC (CHS)\nCharlotte. NC (CLT)\nAIRLINE\nAND\nFLIGHT\nNO.\nDL\nAL\n226\nAL 625\nEA\nPI\n372\n037\nUA\n139\nAL\n226\nOZ 531\nNA\n421*\nDEP.\nDULLES\n(IAD)\nDEP.\nNATIONAL\n(DCA)\nARRIVE\n1400\n1358\n1525\n1453\n1359\n1415\n1410\n1525\n1530\n1626\n1513\n1514\n1515\n1602\n1719\n1355\n1554\n1510\nChicago, ILL (CHI)\nCincinnati, OH (CVG)\nClevelane. Or CLe\nColumbus, OH (CH)\nDallas, TX (DFW)\nDayton, OH (DAY)\nDenver, CO (DEN)\nDetroit, MI (DTT)\nFayetteville, NC (FAY)\nHartford, CONN (BDL)\nHouston. TX (HOU\nIndianapolis, IN (IND)\nKansas Citv. MO (MCI)\nLexington/Frankfort, KY (LEX)\nLouisville, KY (SDF)\nMiami, FL (MIA)\nMemphis, TN (TENN)\nMilwaukee, WIS (KE)\nMinneapolis, MINN (MSP)\nUA\n247\nAA\n294\nUA 847\nAA\n369\nTW 373*\nUA 727\nOZ 531\nNW 361\n009\nAL 158\nDL 323\nAA 471\nUA 585\nPI\n027\nEA 177\nNW 361\n669*\n1400\n1455\n1355\n1540\n1550\n1520\n1540\n1530\n1520\n1440\n1358\n1540\n1405\n1405\n1445\nSOU\nTOUU\n1700\n1649\n1636\n1659\n1700\n1649\n1541\n1558\nCITY AND CODE\nMyrtle Beach, SC (MYR)\nNashville, TENN (BNA)\nNew York, NY (JFK)\nNew York, NY (LGA)\nNew York, NY (EWR)\nNorfolk, VA (ORF)\nPeoria, ILL (PIA)\nPhiladelphia, PA (PHL)\nPhoenix, ARIZ(PHX)\nPittsburgh, PA (PIT)\nProvidence, RI (PVD)\nRaleigh/Durham, NC (RDU)\nRoanoke. VAlKOA,\nRochester, NY (ROC)\nSt. Louis, MO (STL)\nSavannah, GA (SAV)\nWichita, KA (ICT)\nWilkes-Barre/Scranton, PA (AVP)\n*No Sat. Operation\nAIRLINE\nAND\nFLIGHT\nNO.\nPI 009\nAA 369\nBN 104\nPI\n30\nEAL SHUTTLE\nEA 538\nPI 019\nOZ 531\nAL. 711*•\nNW 351\nAL\nPI\n019\nUA\n139\nTW 459\nNA 421*\nTW 217\nEA 146\nDEP.\nDEP.\nDULLES NATIONAL\nLUCA\n1410\n1435\n1455\n1400\n1400\n1459\n1350\n1500\n1435\n1555\n1440\n1350\n1410\n1400\n1425\nConcorde Connections\nTo London\nFrom Britain-Europe and Middle East\nPassengers travelling from major cities may connect with Concorde Flight\nBA 579 in London from any of the following services:\nCITY AND CODE\nAberdeen (ABZ)\nAIRLINE\nAND\nFLIGHT\nNO.\nBE 8557\nDEP.\n0930\n0215\nARRIVAL\nTIME\n(HEATHROW)\n1045 Daily ex Su\nARRIVE\n1657\n1442\n1550\n1546\n1500\n1551\n1433\n1555\n1648\n1530\n1533\n1711\n1510\nAbu Dhabi (DXB)\nAmsterdam (AMS)\nAthens (ATH)\nBahrain (BAH)\nBasle (BSL)\nBe tasters)\nBerlin (BER)\nKremeNiKK-\nBrussels (BRU)\nCologne/Bonn (CGN)\nCopenhagen (CH)\nCorfu (CFU)\nDoha (DOH)\nDublin (DUB)\nDusseldorf (DUS)\nEdinburgh (EDI)\nGF 121\nBE 205\nBE 453\nBA 889\nBA 301\nBA 889\nBA 835\nSR 822\nBE 4559\nBE 639\nLH 046\nBE 267\nLH 056\nOA 253\nBA 813\nBE\n505\nBE 639\nBE 4733\n0105\n1015\n1115\n0225\n0945\n0345\n0225\n0755\nUNCU\n0900\n0830\n0930\n0420\n1000\n1035\n0940\n0645 Su\n1115 Daily\n1145 Daily\n0725 T F Su\n1205 T Th SST\n0845 M W Sa\n0725 Th\n0925 Daily\n1045 Daily\n1150 Daily via DUS\n1050 Dailv ex Su\n0930 Daily ex Su\n1110 Daily ex Sa Su\n0950 Daily\n1120 Daily\n1035 Sa\n1105 Daily ex Su\nTo bally\n1050 Daily",
    "media:imagetext_created": 1787953202,
    "media:imagetext_source": "com.apple.visionkit.VNImageRequestHandler#Version 26.6.2 (Build 25G83)",
    "media:medium": "image",
    "media:mimetype": "image/tiff",
    "media:properties": {
      "sizes": {
        "b": {
          "extension": "jpg",
          "height": 553,
          "mimetype": "image/jpeg",
          "secret": "DvNsEzBPtfDxKJXfY42z6hWAv1VjtHPZ",
          "width": 1024
        },
        "c": {
          "extension": "jpg",
          "height": 432,
          "mimetype": "image/jpeg",
          "secret": "DvNsEzBPtfDxKJXfY42z6hWAv1VjtHPZ",
          "width": 800
        },
        "dc": {
          "extension": "jpg",
          "height": 432,
          "mimetype": "image/jpeg",
          "secret": "DvNsEzBPtfDxKJXfY42z6hWAv1VjtHPZ",
          "width": 800
        },
        "ds": {
          "extension": "jpg",
          "height": 320,
          "mimetype": "image/jpeg",
          "secret": "DvNsEzBPtfDxKJXfY42z6hWAv1VjtHPZ",
          "width": 320
        },
        "k": {
          "extension": "jpg",
          "height": 1106,
          "mimetype": "image/jpeg",
          "secret": "DvNsEzBPtfDxKJXfY42z6hWAv1VjtHPZ",
          "width": 2048
        },
        "n": {
          "extension": "jpg",
          "height": 172,
          "mimetype": "image/jpeg",
          "secret": "DvNsEzBPtfDxKJXfY42z6hWAv1VjtHPZ",
          "width": 320
        },
        "o": {
          "extension": "jpg",
          "height": 2449,
          "mimetype": "image/jpeg",
          "secret": "fWVtgx6w1pse01RsBG4wrFY7lrk4CMq4",
          "width": 4531
        },
        "s": {
          "extension": "jpg",
          "height": 320,
          "mimetype": "image/jpeg",
          "secret": "DvNsEzBPtfDxKJXfY42z6hWAv1VjtHPZ",
          "width": 320
        },
        "z": {
          "extension": "jpg",
          "height": 345,
          "mimetype": "image/jpeg",
          "secret": "DvNsEzBPtfDxKJXfY42z6hWAv1VjtHPZ",
          "width": 640
        }
      }
    },
    "media:source": "sfomuseum",
    "media:status_id": 1,
    "media:uri_template": "https://static.sfomuseum.org/media/152/785/129/1/1527851291_{secret}_{label}.{extension}",
    "millsfield:aircraft_id": [
      1159290173
    ],
    "millsfield:airline_id": [
      1159284021
    ],
    "millsfield:category_id": 1511214223,
    "millsfield:collection_id": 1511214207,
    "millsfield:company_id": [
      1159287729
    ],
    "millsfield:exhibition_ids": [
      1796996495
    ],
    "millsfield:images_colors": [
      {
        "hex": "#f4f1e1",
        "name": "#f4f1e1",
        "reference": "marekm4"
      },
      {
        "hex": "#f5f5dc",
        "name": "beige",
        "reference": "css4"
      },
      {
        "hex": "#fddde6",
        "name": "Piggy Pink",
        "reference": "crayola"
      },
      {
        "hex": "#3238b0",
        "name": "#3238b0",
        "reference": "marekm4"
      },
      {
        "hex": "#483d8b",
        "name": "darkslateblue",
        "reference": "css4"
      },
      {
        "hex": "#324ab2",
        "name": "Violet Blue",
        "reference": "crayola"
      }
    ],
    "millsfield:images_texts": [
      "British\nairways\nConcorde\nComplete Concorde\nFlight Schedule\nThis schedule includes convenient connecting U. S. flights to and\nfrom Washington, D. C. for departure or arrival on Concorde. It\nalso lists connecting flights between London and other cities on\nthe European continent.\nPlease remember that all flight schedules are subject to change and\nshould be confirmed as your final plans are made.\nThe Concorde\nDaylight Flights\nBA 578\nConcorde departs Washington, D. C. each Sunday and Friday at\n1245 p.m. and arrives in London at 2135 p.m.\nBA 579\nConcorde leaves London each Thursday and Saturday at 1300 p.m.\nand arrives in Washington, D. C. at 1150 a.m.",
      "Concorde Connections\nTo Washington\nYou'll find that all the flights listed below allow you easy connections with\nBA Flight 578 in Washington:\nCITY AND CODE\nAlbany, NY (ALB,\nBaltimore, MD (BAL\nButtao, NY (BUF\nChicago, ILL (CHI)\nCincinnati, OH ToVE\nFLIGHTI\nARRIVAL\nAIRPORT\nAL 476\nD1914\n626\nLouisia, KY (SD)\nburg, VA (LYH\nMINN (MSP\nNew York. NY\nEGA)*:\nJFK/H\nProvidence, RI (PVD)\nRichmond, VA (RIC)\nNA 404\nOL 90\nUA 59\n383\n**Perfect cont\nnections for pass\nangers from the New York area\n• . at an amazingly Tow\nincrease in air fare over the Washington - London air fare. Ask your travel agent!\nFLIGHT\nCITY AND CODE\nDEP\nARRIVAL\nAIRPORTI\nhoanoke, VA (HUAI\n102S\n8888868\n1030\nNG (INT)\n2222222222\nN = National Airport\nD = Dules Airport\n* = No Sunday Operation\no sundays only\nConcorde Connections\nFrom Washington\nAll passengers arriving Washington from London on BA Flight 579 can easily\nconnect with the following flights to major cities in the United States.\nAIRLINE\nFLIGHT\nCITY AND CODE\nDEP\nDULLES NATIONAL\n(IAD)\n(DUA\nARRIVE\n325:52833\n193U\n1525\n1400\nDallas. TX (DFW\nDayton, OH (DAY)\nDetroit, Mi (DTT)\n\"CONN EDY)\n1400\n1530\nIN (INCI\nkfort. KY (LEX\n1455\nCITY AND CODE\nMyrtle Beach, SC (MYR\nNEW YORK: MY LGAI\nAIRLINE\nFLIGHT\nNO.\nDULLES NATIONAL\n(IAD)\n(OCA\n1401\nARRIVE\n1657\n1550\n1390\n1400\nWilkes Barre/Scranton, PA (AVP)\nF2Ru\n\"No sat. Operation\nConcorde Connections\n10 London\nFrom Britain-Europe and Middle East\nPassengers travelling from major cities may connect with Concorde Flight\nBAS 79 i London trom anv or the following services.\nAIRLINE\nAND\nFLIGHT\nARRIVAL\nCITY AND CODE\nDEP\nBE 8557\nSE 138\n(HEATHROW)\n1045 Daily ex Su\n0650 F\nAmens AT (AMS)\nBahrain (BAH)\n(RESI\n0830\nEdinburgh (EDI)\nBE 4733\n0940"
    ],
    "millsfield:images_texts_ids": [
      1527845641,
      1527851291
    ],
    "millsfield:on_view": 0,
    "millsfield:similar": {
      "apple/mobileclip_s0": [
        {
          "distance": 0.3928102,
          "id": 1527835739
        },
        {
          "distance": 0.4131414,
          "id": 1527845659
        },
        {
          "distance": 0.4285835,
          "id": 1527839067
        },
        {
          "distance": 0.43225232,
          "id": 1527837951
        },
        {
          "distance": 0.43886292,
          "id": 1527844555
        },
        {
          "distance": 0.4425209,
          "id": 1527847845
        },
        {
          "distance": 0.44409814,
          "id": 1527854709
        },
        {
          "distance": 0.46016628,
          "id": 1762698299
        },
        {
          "distance": 0.46143103,
          "id": 1527838669
        },
        {
          "distance": 0.46186396,
          "id": 1527851293
        }
      ],
      "apple/mobileclip_s1": [
        {
          "distance": 0.30443746,
          "id": 1527845659
        },
        {
          "distance": 0.317959,
          "id": 1527846355
        },
        {
          "distance": 0.31832948,
          "id": 1527854709
        },
        {
          "distance": 0.32128742,
          "id": 1763196205
        },
        {
          "distance": 0.32215247,
          "id": 1763196457
        },
        {
          "distance": 0.3270447,
          "id": 1527835739
        },
        {
          "distance": 0.33560884,
          "id": 1527844555
        },
        {
          "distance": 0.33713722,
          "id": 1527837951
        },
        {
          "distance": 0.337588,
          "id": 1763248997
        },
        {
          "distance": 0.3377631,
          "id": 1527854779
        }
      ],
      "apple/mobileclip_s2": [
        {
          "distance": 0.4042507,
          "id": 1527854717
        },
        {
          "distance": 0.4067318,
          "id": 1763196061
        },
        {
          "distance": 0.42566717,
          "id": 1762698299
        },
        {
          "distance": 0.44659692,
          "id": 1527851293
        },
        {
          "distance": 0.45182028,
          "id": 1527845659
        },
        {
          "distance": 0.45634007,
          "id": 1527847899
        },
        {
          "distance": 0.45922154,
          "id": 1527854709
        },
        {
          "distance": 0.4608424,
          "id": 1527839067
        },
        {
          "distance": 0.46129057,
          "id": 1527835739
        },
        {
          "distance": 0.4629389,
          "id": 1527847921
        }
      ]
    },
    "millsfield:subcategory_id": 1511213425,
    "mz:hierarchy_label": 1,
    "mz:is_current": -1,
    "sfomuseum:filename": "82977.tif",
    "sfomuseum:image_id": 82977,
    "sfomuseum:image_index": 5,
    "sfomuseum:image_type": "studio",
    "sfomuseum:object_id": 75955,
    "sfomuseum:placetype": "image",
    "sfomuseum:primary_image": 0,
    "src:geom": "sfomuseum",
    "wof:belongsto": [
      1511214223,
      1511925461,
      102527513,
      102191575,
      85633793,
      1511213425,
      85922583,
      102087579,
      1511214277,
      1511214203,
      85688637
    ],
    "wof:breaches": [],
    "wof:country": "XX",
    "wof:created": 1578954334,
    "wof:depicts": [
      1159287729,
      1159284021,
      1511925461,
      1159290173,
      1159293811
    ],
    "wof:geomhash": "bd906905ce4be6c0651c90b0fc24804c",
    "wof:hierarchy": [
      {
        "arcade_id": 1511213425,
        "building_id": 1511214277,
        "campus_id": 102527513,
        "concourse_id": 1511214223,
        "continent_id": 102191575,
        "country_id": 85633793,
        "county_id": 102087579,
        "custom_id": 1527851291,
        "image_id": 1527851291,
        "locality_id": 85922583,
        "media_id": 1527851291,
        "neighbourhood_id": -1,
        "region_id": 85688637,
        "venue_id": 1511925461,
        "wing_id": 1511214203
      }
    ],
    "wof:id": 1527851291,
    "wof:lastmodified": 1774079236,
    "wof:name": "timetable: British Airways",
    "wof:parent_id": 1511925461,
    "wof:placetype": "custom",
    "wof:placetype_alt": [
      "image"
    ],
    "wof:repo": "sfomuseum-data-media-collection",
    "wof:superseded_by": [],
    "wof:supersedes": [],
    "wof:tags": []
  },
  "bbox": [
    -122.386155,
    37.616358,
    -122.386155,
    37.616358
  ],
  "geometry": {"type":"Point","coordinates":[-122.386155,37.616358]}
}
