{
  "id": 1796503265,
  "type": "Feature",
  "properties": {
    "date:cessation_lower": "2000-01-01",
    "date:cessation_upper": "2009-12-31",
    "date:inception_lower": "2000-01-01",
    "date:inception_upper": "2009-12-31",
    "edtf:cessation": "200X",
    "edtf:inception": "200X",
    "geom:area": 2.477324999997507e-7,
    "geom:bbox": "-122.386472,37.616105,-122.385834,37.616611",
    "geom:latitude": 37.61635756125121,
    "geom:longitude": -122.38615532866096,
    "media:fingerprint": "03b2badb02926f519d0de0505e4c8ad3353eb619",
    "media:imagehash_avg": "a:830081ffffe7c7c7",
    "media:imagehash_diff": "d:0f4b0f1c1c0e0e0e",
    "media:mimetype": "image/jpeg",
    "media:properties": {
      "sizes": {
        "b": {
          "extension": "jpg",
          "height": 768,
          "mimetype": "image/jpeg",
          "secret": "5YrgqI724ztTJUoDWEoiT1GgREpga71i",
          "width": 171
        },
        "c": {
          "extension": "jpg",
          "height": 600,
          "mimetype": "image/jpeg",
          "secret": "5YrgqI724ztTJUoDWEoiT1GgREpga71i",
          "width": 134
        },
        "dc": {
          "extension": "jpg",
          "height": 600,
          "mimetype": "image/jpeg",
          "secret": "5YrgqI724ztTJUoDWEoiT1GgREpga71i",
          "width": 134
        },
        "ds": {
          "extension": "jpg",
          "height": 320,
          "mimetype": "image/jpeg",
          "secret": "5YrgqI724ztTJUoDWEoiT1GgREpga71i",
          "width": 320
        },
        "k": {
          "extension": "jpg",
          "height": 1536,
          "mimetype": "image/jpeg",
          "secret": "5YrgqI724ztTJUoDWEoiT1GgREpga71i",
          "width": 343
        },
        "n": {
          "extension": "jpg",
          "height": 240,
          "mimetype": "image/jpeg",
          "secret": "5YrgqI724ztTJUoDWEoiT1GgREpga71i",
          "width": 53
        },
        "o": {
          "extension": "jpg",
          "height": 2144,
          "mimetype": "image/jpeg",
          "secret": "djerwd7Z10WUB26BRkOBOlKcFJDeCmxU",
          "width": 479
        },
        "s": {
          "extension": "jpg",
          "height": 320,
          "mimetype": "image/jpeg",
          "secret": "5YrgqI724ztTJUoDWEoiT1GgREpga71i",
          "width": 320
        },
        "z": {
          "extension": "jpg",
          "height": 480,
          "mimetype": "image/jpeg",
          "secret": "5YrgqI724ztTJUoDWEoiT1GgREpga71i",
          "width": 107
        }
      }
    },
    "media:source": "sfomuseum",
    "media:status_id": 1,
    "media:uri_template": "https://static.sfomuseum.org/media/179/650/326/5/1796503265_{secret}_{label}.{extension}",
    "millsfield:airline_id": [
      1159284127
    ],
    "millsfield:category_id": 1746152551,
    "millsfield:collection_id": 1511214203,
    "millsfield:company_id": [
      1159286837
    ],
    "millsfield:images_colors": [
      {
        "hex": "#e0e2e2",
        "name": "#e0e2e2",
        "reference": "marekm4"
      },
      {
        "hex": "#dcdcdc",
        "name": "gainsboro",
        "reference": "css4"
      },
      {
        "hex": "#dbd7d2",
        "name": "Timberwolf",
        "reference": "crayola"
      },
      {
        "hex": "#373a3b",
        "name": "#373a3b",
        "reference": "marekm4"
      },
      {
        "hex": "#2f4f4f",
        "name": "darkslategrey",
        "reference": "css4"
      },
      {
        "hex": "#414a4c",
        "name": "Outer Space",
        "reference": "crayola"
      }
    ],
    "millsfield:similar": {
      "apple/mobileclip_s0": [
        {
          "distance": 0.283656,
          "id": 1796503269
        },
        {
          "distance": 0.5012658,
          "id": 1796472079
        },
        {
          "distance": 0.50884694,
          "id": 1746680201
        },
        {
          "distance": 0.51818734,
          "id": 1796465027
        },
        {
          "distance": 0.5458022,
          "id": 1796472109
        },
        {
          "distance": 0.5463929,
          "id": 1796472083
        },
        {
          "distance": 0.5644039,
          "id": 1796465023
        },
        {
          "distance": 0.5663934,
          "id": 1796465035
        },
        {
          "distance": 0.58014613,
          "id": 1796476585
        },
        {
          "distance": 0.5807393,
          "id": 1796472089
        }
      ],
      "apple/mobileclip_s1": [
        {
          "distance": 0.23137568,
          "id": 1796503269
        },
        {
          "distance": 0.40554404,
          "id": 1796472079
        },
        {
          "distance": 0.41184348,
          "id": 1796465023
        },
        {
          "distance": 0.42258632,
          "id": 1796472101
        },
        {
          "distance": 0.44788042,
          "id": 1796472089
        },
        {
          "distance": 0.4523873,
          "id": 1796472109
        },
        {
          "distance": 0.45956722,
          "id": 1796484677
        },
        {
          "distance": 0.4670114,
          "id": 1796465035
        },
        {
          "distance": 0.4750615,
          "id": 1746680201
        },
        {
          "distance": 0.47772276,
          "id": 1796472097
        }
      ],
      "apple/mobileclip_s2": [
        {
          "distance": 0.21084587,
          "id": 1796503269
        },
        {
          "distance": 0.54251325,
          "id": 1796465023
        },
        {
          "distance": 0.54290473,
          "id": 1796472089
        },
        {
          "distance": 0.5478926,
          "id": 1796472109
        },
        {
          "distance": 0.5614043,
          "id": 1796476611
        },
        {
          "distance": 0.5670346,
          "id": 1796472079
        },
        {
          "distance": 0.57555354,
          "id": 1796465027
        },
        {
          "distance": 0.58000267,
          "id": 1796476609
        },
        {
          "distance": 0.581228,
          "id": 1796476585
        },
        {
          "distance": 0.5863028,
          "id": 1796597049
        }
      ]
    },
    "millsfield:subcategory_id": 1511213417,
    "mz:is_current": 1,
    "sfomuseum:filename": "16868.JPG",
    "sfomuseum:image_id": 16868,
    "sfomuseum:image_index": 1,
    "sfomuseum:image_type": "curator",
    "sfomuseum:object_id": 85331,
    "sfomuseum:placetype": "image",
    "sfomuseum:primary_image": 1,
    "src:geom": "sfomuseum",
    "wof:belongsto": [
      102527513,
      1159162825,
      102191575,
      85633793,
      102087579,
      85922583,
      1796503013,
      85688637,
      1159160869
    ],
    "wof:country": "XY",
    "wof:created": 1666857214,
    "wof:depicts": [
      1159284127,
      1159286837,
      1796503013
    ],
    "wof:geomhash": "ed7c2ab3547fc3916b5edc33488deaa7",
    "wof:hierarchy": [
      {
        "building_id": -1,
        "campus_id": 102527513,
        "collection_id": 1159162825,
        "concourse_id": 1159162825,
        "continent_id": 102191575,
        "country_id": 85633793,
        "county_id": 102087579,
        "custom_id": 1796503265,
        "image_id": 1796503265,
        "locality_id": 85922583,
        "neighbourhood_id": -1,
        "object_id": 1796503013,
        "region_id": 85688637,
        "wing_id": 1159160869
      }
    ],
    "wof:id": 1796503265,
    "wof:lastmodified": 1788451545,
    "wof:name": "spoon: Cathay Pacific Airways",
    "wof:parent_id": 1796503013,
    "wof:placetype": "custom",
    "wof:placetype_alt": [
      "image"
    ],
    "wof:repo": "sfomuseum-data-media-collection",
    "wof:superseded_by": [],
    "wof:supersedes": []
  },
  "bbox": [
    -122.386472,
    37.616105,
    -122.385834,
    37.616611
  ],
  "geometry": {"type":"Polygon","coordinates":[[[-122.386472,37.616318],[-122.386435,37.616233],[-122.386376,37.616178],[-122.386301,37.616131],[-122.386161,37.616105],[-122.386022,37.616131],[-122.385914,37.616186],[-122.385855,37.616267],[-122.385834,37.616369],[-122.385871,37.616467],[-122.385941,37.616543],[-122.386054,37.616603],[-122.386183,37.616611],[-122.386306,37.616573],[-122.386419,37.616509],[-122.386467,37.616411],[-122.386472,37.616318]]]}
}
