{
  "id": 1527850435,
  "type": "Feature",
  "properties": {
    "date:cessation_lower": "1986-01-01",
    "date:cessation_upper": "1986-12-31",
    "date:inception_lower": "1986-01-01",
    "date:inception_upper": "1986-12-31",
    "edtf:cessation": "1986",
    "edtf:date": "1986",
    "edtf:inception": "1986",
    "geom:area": 0,
    "geom:bbox": "-122.386155,37.616358,-122.386155,37.616358",
    "geom:latitude": 37.616358,
    "geom:longitude": -122.386155,
    "iso:country": "XX",
    "media:fingerprint": "be8508ddc8a33a93bfd8ac3dea0de85ea555374e",
    "media:imagehash_avg": "a:ffdfc187008f8fff",
    "media:imagehash_diff": "d:4b1f153f2d3c1c38",
    "media:imagetext": "billete de pasaje y control de equipaje\nLAS CONDICIONES DEL CONTRATO DE TRANSPORTE ESTAN\nIMPRESAS DENTRO DE ESTE BILLETE DE PASAJE.\n143-1 5793711",
    "media:imagetext_created": 1787952984,
    "media:imagetext_source": "com.apple.visionkit.VNImageRequestHandler#Version 26.6.2 (Build 25G83)",
    "media:medium": "image",
    "media:mimetype": "image/tiff",
    "media:properties": {
      "sizes": {
        "b": {
          "extension": "jpg",
          "height": 423,
          "mimetype": "image/jpeg",
          "secret": "iPHlKYoaDFl1Y3wiI2IfdsYy53VLcYeT",
          "width": 1024
        },
        "c": {
          "extension": "jpg",
          "height": 330,
          "mimetype": "image/jpeg",
          "secret": "iPHlKYoaDFl1Y3wiI2IfdsYy53VLcYeT",
          "width": 800
        },
        "dc": {
          "extension": "jpg",
          "height": 330,
          "mimetype": "image/jpeg",
          "secret": "iPHlKYoaDFl1Y3wiI2IfdsYy53VLcYeT",
          "width": 800
        },
        "ds": {
          "extension": "jpg",
          "height": 320,
          "mimetype": "image/jpeg",
          "secret": "iPHlKYoaDFl1Y3wiI2IfdsYy53VLcYeT",
          "width": 320
        },
        "k": {
          "extension": "jpg",
          "height": 846,
          "mimetype": "image/jpeg",
          "secret": "iPHlKYoaDFl1Y3wiI2IfdsYy53VLcYeT",
          "width": 2048
        },
        "n": {
          "extension": "jpg",
          "height": 132,
          "mimetype": "image/jpeg",
          "secret": "iPHlKYoaDFl1Y3wiI2IfdsYy53VLcYeT",
          "width": 320
        },
        "o": {
          "extension": "jpg",
          "height": 1012,
          "mimetype": "image/jpeg",
          "secret": "kZqTmeQmFsio64Wz7Dw0b58nk7a8CMAs",
          "width": 2449
        },
        "s": {
          "extension": "jpg",
          "height": 320,
          "mimetype": "image/jpeg",
          "secret": "iPHlKYoaDFl1Y3wiI2IfdsYy53VLcYeT",
          "width": 320
        },
        "z": {
          "extension": "jpg",
          "height": 264,
          "mimetype": "image/jpeg",
          "secret": "iPHlKYoaDFl1Y3wiI2IfdsYy53VLcYeT",
          "width": 640
        }
      }
    },
    "media:source": "sfomuseum",
    "media:status_id": 1,
    "media:uri_template": "https://static.sfomuseum.org/media/152/785/043/5/1527850435_{secret}_{label}.{extension}",
    "millsfield:airline_id": [
      1863623767,
      1863623767,
      1863623767,
      1863623767
    ],
    "millsfield:category_id": 1511214223,
    "millsfield:collection_id": 1511214207,
    "millsfield:company_id": [
      1159287149
    ],
    "millsfield:images_colors": [
      {
        "hex": "#f9f5ea",
        "name": "#f9f5ea",
        "reference": "marekm4"
      },
      {
        "hex": "#fdf5e6",
        "name": "oldlace",
        "reference": "css4"
      },
      {
        "hex": "#ffffff",
        "name": "White",
        "reference": "crayola"
      },
      {
        "hex": "#090d4d",
        "name": "#090d4d",
        "reference": "marekm4"
      },
      {
        "hex": "#191970",
        "name": "midnightblue",
        "reference": "css4"
      },
      {
        "hex": "#1a4876",
        "name": "Midnight Blue",
        "reference": "crayola"
      },
      {
        "hex": "#d9250c",
        "name": "#d9250c",
        "reference": "marekm4"
      },
      {
        "hex": "#b22222",
        "name": "firebrick",
        "reference": "css4"
      },
      {
        "hex": "#ff2b2b",
        "name": "Orange Red",
        "reference": "crayola"
      }
    ],
    "millsfield:images_texts": [
      "billete de pasaje y control de equipaje\nLAS CONDICIONES DEL CONTRATO DE TRANSPORTE ESTAN\nIMPRESAS DENTRO DE ESTE BILLETE DE PASAJE.\n143-1 5793711",
      "billete de pasaje y control de equipaje\nLAS CONDICIONES DEL CONTRATO DE TRANSPORTE ESTAN\nIMPRESAS DENTRO DE ESTE BILLETE DE PASAJE.\n143-1 5793711",
      "V\nN° DE SU ASIENTO\n6 A\nYOUR SEAT NUMBER\nTARJETA\nDE EMBARCO\nBOARDING PASS\nAUSTRAL"
    ],
    "millsfield:images_texts_ids": [
      1527850435,
      1527858601,
      1527858605
    ],
    "millsfield:similar": {
      "apple/mobileclip_s0": [
        {
          "distance": 0.23684973,
          "id": 1527858601
        },
        {
          "distance": 0.72976923,
          "id": 1762698759
        },
        {
          "distance": 0.7333268,
          "id": 1527839857
        },
        {
          "distance": 0.76083493,
          "id": 1527850397
        },
        {
          "distance": 0.76235557,
          "id": 1779503035
        },
        {
          "distance": 0.76662356,
          "id": 1762698751
        },
        {
          "distance": 0.7685743,
          "id": 1914580023
        },
        {
          "distance": 0.77522385,
          "id": 1914556255
        },
        {
          "distance": 0.7758755,
          "id": 1527853233
        },
        {
          "distance": 0.77755487,
          "id": 1527837717
        }
      ],
      "apple/mobileclip_s1": [
        {
          "distance": 0.13707356,
          "id": 1527858601
        },
        {
          "distance": 0.5263921,
          "id": 1762698759
        },
        {
          "distance": 0.5349883,
          "id": 1913891077
        },
        {
          "distance": 0.55467135,
          "id": 1527839857
        },
        {
          "distance": 0.55728817,
          "id": 1762713931
        },
        {
          "distance": 0.55760646,
          "id": 1964107005
        },
        {
          "distance": 0.5603435,
          "id": 1527837729
        },
        {
          "distance": 0.56069416,
          "id": 1527853233
        },
        {
          "distance": 0.56166494,
          "id": 1527837685
        },
        {
          "distance": 0.5649931,
          "id": 1964107517
        }
      ],
      "apple/mobileclip_s2": [
        {
          "distance": 0.24260011,
          "id": 1527858601
        },
        {
          "distance": 0.7571114,
          "id": 1527839857
        },
        {
          "distance": 0.7737792,
          "id": 1931110539
        },
        {
          "distance": 0.7792074,
          "id": 1931110293
        },
        {
          "distance": 0.7797184,
          "id": 1763196249
        },
        {
          "distance": 0.78203315,
          "id": 1914580021
        },
        {
          "distance": 0.7831764,
          "id": 1527850441
        },
        {
          "distance": 0.78421557,
          "id": 1762697635
        },
        {
          "distance": 0.7846609,
          "id": 1527835885
        },
        {
          "distance": 0.78941447,
          "id": 1913891077
        }
      ]
    },
    "millsfield:subcategory_id": 1511213421,
    "mz:hierarchy_label": 1,
    "mz:is_current": -1,
    "sfomuseum:filename": "2007.011.113.001a.tif",
    "sfomuseum:image_id": 81548,
    "sfomuseum:image_index": 5,
    "sfomuseum:image_type": "studio",
    "sfomuseum:object_id": 84428,
    "sfomuseum:placetype": "image",
    "sfomuseum:primary_image": 0,
    "src:geom": "sfomuseum",
    "wof:belongsto": [
      1511214223,
      1511929453,
      102527513,
      102191575,
      85633793,
      1511213421,
      85922583,
      102087579,
      1511214277,
      1511214203,
      85688637
    ],
    "wof:breaches": [],
    "wof:country": "XX",
    "wof:created": 1578954189,
    "wof:depicts": [
      1863623767,
      1159287149,
      1511929453,
      1159283581
    ],
    "wof:geomhash": "bd906905ce4be6c0651c90b0fc24804c",
    "wof:hierarchy": [
      {
        "arcade_id": 1511213421,
        "building_id": 1511214277,
        "campus_id": 102527513,
        "concourse_id": 1511214223,
        "continent_id": 102191575,
        "country_id": 85633793,
        "county_id": 102087579,
        "custom_id": 1527850435,
        "image_id": 1527850435,
        "locality_id": 85922583,
        "media_id": 1527850435,
        "neighbourhood_id": -1,
        "region_id": 85688637,
        "venue_id": 1511929453,
        "wing_id": 1511214203
      }
    ],
    "wof:id": 1527850435,
    "wof:lastmodified": 1788450175,
    "wof:name": "ticket: Air Austral",
    "wof:parent_id": 1511929453,
    "wof:placetype": "custom",
    "wof:placetype_alt": [
      "image"
    ],
    "wof:repo": "sfomuseum-data-media-collection",
    "wof:superseded_by": [],
    "wof:supersedes": [],
    "wof:tags": []
  },
  "bbox": [
    -122.386155,
    37.616358,
    -122.386155,
    37.616358
  ],
  "geometry": {"type":"Point","coordinates":[-122.386155,37.616358]}
}
