{
  "id": 1913802825,
  "type": "Feature",
  "properties": {
    "date:cessation_lower": "1966-11-08",
    "date:cessation_upper": "1966-11-08",
    "date:inception_lower": "1966-11-08",
    "date:inception_upper": "1966-11-08",
    "edtf:cessation": "1966-11-08",
    "edtf:inception": "1966-11-08",
    "geom:area": 2.477324999997507e-7,
    "geom:bbox": "-122.386472,37.616105,-122.385834,37.616611",
    "geom:latitude": 37.61635756125121,
    "geom:longitude": -122.38615532866096,
    "media:fingerprint": "29c71bfb9df34e42f5b970347580bc9915d544de",
    "media:imagehash_avg": "a:ffff81818183ffff",
    "media:imagehash_diff": "d:e2a23f0b3b0fcee8",
    "media:imagetext": "Scotts Cove\nDarien, Conn.\nNov. 8, I966\nDear Debby:\nI have just talked to Harvin McFarland, by phone, at\nthe Library of Congress.\nHe says he remembers well discussing\nwith Bix the question of the gift of letters, papers, records,\netc., and that the process you are following 1d the correct\nThe shipment should be addressed to Mr. Jennings wood,\nProcessing Department, Exchange and Gift Division, as you\nwere planning on doing. Mofarland will contact Mr. Wood to\nalert him for the arrival of the shipment. I said you would\nprobably send it within days or at most\nfew weeks.\nMe Parland advises that Jou write a letter to Mr. Wood\nat the same time the papers are shipped. He says you w111\nthen receive an acmowledgement from the Library together\nwith a gift-form for your signature - the routine procedure.\nam glad these papers are going to the Library of\nCongress, and do not feel they could be sent to a better\nplace.\nThey will form a very valuable part of the records\nof the period of American, and world-wide development which\nHarold's life spanned and influenced in a quiet but extra-\nordinary way.\nsurpe Lone, ang that to old\nnot to dosa get tother top te an\nNew York for an evening.\nvery much Anne and I can come and see you there sometime.\nBest wishes always,\nChank",
    "media:imagetext_created": 1787972902,
    "media:imagetext_source": "com.apple.visionkit.VNImageRequestHandler#Version 26.6.2 (Build 25G83)",
    "media:mimetype": "image/tiff",
    "media:properties": {
      "sizes": {
        "b": {
          "extension": "jpg",
          "height": 768,
          "mimetype": "image/jpeg",
          "secret": "kVCMzIybRMaIDhdnblrzke4ywuLXge6A",
          "width": 587
        },
        "c": {
          "extension": "jpg",
          "height": 600,
          "mimetype": "image/jpeg",
          "secret": "kVCMzIybRMaIDhdnblrzke4ywuLXge6A",
          "width": 459
        },
        "dc": {
          "extension": "jpg",
          "height": 600,
          "mimetype": "image/jpeg",
          "secret": "kVCMzIybRMaIDhdnblrzke4ywuLXge6A",
          "width": 459
        },
        "ds": {
          "extension": "jpg",
          "height": 320,
          "mimetype": "image/jpeg",
          "secret": "kVCMzIybRMaIDhdnblrzke4ywuLXge6A",
          "width": 320
        },
        "k": {
          "extension": "jpg",
          "height": 1536,
          "mimetype": "image/jpeg",
          "secret": "kVCMzIybRMaIDhdnblrzke4ywuLXge6A",
          "width": 1175
        },
        "n": {
          "extension": "jpg",
          "height": 240,
          "mimetype": "image/jpeg",
          "secret": "kVCMzIybRMaIDhdnblrzke4ywuLXge6A",
          "width": 183
        },
        "o": {
          "extension": "jpg",
          "height": 2000,
          "mimetype": "image/jpeg",
          "secret": "DhzUEuM9xMCmLSN1GFsFQ5xmFrsatoQT",
          "width": 1530
        },
        "s": {
          "extension": "jpg",
          "height": 320,
          "mimetype": "image/jpeg",
          "secret": "kVCMzIybRMaIDhdnblrzke4ywuLXge6A",
          "width": 320
        },
        "z": {
          "extension": "jpg",
          "height": 480,
          "mimetype": "image/jpeg",
          "secret": "kVCMzIybRMaIDhdnblrzke4ywuLXge6A",
          "width": 367
        }
      }
    },
    "media:source": "sfomuseum",
    "media:status_id": 1,
    "media:uri_template": "https://static.sfomuseum.org/media/191/380/282/5/1913802825_{secret}_{label}.{extension}",
    "millsfield:category_id": 1511214251,
    "millsfield:collection_id": 1511214207,
    "millsfield:images_colors": [
      {
        "hex": "#edede3",
        "name": "#edede3",
        "reference": "marekm4"
      },
      {
        "hex": "#f5f5dc",
        "name": "beige",
        "reference": "css4"
      },
      {
        "hex": "#fddde6",
        "name": "Piggy Pink",
        "reference": "crayola"
      },
      {
        "hex": "#4c4e46",
        "name": "#4c4e46",
        "reference": "marekm4"
      },
      {
        "hex": "#2f4f4f",
        "name": "darkslategrey",
        "reference": "css4"
      },
      {
        "hex": "#414a4c",
        "name": "Outer Space",
        "reference": "crayola"
      }
    ],
    "millsfield:images_texts": [
      "Scotts Cove\nDarien, Conn.\nNov. 8, 1966\nDear Debby:\nI have just talked to Marvin McFarland, by phone, at\nthe Library of Congress.\nHe says he remembers well discussing\nwith Bix the question of the gift of letters, papers, records,\netc., and that the process you are following id the correct\none•\nThe shipment should be addressed to Mr. Jennings Wood,\nProcessing Department, Exchange and Gift Division, as Jou\nwere planning on doing. McFarland will contact Mr. Wood to\nalert him for the arrival of the shipment.\nI said you would\nprobably send it within days or at most a\nfew weeks.\nMcFarland advises that you write a letter to Mr. Wood\nat the same time the papers are shipped. He says you will\nthen receive an acknowledgement from the Library together\nwith a gift-form for your signature -- the routine procedure.\nI am glad these papers are going to the Library of\nCongress, and do not feel they could be sent to a better\nplace.\nThey will form a very valuable part of the records\nof the period of American, and world-wide development which\nHarold's life spanned and\ninfluenced in a quiet but extra-\nordinary way.\nIt was really good to hear from you this morning and\nto be in contact again.\nI wish I were not leaving for\nEurope tonight, and that we could get together here or in\nNew York for an evening.\nMany thanks for your invitation to Captiva. It is,\nas I said, years since I have been on the island. I hope\nvery much Anne and I can come and see you there sometime.\nBest wishes always,\nChanen",
      "Scotts Cove\nDarien, Conn.\nNov. 8, I966\nDear Debby:\nI have just talked to Harvin McFarland, by phone, at\nthe Library of Congress.\nHe says he remembers well discussing\nwith Bix the question of the gift of letters, papers, records,\netc., and that the process you are following 1d the correct\nThe shipment should be addressed to Mr. Jennings wood,\nProcessing Department, Exchange and Gift Division, as you\nwere planning on doing. Mofarland will contact Mr. Wood to\nalert him for the arrival of the shipment. I said you would\nprobably send it within days or at most\nfew weeks.\nMe Parland advises that Jou write a letter to Mr. Wood\nat the same time the papers are shipped. He says you w111\nthen receive an acmowledgement from the Library together\nwith a gift-form for your signature - the routine procedure.\nam glad these papers are going to the Library of\nCongress, and do not feel they could be sent to a better\nplace.\nThey will form a very valuable part of the records\nof the period of American, and world-wide development which\nHarold's life spanned and influenced in a quiet but extra-\nordinary way.\nsurpe Lone, ang that to old\nnot to dosa get tother top te an\nNew York for an evening.\nvery much Anne and I can come and see you there sometime.\nBest wishes always,\nChank",
      "U.S. AIR MAIL\n1966\n06820\nVIA AIR MAIL\nCORREO AEREO\nMrs. Harold M. Bixby\nCaptiva Island\nFlorida\nDo not forward.\nHold for arrival.\nPAR\nAVION"
    ],
    "millsfield:images_texts_ids": [
      1913802823,
      1913802825,
      1913802827
    ],
    "millsfield:similar": {
      "apple/mobileclip_s0": [
        {
          "distance": 0.29503104,
          "id": 1913802823
        },
        {
          "distance": 0.31225586,
          "id": 1913800661
        },
        {
          "distance": 0.320877,
          "id": 1913796935
        },
        {
          "distance": 0.3284114,
          "id": 1913799415
        },
        {
          "distance": 0.32942772,
          "id": 1913799133
        },
        {
          "distance": 0.33510593,
          "id": 1913823097
        },
        {
          "distance": 0.3367672,
          "id": 1527856863
        },
        {
          "distance": 0.34693012,
          "id": 1762897123
        },
        {
          "distance": 0.34735218,
          "id": 1913801569
        },
        {
          "distance": 0.3497143,
          "id": 1913799115
        }
      ],
      "apple/mobileclip_s1": [
        {
          "distance": 0.19919667,
          "id": 1913802823
        },
        {
          "distance": 0.22490887,
          "id": 1527856765
        },
        {
          "distance": 0.2445605,
          "id": 1796996975
        },
        {
          "distance": 0.2460699,
          "id": 1762897125
        },
        {
          "distance": 0.2466331,
          "id": 1762897151
        },
        {
          "distance": 0.24816732,
          "id": 1762897063
        },
        {
          "distance": 0.25159052,
          "id": 1762897117
        },
        {
          "distance": 0.251848,
          "id": 1762897173
        },
        {
          "distance": 0.2539991,
          "id": 1913802863
        },
        {
          "distance": 0.2580896,
          "id": 1762897153
        }
      ],
      "apple/mobileclip_s2": [
        {
          "distance": 0.30120897,
          "id": 1913802823
        },
        {
          "distance": 0.31910893,
          "id": 1762897175
        },
        {
          "distance": 0.32295758,
          "id": 1913799913
        },
        {
          "distance": 0.32342568,
          "id": 1762897151
        },
        {
          "distance": 0.3247085,
          "id": 1762897173
        },
        {
          "distance": 0.32637545,
          "id": 1913799095
        },
        {
          "distance": 0.33293408,
          "id": 1762897187
        },
        {
          "distance": 0.33365935,
          "id": 1762897147
        },
        {
          "distance": 0.33390304,
          "id": 1762897123
        },
        {
          "distance": 0.3339234,
          "id": 1913799939
        }
      ]
    },
    "millsfield:subcategory_id": 1511213489,
    "mz:is_current": 1,
    "sfomuseum:filename": "2019.121.1307b.tif",
    "sfomuseum:image_id": 243616,
    "sfomuseum:image_index": 5,
    "sfomuseum:image_type": "studio",
    "sfomuseum:object_id": 211960,
    "sfomuseum:placetype": "image",
    "sfomuseum:primary_image": 0,
    "src:geom": "sfomuseum",
    "wof:belongsto": [
      102527513,
      1159162825,
      102191575,
      85633793,
      102087579,
      85922583,
      1913795495,
      85688637,
      1159160869
    ],
    "wof:country": "XY",
    "wof:created": 1714552189,
    "wof:depicts": [
      1913795495
    ],
    "wof:geomhash": "ed7c2ab3547fc3916b5edc33488deaa7",
    "wof:hierarchy": [
      {
        "building_id": -1,
        "campus_id": 102527513,
        "collection_id": 1159162825,
        "concourse_id": 1159162825,
        "continent_id": 102191575,
        "country_id": 85633793,
        "county_id": 102087579,
        "custom_id": 1913802825,
        "image_id": 1913802825,
        "locality_id": 85922583,
        "neighbourhood_id": -1,
        "object_id": 1913795495,
        "region_id": 85688637,
        "wing_id": 1159160869
      }
    ],
    "wof:id": 1913802825,
    "wof:lastmodified": 1788220483,
    "wof:name": "correspondence: Charles A. Lindbergh to Debby Bixby",
    "wof:parent_id": 1913795495,
    "wof:placetype": "custom",
    "wof:placetype_alt": [
      "image"
    ],
    "wof:repo": "sfomuseum-data-media-collection",
    "wof:superseded_by": [],
    "wof:supersedes": []
  },
  "bbox": [
    -122.386472,
    37.616105,
    -122.385834,
    37.616611
  ],
  "geometry": {"type":"Polygon","coordinates":[[[-122.386472,37.616318],[-122.386435,37.616233],[-122.386376,37.616178],[-122.386301,37.616131],[-122.386161,37.616105],[-122.386022,37.616131],[-122.385914,37.616186],[-122.385855,37.616267],[-122.385834,37.616369],[-122.385871,37.616467],[-122.385941,37.616543],[-122.386054,37.616603],[-122.386183,37.616611],[-122.386306,37.616573],[-122.386419,37.616509],[-122.386467,37.616411],[-122.386472,37.616318]]]}
}
