{
  "id": 1527840259,
  "type": "Feature",
  "properties": {
    "date:cessation_lower": "1999-01-01",
    "date:cessation_upper": "1999-12-31",
    "date:inception_lower": "1999-01-01",
    "date:inception_upper": "1999-12-31",
    "edtf:cessation": "1999",
    "edtf:date": "1999",
    "edtf:inception": "1999",
    "geom:area": 0,
    "geom:bbox": "-122.386155,37.616358,-122.386155,37.616358",
    "geom:latitude": 37.616358,
    "geom:longitude": -122.386155,
    "iso:country": "XX",
    "media:fingerprint": "f89f02de939461e49d5871d05ffa00e5c6ca35d4",
    "media:imagehash_avg": "a:000008fffff80000",
    "media:imagehash_diff": "d:416170b2cec06836",
    "media:imagetext": "A Delta AirLines\nWorldwide Timetable\nEffective December 1, 1999\nA Delta e› ticket\nThe 'e makes it easier.",
    "media:imagetext_created": 1787950852,
    "media:imagetext_source": "com.apple.visionkit.VNImageRequestHandler#Version 26.6.2 (Build 25G83)",
    "media:medium": "image",
    "media:mimetype": "image/tiff",
    "media:properties": {
      "sizes": {
        "b": {
          "extension": "jpg",
          "height": 767,
          "mimetype": "image/jpeg",
          "secret": "g5YbMv1MeLv9LFanXvzPlslmsNmJ1Z2t",
          "width": 352
        },
        "c": {
          "extension": "jpg",
          "height": 600,
          "mimetype": "image/jpeg",
          "secret": "g5YbMv1MeLv9LFanXvzPlslmsNmJ1Z2t",
          "width": 275
        },
        "dc": {
          "extension": "jpg",
          "height": 600,
          "mimetype": "image/jpeg",
          "secret": "g5YbMv1MeLv9LFanXvzPlslmsNmJ1Z2t",
          "width": 275
        },
        "ds": {
          "extension": "jpg",
          "height": 320,
          "mimetype": "image/jpeg",
          "secret": "g5YbMv1MeLv9LFanXvzPlslmsNmJ1Z2t",
          "width": 320
        },
        "k": {
          "extension": "jpg",
          "height": 1535,
          "mimetype": "image/jpeg",
          "secret": "g5YbMv1MeLv9LFanXvzPlslmsNmJ1Z2t",
          "width": 704
        },
        "n": {
          "extension": "jpg",
          "height": 240,
          "mimetype": "image/jpeg",
          "secret": "g5YbMv1MeLv9LFanXvzPlslmsNmJ1Z2t",
          "width": 110
        },
        "o": {
          "extension": "jpg",
          "height": 2687,
          "mimetype": "image/jpeg",
          "secret": "cwOAsNifRyZYghHng32bzrkX6WPLJ3jI",
          "width": 1232
        },
        "s": {
          "extension": "jpg",
          "height": 320,
          "mimetype": "image/jpeg",
          "secret": "g5YbMv1MeLv9LFanXvzPlslmsNmJ1Z2t",
          "width": 320
        },
        "z": {
          "extension": "jpg",
          "height": 480,
          "mimetype": "image/jpeg",
          "secret": "g5YbMv1MeLv9LFanXvzPlslmsNmJ1Z2t",
          "width": 220
        }
      }
    },
    "media:source": "sfomuseum",
    "media:status_id": 1,
    "media:uri_template": "https://static.sfomuseum.org/media/152/784/025/9/1527840259_{secret}_{label}.{extension}",
    "millsfield:airline_id": [
      1159284261
    ],
    "millsfield:category_id": 1511214223,
    "millsfield:collection_id": 1511214207,
    "millsfield:company_id": [
      1159287931
    ],
    "millsfield:images_colors": [
      {
        "hex": "#080a76",
        "name": "#080a76",
        "reference": "marekm4"
      },
      {
        "hex": "#000080",
        "name": "navy",
        "reference": "css4"
      },
      {
        "hex": "#1a4876",
        "name": "Midnight Blue",
        "reference": "crayola"
      },
      {
        "hex": "#dae0ed",
        "name": "#dae0ed",
        "reference": "marekm4"
      },
      {
        "hex": "#dcdcdc",
        "name": "gainsboro",
        "reference": "css4"
      },
      {
        "hex": "#c5d0e6",
        "name": "Periwinkle",
        "reference": "crayola"
      },
      {
        "hex": "#101586",
        "name": "#101586",
        "reference": "marekm4"
      },
      {
        "hex": "#191970",
        "name": "midnightblue",
        "reference": "css4"
      }
    ],
    "millsfield:images_texts": [
      "A Delta AirLines\nWorldwide Timetable\nEffective December 1, 1999\nA Delta e› ticket\nThe 'e makes it easier."
    ],
    "millsfield:images_texts_ids": [
      1527840259
    ],
    "millsfield:similar": {
      "apple/mobileclip_s0": [
        {
          "distance": 0.72580385,
          "id": 1527840859
        },
        {
          "distance": 0.73266506,
          "id": 1762897319
        },
        {
          "distance": 0.7618199,
          "id": 1527840851
        },
        {
          "distance": 0.76219785,
          "id": 1763249203
        },
        {
          "distance": 0.76331556,
          "id": 1762897323
        },
        {
          "distance": 0.7649286,
          "id": 1527818763
        },
        {
          "distance": 0.7670537,
          "id": 1527846769
        },
        {
          "distance": 0.76764023,
          "id": 1762700611
        },
        {
          "distance": 0.768955,
          "id": 1527842949
        },
        {
          "distance": 0.7690095,
          "id": 1527847365
        }
      ],
      "apple/mobileclip_s1": [
        {
          "distance": 0.60744447,
          "id": 1863354899
        },
        {
          "distance": 0.6200333,
          "id": 1762714963
        },
        {
          "distance": 0.62756133,
          "id": 1762700611
        },
        {
          "distance": 0.6301026,
          "id": 1527818763
        },
        {
          "distance": 0.63266915,
          "id": 1762700011
        },
        {
          "distance": 0.6339601,
          "id": 1527842181
        },
        {
          "distance": 0.6353724,
          "id": 1527842953
        },
        {
          "distance": 0.6368142,
          "id": 1762897319
        },
        {
          "distance": 0.637168,
          "id": 1762700621
        },
        {
          "distance": 0.6373088,
          "id": 1527846767
        }
      ],
      "apple/mobileclip_s2": [
        {
          "distance": 0.78600043,
          "id": 1762699121
        },
        {
          "distance": 0.79073924,
          "id": 1762698761
        },
        {
          "distance": 0.7951735,
          "id": 1863354899
        },
        {
          "distance": 0.8004745,
          "id": 1527847365
        },
        {
          "distance": 0.8027353,
          "id": 1762701105
        },
        {
          "distance": 0.80681366,
          "id": 1527846773
        },
        {
          "distance": 0.8077552,
          "id": 1762699435
        },
        {
          "distance": 0.80780524,
          "id": 1762698003
        },
        {
          "distance": 0.80800474,
          "id": 1762697999
        },
        {
          "distance": 0.81338954,
          "id": 1527838131
        }
      ]
    },
    "millsfield:subcategory_id": 1511213425,
    "mz:hierarchy_label": 1,
    "mz:is_current": -1,
    "sfomuseum:filename": "2003.105.047.028.tif",
    "sfomuseum:image_id": 66354,
    "sfomuseum:image_index": 5,
    "sfomuseum:image_type": "studio",
    "sfomuseum:object_id": 100132,
    "sfomuseum:placetype": "image",
    "sfomuseum:primary_image": 1,
    "src:geom": "sfomuseum",
    "wof:belongsto": [
      1511214223,
      1511939153,
      102527513,
      102191575,
      85633793,
      1511213425,
      85922583,
      102087579,
      1511214277,
      1511214203,
      85688637
    ],
    "wof:breaches": [],
    "wof:country": "XX",
    "wof:created": 1578952525,
    "wof:depicts": [
      1159287931,
      1511939153,
      1159284261
    ],
    "wof:geomhash": "bd906905ce4be6c0651c90b0fc24804c",
    "wof:hierarchy": [
      {
        "arcade_id": 1511213425,
        "building_id": 1511214277,
        "campus_id": 102527513,
        "concourse_id": 1511214223,
        "continent_id": 102191575,
        "country_id": 85633793,
        "county_id": 102087579,
        "custom_id": 1527840259,
        "image_id": 1527840259,
        "locality_id": 85922583,
        "media_id": 1527840259,
        "neighbourhood_id": -1,
        "region_id": 85688637,
        "venue_id": 1511939153,
        "wing_id": 1511214203
      }
    ],
    "wof:id": 1527840259,
    "wof:lastmodified": 1788450015,
    "wof:name": "timetable: Delta Air Lines",
    "wof:parent_id": 1511939153,
    "wof:placetype": "custom",
    "wof:placetype_alt": [
      "image"
    ],
    "wof:repo": "sfomuseum-data-media-collection",
    "wof:superseded_by": [],
    "wof:supersedes": [],
    "wof:tags": []
  },
  "bbox": [
    -122.386155,
    37.616358,
    -122.386155,
    37.616358
  ],
  "geometry": {"type":"Point","coordinates":[-122.386155,37.616358]}
}
