{
  "id": 1762699927,
  "type": "Feature",
  "properties": {
    "date:cessation_lower": "1983-01-01",
    "date:cessation_upper": "1983-12-31",
    "date:inception_lower": "1983-01-01",
    "date:inception_upper": "1983-12-31",
    "edtf:cessation": "1983",
    "edtf:inception": "1983",
    "geom:area": 2.477324999997507e-7,
    "geom:bbox": "-122.386472,37.616105,-122.385834,37.616611",
    "geom:latitude": 37.61635756125121,
    "geom:longitude": -122.38615532866096,
    "media:fingerprint": "69dc471f2f38d405bef5e3d66c4106ab1247f7e6",
    "media:imagehash_avg": "a:80befefefe9e1e00",
    "media:imagehash_diff": "d:1b7860c020303872",
    "media:imagetext": "Lufthansa\nFirst Class\nauf allen Lufthansa-Flügen\non all Lufthansa flights\nen todos los vuelos de Lufthansa\nFlugplan\nTimetable\nHorario\n01 Nov 83 - 24 Mar 84",
    "media:imagetext_created": 1787955988,
    "media:imagetext_source": "com.apple.visionkit.VNImageRequestHandler#Version 26.6.2 (Build 25G83)",
    "media:mimetype": "image/tiff",
    "media:properties": {
      "sizes": {
        "b": {
          "extension": "jpg",
          "height": 768,
          "mimetype": "image/jpeg",
          "secret": "3K48gzo8SLpE6Y2fSdOzVprzkCfqHXPg",
          "width": 423
        },
        "c": {
          "extension": "jpg",
          "height": 599,
          "mimetype": "image/jpeg",
          "secret": "3K48gzo8SLpE6Y2fSdOzVprzkCfqHXPg",
          "width": 330
        },
        "dc": {
          "extension": "jpg",
          "height": 599,
          "mimetype": "image/jpeg",
          "secret": "3K48gzo8SLpE6Y2fSdOzVprzkCfqHXPg",
          "width": 330
        },
        "ds": {
          "extension": "jpg",
          "height": 320,
          "mimetype": "image/jpeg",
          "secret": "3K48gzo8SLpE6Y2fSdOzVprzkCfqHXPg",
          "width": 320
        },
        "k": {
          "extension": "jpg",
          "height": 1536,
          "mimetype": "image/jpeg",
          "secret": "3K48gzo8SLpE6Y2fSdOzVprzkCfqHXPg",
          "width": 847
        },
        "n": {
          "extension": "jpg",
          "height": 240,
          "mimetype": "image/jpeg",
          "secret": "3K48gzo8SLpE6Y2fSdOzVprzkCfqHXPg",
          "width": 132
        },
        "o": {
          "extension": "jpg",
          "height": 2373,
          "mimetype": "image/jpeg",
          "secret": "edBLEHiJoU1t9PQ1mzIDNQtdwrBvasM8",
          "width": 1309
        },
        "s": {
          "extension": "jpg",
          "height": 320,
          "mimetype": "image/jpeg",
          "secret": "3K48gzo8SLpE6Y2fSdOzVprzkCfqHXPg",
          "width": 320
        },
        "z": {
          "extension": "jpg",
          "height": 480,
          "mimetype": "image/jpeg",
          "secret": "3K48gzo8SLpE6Y2fSdOzVprzkCfqHXPg",
          "width": 264
        }
      }
    },
    "media:source": "sfomuseum",
    "media:status_id": 1,
    "media:uri_template": "https://static.sfomuseum.org/media/176/269/992/7/1762699927_{secret}_{label}.{extension}",
    "millsfield:airline_id": [
      1159284711
    ],
    "millsfield:category_id": 1511214223,
    "millsfield:collection_id": 1511214207,
    "millsfield:company_id": [
      1159288215
    ],
    "millsfield:images_colors": [
      {
        "hex": "#f68d05",
        "name": "#f68d05",
        "reference": "marekm4"
      },
      {
        "hex": "#ff8c00",
        "name": "darkorange",
        "reference": "css4"
      },
      {
        "hex": "#ff7538",
        "name": "Orange",
        "reference": "crayola"
      },
      {
        "hex": "#2a202d",
        "name": "#2a202d",
        "reference": "marekm4"
      },
      {
        "hex": "#2f4f4f",
        "name": "darkslategrey",
        "reference": "css4"
      },
      {
        "hex": "#414a4c",
        "name": "Outer Space",
        "reference": "crayola"
      },
      {
        "hex": "#d6c9ae",
        "name": "#d6c9ae",
        "reference": "marekm4"
      },
      {
        "hex": "#c0c0c0",
        "name": "silver",
        "reference": "css4"
      },
      {
        "hex": "#cdc5c2",
        "name": "Silver",
        "reference": "crayola"
      },
      {
        "hex": "#c5730b",
        "name": "#c5730b",
        "reference": "marekm4"
      },
      {
        "hex": "#b8860b",
        "name": "darkgoldenrod",
        "reference": "css4"
      },
      {
        "hex": "#c46210",
        "name": "Alloy Orange",
        "reference": "crayola"
      }
    ],
    "millsfield:images_texts": [
      "Lufthansa\nFirst Class\nauf allen Lufthansa-Flügen\non all Lufthansa flights\nen todos los vuelos de Lufthansa\nFlugplan\nTimetable\nHorario\n01 Nov 83 - 24 Mar 84"
    ],
    "millsfield:images_texts_ids": [
      1762699927
    ],
    "millsfield:similar": {
      "apple/mobileclip_s0": [
        {
          "distance": 0.26811224,
          "id": 1527841311
        },
        {
          "distance": 0.28296906,
          "id": 1527841219
        },
        {
          "distance": 0.3019694,
          "id": 1527841335
        },
        {
          "distance": 0.5040265,
          "id": 1762699925
        },
        {
          "distance": 0.5116167,
          "id": 1527841307
        },
        {
          "distance": 0.51669204,
          "id": 1527841301
        },
        {
          "distance": 0.5176213,
          "id": 1527841345
        },
        {
          "distance": 0.52802724,
          "id": 1527841207
        },
        {
          "distance": 0.5380138,
          "id": 1527841353
        },
        {
          "distance": 0.53803223,
          "id": 1527841399
        }
      ],
      "apple/mobileclip_s1": [
        {
          "distance": 0.16343458,
          "id": 1527841311
        },
        {
          "distance": 0.201454,
          "id": 1527841335
        },
        {
          "distance": 0.22139858,
          "id": 1527841219
        },
        {
          "distance": 0.3976119,
          "id": 1527841353
        },
        {
          "distance": 0.4125267,
          "id": 1527841301
        },
        {
          "distance": 0.4236246,
          "id": 1527841297
        },
        {
          "distance": 0.4247025,
          "id": 1762699925
        },
        {
          "distance": 0.42492843,
          "id": 1527841223
        },
        {
          "distance": 0.43114442,
          "id": 1527841345
        },
        {
          "distance": 0.4336884,
          "id": 1527841307
        }
      ],
      "apple/mobileclip_s2": [
        {
          "distance": 0.24655454,
          "id": 1527841311
        },
        {
          "distance": 0.285915,
          "id": 1527841335
        },
        {
          "distance": 0.31049582,
          "id": 1527841219
        },
        {
          "distance": 0.5436153,
          "id": 1527841301
        },
        {
          "distance": 0.56364906,
          "id": 1527841207
        },
        {
          "distance": 0.56991816,
          "id": 1527841353
        },
        {
          "distance": 0.5836342,
          "id": 1527841291
        },
        {
          "distance": 0.58689284,
          "id": 1527841223
        },
        {
          "distance": 0.58699787,
          "id": 1527841327
        },
        {
          "distance": 0.58867794,
          "id": 1527841297
        }
      ]
    },
    "millsfield:subcategory_id": 1511213425,
    "mz:is_current": 1,
    "sfomuseum:filename": "2014.084.0809.tif",
    "sfomuseum:image_id": 103736,
    "sfomuseum:image_index": 5,
    "sfomuseum:image_type": "studio",
    "sfomuseum:object_id": 157334,
    "sfomuseum:placetype": "image",
    "sfomuseum:primary_image": 1,
    "src:geom": "sfomuseum",
    "wof:belongsto": [
      102527513,
      1159162825,
      102191575,
      85633793,
      102087579,
      85922583,
      1762691421,
      85688637,
      1159160869
    ],
    "wof:country": "XY",
    "wof:created": 1641346256,
    "wof:depicts": [
      1159284711,
      1159288215,
      1762691421
    ],
    "wof:geomhash": "ed7c2ab3547fc3916b5edc33488deaa7",
    "wof:hierarchy": [
      {
        "building_id": -1,
        "campus_id": 102527513,
        "collection_id": 1159162825,
        "concourse_id": 1159162825,
        "continent_id": 102191575,
        "country_id": 85633793,
        "county_id": 102087579,
        "custom_id": 1762699927,
        "image_id": 1762699927,
        "locality_id": 85922583,
        "neighbourhood_id": -1,
        "object_id": 1762691421,
        "region_id": 85688637,
        "wing_id": 1159160869
      }
    ],
    "wof:id": 1762699927,
    "wof:lastmodified": 1788450444,
    "wof:name": "timetable: Lufthansa",
    "wof:parent_id": 1762691421,
    "wof:placetype": "custom",
    "wof:placetype_alt": [
      "image"
    ],
    "wof:repo": "sfomuseum-data-media-collection",
    "wof:superseded_by": [],
    "wof:supersedes": []
  },
  "bbox": [
    -122.386472,
    37.616105,
    -122.385834,
    37.616611
  ],
  "geometry": {"type":"Polygon","coordinates":[[[-122.386472,37.616318],[-122.386435,37.616233],[-122.386376,37.616178],[-122.386301,37.616131],[-122.386161,37.616105],[-122.386022,37.616131],[-122.385914,37.616186],[-122.385855,37.616267],[-122.385834,37.616369],[-122.385871,37.616467],[-122.385941,37.616543],[-122.386054,37.616603],[-122.386183,37.616611],[-122.386306,37.616573],[-122.386419,37.616509],[-122.386467,37.616411],[-122.386472,37.616318]]]}
}
