{
  "id": 1527847661,
  "type": "Feature",
  "properties": {
    "date:cessation_lower": "1987-01-01",
    "date:cessation_upper": "1987-12-31",
    "date:inception_lower": "1987-01-01",
    "date:inception_upper": "1987-12-31",
    "edtf:cessation": "1987",
    "edtf:date": "1987",
    "edtf:inception": "1987",
    "geom:area": 0,
    "geom:bbox": "-122.386155,37.616358,-122.386155,37.616358",
    "geom:latitude": 37.616358,
    "geom:longitude": -122.386155,
    "iso:country": "XX",
    "media:fingerprint": "496625a37972a9ce8f32cb1046b71ab956029d33",
    "media:imagehash_avg": "a:fefefeee22e0e0fe",
    "media:imagehash_diff": "d:78f0989ccec7c8e0",
    "media:imagetext": "PIEDMONI\nFIRLIMES\nSystem Schedule Effective February 1, 1987.\nFor A Winter Pick-Me-Up,\nFly Piedmont To Florida.\nLow Winter Fares To 15 Florida Cities.",
    "media:imagetext_created": 1787952367,
    "media:imagetext_source": "com.apple.visionkit.VNImageRequestHandler#Version 26.6.2 (Build 25G83)",
    "media:medium": "image",
    "media:mimetype": "image/tiff",
    "media:properties": {
      "sizes": {
        "b": {
          "extension": "jpg",
          "height": 768,
          "mimetype": "image/jpeg",
          "secret": "LjON6DSstATnhI4SiOo0OwjWX5m5cqNk",
          "width": 344
        },
        "c": {
          "extension": "jpg",
          "height": 600,
          "mimetype": "image/jpeg",
          "secret": "LjON6DSstATnhI4SiOo0OwjWX5m5cqNk",
          "width": 269
        },
        "dc": {
          "extension": "jpg",
          "height": 600,
          "mimetype": "image/jpeg",
          "secret": "LjON6DSstATnhI4SiOo0OwjWX5m5cqNk",
          "width": 269
        },
        "ds": {
          "extension": "jpg",
          "height": 320,
          "mimetype": "image/jpeg",
          "secret": "LjON6DSstATnhI4SiOo0OwjWX5m5cqNk",
          "width": 320
        },
        "k": {
          "extension": "jpg",
          "height": 1536,
          "mimetype": "image/jpeg",
          "secret": "LjON6DSstATnhI4SiOo0OwjWX5m5cqNk",
          "width": 689
        },
        "n": {
          "extension": "jpg",
          "height": 240,
          "mimetype": "image/jpeg",
          "secret": "LjON6DSstATnhI4SiOo0OwjWX5m5cqNk",
          "width": 107
        },
        "o": {
          "extension": "jpg",
          "height": 2684,
          "mimetype": "image/jpeg",
          "secret": "IwpvHOuAFifZisBYBaDWm6SEAZLOqUiA",
          "width": 1204
        },
        "s": {
          "extension": "jpg",
          "height": 320,
          "mimetype": "image/jpeg",
          "secret": "LjON6DSstATnhI4SiOo0OwjWX5m5cqNk",
          "width": 320
        },
        "z": {
          "extension": "jpg",
          "height": 480,
          "mimetype": "image/jpeg",
          "secret": "LjON6DSstATnhI4SiOo0OwjWX5m5cqNk",
          "width": 215
        }
      }
    },
    "media:source": "sfomuseum",
    "media:status_id": 1,
    "media:uri_template": "https://static.sfomuseum.org/media/152/784/766/1/1527847661_{secret}_{label}.{extension}",
    "millsfield:airline_id": [
      1159285019
    ],
    "millsfield:category_id": 1511214223,
    "millsfield:collection_id": 1511214207,
    "millsfield:company_id": [
      1159287755
    ],
    "millsfield:images_colors": [
      {
        "hex": "#4c4b54",
        "name": "#4c4b54",
        "reference": "marekm4"
      },
      {
        "hex": "#2f4f4f",
        "name": "darkslategrey",
        "reference": "css4"
      },
      {
        "hex": "#414a4c",
        "name": "Outer Space",
        "reference": "crayola"
      },
      {
        "hex": "#cdbda5",
        "name": "#cdbda5",
        "reference": "marekm4"
      },
      {
        "hex": "#d2b48c",
        "name": "tan",
        "reference": "css4"
      },
      {
        "hex": "#cdc5c2",
        "name": "Silver",
        "reference": "crayola"
      },
      {
        "hex": "#54688a",
        "name": "#54688a",
        "reference": "marekm4"
      },
      {
        "hex": "#708090",
        "name": "slategrey",
        "reference": "css4"
      },
      {
        "hex": "#4a646c",
        "name": "Deep Space Sparkle",
        "reference": "crayola"
      },
      {
        "hex": "#95674c",
        "name": "#95674c",
        "reference": "marekm4"
      },
      {
        "hex": "#a0522d",
        "name": "sienna",
        "reference": "css4"
      },
      {
        "hex": "#a5694f",
        "name": "Sepia",
        "reference": "crayola"
      },
      {
        "hex": "#ac9463",
        "name": "#ac9463",
        "reference": "marekm4"
      },
      {
        "hex": "#bdb76b",
        "name": "darkkhaki",
        "reference": "css4"
      },
      {
        "hex": "#9f8170",
        "name": "Beaver",
        "reference": "crayola"
      }
    ],
    "millsfield:images_texts": [
      "PIEDMONI\nFIRLIMES\nSystem Schedule Effective February 1, 1987.\nFor A Winter Pick-Me-Up,\nFly Piedmont To Florida.\nLow Winter Fares To 15 Florida Cities."
    ],
    "millsfield:images_texts_ids": [
      1527847661
    ],
    "millsfield:similar": {
      "apple/mobileclip_s0": [
        {
          "distance": 0.4079493,
          "id": 1779566159
        },
        {
          "distance": 0.6839298,
          "id": 1880194425
        },
        {
          "distance": 0.6919959,
          "id": 1527846545
        },
        {
          "distance": 0.69828445,
          "id": 1527846231
        },
        {
          "distance": 0.7030322,
          "id": 1863354941
        },
        {
          "distance": 0.7051009,
          "id": 1846756961
        },
        {
          "distance": 0.71738297,
          "id": 1779667577
        },
        {
          "distance": 0.7215909,
          "id": 1527846359
        },
        {
          "distance": 0.72499734,
          "id": 1762700885
        },
        {
          "distance": 0.7258134,
          "id": 1527835737
        }
      ],
      "apple/mobileclip_s1": [
        {
          "distance": 0.262583,
          "id": 1779566159
        },
        {
          "distance": 0.5293331,
          "id": 1762700885
        },
        {
          "distance": 0.5531832,
          "id": 1527847673
        },
        {
          "distance": 0.5703316,
          "id": 1527846231
        },
        {
          "distance": 0.57082385,
          "id": 1527839755
        },
        {
          "distance": 0.5717193,
          "id": 1527835747
        },
        {
          "distance": 0.5772002,
          "id": 1527836819
        },
        {
          "distance": 0.58119035,
          "id": 1527842265
        },
        {
          "distance": 0.5860714,
          "id": 1527846545
        },
        {
          "distance": 0.5873585,
          "id": 1527846359
        }
      ],
      "apple/mobileclip_s2": [
        {
          "distance": 0.30120143,
          "id": 1779566159
        },
        {
          "distance": 0.72332215,
          "id": 1527847673
        },
        {
          "distance": 0.7429559,
          "id": 1527839755
        },
        {
          "distance": 0.75823885,
          "id": 1746680549
        },
        {
          "distance": 0.78255016,
          "id": 1527842265
        },
        {
          "distance": 0.804881,
          "id": 1527835747
        },
        {
          "distance": 0.81321204,
          "id": 1527846545
        },
        {
          "distance": 0.82738036,
          "id": 1762714351
        },
        {
          "distance": 0.8315806,
          "id": 1527839763
        },
        {
          "distance": 0.8329918,
          "id": 1762698677
        }
      ]
    },
    "millsfield:subcategory_id": 1511213425,
    "mz:hierarchy_label": 1,
    "mz:is_current": -1,
    "sfomuseum:filename": "2008.108.656.tif",
    "sfomuseum:image_id": 71648,
    "sfomuseum:image_index": 5,
    "sfomuseum:image_type": "studio",
    "sfomuseum:object_id": 94035,
    "sfomuseum:placetype": "image",
    "sfomuseum:primary_image": 1,
    "src:geom": "sfomuseum",
    "wof:belongsto": [
      1511214223,
      1511934245,
      102527513,
      102191575,
      85633793,
      1511213425,
      85922583,
      102087579,
      1511214277,
      1511214203,
      85688637
    ],
    "wof:breaches": [],
    "wof:country": "XX",
    "wof:created": 1578953711,
    "wof:depicts": [
      1511934245,
      1159287755,
      1159285019
    ],
    "wof:geomhash": "bd906905ce4be6c0651c90b0fc24804c",
    "wof:hierarchy": [
      {
        "arcade_id": 1511213425,
        "building_id": 1511214277,
        "campus_id": 102527513,
        "concourse_id": 1511214223,
        "continent_id": 102191575,
        "country_id": 85633793,
        "county_id": 102087579,
        "custom_id": 1527847661,
        "image_id": 1527847661,
        "locality_id": 85922583,
        "media_id": 1527847661,
        "neighbourhood_id": -1,
        "region_id": 85688637,
        "venue_id": 1511934245,
        "wing_id": 1511214203
      }
    ],
    "wof:id": 1527847661,
    "wof:lastmodified": 1788450131,
    "wof:name": "timetable: Piedmont Airlines",
    "wof:parent_id": 1511934245,
    "wof:placetype": "custom",
    "wof:placetype_alt": [
      "image"
    ],
    "wof:repo": "sfomuseum-data-media-collection",
    "wof:superseded_by": [],
    "wof:supersedes": [],
    "wof:tags": []
  },
  "bbox": [
    -122.386155,
    37.616358,
    -122.386155,
    37.616358
  ],
  "geometry": {"type":"Point","coordinates":[-122.386155,37.616358]}
}
