{
  "id": 1762698073,
  "type": "Feature",
  "properties": {
    "date:cessation_lower": "1973-01-01",
    "date:cessation_upper": "1973-12-31",
    "date:inception_lower": "1973-01-01",
    "date:inception_upper": "1973-12-31",
    "edtf:cessation": "1973",
    "edtf:inception": "1973",
    "geom:area": 2.477324999997507e-7,
    "geom:bbox": "-122.386472,37.616105,-122.385834,37.616611",
    "geom:latitude": 37.61635756125121,
    "geom:longitude": -122.38615532866096,
    "media:fingerprint": "6857f623fbec39efb5998e6ec657da065bc5d547",
    "media:imagehash_avg": "a:fd858f87cf930081",
    "media:imagehash_diff": "d:a1695b1f1f673767",
    "media:imagetext": "VANCOUVER\nSEATTLE\nSAN FRANCISCO\nMINNEAPOLIS\nROUTE MAP\nLAS VEGAS\nLOS ANGELES\nALBUQUERQUE\n• MEXICALI\nEL PASO •\nHERMOSILLO\nMAZATLAN®\nDENVER\nKANSAS CITY\nOKLA. CITY\nWICHITA FALLS\nDALLAS!\nSAN ANTONIO.\nNUEVO LAREDO\nMONTERREY\nTAMPICO\nPUERTO VALLARTA:\nGUADALAJARA\nMEXICO CITY\nVERACRUZ\nACAPULCO •\nOAXACA\nST. PAUL\nMILWAUKEE\nDETROIT\nCHICAGO\nCLEVELAND\nST. LOUIS\nNEW YORK\nUse your Credit Cards.\nDINERS\nWASHINGTON\nBANK AMERICARD\nAMERICAN EXPRESS\nCARTE BLANCHE\nMASTER CHARGE CARD\nUATP\nNEW ORLEANS\nMERIDA\nTLAN\nVILLAHERMOSA\nTUXTEA GUTIERREZ\nMIAMI\nSAN JUAN\n• COZUMEL\nKINGSTON\nMEXICANA\nCONNECTING CARRIERS -\nFUTURE MEXICANA ROUTES\nPASSENGER INFORMATION\nCHILDREN: Half fare will be charged for each child two years of age or\nover, but under 12, and the child will be entitled to occupy a seat. One\ninfant (a child under two years of age) will be transported free with an\nadult passenger, but will not be entitled to a seat. Each additional infant,\nor one occupying a seat, will be charged 50% of the adult fare.\nCHARGES FOR LATE CANCELLATION ON DOMESTIC SERVICES: a). Full\nrefund when the reserved space is cancelled 24 hours prior to departure\nof the flight. b). 25% charge if the cancellation is made less than 24\nhours but more than 3 hours prior to departure of flight (*).\ncharge if the cancellation is either made less than 3 hours prior to depar-\nture of the flight or if the passengers fail to appear at the airport (*). d).\nFor groups of more than 10 people, a special regulation applies. Please\nrequest details.\n(*) These charges will apply only on that portion of the flight for which\nreservations have been made.\nIn order to avoid these charges, we request\nour customers that if their trip is not going to be made, to please cancel\nreservations as far in advance as possible.\nRECONFIRMATIONS ON INTERNATIONAL SERVICES Return or continuing\nreservations must be reconfirmed after a stopover, not later than 72 hours\nbefore departure time. Unless this notice of intention to use\nsuch return\nor continuing reservations is received by Mexicana or an authorized agent\n72 hours or more prior to departure time, the previously confirmed re-\nservations will be automatically cancelled. Passengers making reconfirma-\ntions must indicate an address or telephone number at which they may\nbe reached in the city where the plane is to be boarded.\nBAGGAGE: All international passengers, including half fares, will be al-\nlowed 20 kilos (44 pounds) except passengers to from LOS ANGELES who\ndomestic flights all passengers. including half fares, will be allowed 25\nkilos (55 pounds) baggage free of charge.\nCHECK IN TIME Passengers must be at the airport at least 45 minutes\nprior to the scheduled departure time for domestic flights and 60 minutes\nfor international flights. Carrier assumes no liability in case of passengers\nwho arrive later than stipulated here, and cannot be transported.\nFARES AND SCHEDULES: All fares and schedules shown herein are for\ninformation purpose only, and are subject to change and correction with-\nout notice.",
    "media:imagetext_created": 1787955587,
    "media:imagetext_source": "com.apple.visionkit.VNImageRequestHandler#Version 26.6.2 (Build 25G83)",
    "media:mimetype": "image/tiff",
    "media:properties": {
      "sizes": {
        "b": {
          "extension": "jpg",
          "height": 768,
          "mimetype": "image/jpeg",
          "secret": "6Oh43hKX42gJafMtKXNLVwmdj6P0qZVN",
          "width": 714
        },
        "c": {
          "extension": "jpg",
          "height": 600,
          "mimetype": "image/jpeg",
          "secret": "6Oh43hKX42gJafMtKXNLVwmdj6P0qZVN",
          "width": 558
        },
        "dc": {
          "extension": "jpg",
          "height": 600,
          "mimetype": "image/jpeg",
          "secret": "6Oh43hKX42gJafMtKXNLVwmdj6P0qZVN",
          "width": 558
        },
        "ds": {
          "extension": "jpg",
          "height": 320,
          "mimetype": "image/jpeg",
          "secret": "6Oh43hKX42gJafMtKXNLVwmdj6P0qZVN",
          "width": 320
        },
        "k": {
          "extension": "jpg",
          "height": 1536,
          "mimetype": "image/jpeg",
          "secret": "6Oh43hKX42gJafMtKXNLVwmdj6P0qZVN",
          "width": 1429
        },
        "n": {
          "extension": "jpg",
          "height": 240,
          "mimetype": "image/jpeg",
          "secret": "6Oh43hKX42gJafMtKXNLVwmdj6P0qZVN",
          "width": 223
        },
        "o": {
          "extension": "jpg",
          "height": 1719,
          "mimetype": "image/jpeg",
          "secret": "F3meyZY7TR1yU0OCVAyc1PHXC8TatvyR",
          "width": 1600
        },
        "s": {
          "extension": "jpg",
          "height": 320,
          "mimetype": "image/jpeg",
          "secret": "6Oh43hKX42gJafMtKXNLVwmdj6P0qZVN",
          "width": 320
        },
        "z": {
          "extension": "jpg",
          "height": 480,
          "mimetype": "image/jpeg",
          "secret": "6Oh43hKX42gJafMtKXNLVwmdj6P0qZVN",
          "width": 446
        }
      }
    },
    "media:source": "sfomuseum",
    "media:status_id": 1,
    "media:uri_template": "https://static.sfomuseum.org/media/176/269/807/3/1762698073_{secret}_{label}.{extension}",
    "millsfield:airline_id": [
      1159284781
    ],
    "millsfield:category_id": 1511214223,
    "millsfield:collection_id": 1511214207,
    "millsfield:company_id": [
      1159287451
    ],
    "millsfield:images_colors": [
      {
        "hex": "#d9d0bf",
        "name": "#d9d0bf",
        "reference": "marekm4"
      },
      {
        "hex": "#d3d3d3",
        "name": "lightgrey",
        "reference": "css4"
      },
      {
        "hex": "#cdc5c2",
        "name": "Silver",
        "reference": "crayola"
      },
      {
        "hex": "#2c2625",
        "name": "#2c2625",
        "reference": "marekm4"
      },
      {
        "hex": "#2f4f4f",
        "name": "darkslategrey",
        "reference": "css4"
      },
      {
        "hex": "#414a4c",
        "name": "Outer Space",
        "reference": "crayola"
      },
      {
        "hex": "#b8223d",
        "name": "#b8223d",
        "reference": "marekm4"
      },
      {
        "hex": "#b22222",
        "name": "firebrick",
        "reference": "css4"
      },
      {
        "hex": "#9c2542",
        "name": "Big Dip O' Ruby",
        "reference": "crayola"
      }
    ],
    "millsfield:images_texts": [
      "mexicanam\nTHE AIRLINE MOST PEOPLE FLY TO MEXICO.\nEffective july Ist. 1973\nsystem timetable and fares",
      "VANCOUVER\nSEATTLE\nSAN FRANCISCO\nMINNEAPOLIS\nROUTE MAP\nLAS VEGAS\nLOS ANGELES\nALBUQUERQUE\n• MEXICALI\nEL PASO •\nHERMOSILLO\nMAZATLAN®\nDENVER\nKANSAS CITY\nOKLA. CITY\nWICHITA FALLS\nDALLAS!\nSAN ANTONIO.\nNUEVO LAREDO\nMONTERREY\nTAMPICO\nPUERTO VALLARTA:\nGUADALAJARA\nMEXICO CITY\nVERACRUZ\nACAPULCO •\nOAXACA\nST. PAUL\nMILWAUKEE\nDETROIT\nCHICAGO\nCLEVELAND\nST. LOUIS\nNEW YORK\nUse your Credit Cards.\nDINERS\nWASHINGTON\nBANK AMERICARD\nAMERICAN EXPRESS\nCARTE BLANCHE\nMASTER CHARGE CARD\nUATP\nNEW ORLEANS\nMERIDA\nTLAN\nVILLAHERMOSA\nTUXTEA GUTIERREZ\nMIAMI\nSAN JUAN\n• COZUMEL\nKINGSTON\nMEXICANA\nCONNECTING CARRIERS -\nFUTURE MEXICANA ROUTES\nPASSENGER INFORMATION\nCHILDREN: Half fare will be charged for each child two years of age or\nover, but under 12, and the child will be entitled to occupy a seat. One\ninfant (a child under two years of age) will be transported free with an\nadult passenger, but will not be entitled to a seat. Each additional infant,\nor one occupying a seat, will be charged 50% of the adult fare.\nCHARGES FOR LATE CANCELLATION ON DOMESTIC SERVICES: a). Full\nrefund when the reserved space is cancelled 24 hours prior to departure\nof the flight. b). 25% charge if the cancellation is made less than 24\nhours but more than 3 hours prior to departure of flight (*).\ncharge if the cancellation is either made less than 3 hours prior to depar-\nture of the flight or if the passengers fail to appear at the airport (*). d).\nFor groups of more than 10 people, a special regulation applies. Please\nrequest details.\n(*) These charges will apply only on that portion of the flight for which\nreservations have been made.\nIn order to avoid these charges, we request\nour customers that if their trip is not going to be made, to please cancel\nreservations as far in advance as possible.\nRECONFIRMATIONS ON INTERNATIONAL SERVICES Return or continuing\nreservations must be reconfirmed after a stopover, not later than 72 hours\nbefore departure time. Unless this notice of intention to use\nsuch return\nor continuing reservations is received by Mexicana or an authorized agent\n72 hours or more prior to departure time, the previously confirmed re-\nservations will be automatically cancelled. Passengers making reconfirma-\ntions must indicate an address or telephone number at which they may\nbe reached in the city where the plane is to be boarded.\nBAGGAGE: All international passengers, including half fares, will be al-\nlowed 20 kilos (44 pounds) except passengers to from LOS ANGELES who\ndomestic flights all passengers. including half fares, will be allowed 25\nkilos (55 pounds) baggage free of charge.\nCHECK IN TIME Passengers must be at the airport at least 45 minutes\nprior to the scheduled departure time for domestic flights and 60 minutes\nfor international flights. Carrier assumes no liability in case of passengers\nwho arrive later than stipulated here, and cannot be transported.\nFARES AND SCHEDULES: All fares and schedules shown herein are for\ninformation purpose only, and are subject to change and correction with-\nout notice."
    ],
    "millsfield:images_texts_ids": [
      1762697347,
      1762698073
    ],
    "millsfield:similar": {
      "apple/mobileclip_s0": [
        {
          "distance": 0.30550498,
          "id": 1527848443
        },
        {
          "distance": 0.36745614,
          "id": 1527847883
        },
        {
          "distance": 0.37000716,
          "id": 1527847913
        },
        {
          "distance": 0.3774378,
          "id": 1527848439
        },
        {
          "distance": 0.39568546,
          "id": 1527848441
        },
        {
          "distance": 0.41205594,
          "id": 1527847915
        },
        {
          "distance": 0.4341244,
          "id": 1527848437
        },
        {
          "distance": 0.5059946,
          "id": 1762698055
        },
        {
          "distance": 0.5290221,
          "id": 1762698053
        },
        {
          "distance": 0.5318323,
          "id": 1527847909
        }
      ],
      "apple/mobileclip_s1": [
        {
          "distance": 0.19471258,
          "id": 1527848443
        },
        {
          "distance": 0.23044126,
          "id": 1527847913
        },
        {
          "distance": 0.238306,
          "id": 1527848439
        },
        {
          "distance": 0.24188218,
          "id": 1527847915
        },
        {
          "distance": 0.24697629,
          "id": 1527847883
        },
        {
          "distance": 0.2509888,
          "id": 1527848441
        },
        {
          "distance": 0.27164003,
          "id": 1527848437
        },
        {
          "distance": 0.28210482,
          "id": 1762698053
        },
        {
          "distance": 0.29295954,
          "id": 1762698055
        },
        {
          "distance": 0.34950134,
          "id": 1527847909
        }
      ],
      "apple/mobileclip_s2": [
        {
          "distance": 0.28138345,
          "id": 1527847915
        },
        {
          "distance": 0.30028966,
          "id": 1527847913
        },
        {
          "distance": 0.3169185,
          "id": 1527848443
        },
        {
          "distance": 0.32164145,
          "id": 1527848441
        },
        {
          "distance": 0.3523219,
          "id": 1527847883
        },
        {
          "distance": 0.39232233,
          "id": 1527848439
        },
        {
          "distance": 0.4105222,
          "id": 1762698055
        },
        {
          "distance": 0.4163327,
          "id": 1762698053
        },
        {
          "distance": 0.48773178,
          "id": 1527848437
        },
        {
          "distance": 0.49170932,
          "id": 1527847909
        }
      ]
    },
    "millsfield:subcategory_id": 1511213425,
    "mz:is_current": 1,
    "sfomuseum:filename": "2012.173.258.tif",
    "sfomuseum:image_id": 72466,
    "sfomuseum:image_index": 5,
    "sfomuseum:image_type": "studio",
    "sfomuseum:object_id": 140686,
    "sfomuseum:placetype": "image",
    "sfomuseum:primary_image": 0,
    "src:geom": "sfomuseum",
    "wof:belongsto": [
      102527513,
      1159162825,
      102191575,
      85633793,
      102087579,
      85922583,
      1762680257,
      85688637,
      1159160869
    ],
    "wof:country": "XY",
    "wof:created": 1641345591,
    "wof:depicts": [
      1159287451,
      1762680257,
      1159284781
    ],
    "wof:geomhash": "ed7c2ab3547fc3916b5edc33488deaa7",
    "wof:hierarchy": [
      {
        "building_id": -1,
        "campus_id": 102527513,
        "collection_id": 1159162825,
        "concourse_id": 1159162825,
        "continent_id": 102191575,
        "country_id": 85633793,
        "county_id": 102087579,
        "custom_id": 1762698073,
        "image_id": 1762698073,
        "locality_id": 85922583,
        "neighbourhood_id": -1,
        "object_id": 1762680257,
        "region_id": 85688637,
        "wing_id": 1159160869
      }
    ],
    "wof:id": 1762698073,
    "wof:lastmodified": 1788450413,
    "wof:name": "timetable: Mexicana Airlines",
    "wof:parent_id": 1762680257,
    "wof:placetype": "custom",
    "wof:placetype_alt": [
      "image"
    ],
    "wof:repo": "sfomuseum-data-media-collection",
    "wof:superseded_by": [],
    "wof:supersedes": []
  },
  "bbox": [
    -122.386472,
    37.616105,
    -122.385834,
    37.616611
  ],
  "geometry": {"type":"Polygon","coordinates":[[[-122.386472,37.616318],[-122.386435,37.616233],[-122.386376,37.616178],[-122.386301,37.616131],[-122.386161,37.616105],[-122.386022,37.616131],[-122.385914,37.616186],[-122.385855,37.616267],[-122.385834,37.616369],[-122.385871,37.616467],[-122.385941,37.616543],[-122.386054,37.616603],[-122.386183,37.616611],[-122.386306,37.616573],[-122.386419,37.616509],[-122.386467,37.616411],[-122.386472,37.616318]]]}
}
