{
  "id": 1813192781,
  "type": "Feature",
  "properties": {
    "date:cessation_lower": "1990-01-01",
    "date:cessation_upper": "1999-12-31",
    "date:inception_lower": "1990-01-01",
    "date:inception_upper": "1999-12-31",
    "edtf:cessation": "199X",
    "edtf:inception": "199X",
    "geom:area": 2.477324999997507e-7,
    "geom:bbox": "-122.386472,37.616105,-122.385834,37.616611",
    "geom:latitude": 37.61635756125121,
    "geom:longitude": -122.38615532866096,
    "media:fingerprint": "94037d3155806f3308b54734d70f8eb629612642",
    "media:imagehash_avg": "a:97030303e7e787ff",
    "media:imagehash_diff": "d:2e2e2e4f4b0e2eb1",
    "media:imagetext": "EXIT\n1\nАварийный выход\nEmergency exit\nNotausgang\nSortie de secours\nSalida de urgencia\nБез обуви и багажа\nNo shoes - No baggage\nKeine Schuhe und Gepäck\nPas de souliers et bagage\nDescalzar - Ningun equipaje\nEXIT\nАварийный выход\nEmergency exit\nNotausgang\nSortie de secours\nSalida de urgencia\nБез обуви и багажа\nNo shoes - No baggage\nKeine Schuhe und Gepack\nPas de soulers et bagage\nDescalzar - Ningun equipaje\n2\nEXIT\n3\nАварийный выход\nEmergency exit\nNotausgang\nSortie de secours\nSalida de urgencia\nБез обуви и багажа\nNo shoes - No baggage\nKeine Schuhe und Gepäck\nPas de souliers et bagage\nDescalzar - Ningun equipale\n1\n2\nВзлет и посадка\nTake off and landing\nStart und Landung\nDécollage et atterrissage\nDespegue y aterrizaje\nВо время полета\nDuring the flight\nWahrend des Fluges\nPendant le vol\nDurante el vuelo\nTU - 134\nЗАО ИПП \"Русполиграф\nTU - 134\n3\n0000000000\n0000000000\nTenga la bondad de no lievarse esta tarjeta\n3\nPrière de ne pas emporter cette carte\n3\nWir bitten Sie. diese Karte nicht mitzunehmen\nPlease do not remove this card from the plane\nAEROFLOT\nRussian International Airlines\nНе уносите из самолета, пожалуйста\n2015,034.008",
    "media:imagetext_created": 1787967203,
    "media:imagetext_source": "com.apple.visionkit.VNImageRequestHandler#Version 26.6.2 (Build 25G83)",
    "media:mimetype": "image/tiff",
    "media:properties": {
      "sizes": {
        "b": {
          "extension": "jpg",
          "height": 768,
          "mimetype": "image/jpeg",
          "secret": "X8YJk2sX5Q61rY01RIHOeYmvFvu5W1Y1",
          "width": 532
        },
        "c": {
          "extension": "jpg",
          "height": 600,
          "mimetype": "image/jpeg",
          "secret": "X8YJk2sX5Q61rY01RIHOeYmvFvu5W1Y1",
          "width": 416
        },
        "dc": {
          "extension": "jpg",
          "height": 600,
          "mimetype": "image/jpeg",
          "secret": "X8YJk2sX5Q61rY01RIHOeYmvFvu5W1Y1",
          "width": 416
        },
        "ds": {
          "extension": "jpg",
          "height": 320,
          "mimetype": "image/jpeg",
          "secret": "X8YJk2sX5Q61rY01RIHOeYmvFvu5W1Y1",
          "width": 320
        },
        "k": {
          "extension": "jpg",
          "height": 1536,
          "mimetype": "image/jpeg",
          "secret": "X8YJk2sX5Q61rY01RIHOeYmvFvu5W1Y1",
          "width": 1065
        },
        "n": {
          "extension": "jpg",
          "height": 240,
          "mimetype": "image/jpeg",
          "secret": "X8YJk2sX5Q61rY01RIHOeYmvFvu5W1Y1",
          "width": 166
        },
        "o": {
          "extension": "jpg",
          "height": 1500,
          "mimetype": "image/jpeg",
          "secret": "PvG6a7ZenHE93g4ziZPTGXw216gP6piQ",
          "width": 1041
        },
        "s": {
          "extension": "jpg",
          "height": 320,
          "mimetype": "image/jpeg",
          "secret": "X8YJk2sX5Q61rY01RIHOeYmvFvu5W1Y1",
          "width": 320
        },
        "z": {
          "extension": "jpg",
          "height": 480,
          "mimetype": "image/jpeg",
          "secret": "X8YJk2sX5Q61rY01RIHOeYmvFvu5W1Y1",
          "width": 333
        }
      }
    },
    "media:source": "sfomuseum",
    "media:status_id": 1,
    "media:uri_template": "https://static.sfomuseum.org/media/181/319/278/1/1813192781_{secret}_{label}.{extension}",
    "millsfield:aircraft_id": [
      1159291931
    ],
    "millsfield:airline_id": [
      1159283525
    ],
    "millsfield:category_id": 1762671311,
    "millsfield:collection_id": 1511214207,
    "millsfield:company_id": [
      1159294153
    ],
    "millsfield:images_colors": [
      {
        "hex": "#e7e2dc",
        "name": "#e7e2dc",
        "reference": "marekm4"
      },
      {
        "hex": "#dcdcdc",
        "name": "gainsboro",
        "reference": "css4"
      },
      {
        "hex": "#efdecd",
        "name": "Almond",
        "reference": "crayola"
      },
      {
        "hex": "#3f3c32",
        "name": "#3f3c32",
        "reference": "marekm4"
      },
      {
        "hex": "#2f4f4f",
        "name": "darkslategrey",
        "reference": "css4"
      },
      {
        "hex": "#414a4c",
        "name": "Outer Space",
        "reference": "crayola"
      },
      {
        "hex": "#decd1e",
        "name": "#decd1e",
        "reference": "marekm4"
      },
      {
        "hex": "#daa520",
        "name": "goldenrod",
        "reference": "css4"
      },
      {
        "hex": "#ceff1d",
        "name": "Electric Lime",
        "reference": "crayola"
      },
      {
        "hex": "#bd1a11",
        "name": "#bd1a11",
        "reference": "marekm4"
      },
      {
        "hex": "#b22222",
        "name": "firebrick",
        "reference": "css4"
      },
      {
        "hex": "#9c2542",
        "name": "Big Dip O' Ruby",
        "reference": "crayola"
      }
    ],
    "millsfield:images_texts": [
      "Инструкция по безопасности\nSafety instructions\nSicherheitsvorschriften\nConsignes de sécurité\nConsignas de seguridad\nВзлет и посадка\nTake off and landing\nStart und Landung\nDécollage et atterrissage\nDespegue y aterrizaje\nНе курить\nNo smoking\nNicht rauchen\nNe pas fumer\nNo fumar\n2\nАварийная посадка\nна сушу\nEmergency landing\nNotlandung\nAtterrissage force\nAterrizaje forzoso\nАварийная посадка\nна воду\nDitching\nWasserung\nAmerrissage\nAmaraje\n2\nСнять, убрать\nRemove\nAusziehen, entfernen\nEnlever, cachez\nQuitese\nНе курить\nNo smoking\nNicht rauchen\nNe pas fumer\nNo fumar\n6\nБез обуви и багажа\nNo shoes - No baggage\nKeine Schuhe und Gepäck\nPas de soulers et bagage\nDescalzar - Ningun equipaje\nTU - 134\nAEROFLOT\nRussian International Airlines\n3\n4\nба\nTU - 134",
      "EXIT\n1\nАварийный выход\nEmergency exit\nNotausgang\nSortie de secours\nSalida de urgencia\nБез обуви и багажа\nNo shoes - No baggage\nKeine Schuhe und Gepäck\nPas de souliers et bagage\nDescalzar - Ningun equipaje\nEXIT\nАварийный выход\nEmergency exit\nNotausgang\nSortie de secours\nSalida de urgencia\nБез обуви и багажа\nNo shoes - No baggage\nKeine Schuhe und Gepack\nPas de soulers et bagage\nDescalzar - Ningun equipaje\n2\nEXIT\n3\nАварийный выход\nEmergency exit\nNotausgang\nSortie de secours\nSalida de urgencia\nБез обуви и багажа\nNo shoes - No baggage\nKeine Schuhe und Gepäck\nPas de souliers et bagage\nDescalzar - Ningun equipale\n1\n2\nВзлет и посадка\nTake off and landing\nStart und Landung\nDécollage et atterrissage\nDespegue y aterrizaje\nВо время полета\nDuring the flight\nWahrend des Fluges\nPendant le vol\nDurante el vuelo\nTU - 134\nЗАО ИПП \"Русполиграф\nTU - 134\n3\n0000000000\n0000000000\nTenga la bondad de no lievarse esta tarjeta\n3\nPrière de ne pas emporter cette carte\n3\nWir bitten Sie. diese Karte nicht mitzunehmen\nPlease do not remove this card from the plane\nAEROFLOT\nRussian International Airlines\nНе уносите из самолета, пожалуйста\n2015,034.008"
    ],
    "millsfield:images_texts_ids": [
      1813192779,
      1813192781
    ],
    "millsfield:similar": {
      "apple/mobileclip_s0": [
        {
          "distance": 0.44788775,
          "id": 1813192787
        },
        {
          "distance": 0.4613938,
          "id": 1931109437
        },
        {
          "distance": 0.47543126,
          "id": 1930979715
        },
        {
          "distance": 0.47912547,
          "id": 1930979971
        },
        {
          "distance": 0.4803102,
          "id": 1930979361
        },
        {
          "distance": 0.4815023,
          "id": 1914556253
        },
        {
          "distance": 0.4825378,
          "id": 1813192777
        },
        {
          "distance": 0.48280126,
          "id": 1913872081
        },
        {
          "distance": 0.4839785,
          "id": 1914556157
        },
        {
          "distance": 0.484935,
          "id": 1914622621
        }
      ],
      "apple/mobileclip_s1": [
        {
          "distance": 0.28214753,
          "id": 1813192787
        },
        {
          "distance": 0.29946,
          "id": 1930979431
        },
        {
          "distance": 0.30495137,
          "id": 1914430835
        },
        {
          "distance": 0.31148973,
          "id": 1914430839
        },
        {
          "distance": 0.31998003,
          "id": 1914556171
        },
        {
          "distance": 0.32063878,
          "id": 1931096177
        },
        {
          "distance": 0.32224095,
          "id": 1931109437
        },
        {
          "distance": 0.3308273,
          "id": 1931109959
        },
        {
          "distance": 0.33462247,
          "id": 1931096401
        },
        {
          "distance": 0.33612806,
          "id": 1813192805
        }
      ],
      "apple/mobileclip_s2": [
        {
          "distance": 0.3832469,
          "id": 1813192787
        },
        {
          "distance": 0.43731248,
          "id": 1813192773
        },
        {
          "distance": 0.4644756,
          "id": 1930979431
        },
        {
          "distance": 0.4683284,
          "id": 1813192805
        },
        {
          "distance": 0.4955153,
          "id": 1914430835
        },
        {
          "distance": 0.49826846,
          "id": 1914430839
        },
        {
          "distance": 0.521476,
          "id": 1813192777
        },
        {
          "distance": 0.52374536,
          "id": 1930979361
        },
        {
          "distance": 0.52444744,
          "id": 1527850189
        },
        {
          "distance": 0.5251954,
          "id": 1931096605
        }
      ]
    },
    "millsfield:subcategory_id": 1511213703,
    "mz:is_current": 1,
    "sfomuseum:filename": "154780.tif",
    "sfomuseum:image_id": 154780,
    "sfomuseum:image_index": 5,
    "sfomuseum:image_type": "studio",
    "sfomuseum:object_id": 165756,
    "sfomuseum:placetype": "image",
    "sfomuseum:primary_image": 0,
    "src:geom": "sfomuseum",
    "wof:belongsto": [
      102527513,
      1159162825,
      102191575,
      85633793,
      102087579,
      85922583,
      1813192705,
      85688637,
      1159160869
    ],
    "wof:country": "XY",
    "wof:created": 1676316561,
    "wof:depicts": [
      1159288379,
      1813192705,
      1159291931,
      1159294153,
      1159283525
    ],
    "wof:geomhash": "ed7c2ab3547fc3916b5edc33488deaa7",
    "wof:hierarchy": [
      {
        "building_id": -1,
        "campus_id": 102527513,
        "collection_id": 1159162825,
        "concourse_id": 1159162825,
        "continent_id": 102191575,
        "country_id": 85633793,
        "county_id": 102087579,
        "custom_id": 1813192781,
        "image_id": 1813192781,
        "locality_id": 85922583,
        "neighbourhood_id": -1,
        "object_id": 1813192705,
        "region_id": 85688637,
        "wing_id": 1159160869
      }
    ],
    "wof:id": 1813192781,
    "wof:lastmodified": 1788451596,
    "wof:name": "safety information card: Aeroflot Russian Airlines, Tupolev Tu-134",
    "wof:parent_id": 1813192705,
    "wof:placetype": "custom",
    "wof:placetype_alt": [
      "image"
    ],
    "wof:repo": "sfomuseum-data-media-collection",
    "wof:superseded_by": [],
    "wof:supersedes": []
  },
  "bbox": [
    -122.386472,
    37.616105,
    -122.385834,
    37.616611
  ],
  "geometry": {"type":"Polygon","coordinates":[[[-122.386472,37.616318],[-122.386435,37.616233],[-122.386376,37.616178],[-122.386301,37.616131],[-122.386161,37.616105],[-122.386022,37.616131],[-122.385914,37.616186],[-122.385855,37.616267],[-122.385834,37.616369],[-122.385871,37.616467],[-122.385941,37.616543],[-122.386054,37.616603],[-122.386183,37.616611],[-122.386306,37.616573],[-122.386419,37.616509],[-122.386467,37.616411],[-122.386472,37.616318]]]}
}
