{
  "id": 1897196891,
  "type": "Feature",
  "properties": {
    "date:cessation_lower": "1969-01-01",
    "date:cessation_upper": "1969-12-31",
    "date:inception_lower": "1969-01-01",
    "date:inception_upper": "1969-12-31",
    "edtf:cessation": "1969",
    "edtf:inception": "1969",
    "geom:area": 2.477324999997507e-7,
    "geom:bbox": "-122.386472,37.616105,-122.385834,37.616611",
    "geom:latitude": 37.61635756125121,
    "geom:longitude": -122.38615532866096,
    "media:fingerprint": "b8e89f7e317bb3c662be4cc0b3f05a2d89a9a2f5",
    "media:imagehash_avg": "a:ff8fbf888103b9ff",
    "media:imagehash_diff": "d:7d3f7d790f174969",
    "media:imagetext": "UNIT\n$ 1969 UNITED AIR LINES INC\nUnited Air Lines\nSuper/27\nPRINTED IN USA",
    "media:imagetext_created": 1787970810,
    "media:imagetext_source": "com.apple.visionkit.VNImageRequestHandler#Version 26.6.2 (Build 25G83)",
    "media:mimetype": "image/tiff",
    "media:properties": {
      "sizes": {
        "b": {
          "extension": "jpg",
          "height": 768,
          "mimetype": "image/jpeg",
          "secret": "qQTnK5ILzNIuZ8ceaemNwS6XcI9QyEr2",
          "width": 488
        },
        "c": {
          "extension": "jpg",
          "height": 600,
          "mimetype": "image/jpeg",
          "secret": "qQTnK5ILzNIuZ8ceaemNwS6XcI9QyEr2",
          "width": 381
        },
        "dc": {
          "extension": "jpg",
          "height": 600,
          "mimetype": "image/jpeg",
          "secret": "qQTnK5ILzNIuZ8ceaemNwS6XcI9QyEr2",
          "width": 381
        },
        "ds": {
          "extension": "jpg",
          "height": 320,
          "mimetype": "image/jpeg",
          "secret": "qQTnK5ILzNIuZ8ceaemNwS6XcI9QyEr2",
          "width": 320
        },
        "k": {
          "extension": "jpg",
          "height": 1536,
          "mimetype": "image/jpeg",
          "secret": "qQTnK5ILzNIuZ8ceaemNwS6XcI9QyEr2",
          "width": 977
        },
        "n": {
          "extension": "jpg",
          "height": 240,
          "mimetype": "image/jpeg",
          "secret": "qQTnK5ILzNIuZ8ceaemNwS6XcI9QyEr2",
          "width": 152
        },
        "o": {
          "extension": "jpg",
          "height": 1667,
          "mimetype": "image/jpeg",
          "secret": "Hgd9IMCW8a3Pnh4JhEFDAWUj9GxKit4a",
          "width": 1061
        },
        "s": {
          "extension": "jpg",
          "height": 320,
          "mimetype": "image/jpeg",
          "secret": "qQTnK5ILzNIuZ8ceaemNwS6XcI9QyEr2",
          "width": 320
        },
        "z": {
          "extension": "jpg",
          "height": 480,
          "mimetype": "image/jpeg",
          "secret": "qQTnK5ILzNIuZ8ceaemNwS6XcI9QyEr2",
          "width": 305
        }
      }
    },
    "media:source": "sfomuseum",
    "media:status_id": 1,
    "media:uri_template": "https://static.sfomuseum.org/media/189/719/689/1/1897196891_{secret}_{label}.{extension}",
    "millsfield:aircraft_id": [
      1159289759
    ],
    "millsfield:airline_id": [
      1159285415
    ],
    "millsfield:category_id": 1763416373,
    "millsfield:collection_id": 1511214203,
    "millsfield:company_id": [
      1159293593
    ],
    "millsfield:images_colors": [
      {
        "hex": "#eab565",
        "name": "#eab565",
        "reference": "marekm4"
      },
      {
        "hex": "#f4a460",
        "name": "sandybrown",
        "reference": "css4"
      },
      {
        "hex": "#faa76c",
        "name": "Tan",
        "reference": "crayola"
      },
      {
        "hex": "#e7cea5",
        "name": "#e7cea5",
        "reference": "marekm4"
      },
      {
        "hex": "#f5deb3",
        "name": "wheat",
        "reference": "css4"
      },
      {
        "hex": "#edd19c",
        "name": "Maize",
        "reference": "crayola"
      },
      {
        "hex": "#283332",
        "name": "#283332",
        "reference": "marekm4"
      },
      {
        "hex": "#2f4f4f",
        "name": "darkslategrey",
        "reference": "css4"
      },
      {
        "hex": "#414a4c",
        "name": "Outer Space",
        "reference": "crayola"
      },
      {
        "hex": "#1999c1",
        "name": "#1999c1",
        "reference": "marekm4"
      },
      {
        "hex": "#20b2aa",
        "name": "lightseagreen",
        "reference": "css4"
      },
      {
        "hex": "#0d98ba",
        "name": "Blue Green",
        "reference": "crayola"
      }
    ],
    "millsfield:images_texts": [
      "UNIT\n$ 1969 UNITED AIR LINES INC\nUnited Air Lines\nSuper/27\nPRINTED IN USA"
    ],
    "millsfield:images_texts_ids": [
      1897196891
    ],
    "millsfield:similar": {
      "apple/mobileclip_s0": [
        {
          "distance": 0.5112036,
          "id": 1897212575
        },
        {
          "distance": 0.5697473,
          "id": 2048167811
        },
        {
          "distance": 0.57925373,
          "id": 1763256209
        },
        {
          "distance": 0.58485806,
          "id": 2014895963
        },
        {
          "distance": 0.62706494,
          "id": 1527848533
        },
        {
          "distance": 0.62829256,
          "id": 1527820331
        },
        {
          "distance": 0.6326721,
          "id": 1762898525
        },
        {
          "distance": 0.6326721,
          "id": 1762898527
        },
        {
          "distance": 0.63689876,
          "id": 1762707197
        },
        {
          "distance": 0.6378346,
          "id": 1779490061
        }
      ],
      "apple/mobileclip_s1": [
        {
          "distance": 0.37335455,
          "id": 2048167811
        },
        {
          "distance": 0.39824423,
          "id": 1897212575
        },
        {
          "distance": 0.40140995,
          "id": 2014895963
        },
        {
          "distance": 0.408361,
          "id": 1527856225
        },
        {
          "distance": 0.40962893,
          "id": 1527856231
        },
        {
          "distance": 0.4102897,
          "id": 1762898525
        },
        {
          "distance": 0.4102897,
          "id": 1762898527
        },
        {
          "distance": 0.4109408,
          "id": 1762709941
        },
        {
          "distance": 0.42198512,
          "id": 1527856235
        },
        {
          "distance": 0.42224944,
          "id": 1762709937
        }
      ],
      "apple/mobileclip_s2": [
        {
          "distance": 0.47546548,
          "id": 1897212575
        },
        {
          "distance": 0.5072177,
          "id": 2048167811
        },
        {
          "distance": 0.50725645,
          "id": 2014895963
        },
        {
          "distance": 0.5562133,
          "id": 1763256209
        },
        {
          "distance": 0.5676636,
          "id": 1914622715
        },
        {
          "distance": 0.5686871,
          "id": 1897196899
        },
        {
          "distance": 0.56942314,
          "id": 1762709937
        },
        {
          "distance": 0.5704777,
          "id": 1762898525
        },
        {
          "distance": 0.5704777,
          "id": 1762898527
        },
        {
          "distance": 0.5750002,
          "id": 1762709941
        }
      ]
    },
    "millsfield:subcategory_id": 1511213365,
    "mz:is_current": 1,
    "sfomuseum:filename": "2015.126.207.tif",
    "sfomuseum:image_id": 177223,
    "sfomuseum:image_index": 5,
    "sfomuseum:image_type": "studio",
    "sfomuseum:object_id": 173495,
    "sfomuseum:placetype": "image",
    "sfomuseum:primary_image": 1,
    "src:geom": "sfomuseum",
    "wof:belongsto": [
      102527513,
      1159162825,
      102191575,
      85633793,
      102087579,
      85922583,
      1897196773,
      85688637,
      1159160869
    ],
    "wof:country": "XY",
    "wof:created": 1706171619,
    "wof:depicts": [
      1159285415,
      1159288779,
      1897196773,
      1159289759,
      1159293593
    ],
    "wof:geomhash": "ed7c2ab3547fc3916b5edc33488deaa7",
    "wof:hierarchy": [
      {
        "building_id": -1,
        "campus_id": 102527513,
        "collection_id": 1159162825,
        "concourse_id": 1159162825,
        "continent_id": 102191575,
        "country_id": 85633793,
        "county_id": 102087579,
        "custom_id": 1897196891,
        "image_id": 1897196891,
        "locality_id": 85922583,
        "neighbourhood_id": -1,
        "object_id": 1897196773,
        "region_id": 85688637,
        "wing_id": 1159160869
      }
    ],
    "wof:id": 1897196891,
    "wof:lastmodified": 1788452035,
    "wof:name": "poster: United Air Lines, Boeing 727",
    "wof:parent_id": 1897196773,
    "wof:placetype": "custom",
    "wof:placetype_alt": [
      "image"
    ],
    "wof:repo": "sfomuseum-data-media-collection",
    "wof:superseded_by": [],
    "wof:supersedes": []
  },
  "bbox": [
    -122.386472,
    37.616105,
    -122.385834,
    37.616611
  ],
  "geometry": {"type":"Polygon","coordinates":[[[-122.386472,37.616318],[-122.386435,37.616233],[-122.386376,37.616178],[-122.386301,37.616131],[-122.386161,37.616105],[-122.386022,37.616131],[-122.385914,37.616186],[-122.385855,37.616267],[-122.385834,37.616369],[-122.385871,37.616467],[-122.385941,37.616543],[-122.386054,37.616603],[-122.386183,37.616611],[-122.386306,37.616573],[-122.386419,37.616509],[-122.386467,37.616411],[-122.386472,37.616318]]]}
}
