{
  "id": 1527826669,
  "type": "Feature",
  "properties": {
    "date:cessation_lower": "1968-01-01",
    "date:cessation_upper": "1968-12-31",
    "date:inception_lower": "1968-01-01",
    "date:inception_upper": "1968-12-31",
    "edtf:cessation": "1968",
    "edtf:date": "1968",
    "edtf:inception": "1968",
    "geom:area": 0,
    "geom:bbox": "-122.386155,37.616358,-122.386155,37.616358",
    "geom:latitude": 37.616358,
    "geom:longitude": -122.386155,
    "iso:country": "US",
    "media:fingerprint": "5676167c28d7ec8a0a496f1e9ec2a821d4eb87c4",
    "media:imagehash_avg": "a:fffefcfc3c000000",
    "media:imagehash_diff": "d:c0c0f0e0f03140c0",
    "media:medium": "image",
    "media:mimetype": "image/tiff",
    "media:properties": {
      "sizes": {
        "b": {
          "extension": "jpg",
          "height": 768,
          "mimetype": "image/jpeg",
          "secret": "hsagEqOblUegCXyd2FBoNPFMaACj9mjv",
          "width": 975
        },
        "c": {
          "extension": "jpg",
          "height": 600,
          "mimetype": "image/jpeg",
          "secret": "hsagEqOblUegCXyd2FBoNPFMaACj9mjv",
          "width": 762
        },
        "dc": {
          "extension": "jpg",
          "height": 600,
          "mimetype": "image/jpeg",
          "secret": "hsagEqOblUegCXyd2FBoNPFMaACj9mjv",
          "width": 762
        },
        "ds": {
          "extension": "jpg",
          "height": 320,
          "mimetype": "image/jpeg",
          "secret": "hsagEqOblUegCXyd2FBoNPFMaACj9mjv",
          "width": 320
        },
        "k": {
          "extension": "jpg",
          "height": 1536,
          "mimetype": "image/jpeg",
          "secret": "hsagEqOblUegCXyd2FBoNPFMaACj9mjv",
          "width": 1951
        },
        "n": {
          "extension": "jpg",
          "height": 240,
          "mimetype": "image/jpeg",
          "secret": "hsagEqOblUegCXyd2FBoNPFMaACj9mjv",
          "width": 304
        },
        "o": {
          "extension": "jpg",
          "height": 2168,
          "mimetype": "image/jpeg",
          "secret": "Z7Cirhx85BkJlGKM5imvX3d63lZdIKAB",
          "width": 2754
        },
        "s": {
          "extension": "jpg",
          "height": 320,
          "mimetype": "image/jpeg",
          "secret": "hsagEqOblUegCXyd2FBoNPFMaACj9mjv",
          "width": 320
        },
        "z": {
          "extension": "jpg",
          "height": 480,
          "mimetype": "image/jpeg",
          "secret": "hsagEqOblUegCXyd2FBoNPFMaACj9mjv",
          "width": 609
        }
      }
    },
    "media:source": "sfomuseum",
    "media:status_id": 1,
    "media:uri_template": "https://static.sfomuseum.org/media/152/782/666/9/1527826669_{secret}_{label}.{extension}",
    "millsfield:airport_id": [
      102527513
    ],
    "millsfield:category_id": 1511214209,
    "millsfield:collection_id": 1511214207,
    "millsfield:images_colors": [
      {
        "hex": "#4e4e4e",
        "name": "#4e4e4e",
        "reference": "marekm4"
      },
      {
        "hex": "#2f4f4f",
        "name": "darkslategrey",
        "reference": "css4"
      },
      {
        "hex": "#414a4c",
        "name": "Outer Space",
        "reference": "crayola"
      },
      {
        "hex": "#b1b1b1",
        "name": "#b1b1b1",
        "reference": "marekm4"
      },
      {
        "hex": "#a9a9a9",
        "name": "darkgrey",
        "reference": "css4"
      },
      {
        "hex": "#b0b7c6",
        "name": "Cadet Blue",
        "reference": "crayola"
      }
    ],
    "millsfield:similar": {
      "apple/mobileclip_s0": [
        {
          "distance": 0.33167675,
          "id": 1527826665
        },
        {
          "distance": 0.37050235,
          "id": 1527826769
        },
        {
          "distance": 0.40129164,
          "id": 1527825067
        },
        {
          "distance": 0.4075313,
          "id": 1527826227
        },
        {
          "distance": 0.4128731,
          "id": 1527824985
        },
        {
          "distance": 0.4173441,
          "id": 1527825599
        },
        {
          "distance": 0.42090228,
          "id": 1527825073
        },
        {
          "distance": 0.42433384,
          "id": 1527826667
        },
        {
          "distance": 0.42761543,
          "id": 1527825057
        },
        {
          "distance": 0.42862305,
          "id": 1527824989
        }
      ],
      "apple/mobileclip_s1": [
        {
          "distance": 0.20962106,
          "id": 1527826665
        },
        {
          "distance": 0.21726486,
          "id": 1527826769
        },
        {
          "distance": 0.2217016,
          "id": 1527826227
        },
        {
          "distance": 0.2250463,
          "id": 1527826667
        },
        {
          "distance": 0.23547636,
          "id": 1527825077
        },
        {
          "distance": 0.23806229,
          "id": 1527825603
        },
        {
          "distance": 0.24591804,
          "id": 1527826765
        },
        {
          "distance": 0.2508866,
          "id": 1527825071
        },
        {
          "distance": 0.25421762,
          "id": 1527825067
        },
        {
          "distance": 0.25577202,
          "id": 1527825065
        }
      ],
      "apple/mobileclip_s2": [
        {
          "distance": 0.26624668,
          "id": 1527826227
        },
        {
          "distance": 0.28772685,
          "id": 1527826667
        },
        {
          "distance": 0.30020404,
          "id": 1527825603
        },
        {
          "distance": 0.31373122,
          "id": 1527826769
        },
        {
          "distance": 0.32017085,
          "id": 1527822817
        },
        {
          "distance": 0.3225364,
          "id": 1527825077
        },
        {
          "distance": 0.32373968,
          "id": 1527825599
        },
        {
          "distance": 0.3345004,
          "id": 1527821567
        },
        {
          "distance": 0.3359733,
          "id": 1527826665
        },
        {
          "distance": 0.34113443,
          "id": 1527826765
        }
      ]
    },
    "millsfield:subcategory_id": 1511213801,
    "mz:hierarchy_label": 1,
    "mz:is_current": -1,
    "sfomuseum:filename": "43744.tif",
    "sfomuseum:image_id": 43744,
    "sfomuseum:image_index": 5,
    "sfomuseum:image_type": "studio",
    "sfomuseum:object_id": 116487,
    "sfomuseum:placetype": "image",
    "sfomuseum:primary_image": 1,
    "src:geom": "sfomuseum",
    "wof:belongsto": [
      1511214209,
      1511947709,
      102527513,
      102191575,
      85633793,
      1511213801,
      85922583,
      102087579,
      1511214277,
      1511214203,
      85688637
    ],
    "wof:breaches": [],
    "wof:country": "US",
    "wof:created": 1578950403,
    "wof:depicts": [
      102527513,
      1511947709
    ],
    "wof:geomhash": "bd906905ce4be6c0651c90b0fc24804c",
    "wof:hierarchy": [
      {
        "arcade_id": 1511213801,
        "building_id": 1511214277,
        "campus_id": 102527513,
        "concourse_id": 1511214209,
        "continent_id": 102191575,
        "country_id": 85633793,
        "county_id": 102087579,
        "custom_id": 1527826669,
        "image_id": 1527826669,
        "locality_id": 85922583,
        "media_id": 1527826669,
        "neighbourhood_id": -1,
        "region_id": 85688637,
        "venue_id": 1511947709,
        "wing_id": 1511214203
      }
    ],
    "wof:id": 1527826669,
    "wof:lastmodified": 1788449822,
    "wof:name": "negative: San Francisco International Airport (SFO), aerial",
    "wof:parent_id": 1511947709,
    "wof:placetype": "custom",
    "wof:placetype_alt": [
      "image"
    ],
    "wof:repo": "sfomuseum-data-media-collection",
    "wof:superseded_by": [],
    "wof:supersedes": [],
    "wof:tags": []
  },
  "bbox": [
    -122.386155,
    37.616358,
    -122.386155,
    37.616358
  ],
  "geometry": {"type":"Point","coordinates":[-122.386155,37.616358]}
}
