{
  "id": 1729566799,
  "type": "Feature",
  "properties": {
    "date:cessation_lower": "1960-01-01",
    "date:cessation_upper": "1969-12-31",
    "date:inception_lower": "1960-01-01",
    "date:inception_upper": "1969-12-31",
    "edtf:cessation": "196X",
    "edtf:date": "",
    "edtf:inception": "196X",
    "geom:area": 0,
    "geom:bbox": "-122.386155,37.616357,-122.386155,37.616357",
    "geom:latitude": 37.616357,
    "geom:longitude": -122.386155,
    "iso:country": "XX",
    "media:fingerprint": "d06db0dfdccb8a40e327942b7fa598cecef994fd",
    "media:medium": "image",
    "media:properties": {
      "sizes": {
        "b": {
          "extension": "jpg",
          "height": 768,
          "mimetype": "image/jpeg",
          "secret": "5dh69tVwiWMHdwQGcaeOxo83cRf0RhdX",
          "width": 965
        },
        "c": {
          "extension": "jpg",
          "height": 600,
          "mimetype": "image/jpeg",
          "secret": "5dh69tVwiWMHdwQGcaeOxo83cRf0RhdX",
          "width": 754
        },
        "dc": {
          "extension": "jpg",
          "height": 600,
          "mimetype": "image/jpeg",
          "secret": "5dh69tVwiWMHdwQGcaeOxo83cRf0RhdX",
          "width": 754
        },
        "ds": {
          "extension": "jpg",
          "height": 320,
          "mimetype": "image/jpeg",
          "secret": "5dh69tVwiWMHdwQGcaeOxo83cRf0RhdX",
          "width": 320
        },
        "k": {
          "extension": "jpg",
          "height": 1536,
          "mimetype": "image/jpeg",
          "secret": "5dh69tVwiWMHdwQGcaeOxo83cRf0RhdX",
          "width": 1931
        },
        "n": {
          "extension": "jpg",
          "height": 240,
          "mimetype": "image/jpeg",
          "secret": "5dh69tVwiWMHdwQGcaeOxo83cRf0RhdX",
          "width": 301
        },
        "o": {
          "extension": "jpg",
          "height": 1667,
          "mimetype": "image/jpeg",
          "secret": "b5sy04mt9IhdjoFev6RTV4B7A1A80Xpb",
          "width": 2096
        },
        "s": {
          "extension": "jpg",
          "height": 320,
          "mimetype": "image/jpeg",
          "secret": "5dh69tVwiWMHdwQGcaeOxo83cRf0RhdX",
          "width": 320
        },
        "z": {
          "extension": "jpg",
          "height": 480,
          "mimetype": "image/jpeg",
          "secret": "5dh69tVwiWMHdwQGcaeOxo83cRf0RhdX",
          "width": 603
        }
      }
    },
    "media:source": "sfomuseum",
    "media:status_id": 1,
    "media:uri_template": "https://static.sfomuseum.org/media/172/956/679/9/1729566799_{secret}_{label}.{extension}",
    "millsfield:airline_id": [
      1159284241
    ],
    "millsfield:category_id": 1511214225,
    "millsfield:collection_id": 1511214203,
    "millsfield:company_id": [
      1159288321
    ],
    "millsfield:images_colors": [
      {
        "hex": "#a2a2a1",
        "name": "#a2a2a1",
        "reference": "marekm4"
      },
      {
        "hex": "#a9a9a9",
        "name": "darkgrey",
        "reference": "css4"
      },
      {
        "hex": "#979aaa",
        "name": "Manatee",
        "reference": "crayola"
      },
      {
        "hex": "#5a4a33",
        "name": "#5a4a33",
        "reference": "marekm4"
      },
      {
        "hex": "#556b2f",
        "name": "darkolivegreen",
        "reference": "css4"
      },
      {
        "hex": "#714b23",
        "name": "Raw Umber",
        "reference": "crayola"
      },
      {
        "hex": "#bb9e5d",
        "name": "#bb9e5d",
        "reference": "marekm4"
      },
      {
        "hex": "#bdb76b",
        "name": "darkkhaki",
        "reference": "css4"
      },
      {
        "hex": "#bab86c",
        "name": "Olive Green",
        "reference": "crayola"
      },
      {
        "hex": "#8d7344",
        "name": "#8d7344",
        "reference": "marekm4"
      },
      {
        "hex": "#a0522d",
        "name": "sienna",
        "reference": "css4"
      },
      {
        "hex": "#85754e",
        "name": "Gold Fusion",
        "reference": "crayola"
      }
    ],
    "millsfield:similar": {
      "apple/mobileclip_s0": [
        {
          "distance": 0.37685013,
          "id": 1796455441
        },
        {
          "distance": 0.4062402,
          "id": 1762946909
        },
        {
          "distance": 0.40859833,
          "id": 1863469459
        },
        {
          "distance": 0.40902653,
          "id": 1796444313
        },
        {
          "distance": 0.41152105,
          "id": 1763373107
        },
        {
          "distance": 0.41784298,
          "id": 1763373109
        },
        {
          "distance": 0.42418277,
          "id": 1796444707
        },
        {
          "distance": 0.42426172,
          "id": 1796444317
        },
        {
          "distance": 0.4273052,
          "id": 1762995737
        },
        {
          "distance": 0.4274292,
          "id": 1763373079
        }
      ],
      "apple/mobileclip_s1": [
        {
          "distance": 0.2827027,
          "id": 1779736295
        },
        {
          "distance": 0.2916313,
          "id": 1763373109
        },
        {
          "distance": 0.29331407,
          "id": 1762946773
        },
        {
          "distance": 0.2955666,
          "id": 1762946911
        },
        {
          "distance": 0.29710805,
          "id": 1762973637
        },
        {
          "distance": 0.2994067,
          "id": 1779590683
        },
        {
          "distance": 0.3013223,
          "id": 1763373075
        },
        {
          "distance": 0.30555823,
          "id": 1796414185
        },
        {
          "distance": 0.30653268,
          "id": 1763373049
        },
        {
          "distance": 0.30956978,
          "id": 1863470667
        }
      ],
      "apple/mobileclip_s2": [
        {
          "distance": 0.35116518,
          "id": 1796414221
        },
        {
          "distance": 0.40191087,
          "id": 1796414185
        },
        {
          "distance": 0.40675712,
          "id": 1796444551
        },
        {
          "distance": 0.40875536,
          "id": 1796444313
        },
        {
          "distance": 0.41967648,
          "id": 1796444705
        },
        {
          "distance": 0.42065942,
          "id": 1796414263
        },
        {
          "distance": 0.42719826,
          "id": 1762946773
        },
        {
          "distance": 0.42753264,
          "id": 1796444603
        },
        {
          "distance": 0.42879295,
          "id": 1762973637
        },
        {
          "distance": 0.43457848,
          "id": 1796444311
        }
      ]
    },
    "millsfield:subcategory_id": 1511213595,
    "mz:hierarchy_label": 1,
    "mz:is_current": -1,
    "sfomuseum:filename": "2012.147.384.tif",
    "sfomuseum:image_id": 192830,
    "sfomuseum:image_index": 5,
    "sfomuseum:image_type": "studio",
    "sfomuseum:object_id": 137505,
    "sfomuseum:placetype": "image",
    "sfomuseum:primary_image": 1,
    "src:geom": "sfomuseum",
    "wof:belongsto": [
      1511214225,
      1511952659,
      102527513,
      102191575,
      85633793,
      1511213595,
      85922583,
      102087579,
      1511214277,
      1511214203,
      85688637
    ],
    "wof:breaches": [],
    "wof:country": "XX",
    "wof:created": 1618963423,
    "wof:depicts": [
      1159288321,
      1159284241,
      1511952659,
      1159285655,
      1159288683,
      1159284245
    ],
    "wof:geomhash": "30c8a918561c84bb2daa2b97fc7c5353",
    "wof:hierarchy": [
      {
        "arcade_id": 1511213595,
        "building_id": 1511214277,
        "campus_id": 102527513,
        "concourse_id": 1511214225,
        "continent_id": 102191575,
        "country_id": 85633793,
        "county_id": 102087579,
        "custom_id": 1729566799,
        "image_id": 1729566799,
        "locality_id": 85922583,
        "media_id": 1729566799,
        "neighbourhood_id": -1,
        "region_id": 85688637,
        "venue_id": 1511952659,
        "wing_id": 1511214203
      }
    ],
    "wof:id": 1729566799,
    "wof:lastmodified": 1788450309,
    "wof:name": "flight officer wings: CSA (Ceske Aerolinie)",
    "wof:parent_id": 1511952659,
    "wof:placetype": "custom",
    "wof:placetype_alt": [
      "image"
    ],
    "wof:repo": "sfomuseum-data-media-collection",
    "wof:superseded_by": [],
    "wof:supersedes": [],
    "wof:tags": []
  },
  "bbox": [
    -122.386155,
    37.616357,
    -122.386155,
    37.616357
  ],
  "geometry": {"type":"Point","coordinates":[-122.386155,37.616357]}
}
