{
  "id": 1527846501,
  "type": "Feature",
  "properties": {
    "date:cessation_lower": "2009-01-01",
    "date:cessation_upper": "2009-12-31",
    "date:inception_lower": "2009-01-01",
    "date:inception_upper": "2009-12-31",
    "edtf:cessation": "2009",
    "edtf:date": "2009",
    "edtf:inception": "2009",
    "geom:area": 0,
    "geom:bbox": "-122.386155,37.616358,-122.386155,37.616358",
    "geom:latitude": 37.616358,
    "geom:longitude": -122.386155,
    "iso:country": "XX",
    "media:fingerprint": "97d88d601a57ce7f6fa630f79b8d12b6d900a921",
    "media:imagehash_avg": "a:ff800080c0fff9e0",
    "media:imagehash_diff": "d:26611715180a4b4b",
    "media:imagetext": "emirates.com\n\")\nEmirates\nFIFA PARTNER\nSOUTH\nAFRICA\n2010\nFIFA\nTimetable\nValid from 25th October 2009 to 27th March 2010\nNow serving Africa 138 times a week.",
    "media:imagetext_created": 1787952138,
    "media:imagetext_source": "com.apple.visionkit.VNImageRequestHandler#Version 26.6.2 (Build 25G83)",
    "media:medium": "image",
    "media:mimetype": "image/tiff",
    "media:properties": {
      "sizes": {
        "b": {
          "extension": "jpg",
          "height": 768,
          "mimetype": "image/jpeg",
          "secret": "CKb4VkrfjFNwFdOCJpt9OiSdDqzrUmyq",
          "width": 458
        },
        "c": {
          "extension": "jpg",
          "height": 600,
          "mimetype": "image/jpeg",
          "secret": "CKb4VkrfjFNwFdOCJpt9OiSdDqzrUmyq",
          "width": 358
        },
        "dc": {
          "extension": "jpg",
          "height": 600,
          "mimetype": "image/jpeg",
          "secret": "CKb4VkrfjFNwFdOCJpt9OiSdDqzrUmyq",
          "width": 358
        },
        "ds": {
          "extension": "jpg",
          "height": 320,
          "mimetype": "image/jpeg",
          "secret": "CKb4VkrfjFNwFdOCJpt9OiSdDqzrUmyq",
          "width": 320
        },
        "k": {
          "extension": "jpg",
          "height": 1536,
          "mimetype": "image/jpeg",
          "secret": "CKb4VkrfjFNwFdOCJpt9OiSdDqzrUmyq",
          "width": 917
        },
        "n": {
          "extension": "jpg",
          "height": 240,
          "mimetype": "image/jpeg",
          "secret": "CKb4VkrfjFNwFdOCJpt9OiSdDqzrUmyq",
          "width": 143
        },
        "o": {
          "extension": "jpg",
          "height": 2321,
          "mimetype": "image/jpeg",
          "secret": "XtMq3QTaHOhOFRAuYsmtRjeMUI3i4TPJ",
          "width": 1387
        },
        "s": {
          "extension": "jpg",
          "height": 320,
          "mimetype": "image/jpeg",
          "secret": "CKb4VkrfjFNwFdOCJpt9OiSdDqzrUmyq",
          "width": 320
        },
        "z": {
          "extension": "jpg",
          "height": 480,
          "mimetype": "image/jpeg",
          "secret": "CKb4VkrfjFNwFdOCJpt9OiSdDqzrUmyq",
          "width": 286
        }
      }
    },
    "media:source": "sfomuseum",
    "media:status_id": 1,
    "media:uri_template": "https://static.sfomuseum.org/media/152/784/650/1/1527846501_{secret}_{label}.{extension}",
    "millsfield:airline_id": [
      1159284333
    ],
    "millsfield:category_id": 1511214223,
    "millsfield:collection_id": 1511214207,
    "millsfield:company_id": [
      1159288417
    ],
    "millsfield:images_colors": [
      {
        "hex": "#523a0e",
        "name": "#523a0e",
        "reference": "marekm4"
      },
      {
        "hex": "#8b4513",
        "name": "saddlebrown",
        "reference": "css4"
      },
      {
        "hex": "#714b23",
        "name": "Raw Umber",
        "reference": "crayola"
      },
      {
        "hex": "#9a5b11",
        "name": "#9a5b11",
        "reference": "marekm4"
      },
      {
        "hex": "#c46210",
        "name": "Alloy Orange",
        "reference": "crayola"
      },
      {
        "hex": "#c9a336",
        "name": "#c9a336",
        "reference": "marekm4"
      },
      {
        "hex": "#daa520",
        "name": "goldenrod",
        "reference": "css4"
      },
      {
        "hex": "#d68a59",
        "name": "Raw Sienna",
        "reference": "crayola"
      },
      {
        "hex": "#d9d6c7",
        "name": "#d9d6c7",
        "reference": "marekm4"
      },
      {
        "hex": "#d3d3d3",
        "name": "lightgrey",
        "reference": "css4"
      },
      {
        "hex": "#dbd7d2",
        "name": "Timberwolf",
        "reference": "crayola"
      }
    ],
    "millsfield:images_texts": [
      "emirates.com\n\")\nEmirates\nFIFA PARTNER\nSOUTH\nAFRICA\n2010\nFIFA\nTimetable\nValid from 25th October 2009 to 27th March 2010\nNow serving Africa 138 times a week."
    ],
    "millsfield:images_texts_ids": [
      1527846501
    ],
    "millsfield:similar": {
      "apple/mobileclip_s0": [
        {
          "distance": 0.6191406,
          "id": 1527846385
        },
        {
          "distance": 0.63432634,
          "id": 1527840391
        },
        {
          "distance": 0.64083576,
          "id": 1527845771
        },
        {
          "distance": 0.64670295,
          "id": 1762699935
        },
        {
          "distance": 0.6476817,
          "id": 1527839183
        },
        {
          "distance": 0.64897776,
          "id": 1763256287
        },
        {
          "distance": 0.64936966,
          "id": 1527845869
        },
        {
          "distance": 0.6494579,
          "id": 1762714223
        },
        {
          "distance": 0.6499547,
          "id": 1762697471
        },
        {
          "distance": 0.6528299,
          "id": 1762702393
        }
      ],
      "apple/mobileclip_s1": [
        {
          "distance": 0.48214746,
          "id": 1763205285
        },
        {
          "distance": 0.48548925,
          "id": 1527847129
        },
        {
          "distance": 0.49128342,
          "id": 1527846385
        },
        {
          "distance": 0.49702072,
          "id": 1762699901
        },
        {
          "distance": 0.49840975,
          "id": 1527845865
        },
        {
          "distance": 0.50165266,
          "id": 1527840515
        },
        {
          "distance": 0.50428885,
          "id": 1527845863
        },
        {
          "distance": 0.50473,
          "id": 1527845857
        },
        {
          "distance": 0.50751144,
          "id": 1527840507
        },
        {
          "distance": 0.5080885,
          "id": 1762697543
        }
      ],
      "apple/mobileclip_s2": [
        {
          "distance": 0.6259673,
          "id": 1527846385
        },
        {
          "distance": 0.6658351,
          "id": 1527842801
        },
        {
          "distance": 0.6662229,
          "id": 1763205285
        },
        {
          "distance": 0.68063164,
          "id": 1527845867
        },
        {
          "distance": 0.68176043,
          "id": 1527847129
        },
        {
          "distance": 0.6885035,
          "id": 1527840515
        },
        {
          "distance": 0.6911343,
          "id": 1527849957
        },
        {
          "distance": 0.6912138,
          "id": 1763444125
        },
        {
          "distance": 0.6914109,
          "id": 1527840507
        },
        {
          "distance": 0.6919783,
          "id": 1762697645
        }
      ]
    },
    "millsfield:subcategory_id": 1511213425,
    "mz:hierarchy_label": 1,
    "mz:is_current": -1,
    "sfomuseum:filename": "2010.225.015.tif",
    "sfomuseum:image_id": 70920,
    "sfomuseum:image_index": 5,
    "sfomuseum:image_type": "studio",
    "sfomuseum:object_id": 111269,
    "sfomuseum:placetype": "image",
    "sfomuseum:primary_image": 1,
    "src:geom": "sfomuseum",
    "wof:belongsto": [
      1511214223,
      1511943041,
      102527513,
      102191575,
      85633793,
      1511213425,
      85922583,
      102087579,
      1511214277,
      1511214203,
      85688637
    ],
    "wof:breaches": [],
    "wof:country": "XX",
    "wof:created": 1578953520,
    "wof:depicts": [
      1159284333,
      1511943041,
      1159288417
    ],
    "wof:geomhash": "bd906905ce4be6c0651c90b0fc24804c",
    "wof:hierarchy": [
      {
        "arcade_id": 1511213425,
        "building_id": 1511214277,
        "campus_id": 102527513,
        "concourse_id": 1511214223,
        "continent_id": 102191575,
        "country_id": 85633793,
        "county_id": 102087579,
        "custom_id": 1527846501,
        "image_id": 1527846501,
        "locality_id": 85922583,
        "media_id": 1527846501,
        "neighbourhood_id": -1,
        "region_id": 85688637,
        "venue_id": 1511943041,
        "wing_id": 1511214203
      }
    ],
    "wof:id": 1527846501,
    "wof:lastmodified": 1788450113,
    "wof:name": "timetable: Emirates Airline",
    "wof:parent_id": 1511943041,
    "wof:placetype": "custom",
    "wof:placetype_alt": [
      "image"
    ],
    "wof:repo": "sfomuseum-data-media-collection",
    "wof:superseded_by": [],
    "wof:supersedes": [],
    "wof:tags": []
  },
  "bbox": [
    -122.386155,
    37.616358,
    -122.386155,
    37.616358
  ],
  "geometry": {"type":"Point","coordinates":[-122.386155,37.616358]}
}
