{
  "id": 1913802305,
  "type": "Feature",
  "properties": {
    "date:cessation_lower": "1935-08-02",
    "date:cessation_upper": "1935-08-02",
    "date:inception_lower": "1935-08-02",
    "date:inception_upper": "1935-08-02",
    "edtf:cessation": "1935-08-02",
    "edtf:inception": "1935-08-02",
    "geom:area": 2.477324999997507e-7,
    "geom:bbox": "-122.386472,37.616105,-122.385834,37.616611",
    "geom:latitude": 37.61635756125121,
    "geom:longitude": -122.38615532866096,
    "media:fingerprint": "7b6ec429c0a5c1f58391144e695ed88e64c390d0",
    "media:imagehash_avg": "a:ff808080808080ff",
    "media:imagehash_diff": "d:5252704a20685341",
    "media:imagetext": "Laurence College na rontalle. yor\ncan magent an Embarras ment en\ndancing with hee after learning that.\nHow she is a good spot and\npretraded that the did rit mind\nmy manipulations.\n- know you\nwe likes hes a lot and hopr\nfor will be able to do dorsthing\nfor her in Heparg\nAlso she wall\nCall on Caddy and gear her\nall the latest news abort us.\nI Can hardl, wart to get up\nto Priping and am trong you\nwith note right now that i\nExpect you to\nmest try to manda. Life quet isnt\naft this om going\nalong whitin o go. Carr man\nstuff! mayte so. but Dibs dear\nyor aar so much a part of\nme that I'm just no good",
    "media:imagetext_created": 1787972790,
    "media:imagetext_source": "com.apple.visionkit.VNImageRequestHandler#Version 26.6.2 (Build 25G83)",
    "media:mimetype": "image/tiff",
    "media:properties": {
      "sizes": {
        "b": {
          "extension": "jpg",
          "height": 768,
          "mimetype": "image/jpeg",
          "secret": "hWgnGa2q5Ipv8HqTM7z07jr0NRzm93sL",
          "width": 594
        },
        "c": {
          "extension": "jpg",
          "height": 600,
          "mimetype": "image/jpeg",
          "secret": "hWgnGa2q5Ipv8HqTM7z07jr0NRzm93sL",
          "width": 464
        },
        "dc": {
          "extension": "jpg",
          "height": 600,
          "mimetype": "image/jpeg",
          "secret": "hWgnGa2q5Ipv8HqTM7z07jr0NRzm93sL",
          "width": 464
        },
        "ds": {
          "extension": "jpg",
          "height": 320,
          "mimetype": "image/jpeg",
          "secret": "hWgnGa2q5Ipv8HqTM7z07jr0NRzm93sL",
          "width": 320
        },
        "k": {
          "extension": "jpg",
          "height": 1536,
          "mimetype": "image/jpeg",
          "secret": "hWgnGa2q5Ipv8HqTM7z07jr0NRzm93sL",
          "width": 1189
        },
        "n": {
          "extension": "jpg",
          "height": 240,
          "mimetype": "image/jpeg",
          "secret": "hWgnGa2q5Ipv8HqTM7z07jr0NRzm93sL",
          "width": 185
        },
        "o": {
          "extension": "jpg",
          "height": 2000,
          "mimetype": "image/jpeg",
          "secret": "vEI2WCFu6edbWtH4DhWJqPAZHrux4et5",
          "width": 1549
        },
        "s": {
          "extension": "jpg",
          "height": 320,
          "mimetype": "image/jpeg",
          "secret": "hWgnGa2q5Ipv8HqTM7z07jr0NRzm93sL",
          "width": 320
        },
        "z": {
          "extension": "jpg",
          "height": 480,
          "mimetype": "image/jpeg",
          "secret": "hWgnGa2q5Ipv8HqTM7z07jr0NRzm93sL",
          "width": 371
        }
      }
    },
    "media:source": "sfomuseum",
    "media:status_id": 1,
    "media:uri_template": "https://static.sfomuseum.org/media/191/380/230/5/1913802305_{secret}_{label}.{extension}",
    "millsfield:airline_id": [
      1159284991
    ],
    "millsfield:category_id": 1511214251,
    "millsfield:collection_id": 1511214207,
    "millsfield:company_id": [
      1159286839
    ],
    "millsfield:images_colors": [
      {
        "hex": "#e4d6b4",
        "name": "#e4d6b4",
        "reference": "marekm4"
      },
      {
        "hex": "#f5deb3",
        "name": "wheat",
        "reference": "css4"
      },
      {
        "hex": "#efcdb8",
        "name": "Desert Sand",
        "reference": "crayola"
      },
      {
        "hex": "#424436",
        "name": "#424436",
        "reference": "marekm4"
      },
      {
        "hex": "#2f4f4f",
        "name": "darkslategrey",
        "reference": "css4"
      },
      {
        "hex": "#414a4c",
        "name": "Outer Space",
        "reference": "crayola"
      }
    ],
    "millsfield:images_texts": [
      "AMERICAN MAIL LINE\nJAPAN • CHINA • PHILIPPINES\nROUND THE WORLD\naug 2\nOn BOARD\nDebs dear -\nver planned to\nwait Hongkong - look\nour the airport and\nharbor and thin go\nSaturday to Macao and\nSat night\ntake a\nnight teat to Carter.\nNow was fuad that\nthen is no boat Sat.\nnight from macao to\nCanton\n- alao this is\na typhoon foolery\narouna Canon:\nalso us last",
      "lots of reporto to urite - so uz\ndecided to post gone our tryo to\nMacao and the flight along the\nChina coast and stay on thi\nboat.\nI hate to paos up tke\nflight but think wet prakahly.\nget mark done and again te\nmore certara\nof gas ta\nAng 5. Approaching Shanghai\nI have writa a smale back\nto go to n.y. with deaft\ncontracts - radio station leat\nand othe papers. Juet radios\nLisa to work tonight and wale\nhair hum\nty my long hand\nscrabble.\nur hair had a fail, rough\ntrip ace the way from marla\nwith the sra tumbled about be\ntyphoon disturbaners in thin\nwhole granal area. Now alls wise",
      "and 2 am looking.\nforward with some\nmungeong to roughe\nsas in Shanghai\nwhen I hair to go\nround and round\nwith Dai and Huang.\nI hajr to get up\nto Pti pung with john\nStrike frat as soon as\npossibce probate, by\nSaturday' planz and\nstay over\nuate the\nwirdnesday\nplans.\nHao qura a litte\nof introduction\nto this.\nmarian Knighton\nand hope\n209.121.09259",
      "*\nAMERICAN MAIL LINE\nJAPAN • CHINA • PHILIPPINES\nROUND THE WORLD\nshe\nлям воок you мр\nON BOARD\ndoor\nas the arrors\nat his Chimns where the\nplans to stay.\nI met\nher in thanila where\nshe was waiting the\nwif of one of the\nStandard Die men. She\nhas brin on the feffraun\nand us hair saen a\nlot of her as thee\nis no one\nboand at ace entrating.\nShe tracker\ndancing at Sarah",
      "Laurence College na rontalle. yor\ncan magent an Embarras ment en\ndancing with hee after learning that.\nHow she is a good spot and\npretraded that the did rit mind\nmy manipulations.\n- know you\nwe likes hes a lot and hopr\nfor will be able to do dorsthing\nfor her in Heparg\nAlso she wall\nCall on Caddy and gear her\nall the latest news abort us.\nI Can hardl, wart to get up\nto Priping and am trong you\nwith note right now that i\nExpect you to\nmest try to manda. Life quet isnt\naft this om going\nalong whitin o go. Carr man\nstuff! mayte so. but Dibs dear\nyor aar so much a part of\nme that I'm just no good",
      "without you and when\n9 go on a trip like\nthis it you porcide,\ncan lear the kid t\nwant you to go along.\nmust wit some\nmor dope for ny.\nnow.\nAll my lou to you\ndearest and Fee be\ncounting\nthe day\nuntie Saturday.\nyour was own\nBix\n201912109256"
    ],
    "millsfield:images_texts_ids": [
      1913802297,
      1913802299,
      1913802301,
      1913802303,
      1913802305,
      1913802307
    ],
    "millsfield:similar": {
      "apple/mobileclip_s0": [
        {
          "distance": 0.23546174,
          "id": 1913802299
        },
        {
          "distance": 0.24981304,
          "id": 1913801775
        },
        {
          "distance": 0.25144216,
          "id": 1913796799
        },
        {
          "distance": 0.25801152,
          "id": 1913802073
        },
        {
          "distance": 0.25858712,
          "id": 1913800231
        },
        {
          "distance": 0.26027468,
          "id": 1913796695
        },
        {
          "distance": 0.2622808,
          "id": 1913801209
        },
        {
          "distance": 0.26515085,
          "id": 1913800133
        },
        {
          "distance": 0.26532188,
          "id": 1913801945
        },
        {
          "distance": 0.26765218,
          "id": 1880201543
        }
      ],
      "apple/mobileclip_s1": [
        {
          "distance": 0.17775692,
          "id": 1913801507
        },
        {
          "distance": 0.18017843,
          "id": 1913802299
        },
        {
          "distance": 0.18436682,
          "id": 1913800305
        },
        {
          "distance": 0.186633,
          "id": 1913800573
        },
        {
          "distance": 0.18900338,
          "id": 1913800571
        },
        {
          "distance": 0.19175512,
          "id": 1913801785
        },
        {
          "distance": 0.19283918,
          "id": 1913768977
        },
        {
          "distance": 0.19548257,
          "id": 1913802061
        },
        {
          "distance": 0.19555776,
          "id": 1913801323
        },
        {
          "distance": 0.1957188,
          "id": 1913802097
        }
      ],
      "apple/mobileclip_s2": [
        {
          "distance": 0.23283663,
          "id": 1913800571
        },
        {
          "distance": 0.24091093,
          "id": 1913801507
        },
        {
          "distance": 0.24849088,
          "id": 1913768925
        },
        {
          "distance": 0.2492824,
          "id": 1913802299
        },
        {
          "distance": 0.250118,
          "id": 1913800323
        },
        {
          "distance": 0.25079522,
          "id": 1913801851
        },
        {
          "distance": 0.25494242,
          "id": 1913796799
        },
        {
          "distance": 0.25629124,
          "id": 1913801479
        },
        {
          "distance": 0.25983506,
          "id": 1913799819
        },
        {
          "distance": 0.26339355,
          "id": 1913800567
        }
      ]
    },
    "millsfield:subcategory_id": 1511213489,
    "mz:is_current": 1,
    "sfomuseum:filename": "2019.121.0925b_2.tif",
    "sfomuseum:image_id": 231077,
    "sfomuseum:image_index": 0,
    "sfomuseum:image_type": "studio",
    "sfomuseum:object_id": 211288,
    "sfomuseum:placetype": "image",
    "sfomuseum:primary_image": 0,
    "src:geom": "sfomuseum",
    "wof:belongsto": [
      102527513,
      1159162825,
      102191575,
      85633793,
      102087579,
      85922583,
      1913796667,
      85688637,
      1159160869
    ],
    "wof:country": "XY",
    "wof:created": 1714551854,
    "wof:depicts": [
      1159286839,
      1913796667,
      1159284991
    ],
    "wof:geomhash": "ed7c2ab3547fc3916b5edc33488deaa7",
    "wof:hierarchy": [
      {
        "building_id": -1,
        "campus_id": 102527513,
        "collection_id": 1159162825,
        "concourse_id": 1159162825,
        "continent_id": 102191575,
        "country_id": 85633793,
        "county_id": 102087579,
        "custom_id": 1913802305,
        "image_id": 1913802305,
        "locality_id": 85922583,
        "neighbourhood_id": -1,
        "object_id": 1913796667,
        "region_id": 85688637,
        "wing_id": 1159160869
      }
    ],
    "wof:id": 1913802305,
    "wof:lastmodified": 1788220458,
    "wof:name": "correspondence: Harold M. Bixby to Debby Bixby",
    "wof:parent_id": 1913796667,
    "wof:placetype": "custom",
    "wof:placetype_alt": [
      "image"
    ],
    "wof:repo": "sfomuseum-data-media-collection",
    "wof:superseded_by": [],
    "wof:supersedes": []
  },
  "bbox": [
    -122.386472,
    37.616105,
    -122.385834,
    37.616611
  ],
  "geometry": {"type":"Polygon","coordinates":[[[-122.386472,37.616318],[-122.386435,37.616233],[-122.386376,37.616178],[-122.386301,37.616131],[-122.386161,37.616105],[-122.386022,37.616131],[-122.385914,37.616186],[-122.385855,37.616267],[-122.385834,37.616369],[-122.385871,37.616467],[-122.385941,37.616543],[-122.386054,37.616603],[-122.386183,37.616611],[-122.386306,37.616573],[-122.386419,37.616509],[-122.386467,37.616411],[-122.386472,37.616318]]]}
}
