{
  "id": 1746308089,
  "type": "Feature",
  "properties": {
    "date:cessation_lower": "1972-01-01",
    "date:cessation_upper": "1972-12-31",
    "date:inception_lower": "1972-01-01",
    "date:inception_upper": "1972-12-31",
    "edtf:cessation": "1972",
    "edtf:date": "1972",
    "edtf:inception": "1972",
    "geom:area": 0,
    "geom:bbox": "-122.386155,37.616357,-122.386155,37.616357",
    "geom:latitude": 37.616357,
    "geom:longitude": -122.386155,
    "iso:country": "XX",
    "media:fingerprint": "8d4dc4a66ffb881456099cae65c46fd3b80b4e53",
    "media:imagehash_avg": "a:4343434367676777",
    "media:imagehash_diff": "d:cf8f8e8fcfcecfef",
    "media:imagetext": "HORS D'OEUVRE\nA selection of specialties from Hawaii\nENTREES\nRoast Sirloin of Beef\nBarbecued Chicken\nBraised Salmon in Champagne Sauce\nGrenadins of Veal with Tarragon Sauce\nButtered Garden Vegetables\nRice Croquettes\nSalad in Season\nSelection of Cheeses\nFruit Basket\nSweet Course\nCoffee\nSanka\nTea\n466(3170) 9/72",
    "media:imagetext_created": 1787954703,
    "media:imagetext_source": "com.apple.visionkit.VNImageRequestHandler#Version 26.6.2 (Build 25G83)",
    "media:mimetype": "image/tiff",
    "media:properties": {
      "sizes": {
        "b": {
          "extension": "jpg",
          "height": 768,
          "mimetype": "image/jpeg",
          "secret": "bdQ6YFoFY1nCo4gXKQsSmDdqEcs862qX",
          "width": 506
        },
        "c": {
          "extension": "jpg",
          "height": 600,
          "mimetype": "image/jpeg",
          "secret": "bdQ6YFoFY1nCo4gXKQsSmDdqEcs862qX",
          "width": 395
        },
        "dc": {
          "extension": "jpg",
          "height": 600,
          "mimetype": "image/jpeg",
          "secret": "bdQ6YFoFY1nCo4gXKQsSmDdqEcs862qX",
          "width": 395
        },
        "ds": {
          "extension": "jpg",
          "height": 320,
          "mimetype": "image/jpeg",
          "secret": "bdQ6YFoFY1nCo4gXKQsSmDdqEcs862qX",
          "width": 320
        },
        "k": {
          "extension": "jpg",
          "height": 1536,
          "mimetype": "image/jpeg",
          "secret": "bdQ6YFoFY1nCo4gXKQsSmDdqEcs862qX",
          "width": 1012
        },
        "n": {
          "extension": "jpg",
          "height": 240,
          "mimetype": "image/jpeg",
          "secret": "bdQ6YFoFY1nCo4gXKQsSmDdqEcs862qX",
          "width": 158
        },
        "o": {
          "extension": "jpg",
          "height": 2000,
          "mimetype": "image/jpeg",
          "secret": "dZDbfhyLa5G4ZJMT7kY53ZVO3LUiRBUp",
          "width": 1319
        },
        "s": {
          "extension": "jpg",
          "height": 320,
          "mimetype": "image/jpeg",
          "secret": "bdQ6YFoFY1nCo4gXKQsSmDdqEcs862qX",
          "width": 320
        },
        "z": {
          "extension": "jpg",
          "height": 480,
          "mimetype": "image/jpeg",
          "secret": "bdQ6YFoFY1nCo4gXKQsSmDdqEcs862qX",
          "width": 316
        }
      }
    },
    "media:source": "sfomuseum",
    "media:status_id": 1,
    "media:uri_template": "https://static.sfomuseum.org/media/174/630/808/9/1746308089_{secret}_{label}.{extension}",
    "millsfield:airline_id": [
      1159284989
    ],
    "millsfield:category_id": 1762671311,
    "millsfield:collection_id": 1511214207,
    "millsfield:company_id": [
      1159286839
    ],
    "millsfield:images_colors": [
      {
        "hex": "#f5edd7",
        "name": "#f5edd7",
        "reference": "marekm4"
      },
      {
        "hex": "#faebd7",
        "name": "antiquewhite",
        "reference": "css4"
      },
      {
        "hex": "#efdecd",
        "name": "Almond",
        "reference": "crayola"
      },
      {
        "hex": "#45442a",
        "name": "#45442a",
        "reference": "marekm4"
      },
      {
        "hex": "#556b2f",
        "name": "darkolivegreen",
        "reference": "css4"
      },
      {
        "hex": "#414a4c",
        "name": "Outer Space",
        "reference": "crayola"
      }
    ],
    "millsfield:images_texts": [
      "HORS D'OEUVRE\nA selection of specialties from Hawaii\nENTREES\nRoast Sirloin of Beef\nBarbecued Chicken\nBraised Salmon in Champagne Sauce\nGrenadins of Veal with Tarragon Sauce\nButtered Garden Vegetables\nRice Croquettes\nSalad in Season\nSelection of Cheeses\nFruit Basket\nSweet Course\nCoffee\nSanka\nTea",
      "PanAm.\nSherry\nDubonnet\nCampari\nNoilly Prat\nManhattan\nMartini\nBloody Mary\nScrewdriver\nWhiskey Sour\nTom Collins\nVodka Collins\nScotch\nBourbon\nCanadian\nGin\nVodka\nRum\nBeer\nRed - Cabernet Sauvignon\nWhite - Pinot Chardonnay\nChampagne - Almaden\nBlanc de Blancs\nGalliano\nDrambuie\nBénédictine\nCrème de Menthe\nCognac VSOP\nBénédictine and Brandy",
      "HORS D'OEUVRE\nA selection of specialties from Hawaii\nENTREES\nRoast Sirloin of Beef\nBarbecued Chicken\nBraised Salmon in Champagne Sauce\nGrenadins of Veal with Tarragon Sauce\nButtered Garden Vegetables\nRice Croquettes\nSalad in Season\nSelection of Cheeses\nFruit Basket\nSweet Course\nCoffee\nSanka\nTea\n466(3170) 9/72",
      "• PanAm\n2000.0589594"
    ],
    "millsfield:images_texts_ids": [
      1527844947,
      1746308087,
      1746308089,
      1746308091
    ],
    "millsfield:similar": {
      "apple/mobileclip_s0": [
        {
          "distance": 0.271987,
          "id": 1779697171
        },
        {
          "distance": 0.3082916,
          "id": 1746308081
        },
        {
          "distance": 0.40817574,
          "id": 1779736795
        },
        {
          "distance": 0.41354764,
          "id": 1762899517
        },
        {
          "distance": 0.42640033,
          "id": 1779736727
        },
        {
          "distance": 0.43003225,
          "id": 1779736735
        },
        {
          "distance": 0.43893886,
          "id": 1779736813
        },
        {
          "distance": 0.4394692,
          "id": 1779736717
        },
        {
          "distance": 0.47089493,
          "id": 1863469975
        },
        {
          "distance": 0.50203735,
          "id": 1847553601
        }
      ],
      "apple/mobileclip_s1": [
        {
          "distance": 0.22892575,
          "id": 1746308081
        },
        {
          "distance": 0.23096143,
          "id": 1779697171
        },
        {
          "distance": 0.29799762,
          "id": 1762899517
        },
        {
          "distance": 0.30235907,
          "id": 1779736727
        },
        {
          "distance": 0.31853452,
          "id": 1779736795
        },
        {
          "distance": 0.33117127,
          "id": 1779736735
        },
        {
          "distance": 0.33269992,
          "id": 1746308055
        },
        {
          "distance": 0.34597778,
          "id": 1779736813
        },
        {
          "distance": 0.3466403,
          "id": 1779736717
        },
        {
          "distance": 0.37833434,
          "id": 1863469975
        }
      ],
      "apple/mobileclip_s2": [
        {
          "distance": 0.20667584,
          "id": 1779697171
        },
        {
          "distance": 0.2556112,
          "id": 1746308081
        },
        {
          "distance": 0.42119676,
          "id": 1779736795
        },
        {
          "distance": 0.4337087,
          "id": 1746308055
        },
        {
          "distance": 0.44362578,
          "id": 1762899517
        },
        {
          "distance": 0.44616568,
          "id": 1779736727
        },
        {
          "distance": 0.4623128,
          "id": 1779736717
        },
        {
          "distance": 0.4702808,
          "id": 1863469753
        },
        {
          "distance": 0.47356972,
          "id": 1779666411
        },
        {
          "distance": 0.48305488,
          "id": 1779736735
        }
      ]
    },
    "millsfield:subcategory_id": 1511213567,
    "mz:is_current": 1,
    "sfomuseum:filename": "2000.058.0594_int2.tif",
    "sfomuseum:image_id": 244376,
    "sfomuseum:image_index": 5,
    "sfomuseum:image_type": "studio",
    "sfomuseum:object_id": 51712,
    "sfomuseum:placetype": "image",
    "sfomuseum:primary_image": 0,
    "src:geom": "sfomuseum",
    "wof:belongsto": [
      102527513,
      1159162825,
      102191575,
      85633793,
      102087579,
      85922583,
      85688637,
      1511910355,
      1159160869
    ],
    "wof:country": "XX",
    "wof:created": 1631039259,
    "wof:depicts": [
      1159286839,
      1159284989,
      1511910355
    ],
    "wof:geomhash": "30c8a918561c84bb2daa2b97fc7c5353",
    "wof:hierarchy": [
      {
        "building_id": -1,
        "campus_id": 102527513,
        "concourse_id": 1159162825,
        "continent_id": 102191575,
        "country_id": 85633793,
        "county_id": 102087579,
        "custom_id": 1746308089,
        "image_id": 1746308089,
        "locality_id": 85922583,
        "neighbourhood_id": -1,
        "region_id": 85688637,
        "venue_id": 1511910355,
        "wing_id": 1159160869
      }
    ],
    "wof:id": 1746308089,
    "wof:lastmodified": 1788450317,
    "wof:name": "menu: Pan American World Airways",
    "wof:parent_id": 1511910355,
    "wof:placetype": "custom",
    "wof:placetype_alt": [
      "image"
    ],
    "wof:repo": "sfomuseum-data-media-collection",
    "wof:superseded_by": [],
    "wof:supersedes": []
  },
  "bbox": [
    -122.386155,
    37.616357,
    -122.386155,
    37.616357
  ],
  "geometry": {"type":"Point","coordinates":[-122.386155,37.616357]}
}
