{
  "id": 1527827575,
  "type": "Feature",
  "properties": {
    "date:cessation_lower": "1970-01-01",
    "date:cessation_upper": "1970-12-31",
    "date:inception_lower": "1970-01-01",
    "date:inception_upper": "1970-12-31",
    "edtf:cessation": "1970",
    "edtf:date": "1970",
    "edtf:inception": "1970",
    "geom:area": 0,
    "geom:bbox": "-122.386155,37.616358,-122.386155,37.616358",
    "geom:latitude": 37.616358,
    "geom:longitude": -122.386155,
    "iso:country": "US",
    "media:fingerprint": "6e74b1291b13e08b17cc5fa9ab3ab2f57334ccea",
    "media:imagehash_avg": "a:7f7f7f7f49000000",
    "media:imagehash_diff": "d:f8f0f0f5939b1999",
    "media:imagetext": "N FRANCISCO\nTIONAL AIRPORT TERMINAL\nELMER E. ROBINSON\nMATOR\nLIC UTILITIES COMMISSION\nOLIVER M. ROUSSEAU FREL\nVANSON Y. FEEL\nSAM MCKEE\nAMBRON\nEDW. B. BARON\nDION \u0026. HOLM SITT ATTORRET\nDARD\nOF\nSUPERVISORS\nSEO. 4 GERISTOPREL PEEL\nBREY\nMARVIN E.\nL RUGENE\nGIS M:0\nGL\nURNER\nITILITIES\nFREDERIC\nMANAGER\nTIES ENGIMEERING BL\nTD\nE DAY\nARBITE\nCOOPEI\nASTISE\nА би\nTHOI\n1108\nFLAGSE PESI\nTUART",
    "media:imagetext_created": 1787948867,
    "media:imagetext_source": "com.apple.visionkit.VNImageRequestHandler#Version 26.6.2 (Build 25G83)",
    "media:medium": "image",
    "media:mimetype": "image/tiff",
    "media:properties": {
      "sizes": {
        "b": {
          "extension": "jpg",
          "height": 670,
          "mimetype": "image/jpeg",
          "secret": "Rmgi1TKIq4HJZKMdcs6K3FGXy3IlYtXe",
          "width": 1024
        },
        "c": {
          "extension": "jpg",
          "height": 523,
          "mimetype": "image/jpeg",
          "secret": "Rmgi1TKIq4HJZKMdcs6K3FGXy3IlYtXe",
          "width": 800
        },
        "dc": {
          "extension": "jpg",
          "height": 523,
          "mimetype": "image/jpeg",
          "secret": "Rmgi1TKIq4HJZKMdcs6K3FGXy3IlYtXe",
          "width": 800
        },
        "ds": {
          "extension": "jpg",
          "height": 320,
          "mimetype": "image/jpeg",
          "secret": "Rmgi1TKIq4HJZKMdcs6K3FGXy3IlYtXe",
          "width": 320
        },
        "k": {
          "extension": "jpg",
          "height": 1340,
          "mimetype": "image/jpeg",
          "secret": "Rmgi1TKIq4HJZKMdcs6K3FGXy3IlYtXe",
          "width": 2048
        },
        "n": {
          "extension": "jpg",
          "height": 209,
          "mimetype": "image/jpeg",
          "secret": "Rmgi1TKIq4HJZKMdcs6K3FGXy3IlYtXe",
          "width": 320
        },
        "o": {
          "extension": "jpg",
          "height": 1081,
          "mimetype": "image/jpeg",
          "secret": "XpBKmyWn7COqBy17OuPgHQf1F2zadxDz",
          "width": 1652
        },
        "s": {
          "extension": "jpg",
          "height": 320,
          "mimetype": "image/jpeg",
          "secret": "Rmgi1TKIq4HJZKMdcs6K3FGXy3IlYtXe",
          "width": 320
        },
        "z": {
          "extension": "jpg",
          "height": 418,
          "mimetype": "image/jpeg",
          "secret": "Rmgi1TKIq4HJZKMdcs6K3FGXy3IlYtXe",
          "width": 640
        }
      }
    },
    "media:source": "sfomuseum",
    "media:status_id": 1,
    "media:uri_template": "https://static.sfomuseum.org/media/152/782/757/5/1527827575_{secret}_{label}.{extension}",
    "millsfield:airport_id": [
      102527513
    ],
    "millsfield:category_id": 1511214209,
    "millsfield:collection_id": 1511214207,
    "millsfield:images_colors": [
      {
        "hex": "#313326",
        "name": "#313326",
        "reference": "marekm4"
      },
      {
        "hex": "#2f4f4f",
        "name": "darkslategrey",
        "reference": "css4"
      },
      {
        "hex": "#414a4c",
        "name": "Outer Space",
        "reference": "crayola"
      },
      {
        "hex": "#d9d598",
        "name": "#d9d598",
        "reference": "marekm4"
      },
      {
        "hex": "#f0e68c",
        "name": "khaki",
        "reference": "css4"
      },
      {
        "hex": "#e7c697",
        "name": "Gold",
        "reference": "crayola"
      },
      {
        "hex": "#a8a368",
        "name": "#a8a368",
        "reference": "marekm4"
      },
      {
        "hex": "#bdb76b",
        "name": "darkkhaki",
        "reference": "css4"
      },
      {
        "hex": "#bab86c",
        "name": "Olive Green",
        "reference": "crayola"
      },
      {
        "hex": "#9a7148",
        "name": "#9a7148",
        "reference": "marekm4"
      },
      {
        "hex": "#a0522d",
        "name": "sienna",
        "reference": "css4"
      },
      {
        "hex": "#a5694f",
        "name": "Sepia",
        "reference": "crayola"
      },
      {
        "hex": "#7c8350",
        "name": "#7c8350",
        "reference": "marekm4"
      },
      {
        "hex": "#696969",
        "name": "dimgrey",
        "reference": "css4"
      },
      {
        "hex": "#85754e",
        "name": "Gold Fusion",
        "reference": "crayola"
      }
    ],
    "millsfield:images_texts": [
      "N FRANCISCO\nTIONAL AIRPORT TERMINAL\nELMER E. ROBINSON\nMATOR\nLIC UTILITIES COMMISSION\nOLIVER M. ROUSSEAU FREL\nVANSON Y. FEEL\nSAM MCKEE\nAMBRON\nEDW. B. BARON\nDION \u0026. HOLM SITT ATTORRET\nDARD\nOF\nSUPERVISORS\nSEO. 4 GERISTOPREL PEEL\nBREY\nMARVIN E.\nL RUGENE\nGIS M:0\nGL\nURNER\nITILITIES\nFREDERIC\nMANAGER\nTIES ENGIMEERING BL\nTD\nE DAY\nARBITE\nCOOPEI\nASTISE\nА би\nTHOI\n1108\nFLAGSE PESI\nTUART"
    ],
    "millsfield:images_texts_ids": [
      1527827575
    ],
    "millsfield:similar": {
      "apple/mobileclip_s0": [
        {
          "distance": 0.34351256,
          "id": 1527827573
        },
        {
          "distance": 0.4193168,
          "id": 1527828175
        },
        {
          "distance": 0.47073466,
          "id": 1527827579
        },
        {
          "distance": 0.4894072,
          "id": 1527828173
        },
        {
          "distance": 0.5096255,
          "id": 1527827485
        },
        {
          "distance": 0.5230095,
          "id": 1527827161
        },
        {
          "distance": 0.5473299,
          "id": 1762895219
        },
        {
          "distance": 0.5475699,
          "id": 1527827159
        },
        {
          "distance": 0.5481128,
          "id": 1527827479
        },
        {
          "distance": 0.5532554,
          "id": 1527827483
        }
      ],
      "apple/mobileclip_s1": [
        {
          "distance": 0.3488926,
          "id": 1527828173
        },
        {
          "distance": 0.36864033,
          "id": 1527827573
        },
        {
          "distance": 0.39400727,
          "id": 1527828175
        },
        {
          "distance": 0.4230564,
          "id": 1527827579
        },
        {
          "distance": 0.4352182,
          "id": 1527827577
        },
        {
          "distance": 0.47635368,
          "id": 1527827485
        },
        {
          "distance": 0.47948214,
          "id": 1527827479
        },
        {
          "distance": 0.48643693,
          "id": 1527827159
        },
        {
          "distance": 0.48851863,
          "id": 1527827569
        },
        {
          "distance": 0.48969573,
          "id": 1527822217
        }
      ],
      "apple/mobileclip_s2": [
        {
          "distance": 0.44324672,
          "id": 1527828173
        },
        {
          "distance": 0.4645646,
          "id": 1527827573
        },
        {
          "distance": 0.47828636,
          "id": 1527828175
        },
        {
          "distance": 0.5156183,
          "id": 1527827579
        },
        {
          "distance": 0.5594294,
          "id": 1527827159
        },
        {
          "distance": 0.55983585,
          "id": 1527827577
        },
        {
          "distance": 0.57351154,
          "id": 1527827479
        },
        {
          "distance": 0.57774854,
          "id": 1527827485
        },
        {
          "distance": 0.5819073,
          "id": 1527822217
        },
        {
          "distance": 0.58205795,
          "id": 1527822163
        }
      ]
    },
    "millsfield:subcategory_id": 1511213801,
    "mz:hierarchy_label": 1,
    "mz:is_current": -1,
    "sfomuseum:filename": "44148.tif",
    "sfomuseum:image_id": 44148,
    "sfomuseum:image_index": 5,
    "sfomuseum:image_type": "studio",
    "sfomuseum:object_id": 116887,
    "sfomuseum:placetype": "image",
    "sfomuseum:primary_image": 1,
    "src:geom": "sfomuseum",
    "wof:belongsto": [
      1511214209,
      1511948609,
      102527513,
      102191575,
      85633793,
      1511213801,
      85922583,
      102087579,
      1511214277,
      1511214203,
      85688637
    ],
    "wof:breaches": [],
    "wof:country": "US",
    "wof:created": 1578950546,
    "wof:depicts": [
      1511948609,
      102527513
    ],
    "wof:geomhash": "bd906905ce4be6c0651c90b0fc24804c",
    "wof:hierarchy": [
      {
        "arcade_id": 1511213801,
        "building_id": 1511214277,
        "campus_id": 102527513,
        "concourse_id": 1511214209,
        "continent_id": 102191575,
        "country_id": 85633793,
        "county_id": 102087579,
        "custom_id": 1527827575,
        "image_id": 1527827575,
        "locality_id": 85922583,
        "media_id": 1527827575,
        "neighbourhood_id": -1,
        "region_id": 85688637,
        "venue_id": 1511948609,
        "wing_id": 1511214203
      }
    ],
    "wof:id": 1527827575,
    "wof:lastmodified": 1788449835,
    "wof:name": "negative: San Francisco International Airport (SFO)",
    "wof:parent_id": 1511948609,
    "wof:placetype": "custom",
    "wof:placetype_alt": [
      "image"
    ],
    "wof:repo": "sfomuseum-data-media-collection",
    "wof:superseded_by": [],
    "wof:supersedes": [],
    "wof:tags": []
  },
  "bbox": [
    -122.386155,
    37.616358,
    -122.386155,
    37.616358
  ],
  "geometry": {"type":"Point","coordinates":[-122.386155,37.616358]}
}
