{
  "id": 1880508151,
  "type": "Feature",
  "properties": {
    "date:cessation_lower": "2000-04-01",
    "date:cessation_upper": "2000-04-30",
    "date:inception_lower": "2000-01-01",
    "date:inception_upper": "2000-01-31",
    "edtf:cessation": "2000-04",
    "edtf:inception": "2000-01",
    "geom:area": 2.477324999997507e-7,
    "geom:bbox": "-122.386472,37.616105,-122.385834,37.616611",
    "geom:latitude": 37.61635756125121,
    "geom:longitude": -122.38615532866096,
    "media:fingerprint": "21113620821343b669df3c16fea7b8305e160480",
    "media:imagehash_avg": "a:ffe7c3c3c3c3c3ff",
    "media:imagehash_diff": "d:ec8e0e0e86161e14",
    "media:imagetext": "",
    "media:mimetype": "image/tiff",
    "media:properties": {
      "sizes": {
        "b": {
          "extension": "jpg",
          "height": 768,
          "mimetype": "image/jpeg",
          "secret": "7e1bfeIkCYd3VWGFVSALB8wTApucTrQS",
          "width": 965
        },
        "c": {
          "extension": "jpg",
          "height": 600,
          "mimetype": "image/jpeg",
          "secret": "7e1bfeIkCYd3VWGFVSALB8wTApucTrQS",
          "width": 754
        },
        "dc": {
          "extension": "jpg",
          "height": 600,
          "mimetype": "image/jpeg",
          "secret": "7e1bfeIkCYd3VWGFVSALB8wTApucTrQS",
          "width": 754
        },
        "ds": {
          "extension": "jpg",
          "height": 320,
          "mimetype": "image/jpeg",
          "secret": "7e1bfeIkCYd3VWGFVSALB8wTApucTrQS",
          "width": 320
        },
        "k": {
          "extension": "jpg",
          "height": 1536,
          "mimetype": "image/jpeg",
          "secret": "7e1bfeIkCYd3VWGFVSALB8wTApucTrQS",
          "width": 1931
        },
        "n": {
          "extension": "jpg",
          "height": 240,
          "mimetype": "image/jpeg",
          "secret": "7e1bfeIkCYd3VWGFVSALB8wTApucTrQS",
          "width": 301
        },
        "o": {
          "extension": "jpg",
          "height": 1122,
          "mimetype": "image/jpeg",
          "secret": "3A5ELsyn2DyrgyKDYjX2Iy61Du2ELSBy",
          "width": 1411
        },
        "s": {
          "extension": "jpg",
          "height": 320,
          "mimetype": "image/jpeg",
          "secret": "7e1bfeIkCYd3VWGFVSALB8wTApucTrQS",
          "width": 320
        },
        "z": {
          "extension": "jpg",
          "height": 480,
          "mimetype": "image/jpeg",
          "secret": "7e1bfeIkCYd3VWGFVSALB8wTApucTrQS",
          "width": 603
        }
      }
    },
    "media:source": "sfomuseum",
    "media:status_id": 1,
    "media:uri_template": "https://static.sfomuseum.org/media/188/050/815/1/1880508151_{secret}_{label}.{extension}",
    "millsfield:airline_id": [
      1159285043
    ],
    "millsfield:category_id": 1763416381,
    "millsfield:collection_id": 1511214203,
    "millsfield:company_id": [
      1159287479
    ],
    "millsfield:images_colors": [
      {
        "hex": "#b4b4b4",
        "name": "#b4b4b4",
        "reference": "marekm4"
      },
      {
        "hex": "#a9a9a9",
        "name": "darkgrey",
        "reference": "css4"
      },
      {
        "hex": "#b0b7c6",
        "name": "Cadet Blue",
        "reference": "crayola"
      },
      {
        "hex": "#443a3e",
        "name": "#443a3e",
        "reference": "marekm4"
      },
      {
        "hex": "#2f4f4f",
        "name": "darkslategrey",
        "reference": "css4"
      },
      {
        "hex": "#414a4c",
        "name": "Outer Space",
        "reference": "crayola"
      },
      {
        "hex": "#76768e",
        "name": "#76768e",
        "reference": "marekm4"
      },
      {
        "hex": "#708090",
        "name": "slategrey",
        "reference": "css4"
      },
      {
        "hex": "#757575",
        "name": "Sonic Silver",
        "reference": "crayola"
      }
    ],
    "millsfield:similar": {
      "apple/mobileclip_s0": [
        {
          "distance": 0.28685528,
          "id": 1880498675
        },
        {
          "distance": 0.32873398,
          "id": 1880508153
        },
        {
          "distance": 0.33267924,
          "id": 1762896855
        },
        {
          "distance": 0.37811625,
          "id": 1762896857
        },
        {
          "distance": 0.3929168,
          "id": 1880498677
        },
        {
          "distance": 0.39833084,
          "id": 1880407713
        },
        {
          "distance": 0.4164161,
          "id": 1880407709
        },
        {
          "distance": 0.44047028,
          "id": 1880407707
        },
        {
          "distance": 0.44926995,
          "id": 1880407711
        },
        {
          "distance": 0.5826233,
          "id": 1763172897
        }
      ],
      "apple/mobileclip_s1": [
        {
          "distance": 0.22712448,
          "id": 1880498675
        },
        {
          "distance": 0.25603724,
          "id": 1762896855
        },
        {
          "distance": 0.26500276,
          "id": 1880508153
        },
        {
          "distance": 0.27197838,
          "id": 1762896857
        },
        {
          "distance": 0.27478722,
          "id": 1880407709
        },
        {
          "distance": 0.29205105,
          "id": 1880407713
        },
        {
          "distance": 0.32442912,
          "id": 1880407707
        },
        {
          "distance": 0.32947662,
          "id": 1880407711
        },
        {
          "distance": 0.33752808,
          "id": 1880498677
        },
        {
          "distance": 0.46077922,
          "id": 1763172897
        }
      ],
      "apple/mobileclip_s2": [
        {
          "distance": 0.32098526,
          "id": 1880498675
        },
        {
          "distance": 0.39457425,
          "id": 1762896855
        },
        {
          "distance": 0.41351137,
          "id": 1880407707
        },
        {
          "distance": 0.41874266,
          "id": 1880407709
        },
        {
          "distance": 0.42341638,
          "id": 1880508153
        },
        {
          "distance": 0.4377953,
          "id": 1762896857
        },
        {
          "distance": 0.4429637,
          "id": 1880498677
        },
        {
          "distance": 0.46383917,
          "id": 1880407713
        },
        {
          "distance": 0.46863067,
          "id": 1880407711
        },
        {
          "distance": 0.6280716,
          "id": 1763172897
        }
      ]
    },
    "millsfield:subcategory_id": 1511213671,
    "mz:is_current": 1,
    "sfomuseum:filename": "2014.146.007_ft_1.tif",
    "sfomuseum:image_id": 147986,
    "sfomuseum:image_index": 5,
    "sfomuseum:image_type": "studio",
    "sfomuseum:object_id": 163005,
    "sfomuseum:placetype": "image",
    "sfomuseum:primary_image": 1,
    "src:geom": "sfomuseum",
    "wof:belongsto": [
      102527513,
      1159162825,
      102191575,
      85633793,
      102087579,
      85922583,
      1880507579,
      85688637,
      1159160869
    ],
    "wof:country": "XY",
    "wof:created": 1695802895,
    "wof:depicts": [
      1159287479,
      1880507579,
      1159285043
    ],
    "wof:geomhash": "ed7c2ab3547fc3916b5edc33488deaa7",
    "wof:hierarchy": [
      {
        "building_id": -1,
        "campus_id": 102527513,
        "collection_id": 1159162825,
        "concourse_id": 1159162825,
        "continent_id": 102191575,
        "country_id": 85633793,
        "county_id": 102087579,
        "custom_id": 1880508151,
        "image_id": 1880508151,
        "locality_id": 85922583,
        "neighbourhood_id": -1,
        "object_id": 1880507579,
        "region_id": 85688637,
        "wing_id": 1159160869
      }
    ],
    "wof:id": 1880508151,
    "wof:lastmodified": 1788451918,
    "wof:name": "flight attendant pocket square: Qantas Airways",
    "wof:parent_id": 1880507579,
    "wof:placetype": "custom",
    "wof:placetype_alt": [
      "image"
    ],
    "wof:repo": "sfomuseum-data-media-collection",
    "wof:superseded_by": [],
    "wof:supersedes": []
  },
  "bbox": [
    -122.386472,
    37.616105,
    -122.385834,
    37.616611
  ],
  "geometry": {"type":"Polygon","coordinates":[[[-122.386472,37.616318],[-122.386435,37.616233],[-122.386376,37.616178],[-122.386301,37.616131],[-122.386161,37.616105],[-122.386022,37.616131],[-122.385914,37.616186],[-122.385855,37.616267],[-122.385834,37.616369],[-122.385871,37.616467],[-122.385941,37.616543],[-122.386054,37.616603],[-122.386183,37.616611],[-122.386306,37.616573],[-122.386419,37.616509],[-122.386467,37.616411],[-122.386472,37.616318]]]}
}
