{
  "id": 1729565645,
  "type": "Feature",
  "properties": {
    "date:cessation_lower": "1965-01-01",
    "date:cessation_upper": "1965-12-31",
    "date:inception_lower": "1965-01-01",
    "date:inception_upper": "1965-12-31",
    "edtf:cessation": "1965~",
    "edtf:date": "1965~",
    "edtf:inception": "1965~",
    "geom:area": 0,
    "geom:bbox": "-122.386155,37.616357,-122.386155,37.616357",
    "geom:latitude": 37.616357,
    "geom:longitude": -122.386155,
    "iso:country": "AU",
    "media:fingerprint": "6fbf12aca8ee042c33f77422a924a47c49ee77c5",
    "media:imagehash_avg": "a:ff278381e1c3e0f1",
    "media:imagehash_diff": "d:fe4f5f77078f0fc7",
    "media:imagetext": "DUSTRELIE\nQANTAS",
    "media:imagetext_created": 1787954457,
    "media:imagetext_source": "com.apple.visionkit.VNImageRequestHandler#Version 26.6.2 (Build 25G83)",
    "media:medium": "image",
    "media:mimetype": "image/tiff",
    "media:properties": {
      "sizes": {
        "b": {
          "extension": "jpg",
          "height": 636,
          "mimetype": "image/jpeg",
          "secret": "20r4auf8wtg8HhTi6Yt6ONvLb2ktQ0MD",
          "width": 1024
        },
        "c": {
          "extension": "jpg",
          "height": 497,
          "mimetype": "image/jpeg",
          "secret": "20r4auf8wtg8HhTi6Yt6ONvLb2ktQ0MD",
          "width": 800
        },
        "dc": {
          "extension": "jpg",
          "height": 497,
          "mimetype": "image/jpeg",
          "secret": "20r4auf8wtg8HhTi6Yt6ONvLb2ktQ0MD",
          "width": 800
        },
        "ds": {
          "extension": "jpg",
          "height": 320,
          "mimetype": "image/jpeg",
          "secret": "20r4auf8wtg8HhTi6Yt6ONvLb2ktQ0MD",
          "width": 320
        },
        "k": {
          "extension": "jpg",
          "height": 1272,
          "mimetype": "image/jpeg",
          "secret": "20r4auf8wtg8HhTi6Yt6ONvLb2ktQ0MD",
          "width": 2048
        },
        "n": {
          "extension": "jpg",
          "height": 198,
          "mimetype": "image/jpeg",
          "secret": "20r4auf8wtg8HhTi6Yt6ONvLb2ktQ0MD",
          "width": 320
        },
        "o": {
          "extension": "jpg",
          "height": 1059,
          "mimetype": "image/jpeg",
          "secret": "30nP70ScGWzUEcIdjsnJSZMvzc8uzL2s",
          "width": 1704
        },
        "s": {
          "extension": "jpg",
          "height": 320,
          "mimetype": "image/jpeg",
          "secret": "20r4auf8wtg8HhTi6Yt6ONvLb2ktQ0MD",
          "width": 320
        },
        "z": {
          "extension": "jpg",
          "height": 397,
          "mimetype": "image/jpeg",
          "secret": "20r4auf8wtg8HhTi6Yt6ONvLb2ktQ0MD",
          "width": 640
        }
      }
    },
    "media:source": "sfomuseum",
    "media:status_id": 1,
    "media:uri_template": "https://static.sfomuseum.org/media/172/956/564/5/1729565645_{secret}_{label}.{extension}",
    "millsfield:aircraft_id": [
      1159289653
    ],
    "millsfield:airline_id": [
      1159285043
    ],
    "millsfield:category_id": 1511214215,
    "millsfield:collection_id": 1511214207,
    "millsfield:company_id": [
      1159293593
    ],
    "millsfield:images_colors": [
      {
        "hex": "#c2c5ba",
        "name": "#c2c5ba",
        "reference": "marekm4"
      },
      {
        "hex": "#c0c0c0",
        "name": "silver",
        "reference": "css4"
      },
      {
        "hex": "#cdc5c2",
        "name": "Silver",
        "reference": "crayola"
      },
      {
        "hex": "#6593aa",
        "name": "#6593aa",
        "reference": "marekm4"
      },
      {
        "hex": "#5f9ea0",
        "name": "cadetblue",
        "reference": "css4"
      },
      {
        "hex": "#6699cc",
        "name": "Blue Gray",
        "reference": "crayola"
      },
      {
        "hex": "#4a4f58",
        "name": "#4a4f58",
        "reference": "marekm4"
      },
      {
        "hex": "#2f4f4f",
        "name": "darkslategrey",
        "reference": "css4"
      },
      {
        "hex": "#414a4c",
        "name": "Outer Space",
        "reference": "crayola"
      },
      {
        "hex": "#426999",
        "name": "#426999",
        "reference": "marekm4"
      },
      {
        "hex": "#4682b4",
        "name": "steelblue",
        "reference": "css4"
      },
      {
        "hex": "#2e5894",
        "name": "B'dazzled Blue",
        "reference": "crayola"
      },
      {
        "hex": "#a8a366",
        "name": "#a8a366",
        "reference": "marekm4"
      },
      {
        "hex": "#bdb76b",
        "name": "darkkhaki",
        "reference": "css4"
      },
      {
        "hex": "#bab86c",
        "name": "Olive Green",
        "reference": "crayola"
      }
    ],
    "millsfield:images_texts": [
      "DUSTRELIE\nQANTAS",
      "QANTAS AIRWAYS\nQANTAS BOEING 707\nCruises at 550 m.p.h. Carries 112-132 passen-\ngers and 7 tons of cargo. Wingspan 145' 9\",\noverall length 152' 11\".\n1991.04.03\nFLY QANTAS -THERE'S A WORLD OF DIFFERENCE\nPOST CARD\nPrinted in Japan. Toppan Printing\nCo."
    ],
    "millsfield:images_texts_ids": [
      1729565645,
      1729565647
    ],
    "millsfield:similar": {
      "apple/mobileclip_s0": [
        {
          "distance": 0.28898486,
          "id": 1796509545
        },
        {
          "distance": 0.30111042,
          "id": 1796509553
        },
        {
          "distance": 0.36168194,
          "id": 1762706987
        },
        {
          "distance": 0.4358618,
          "id": 1796509493
        },
        {
          "distance": 0.4500485,
          "id": 1796509509
        },
        {
          "distance": 0.4520907,
          "id": 1762707001
        },
        {
          "distance": 0.4546735,
          "id": 1863470519
        },
        {
          "distance": 0.45709404,
          "id": 1796509479
        },
        {
          "distance": 0.45912847,
          "id": 1796509483
        },
        {
          "distance": 0.488251,
          "id": 1762707685
        }
      ],
      "apple/mobileclip_s1": [
        {
          "distance": 0.1650593,
          "id": 1796509545
        },
        {
          "distance": 0.19896613,
          "id": 1796509553
        },
        {
          "distance": 0.29995185,
          "id": 1762706987
        },
        {
          "distance": 0.31658915,
          "id": 1796509493
        },
        {
          "distance": 0.33045655,
          "id": 1762706977
        },
        {
          "distance": 0.33223838,
          "id": 1796509509
        },
        {
          "distance": 0.3459209,
          "id": 1796509483
        },
        {
          "distance": 0.3477551,
          "id": 1729565983
        },
        {
          "distance": 0.35695013,
          "id": 1729565979
        },
        {
          "distance": 0.3573529,
          "id": 1796509479
        }
      ],
      "apple/mobileclip_s2": [
        {
          "distance": 0.19585465,
          "id": 1796509545
        },
        {
          "distance": 0.2586778,
          "id": 1796509553
        },
        {
          "distance": 0.28540346,
          "id": 1762706987
        },
        {
          "distance": 0.35210317,
          "id": 1729565979
        },
        {
          "distance": 0.36613825,
          "id": 1729565983
        },
        {
          "distance": 0.3693235,
          "id": 1762706965
        },
        {
          "distance": 0.38227454,
          "id": 1796509483
        },
        {
          "distance": 0.3844199,
          "id": 1762706969
        },
        {
          "distance": 0.386419,
          "id": 1729566003
        },
        {
          "distance": 0.39162493,
          "id": 1729566691
        }
      ]
    },
    "millsfield:subcategory_id": 1511213363,
    "mz:hierarchy_label": 1,
    "mz:is_current": -1,
    "sfomuseum:filename": "1997.04.03.tif",
    "sfomuseum:image_id": 73240,
    "sfomuseum:image_index": 5,
    "sfomuseum:image_type": "studio",
    "sfomuseum:object_id": 45638,
    "sfomuseum:placetype": "image",
    "sfomuseum:primary_image": 1,
    "src:geom": "sfomuseum",
    "wof:belongsto": [
      85632793,
      136253039,
      1511214277,
      1511214215,
      102087579,
      1511213363,
      85688637,
      102191575,
      1729563753,
      1511214207,
      102527513,
      85633793,
      85922583,
      102191583
    ],
    "wof:breaches": [],
    "wof:country": "AU",
    "wof:created": 1607040752,
    "wof:depicts": [
      1729563753,
      1159285043,
      1159287479,
      1159289653,
      1159293593
    ],
    "wof:geomhash": "30c8a918561c84bb2daa2b97fc7c5353",
    "wof:hierarchy": [
      {
        "continent_id": 102191583,
        "country_id": 85632793,
        "custom_id": 1729565645,
        "empire_id": 136253039,
        "image_id": 1729565645,
        "media_id": 1729565645,
        "venue_id": 1729563753
      },
      {
        "arcade_id": 1511213363,
        "building_id": 1511214277,
        "campus_id": 102527513,
        "concourse_id": 1511214215,
        "continent_id": 102191575,
        "country_id": 85633793,
        "county_id": 102087579,
        "custom_id": 1729565645,
        "image_id": 1729565645,
        "locality_id": 85922583,
        "media_id": 1729565645,
        "neighbourhood_id": -1,
        "region_id": 85688637,
        "venue_id": 1729563753,
        "wing_id": 1511214207
      }
    ],
    "wof:id": 1729565645,
    "wof:lastmodified": 1788450293,
    "wof:name": "postcard: Qantas Airways, Boeing 707",
    "wof:parent_id": 1729563753,
    "wof:placetype": "custom",
    "wof:placetype_alt": [
      "image"
    ],
    "wof:repo": "sfomuseum-data-media-collection",
    "wof:superseded_by": [],
    "wof:supersedes": [],
    "wof:tags": []
  },
  "bbox": [
    -122.386155,
    37.616357,
    -122.386155,
    37.616357
  ],
  "geometry": {"type":"Point","coordinates":[-122.386155,37.616357]}
}
