{
  "id": 1880236757,
  "type": "Feature",
  "properties": {
    "date:cessation_lower": "2007-01-01",
    "date:cessation_upper": "2007-12-31",
    "date:inception_lower": "2007-01-01",
    "date:inception_upper": "2007-12-31",
    "edtf:cessation": "2007",
    "edtf:inception": "2007",
    "geom:area": 2.477324999997507e-7,
    "geom:bbox": "-122.386472,37.616105,-122.385834,37.616611",
    "geom:latitude": 37.61635756125121,
    "geom:longitude": -122.38615532866096,
    "media:fingerprint": "da1b7dc7de93cc3fbfcfa9b609868c1de06cb268",
    "media:imagehash_avg": "a:7f7f7f010089ffff",
    "media:imagehash_diff": "d:f0f0f00f391bf8f0",
    "media:imagetext": "GENUINE ITALIAN LEATHER\nMADE IN ITALY\n38/95\n010259\n010\nVA",
    "media:imagetext_created": 1787968230,
    "media:imagetext_source": "com.apple.visionkit.VNImageRequestHandler#Version 26.6.2 (Build 25G83)",
    "media:mimetype": "image/tiff",
    "media:properties": {
      "sizes": {
        "b": {
          "extension": "jpg",
          "height": 768,
          "mimetype": "image/jpeg",
          "secret": "ZPL5w7FRdlrCgCAInbzylVn13GATedEC",
          "width": 960
        },
        "c": {
          "extension": "jpg",
          "height": 600,
          "mimetype": "image/jpeg",
          "secret": "ZPL5w7FRdlrCgCAInbzylVn13GATedEC",
          "width": 750
        },
        "dc": {
          "extension": "jpg",
          "height": 600,
          "mimetype": "image/jpeg",
          "secret": "ZPL5w7FRdlrCgCAInbzylVn13GATedEC",
          "width": 750
        },
        "ds": {
          "extension": "jpg",
          "height": 320,
          "mimetype": "image/jpeg",
          "secret": "ZPL5w7FRdlrCgCAInbzylVn13GATedEC",
          "width": 320
        },
        "k": {
          "extension": "jpg",
          "height": 1536,
          "mimetype": "image/jpeg",
          "secret": "ZPL5w7FRdlrCgCAInbzylVn13GATedEC",
          "width": 1920
        },
        "n": {
          "extension": "jpg",
          "height": 240,
          "mimetype": "image/jpeg",
          "secret": "ZPL5w7FRdlrCgCAInbzylVn13GATedEC",
          "width": 300
        },
        "o": {
          "extension": "jpg",
          "height": 1600,
          "mimetype": "image/jpeg",
          "secret": "kleMUyjao6f1SYzsjoj8mAVQYihWXGyd",
          "width": 2000
        },
        "s": {
          "extension": "jpg",
          "height": 320,
          "mimetype": "image/jpeg",
          "secret": "ZPL5w7FRdlrCgCAInbzylVn13GATedEC",
          "width": 320
        },
        "z": {
          "extension": "jpg",
          "height": 480,
          "mimetype": "image/jpeg",
          "secret": "ZPL5w7FRdlrCgCAInbzylVn13GATedEC",
          "width": 600
        }
      }
    },
    "media:source": "sfomuseum",
    "media:status_id": 1,
    "media:uri_template": "https://static.sfomuseum.org/media/188/023/675/7/1880236757_{secret}_{label}.{extension}",
    "millsfield:airline_id": [
      1159285481
    ],
    "millsfield:category_id": 1763416381,
    "millsfield:collection_id": 1511214203,
    "millsfield:company_id": [
      1159288091
    ],
    "millsfield:images_colors": [
      {
        "hex": "#a9a7aa",
        "name": "#a9a7aa",
        "reference": "marekm4"
      },
      {
        "hex": "#a9a9a9",
        "name": "darkgrey",
        "reference": "css4"
      },
      {
        "hex": "#979aaa",
        "name": "Manatee",
        "reference": "crayola"
      },
      {
        "hex": "#473028",
        "name": "#473028",
        "reference": "marekm4"
      },
      {
        "hex": "#2f4f4f",
        "name": "darkslategrey",
        "reference": "css4"
      },
      {
        "hex": "#414a4c",
        "name": "Outer Space",
        "reference": "crayola"
      }
    ],
    "millsfield:images_texts": [
      "GENUINE ITALIAN LEATHER\nMADE IN ITALY\n38/95\n010259\n010\nVA"
    ],
    "millsfield:images_texts_ids": [
      1880236757
    ],
    "millsfield:similar": {
      "apple/mobileclip_s0": [
        {
          "distance": 0.24864925,
          "id": 1880236759
        },
        {
          "distance": 0.27396533,
          "id": 1880236799
        },
        {
          "distance": 0.29220435,
          "id": 1880236779
        },
        {
          "distance": 0.34714085,
          "id": 1880236781
        },
        {
          "distance": 0.36065143,
          "id": 1880370425
        },
        {
          "distance": 0.38077894,
          "id": 1880975625
        },
        {
          "distance": 0.3830438,
          "id": 1880236783
        },
        {
          "distance": 0.38457966,
          "id": 1880773865
        },
        {
          "distance": 0.38730526,
          "id": 1880236775
        },
        {
          "distance": 0.39052507,
          "id": 1880113667
        }
      ],
      "apple/mobileclip_s1": [
        {
          "distance": 0.17289095,
          "id": 1880236759
        },
        {
          "distance": 0.21323057,
          "id": 1880236799
        },
        {
          "distance": 0.25158507,
          "id": 1880236779
        },
        {
          "distance": 0.28540823,
          "id": 1880113667
        },
        {
          "distance": 0.30339518,
          "id": 1880236771
        },
        {
          "distance": 0.304724,
          "id": 1880236781
        },
        {
          "distance": 0.31711116,
          "id": 1880773865
        },
        {
          "distance": 0.31918195,
          "id": 1880929779
        },
        {
          "distance": 0.31985596,
          "id": 1880332593
        },
        {
          "distance": 0.32134578,
          "id": 1880370425
        }
      ],
      "apple/mobileclip_s2": [
        {
          "distance": 0.16872713,
          "id": 1880236759
        },
        {
          "distance": 0.26525366,
          "id": 1880236799
        },
        {
          "distance": 0.36410335,
          "id": 1880236781
        },
        {
          "distance": 0.37157553,
          "id": 1880236779
        },
        {
          "distance": 0.40126458,
          "id": 1880858465
        },
        {
          "distance": 0.42345214,
          "id": 1813534437
        },
        {
          "distance": 0.42881572,
          "id": 1880113667
        },
        {
          "distance": 0.44137445,
          "id": 1880773863
        },
        {
          "distance": 0.44554186,
          "id": 1880370425
        },
        {
          "distance": 0.45043227,
          "id": 1880236771
        }
      ]
    },
    "millsfield:subcategory_id": 1511213455,
    "mz:is_current": 1,
    "sfomuseum:filename": "2019.021.039_f.tif",
    "sfomuseum:image_id": 246120,
    "sfomuseum:image_index": 5,
    "sfomuseum:image_type": "studio",
    "sfomuseum:object_id": 202039,
    "sfomuseum:placetype": "image",
    "sfomuseum:primary_image": 1,
    "src:geom": "sfomuseum",
    "wof:belongsto": [
      102527513,
      1159162825,
      102191575,
      85633793,
      102087579,
      85922583,
      1880235627,
      85688637,
      1159160869
    ],
    "wof:country": "XY",
    "wof:created": 1693297589,
    "wof:depicts": [
      1159285481,
      1159288091,
      1880235627
    ],
    "wof:geomhash": "ed7c2ab3547fc3916b5edc33488deaa7",
    "wof:hierarchy": [
      {
        "building_id": -1,
        "campus_id": 102527513,
        "collection_id": 1159162825,
        "concourse_id": 1159162825,
        "continent_id": 102191575,
        "country_id": 85633793,
        "county_id": 102087579,
        "custom_id": 1880236757,
        "image_id": 1880236757,
        "locality_id": 85922583,
        "neighbourhood_id": -1,
        "object_id": 1880235627,
        "region_id": 85688637,
        "wing_id": 1159160869
      }
    ],
    "wof:id": 1880236757,
    "wof:lastmodified": 1788451750,
    "wof:name": "flight attendant belt (male): Virgin America",
    "wof:parent_id": 1880235627,
    "wof:placetype": "custom",
    "wof:placetype_alt": [
      "image"
    ],
    "wof:repo": "sfomuseum-data-media-collection",
    "wof:superseded_by": [],
    "wof:supersedes": []
  },
  "bbox": [
    -122.386472,
    37.616105,
    -122.385834,
    37.616611
  ],
  "geometry": {"type":"Polygon","coordinates":[[[-122.386472,37.616318],[-122.386435,37.616233],[-122.386376,37.616178],[-122.386301,37.616131],[-122.386161,37.616105],[-122.386022,37.616131],[-122.385914,37.616186],[-122.385855,37.616267],[-122.385834,37.616369],[-122.385871,37.616467],[-122.385941,37.616543],[-122.386054,37.616603],[-122.386183,37.616611],[-122.386306,37.616573],[-122.386419,37.616509],[-122.386467,37.616411],[-122.386472,37.616318]]]}
}
