{
  "id": 1527847239,
  "type": "Feature",
  "properties": {
    "date:cessation_lower": "1985-01-01",
    "date:cessation_upper": "1985-12-31",
    "date:inception_lower": "1985-01-01",
    "date:inception_upper": "1985-12-31",
    "edtf:cessation": "1985",
    "edtf:date": "1985",
    "edtf:inception": "1985",
    "geom:area": 0,
    "geom:bbox": "-122.386155,37.616358,-122.386155,37.616358",
    "geom:latitude": 37.616358,
    "geom:longitude": -122.386155,
    "iso:country": "XX",
    "media:fingerprint": "d64515b56d127ff042d6f2fa7057e77f777cd69c",
    "media:imagehash_avg": "a:ff3fc0c0c0c7c1ff",
    "media:imagehash_diff": "d:64701d130f0d0d35",
    "media:imagetext": "I MET A B\nE\nAlaska\nAirlines\nEFFECTIVE JUNE 3, 1985\nAlaska Airlines Now Serving\nLos Angeles Int'l Airport (LAX)",
    "media:imagetext_created": 1787952284,
    "media:imagetext_source": "com.apple.visionkit.VNImageRequestHandler#Version 26.6.2 (Build 25G83)",
    "media:medium": "image",
    "media:mimetype": "image/tiff",
    "media:properties": {
      "sizes": {
        "b": {
          "extension": "jpg",
          "height": 768,
          "mimetype": "image/jpeg",
          "secret": "x7YF02sbk4xA8HEBHP5tbzDR1v87p2Qn",
          "width": 365
        },
        "c": {
          "extension": "jpg",
          "height": 600,
          "mimetype": "image/jpeg",
          "secret": "x7YF02sbk4xA8HEBHP5tbzDR1v87p2Qn",
          "width": 285
        },
        "dc": {
          "extension": "jpg",
          "height": 600,
          "mimetype": "image/jpeg",
          "secret": "x7YF02sbk4xA8HEBHP5tbzDR1v87p2Qn",
          "width": 285
        },
        "ds": {
          "extension": "jpg",
          "height": 320,
          "mimetype": "image/jpeg",
          "secret": "x7YF02sbk4xA8HEBHP5tbzDR1v87p2Qn",
          "width": 320
        },
        "k": {
          "extension": "jpg",
          "height": 1536,
          "mimetype": "image/jpeg",
          "secret": "x7YF02sbk4xA8HEBHP5tbzDR1v87p2Qn",
          "width": 731
        },
        "n": {
          "extension": "jpg",
          "height": 240,
          "mimetype": "image/jpeg",
          "secret": "x7YF02sbk4xA8HEBHP5tbzDR1v87p2Qn",
          "width": 114
        },
        "o": {
          "extension": "jpg",
          "height": 2569,
          "mimetype": "image/jpeg",
          "secret": "976l4Fu1VhJTeM1rmfvJYhMV87f1po1k",
          "width": 1224
        },
        "s": {
          "extension": "jpg",
          "height": 320,
          "mimetype": "image/jpeg",
          "secret": "x7YF02sbk4xA8HEBHP5tbzDR1v87p2Qn",
          "width": 320
        },
        "z": {
          "extension": "jpg",
          "height": 480,
          "mimetype": "image/jpeg",
          "secret": "x7YF02sbk4xA8HEBHP5tbzDR1v87p2Qn",
          "width": 228
        }
      }
    },
    "media:source": "sfomuseum",
    "media:status_id": 1,
    "media:uri_template": "https://static.sfomuseum.org/media/152/784/723/9/1527847239_{secret}_{label}.{extension}",
    "millsfield:airline_id": [
      1159283813
    ],
    "millsfield:category_id": 1511214223,
    "millsfield:collection_id": 1511214207,
    "millsfield:company_id": [
      1159288915
    ],
    "millsfield:images_colors": [
      {
        "hex": "#060f45",
        "name": "#060f45",
        "reference": "marekm4"
      },
      {
        "hex": "#191970",
        "name": "midnightblue",
        "reference": "css4"
      },
      {
        "hex": "#000000",
        "name": "Black",
        "reference": "crayola"
      },
      {
        "hex": "#335b96",
        "name": "#335b96",
        "reference": "marekm4"
      },
      {
        "hex": "#483d8b",
        "name": "darkslateblue",
        "reference": "css4"
      },
      {
        "hex": "#2e5894",
        "name": "B'dazzled Blue",
        "reference": "crayola"
      },
      {
        "hex": "#d8d8d5",
        "name": "#d8d8d5",
        "reference": "marekm4"
      },
      {
        "hex": "#d3d3d3",
        "name": "lightgrey",
        "reference": "css4"
      },
      {
        "hex": "#dbd7d2",
        "name": "Timberwolf",
        "reference": "crayola"
      },
      {
        "hex": "#678bb0",
        "name": "#678bb0",
        "reference": "marekm4"
      },
      {
        "hex": "#5f9ea0",
        "name": "cadetblue",
        "reference": "css4"
      },
      {
        "hex": "#6699cc",
        "name": "Blue Gray",
        "reference": "crayola"
      }
    ],
    "millsfield:images_texts": [
      "I MET A B\nE\nAlaska\nAirlines\nEFFECTIVE JUNE 3, 1985\nAlaska Airlines Now Serving\nLos Angeles Int'l Airport (LAX)"
    ],
    "millsfield:images_texts_ids": [
      1527847239
    ],
    "millsfield:similar": {
      "apple/mobileclip_s0": [
        {
          "distance": 0.5663052,
          "id": 1527847243
        },
        {
          "distance": 0.6202424,
          "id": 1527841609
        },
        {
          "distance": 0.6266812,
          "id": 1527842267
        },
        {
          "distance": 0.6306105,
          "id": 1763241367
        },
        {
          "distance": 0.6310728,
          "id": 1527837863
        },
        {
          "distance": 0.6311046,
          "id": 1527836555
        },
        {
          "distance": 0.63250273,
          "id": 1527842181
        },
        {
          "distance": 0.6349744,
          "id": 1527841525
        },
        {
          "distance": 0.6375137,
          "id": 1527855047
        },
        {
          "distance": 0.6415176,
          "id": 1527842635
        }
      ],
      "apple/mobileclip_s1": [
        {
          "distance": 0.428506,
          "id": 1527847243
        },
        {
          "distance": 0.44929948,
          "id": 1763241367
        },
        {
          "distance": 0.46869138,
          "id": 1762714821
        },
        {
          "distance": 0.47905263,
          "id": 1762697373
        },
        {
          "distance": 0.48164618,
          "id": 1527855275
        },
        {
          "distance": 0.4821659,
          "id": 1527836785
        },
        {
          "distance": 0.4822416,
          "id": 1762715073
        },
        {
          "distance": 0.48514163,
          "id": 1527855271
        },
        {
          "distance": 0.48678756,
          "id": 1527836585
        },
        {
          "distance": 0.48715097,
          "id": 1527841609
        }
      ],
      "apple/mobileclip_s2": [
        {
          "distance": 0.5143287,
          "id": 1763241367
        },
        {
          "distance": 0.56676376,
          "id": 1527836557
        },
        {
          "distance": 0.57249045,
          "id": 1527836555
        },
        {
          "distance": 0.58907855,
          "id": 1762697373
        },
        {
          "distance": 0.5970209,
          "id": 1527842633
        },
        {
          "distance": 0.5994192,
          "id": 1762699413
        },
        {
          "distance": 0.6000393,
          "id": 1527846991
        },
        {
          "distance": 0.60074,
          "id": 1527836785
        },
        {
          "distance": 0.60347235,
          "id": 1527836585
        },
        {
          "distance": 0.6054777,
          "id": 1527842631
        }
      ]
    },
    "millsfield:subcategory_id": 1511213425,
    "mz:hierarchy_label": 1,
    "mz:is_current": -1,
    "sfomuseum:filename": "2008.108.012.tif",
    "sfomuseum:image_id": 71401,
    "sfomuseum:image_index": 5,
    "sfomuseum:image_type": "studio",
    "sfomuseum:object_id": 93393,
    "sfomuseum:placetype": "image",
    "sfomuseum:primary_image": 1,
    "src:geom": "sfomuseum",
    "wof:belongsto": [
      1511214223,
      1511932863,
      102527513,
      102191575,
      85633793,
      1511213425,
      85922583,
      102087579,
      1511214277,
      1511214203,
      85688637
    ],
    "wof:breaches": [],
    "wof:country": "XX",
    "wof:created": 1578953640,
    "wof:depicts": [
      1159288915,
      1511932863,
      1159283813
    ],
    "wof:geomhash": "bd906905ce4be6c0651c90b0fc24804c",
    "wof:hierarchy": [
      {
        "arcade_id": 1511213425,
        "building_id": 1511214277,
        "campus_id": 102527513,
        "concourse_id": 1511214223,
        "continent_id": 102191575,
        "country_id": 85633793,
        "county_id": 102087579,
        "custom_id": 1527847239,
        "image_id": 1527847239,
        "locality_id": 85922583,
        "media_id": 1527847239,
        "neighbourhood_id": -1,
        "region_id": 85688637,
        "venue_id": 1511932863,
        "wing_id": 1511214203
      }
    ],
    "wof:id": 1527847239,
    "wof:lastmodified": 1788450126,
    "wof:name": "timetable: Alaska Airlines",
    "wof:parent_id": 1511932863,
    "wof:placetype": "custom",
    "wof:placetype_alt": [
      "image"
    ],
    "wof:repo": "sfomuseum-data-media-collection",
    "wof:superseded_by": [],
    "wof:supersedes": [],
    "wof:tags": []
  },
  "bbox": [
    -122.386155,
    37.616358,
    -122.386155,
    37.616358
  ],
  "geometry": {"type":"Point","coordinates":[-122.386155,37.616358]}
}
