{
  "id": 1796527803,
  "type": "Feature",
  "properties": {
    "date:cessation_lower": "1970-01-01",
    "date:cessation_upper": "1970-12-31",
    "date:inception_lower": "1970-01-01",
    "date:inception_upper": "1970-12-31",
    "edtf:cessation": "1970~",
    "edtf:inception": "1970~",
    "geom:area": 2.477324999997507e-7,
    "geom:bbox": "-122.386472,37.616105,-122.385834,37.616611",
    "geom:latitude": 37.61635756125121,
    "geom:longitude": -122.38615532866096,
    "media:fingerprint": "8899deebbfe4db8b87f8c68aee6bbc16cd4bf1ed",
    "media:imagehash_avg": "a:ff7f3f3f2e160000",
    "media:imagehash_diff": "d:f8f060e0d8ecf4f8",
    "media:imagetext": "NORTHWEST ORIENT",
    "media:imagetext_created": 1787966953,
    "media:imagetext_source": "com.apple.visionkit.VNImageRequestHandler#Version 26.6.2 (Build 25G83)",
    "media:mimetype": "image/tiff",
    "media:properties": {
      "sizes": {
        "b": {
          "extension": "jpg",
          "height": 768,
          "mimetype": "image/jpeg",
          "secret": "AzhzL4ONbhVn6ka4H5Q3aAEnOTUMiMqj",
          "width": 966
        },
        "c": {
          "extension": "jpg",
          "height": 600,
          "mimetype": "image/jpeg",
          "secret": "AzhzL4ONbhVn6ka4H5Q3aAEnOTUMiMqj",
          "width": 754
        },
        "dc": {
          "extension": "jpg",
          "height": 600,
          "mimetype": "image/jpeg",
          "secret": "AzhzL4ONbhVn6ka4H5Q3aAEnOTUMiMqj",
          "width": 754
        },
        "ds": {
          "extension": "jpg",
          "height": 320,
          "mimetype": "image/jpeg",
          "secret": "AzhzL4ONbhVn6ka4H5Q3aAEnOTUMiMqj",
          "width": 320
        },
        "k": {
          "extension": "jpg",
          "height": 1536,
          "mimetype": "image/jpeg",
          "secret": "AzhzL4ONbhVn6ka4H5Q3aAEnOTUMiMqj",
          "width": 1932
        },
        "n": {
          "extension": "jpg",
          "height": 240,
          "mimetype": "image/jpeg",
          "secret": "AzhzL4ONbhVn6ka4H5Q3aAEnOTUMiMqj",
          "width": 301
        },
        "o": {
          "extension": "jpg",
          "height": 1667,
          "mimetype": "image/jpeg",
          "secret": "miCiNxFQHxFeaXoHXgsdOTJZrYBNDf8f",
          "width": 2097
        },
        "s": {
          "extension": "jpg",
          "height": 320,
          "mimetype": "image/jpeg",
          "secret": "AzhzL4ONbhVn6ka4H5Q3aAEnOTUMiMqj",
          "width": 320
        },
        "z": {
          "extension": "jpg",
          "height": 480,
          "mimetype": "image/jpeg",
          "secret": "AzhzL4ONbhVn6ka4H5Q3aAEnOTUMiMqj",
          "width": 603
        }
      }
    },
    "media:source": "sfomuseum",
    "media:status_id": 1,
    "media:uri_template": "https://static.sfomuseum.org/media/179/652/780/3/1796527803_{secret}_{label}.{extension}",
    "millsfield:airline_id": [
      1159284907
    ],
    "millsfield:category_id": 1746152551,
    "millsfield:collection_id": 1511214203,
    "millsfield:company_id": [],
    "millsfield:images_colors": [
      {
        "hex": "#adadad",
        "name": "#adadad",
        "reference": "marekm4"
      },
      {
        "hex": "#a9a9a9",
        "name": "darkgrey",
        "reference": "css4"
      },
      {
        "hex": "#b0b7c6",
        "name": "Cadet Blue",
        "reference": "crayola"
      },
      {
        "hex": "#5c5a58",
        "name": "#5c5a58",
        "reference": "marekm4"
      },
      {
        "hex": "#696969",
        "name": "dimgrey",
        "reference": "css4"
      },
      {
        "hex": "#6e5160",
        "name": "Eggplant",
        "reference": "crayola"
      }
    ],
    "millsfield:images_texts": [
      "NORTHWEST ORIENT"
    ],
    "millsfield:images_texts_ids": [
      1796527803
    ],
    "millsfield:similar": {
      "apple/mobileclip_s0": [
        {
          "distance": 0.16179794,
          "id": 1796527805
        },
        {
          "distance": 0.1739208,
          "id": 1796472487
        },
        {
          "distance": 0.1822819,
          "id": 1796597191
        },
        {
          "distance": 0.19030114,
          "id": 1796465193
        },
        {
          "distance": 0.1930956,
          "id": 1796476789
        },
        {
          "distance": 0.19320536,
          "id": 1796472553
        },
        {
          "distance": 0.20068502,
          "id": 1796465189
        },
        {
          "distance": 0.20955005,
          "id": 1796465215
        },
        {
          "distance": 0.20961744,
          "id": 1796465183
        },
        {
          "distance": 0.21369329,
          "id": 1796503317
        }
      ],
      "apple/mobileclip_s1": [
        {
          "distance": 0.122259505,
          "id": 1796527805
        },
        {
          "distance": 0.13110097,
          "id": 1796472553
        },
        {
          "distance": 0.13992669,
          "id": 1796465193
        },
        {
          "distance": 0.14616735,
          "id": 1796465215
        },
        {
          "distance": 0.14774889,
          "id": 1796503317
        },
        {
          "distance": 0.15074998,
          "id": 1796465073
        },
        {
          "distance": 0.15802275,
          "id": 1796465183
        },
        {
          "distance": 0.15939413,
          "id": 1796465189
        },
        {
          "distance": 0.16147934,
          "id": 1796465197
        },
        {
          "distance": 0.16576073,
          "id": 1796472201
        }
      ],
      "apple/mobileclip_s2": [
        {
          "distance": 0.1817356,
          "id": 1796527805
        },
        {
          "distance": 0.19646052,
          "id": 1796472553
        },
        {
          "distance": 0.21126889,
          "id": 1796465073
        },
        {
          "distance": 0.21641861,
          "id": 1796465183
        },
        {
          "distance": 0.22176808,
          "id": 1796465193
        },
        {
          "distance": 0.22519627,
          "id": 1796484707
        },
        {
          "distance": 0.22679433,
          "id": 1796476789
        },
        {
          "distance": 0.23004204,
          "id": 1796465215
        },
        {
          "distance": 0.23141077,
          "id": 1796465197
        },
        {
          "distance": 0.23369318,
          "id": 1796484711
        }
      ]
    },
    "millsfield:subcategory_id": 1511213417,
    "mz:is_current": 1,
    "sfomuseum:filename": "121212.tif",
    "sfomuseum:image_id": 121212,
    "sfomuseum:image_index": 5,
    "sfomuseum:image_type": "studio",
    "sfomuseum:object_id": 153717,
    "sfomuseum:placetype": "image",
    "sfomuseum:primary_image": 1,
    "src:geom": "sfomuseum",
    "wof:belongsto": [
      102527513,
      1159162825,
      102191575,
      85633793,
      102087579,
      85922583,
      1796527613,
      85688637,
      1159160869
    ],
    "wof:country": "XY",
    "wof:created": 1667289062,
    "wof:depicts": [
      1159284907,
      1159287407,
      1796527613,
      1159284913
    ],
    "wof:geomhash": "ed7c2ab3547fc3916b5edc33488deaa7",
    "wof:hierarchy": [
      {
        "building_id": -1,
        "campus_id": 102527513,
        "collection_id": 1159162825,
        "concourse_id": 1159162825,
        "continent_id": 102191575,
        "country_id": 85633793,
        "county_id": 102087579,
        "custom_id": 1796527803,
        "image_id": 1796527803,
        "locality_id": 85922583,
        "neighbourhood_id": -1,
        "object_id": 1796527613,
        "region_id": 85688637,
        "wing_id": 1159160869
      }
    ],
    "wof:id": 1796527803,
    "wof:lastmodified": 1788451565,
    "wof:name": "fork: Northwest Orient Airlines",
    "wof:parent_id": 1796527613,
    "wof:placetype": "custom",
    "wof:placetype_alt": [
      "image"
    ],
    "wof:repo": "sfomuseum-data-media-collection",
    "wof:superseded_by": [],
    "wof:supersedes": []
  },
  "bbox": [
    -122.386472,
    37.616105,
    -122.385834,
    37.616611
  ],
  "geometry": {"type":"Polygon","coordinates":[[[-122.386472,37.616318],[-122.386435,37.616233],[-122.386376,37.616178],[-122.386301,37.616131],[-122.386161,37.616105],[-122.386022,37.616131],[-122.385914,37.616186],[-122.385855,37.616267],[-122.385834,37.616369],[-122.385871,37.616467],[-122.385941,37.616543],[-122.386054,37.616603],[-122.386183,37.616611],[-122.386306,37.616573],[-122.386419,37.616509],[-122.386467,37.616411],[-122.386472,37.616318]]]}
}
