{
  "id": 1762712527,
  "type": "Feature",
  "properties": {
    "date:cessation_lower": "1950-01-01",
    "date:cessation_upper": "1959-12-31",
    "date:inception_lower": "1950-01-01",
    "date:inception_upper": "1959-12-31",
    "edtf:cessation": "195X",
    "edtf:inception": "195X",
    "geom:area": 2.477324999997507e-7,
    "geom:bbox": "-122.386472,37.616105,-122.385834,37.616611",
    "geom:latitude": 37.61635756125121,
    "geom:longitude": -122.38615532866096,
    "iso:country": "US",
    "media:fingerprint": "71694814185a76700834a9fa2bee847c5d9d727a",
    "media:imagehash_avg": "a:ffc1ffef830180ff",
    "media:imagehash_diff": "d:05555d4d0f4f0501",
    "media:imagetext": "2118—The New $11,000,000.00 Seattle-Tacoma International Airport\nSTAE\nTACOMT\nATRPORT\nOC-H125",
    "media:imagetext_created": 1787957950,
    "media:imagetext_source": "com.apple.visionkit.VNImageRequestHandler#Version 26.6.2 (Build 25G83)",
    "media:mimetype": "image/tiff",
    "media:properties": {
      "sizes": {
        "b": {
          "extension": "jpg",
          "height": 656,
          "mimetype": "image/jpeg",
          "secret": "yt1QlC6JxzO2rM28VkUZEWNXfkzZStob",
          "width": 1023
        },
        "c": {
          "extension": "jpg",
          "height": 513,
          "mimetype": "image/jpeg",
          "secret": "yt1QlC6JxzO2rM28VkUZEWNXfkzZStob",
          "width": 800
        },
        "dc": {
          "extension": "jpg",
          "height": 513,
          "mimetype": "image/jpeg",
          "secret": "yt1QlC6JxzO2rM28VkUZEWNXfkzZStob",
          "width": 800
        },
        "ds": {
          "extension": "jpg",
          "height": 320,
          "mimetype": "image/jpeg",
          "secret": "yt1QlC6JxzO2rM28VkUZEWNXfkzZStob",
          "width": 320
        },
        "k": {
          "extension": "jpg",
          "height": 1313,
          "mimetype": "image/jpeg",
          "secret": "yt1QlC6JxzO2rM28VkUZEWNXfkzZStob",
          "width": 2047
        },
        "n": {
          "extension": "jpg",
          "height": 205,
          "mimetype": "image/jpeg",
          "secret": "yt1QlC6JxzO2rM28VkUZEWNXfkzZStob",
          "width": 320
        },
        "o": {
          "extension": "jpg",
          "height": 1094,
          "mimetype": "image/jpeg",
          "secret": "QmW8YQMKOGnscVhIxr1O4VMIOkUWTQ5T",
          "width": 1706
        },
        "s": {
          "extension": "jpg",
          "height": 320,
          "mimetype": "image/jpeg",
          "secret": "yt1QlC6JxzO2rM28VkUZEWNXfkzZStob",
          "width": 320
        },
        "z": {
          "extension": "jpg",
          "height": 410,
          "mimetype": "image/jpeg",
          "secret": "yt1QlC6JxzO2rM28VkUZEWNXfkzZStob",
          "width": 640
        }
      }
    },
    "media:source": "sfomuseum",
    "media:status_id": 1,
    "media:uri_template": "https://static.sfomuseum.org/media/176/271/252/7/1762712527_{secret}_{label}.{extension}",
    "millsfield:airport_id": [
      102533269
    ],
    "millsfield:category_id": 1511214215,
    "millsfield:collection_id": 1511214207,
    "millsfield:images_colors": [
      {
        "hex": "#b59e56",
        "name": "#b59e56",
        "reference": "marekm4"
      },
      {
        "hex": "#bdb76b",
        "name": "darkkhaki",
        "reference": "css4"
      },
      {
        "hex": "#bab86c",
        "name": "Olive Green",
        "reference": "crayola"
      },
      {
        "hex": "#4e5039",
        "name": "#4e5039",
        "reference": "marekm4"
      },
      {
        "hex": "#556b2f",
        "name": "darkolivegreen",
        "reference": "css4"
      },
      {
        "hex": "#414a4c",
        "name": "Outer Space",
        "reference": "crayola"
      },
      {
        "hex": "#b7bba1",
        "name": "#b7bba1",
        "reference": "marekm4"
      },
      {
        "hex": "#a9a9a9",
        "name": "darkgrey",
        "reference": "css4"
      },
      {
        "hex": "#b0b7c6",
        "name": "Cadet Blue",
        "reference": "crayola"
      },
      {
        "hex": "#748885",
        "name": "#748885",
        "reference": "marekm4"
      },
      {
        "hex": "#708090",
        "name": "slategrey",
        "reference": "css4"
      },
      {
        "hex": "#757575",
        "name": "Sonic Silver",
        "reference": "crayola"
      },
      {
        "hex": "#8b7547",
        "name": "#8b7547",
        "reference": "marekm4"
      },
      {
        "hex": "#a0522d",
        "name": "sienna",
        "reference": "css4"
      },
      {
        "hex": "#85754e",
        "name": "Gold Fusion",
        "reference": "crayola"
      }
    ],
    "millsfield:images_texts": [
      "2118—The New $11,000,000.00 Seattle-Tacoma International Airport\nSTAE\nTACOMT\nATRPORT\nOC-H125",
      "SEATTLE TACOMA\nINTERNATIONAL AIRPORT\nServing the United States.\nAlaska, Hawaii and the Orient.\n'C.T.ART-COLORTONE\" REG. U.S. PAT. OFF. C.P. JOHNSTON CO., SEATTLE, WASHINGTON\nPLACE\nSTAMP\nHERE\nPOST CARD\n2015.166.2303"
    ],
    "millsfield:images_texts_ids": [
      1762712527,
      1762712529
    ],
    "millsfield:similar": {
      "apple/mobileclip_s0": [
        {
          "distance": 0.528815,
          "id": 1762712545
        },
        {
          "distance": 0.61359113,
          "id": 1762712749
        },
        {
          "distance": 0.6159747,
          "id": 1762712167
        },
        {
          "distance": 0.6161849,
          "id": 1762712629
        },
        {
          "distance": 0.6221866,
          "id": 1846756589
        },
        {
          "distance": 0.62888706,
          "id": 1762710793
        },
        {
          "distance": 0.6291846,
          "id": 1762712103
        },
        {
          "distance": 0.6359894,
          "id": 1762711091
        },
        {
          "distance": 0.64241135,
          "id": 1897914597
        },
        {
          "distance": 0.6430092,
          "id": 1762710879
        }
      ],
      "apple/mobileclip_s1": [
        {
          "distance": 0.40476245,
          "id": 1762712749
        },
        {
          "distance": 0.4203829,
          "id": 1762712545
        },
        {
          "distance": 0.43530393,
          "id": 1762711663
        },
        {
          "distance": 0.44620672,
          "id": 1762711091
        },
        {
          "distance": 0.44823247,
          "id": 1762712167
        },
        {
          "distance": 0.44852516,
          "id": 1762710897
        },
        {
          "distance": 0.45099005,
          "id": 1762711117
        },
        {
          "distance": 0.45381868,
          "id": 1762713523
        },
        {
          "distance": 0.45643637,
          "id": 1846756589
        },
        {
          "distance": 0.45977604,
          "id": 1762712629
        }
      ],
      "apple/mobileclip_s2": [
        {
          "distance": 0.6057053,
          "id": 1762712545
        },
        {
          "distance": 0.61894774,
          "id": 1762712629
        },
        {
          "distance": 0.6277488,
          "id": 1762711091
        },
        {
          "distance": 0.63252133,
          "id": 1762712933
        },
        {
          "distance": 0.6351824,
          "id": 1762710587
        },
        {
          "distance": 0.636263,
          "id": 1762710897
        },
        {
          "distance": 0.64271104,
          "id": 1762712167
        },
        {
          "distance": 0.6437274,
          "id": 1762712233
        },
        {
          "distance": 0.6447942,
          "id": 1762710053
        },
        {
          "distance": 0.64698887,
          "id": 1762713523
        }
      ]
    },
    "millsfield:subcategory_id": 1511213363,
    "mz:is_current": 1,
    "sfomuseum:filename": "2015.166.2303_ft.tif",
    "sfomuseum:image_id": 159399,
    "sfomuseum:image_index": 5,
    "sfomuseum:image_type": "studio",
    "sfomuseum:object_id": 182064,
    "sfomuseum:placetype": "image",
    "sfomuseum:primary_image": 1,
    "src:geom": "sfomuseum",
    "wof:belongsto": [
      102527513,
      1159162825,
      102191575,
      85633793,
      102087579,
      85922583,
      1762693073,
      85688637,
      1159160869
    ],
    "wof:country": "US",
    "wof:created": 1641350825,
    "wof:depicts": [
      1762693073,
      102533269
    ],
    "wof:geomhash": "ed7c2ab3547fc3916b5edc33488deaa7",
    "wof:hierarchy": [
      {
        "building_id": -1,
        "campus_id": 102527513,
        "collection_id": 1159162825,
        "concourse_id": 1159162825,
        "continent_id": 102191575,
        "country_id": 85633793,
        "county_id": 102087579,
        "custom_id": 1762712527,
        "image_id": 1762712527,
        "locality_id": 85922583,
        "neighbourhood_id": -1,
        "object_id": 1762693073,
        "region_id": 85688637,
        "wing_id": 1159160869
      }
    ],
    "wof:id": 1762712527,
    "wof:lastmodified": 1788450650,
    "wof:name": "postcard: Seattle - Tacoma International Airport",
    "wof:parent_id": 1762693073,
    "wof:placetype": "custom",
    "wof:placetype_alt": [
      "image"
    ],
    "wof:repo": "sfomuseum-data-media-collection",
    "wof:superseded_by": [],
    "wof:supersedes": []
  },
  "bbox": [
    -122.386472,
    37.616105,
    -122.385834,
    37.616611
  ],
  "geometry": {"type":"Polygon","coordinates":[[[-122.386472,37.616318],[-122.386435,37.616233],[-122.386376,37.616178],[-122.386301,37.616131],[-122.386161,37.616105],[-122.386022,37.616131],[-122.385914,37.616186],[-122.385855,37.616267],[-122.385834,37.616369],[-122.385871,37.616467],[-122.385941,37.616543],[-122.386054,37.616603],[-122.386183,37.616611],[-122.386306,37.616573],[-122.386419,37.616509],[-122.386467,37.616411],[-122.386472,37.616318]]]}
}
