{
  "id": 2048166769,
  "type": "Feature",
  "properties": {
    "date:cessation_lower": "1987-01-01",
    "date:cessation_upper": "1987-12-31",
    "date:inception_lower": "1987-01-01",
    "date:inception_upper": "1987-12-31",
    "edtf:cessation": "1987",
    "edtf:inception": "1987",
    "geom:area": 2.475047457570636e-7,
    "geom:bbox": "-122.386472,37.616105,-122.385834,37.616611",
    "geom:latitude": 37.61635747477365,
    "geom:longitude": -122.38615540108617,
    "media:fingerprint": "14947cf8183b4a9d0533be63ce01e4f82392a2ac",
    "media:imagehash_avg": "a:ffcfc3c3838783f3",
    "media:imagehash_diff": "d:1f3f372736362646",
    "media:imagetext": "SEAT\nOCCUP ED\nCONTINENTAL AIRLINES",
    "media:imagetext_created": 1787976438,
    "media:imagetext_source": "com.apple.visionkit.VNImageRequestHandler#Version 26.6.2 (Build 25G83)",
    "media:mimetype": "image/tiff",
    "media:properties": {
      "colours": null,
      "sizes": {
        "b": {
          "extension": "jpg",
          "height": 768,
          "mimetype": "image/jpeg",
          "secret": "UOGch9QUkBUrFG0NiN2bSYT5tg7oIlNZ",
          "width": 503
        },
        "c": {
          "extension": "jpg",
          "height": 600,
          "mimetype": "image/jpeg",
          "secret": "UOGch9QUkBUrFG0NiN2bSYT5tg7oIlNZ",
          "width": 393
        },
        "dc": {
          "extension": "jpg",
          "height": 600,
          "mimetype": "image/jpeg",
          "secret": "UOGch9QUkBUrFG0NiN2bSYT5tg7oIlNZ",
          "width": 393
        },
        "ds": {
          "extension": "jpg",
          "height": 600,
          "mimetype": "image/jpeg",
          "secret": "UOGch9QUkBUrFG0NiN2bSYT5tg7oIlNZ",
          "width": 393
        },
        "k": {
          "extension": "jpg",
          "height": 1536,
          "mimetype": "image/jpeg",
          "secret": "UOGch9QUkBUrFG0NiN2bSYT5tg7oIlNZ",
          "width": 1006
        },
        "n": {
          "extension": "jpg",
          "height": 240,
          "mimetype": "image/jpeg",
          "secret": "UOGch9QUkBUrFG0NiN2bSYT5tg7oIlNZ",
          "width": 157
        },
        "o": {
          "extension": "jpg",
          "height": 1500,
          "mimetype": "image/jpeg",
          "secret": "tcszSeMagB5jxsEiKHEhNYh86ilUiol6",
          "width": 983
        },
        "s": {
          "extension": "jpg",
          "height": 600,
          "mimetype": "image/jpeg",
          "secret": "UOGch9QUkBUrFG0NiN2bSYT5tg7oIlNZ",
          "width": 393
        },
        "z": {
          "extension": "jpg",
          "height": 480,
          "mimetype": "image/jpeg",
          "secret": "UOGch9QUkBUrFG0NiN2bSYT5tg7oIlNZ",
          "width": 314
        }
      }
    },
    "media:source": "sfomuseum",
    "media:status_id": 1,
    "media:uri_template": "https://static.sfomuseum.org/media/204/816/676/9/2048166769_{secret}_{label}.{extention}",
    "millsfield:airline_id": [
      1159284201
    ],
    "millsfield:category_id": 1762671311,
    "millsfield:collection_id": 1511214207,
    "millsfield:company_id": [
      1360700741
    ],
    "millsfield:images_colors": [
      {
        "hex": "#f7f5ee",
        "name": "#f7f5ee",
        "reference": "marekm4"
      },
      {
        "hex": "#f5f5f5",
        "name": "whitesmoke",
        "reference": "css4"
      },
      {
        "hex": "#ffffff",
        "name": "White",
        "reference": "crayola"
      },
      {
        "hex": "#4c4744",
        "name": "#4c4744",
        "reference": "marekm4"
      },
      {
        "hex": "#2f4f4f",
        "name": "darkslategrey",
        "reference": "css4"
      },
      {
        "hex": "#414a4c",
        "name": "Outer Space",
        "reference": "crayola"
      },
      {
        "hex": "#d73a4f",
        "name": "#d73a4f",
        "reference": "marekm4"
      },
      {
        "hex": "#cd5c5c",
        "name": "indianred",
        "reference": "css4"
      },
      {
        "hex": "#cb4154",
        "name": "Brick Red",
        "reference": "crayola"
      },
      {
        "hex": "#f8f3e9",
        "name": "#f8f3e9",
        "reference": "marekm4"
      },
      {
        "hex": "#faf0e6",
        "name": "linen",
        "reference": "css4"
      },
      {
        "hex": "#fddde6",
        "name": "Piggy Pink",
        "reference": "crayola"
      },
      {
        "hex": "#d83a4f",
        "name": "#d83a4f",
        "reference": "marekm4"
      }
    ],
    "millsfield:images_texts": [
      "SEAT\nOCCUP ED\nCONTINENTAL AIRLINES"
    ],
    "millsfield:images_texts_ids": [
      2048166769
    ],
    "millsfield:similar": {
      "apple/mobileclip_s0": [
        {
          "distance": 0.25514168,
          "id": 2048164639
        },
        {
          "distance": 0.43336153,
          "id": 1527823909
        },
        {
          "distance": 0.45969757,
          "id": 1763205049
        },
        {
          "distance": 0.474657,
          "id": 1763205213
        },
        {
          "distance": 0.5072591,
          "id": 2048164487
        },
        {
          "distance": 0.5289534,
          "id": 2048164471
        },
        {
          "distance": 0.53124726,
          "id": 2048166791
        },
        {
          "distance": 0.5394889,
          "id": 2048164485
        },
        {
          "distance": 0.5493771,
          "id": 1527823535
        },
        {
          "distance": 0.553441,
          "id": 1527824559
        }
      ],
      "apple/mobileclip_s1": [
        {
          "distance": 0.22026657,
          "id": 2048164639
        },
        {
          "distance": 0.22255397,
          "id": 1527823909
        },
        {
          "distance": 0.24643949,
          "id": 1763205049
        },
        {
          "distance": 0.25255966,
          "id": 1527824563
        },
        {
          "distance": 0.35147214,
          "id": 1763205213
        },
        {
          "distance": 0.3599534,
          "id": 1527823535
        },
        {
          "distance": 0.36836317,
          "id": 2048164487
        },
        {
          "distance": 0.37327388,
          "id": 1763205045
        },
        {
          "distance": 0.38824007,
          "id": 1763204901
        },
        {
          "distance": 0.3884359,
          "id": 2048164471
        }
      ],
      "apple/mobileclip_s2": [
        {
          "distance": 0.28382182,
          "id": 2048164639
        },
        {
          "distance": 0.3040779,
          "id": 1527824563
        },
        {
          "distance": 0.32608807,
          "id": 1763205049
        },
        {
          "distance": 0.37162247,
          "id": 1527823909
        },
        {
          "distance": 0.4478861,
          "id": 1527823535
        },
        {
          "distance": 0.45464432,
          "id": 1763205213
        },
        {
          "distance": 0.49688086,
          "id": 1763205045
        },
        {
          "distance": 0.49831876,
          "id": 2048164487
        },
        {
          "distance": 0.50948155,
          "id": 2048164489
        },
        {
          "distance": 0.51605,
          "id": 2048164471
        }
      ]
    },
    "millsfield:subcategory_id": 1511213185,
    "mz:is_current": 1,
    "sfomuseum:filename": "BB0042a.tif",
    "sfomuseum:image_id": 270134,
    "sfomuseum:image_index": 0,
    "sfomuseum:image_type": "studio",
    "sfomuseum:object_id": 235251,
    "sfomuseum:placetype": "image",
    "sfomuseum:primary_image": 1,
    "src:geom": "sfomuseum",
    "wof:belongsto": [
      102527513,
      1159162825,
      102191575,
      85633793,
      102087579,
      85922583,
      2048161477,
      85688637,
      1159160869
    ],
    "wof:country": "XY",
    "wof:created": 1787815221,
    "wof:depicts": [
      1159284201,
      1360700741,
      2048161477
    ],
    "wof:geomhash": "c281b9d9eefc83b5710e64b9d646067d",
    "wof:hierarchy": [
      {
        "building_id": -1,
        "campus_id": 102527513,
        "collection_id": 1159162825,
        "concourse_id": 1159162825,
        "continent_id": 102191575,
        "country_id": 85633793,
        "county_id": 102087579,
        "custom_id": 2048166769,
        "locality_id": 85922583,
        "neighbourhood_id": -1,
        "object_id": 2048161477,
        "region_id": 85688637,
        "wing_id": 1159160869
      }
    ],
    "wof:id": 2048166769,
    "wof:lastmodified": 1788452754,
    "wof:name": "airsickness bag: Continental Airlines",
    "wof:parent_id": 2048161477,
    "wof:placetype": "custom",
    "wof:repo": "sfomuseum-data-media-collection",
    "wof:superseded_by": [],
    "wof:supersedes": []
  },
  "bbox": [
    -122.38647222518921,
    37.6161053594541,
    -122.38583385944366,
    37.61661101879963
  ],
  "geometry": {"type":"Polygon","coordinates":[[[-122.38647222518921,37.61631782178288],[-122.386434674263,37.61623283692423],[-122.38637566566466,37.61617759671399],[-122.38630056381224,37.6161308549656],[-122.38616108894348,37.6161053594541],[-122.38602161407469,37.6161308549656],[-122.38591432571411,37.61618609521055],[-122.38585531711577,37.61626683087935],[-122.38583385944366,37.61636881265146],[-122.38587141036987,37.61646654505181],[-122.38594114780425,37.61654303118856],[-122.38605380058287,37.61660252035167],[-122.38618254661559,37.61661101879963],[-122.3863059282303,37.61657277577607],[-122.3864185810089,37.61650903735973],[-122.3864668607712,37.61641130501523],[-122.38647222518921,37.61631782178288]]]}
}
