{
  "id": 2015275899,
  "type": "Feature",
  "properties": {
    "date:cessation_lower": "1928-01-01",
    "date:cessation_upper": "1928-12-31",
    "date:inception_lower": "1928-01-01",
    "date:inception_upper": "1928-12-31",
    "edtf:cessation": "1928",
    "edtf:inception": "1928",
    "geom:area": 2.475047457570636e-7,
    "geom:bbox": "-122.386472,37.616105,-122.385834,37.616611",
    "geom:latitude": 37.61635747477365,
    "geom:longitude": -122.38615540108617,
    "media:fingerprint": "181a3dadaed72259d430fddc52344616e186d924",
    "media:imagehash_avg": "a:007f7e024e7e7e00",
    "media:imagehash_diff": "d:e6bab09e9ef8f8f0",
    "media:imagetext": "450\nPlane\n20\n5092\n908\nSTANDÁRD OIL COMPAN\nCALIFORHIA",
    "media:imagetext_created": 1787976099,
    "media:imagetext_source": "com.apple.visionkit.VNImageRequestHandler#Version 26.6.2 (Build 25G83)",
    "media:mimetype": "image/tiff",
    "media:properties": {
      "colours": null,
      "sizes": {
        "b": {
          "extension": "jpg",
          "height": 768,
          "mimetype": "image/jpeg",
          "secret": "srpjp3dZxcSliMFVa7HqEcYQlKsIgQyr",
          "width": 959
        },
        "c": {
          "extension": "jpg",
          "height": 600,
          "mimetype": "image/jpeg",
          "secret": "srpjp3dZxcSliMFVa7HqEcYQlKsIgQyr",
          "width": 749
        },
        "dc": {
          "extension": "jpg",
          "height": 320,
          "mimetype": "image/jpeg",
          "secret": "srpjp3dZxcSliMFVa7HqEcYQlKsIgQyr",
          "width": 320
        },
        "ds": {
          "extension": "jpg",
          "height": 320,
          "mimetype": "image/jpeg",
          "secret": "srpjp3dZxcSliMFVa7HqEcYQlKsIgQyr",
          "width": 320
        },
        "k": {
          "extension": "jpg",
          "height": 1536,
          "mimetype": "image/jpeg",
          "secret": "srpjp3dZxcSliMFVa7HqEcYQlKsIgQyr",
          "width": 1918
        },
        "n": {
          "extension": "jpg",
          "height": 240,
          "mimetype": "image/jpeg",
          "secret": "srpjp3dZxcSliMFVa7HqEcYQlKsIgQyr",
          "width": 299
        },
        "o": {
          "extension": "jpg",
          "height": 1661,
          "mimetype": "image/jpeg",
          "secret": "lbCGXvKOagNCqwrJHkqy8TjZfxX7b8PX",
          "width": 2075
        },
        "s": {
          "extension": "jpg",
          "height": 320,
          "mimetype": "image/jpeg",
          "secret": "srpjp3dZxcSliMFVa7HqEcYQlKsIgQyr",
          "width": 320
        },
        "z": {
          "extension": "jpg",
          "height": 480,
          "mimetype": "image/jpeg",
          "secret": "srpjp3dZxcSliMFVa7HqEcYQlKsIgQyr",
          "width": 599
        }
      }
    },
    "media:source": "sfomuseum",
    "media:status_id": 1,
    "media:uri_template": "https://static.sfomuseum.org/media/201/527/589/9/2015275899_{secret}_{label}.{extention}",
    "millsfield:aircraft_id": [
      1159292297
    ],
    "millsfield:airport_id": [
      1360695653
    ],
    "millsfield:category_id": 1511214209,
    "millsfield:collection_id": 1511214207,
    "millsfield:company_id": [],
    "millsfield:images_colors": [
      {
        "hex": "#e0e0e2",
        "name": "#e0e0e2",
        "reference": "marekm4"
      },
      {
        "hex": "#dcdcdc",
        "name": "gainsboro",
        "reference": "css4"
      },
      {
        "hex": "#dbd7d2",
        "name": "Timberwolf",
        "reference": "crayola"
      },
      {
        "hex": "#252425",
        "name": "#252425",
        "reference": "marekm4"
      },
      {
        "hex": "#2f4f4f",
        "name": "darkslategrey",
        "reference": "css4"
      },
      {
        "hex": "#414a4c",
        "name": "Outer Space",
        "reference": "crayola"
      },
      {
        "hex": "#a1a2a2",
        "name": "#a1a2a2",
        "reference": "marekm4"
      },
      {
        "hex": "#a9a9a9",
        "name": "darkgrey",
        "reference": "css4"
      },
      {
        "hex": "#979aaa",
        "name": "Manatee",
        "reference": "crayola"
      },
      {
        "hex": "#686866",
        "name": "#686866",
        "reference": "marekm4"
      },
      {
        "hex": "#696969",
        "name": "dimgrey",
        "reference": "css4"
      },
      {
        "hex": "#757575",
        "name": "Sonic Silver",
        "reference": "crayola"
      },
      {
        "hex": "#7f8080",
        "name": "#7f8080",
        "reference": "marekm4"
      },
      {
        "hex": "#808080",
        "name": "grey",
        "reference": "css4"
      }
    ],
    "millsfield:images_texts": [
      "450\nPlane\n20\n5092\n908\nSTANDÁRD OIL COMPAN\nCALIFORHIA"
    ],
    "millsfield:images_texts_ids": [
      2015275899
    ],
    "millsfield:similar": {
      "apple/mobileclip_s0": [
        {
          "distance": 0.49888206,
          "id": 1763503959
        },
        {
          "distance": 0.54594004,
          "id": 1763447459
        },
        {
          "distance": 0.5472929,
          "id": 2015300813
        },
        {
          "distance": 0.5507489,
          "id": 1880194411
        },
        {
          "distance": 0.5536878,
          "id": 1897882067
        },
        {
          "distance": 0.5608852,
          "id": 2015275897
        },
        {
          "distance": 0.57391393,
          "id": 1813516359
        },
        {
          "distance": 0.5799309,
          "id": 1762708837
        },
        {
          "distance": 0.58099383,
          "id": 2015275933
        },
        {
          "distance": 0.58144295,
          "id": 1527822753
        }
      ],
      "apple/mobileclip_s1": [
        {
          "distance": 0.36394224,
          "id": 1847486247
        },
        {
          "distance": 0.3681132,
          "id": 1897882147
        },
        {
          "distance": 0.36863604,
          "id": 1763503959
        },
        {
          "distance": 0.37126026,
          "id": 2014997825
        },
        {
          "distance": 0.37382448,
          "id": 1863354989
        },
        {
          "distance": 0.37865385,
          "id": 1847582941
        },
        {
          "distance": 0.38525382,
          "id": 2015275933
        },
        {
          "distance": 0.3881987,
          "id": 1762703449
        },
        {
          "distance": 0.38901365,
          "id": 1998537329
        },
        {
          "distance": 0.3894048,
          "id": 1880194411
        }
      ],
      "apple/mobileclip_s2": [
        {
          "distance": 0.44561577,
          "id": 1762708837
        },
        {
          "distance": 0.45261568,
          "id": 1897882147
        },
        {
          "distance": 0.46847484,
          "id": 1763447459
        },
        {
          "distance": 0.4728105,
          "id": 1897882067
        },
        {
          "distance": 0.4781834,
          "id": 1762703449
        },
        {
          "distance": 0.4800469,
          "id": 1763503959
        },
        {
          "distance": 0.48922634,
          "id": 1762708827
        },
        {
          "distance": 0.4906552,
          "id": 1863429631
        },
        {
          "distance": 0.49135405,
          "id": 1762713271
        },
        {
          "distance": 0.49292663,
          "id": 1863354989
        }
      ]
    },
    "millsfield:subcategory_id": 1511213801,
    "mz:is_current": 1,
    "sfomuseum:filename": "2021.087.008.tif",
    "sfomuseum:image_id": 289188,
    "sfomuseum:image_index": 0,
    "sfomuseum:image_type": "studio",
    "sfomuseum:object_id": 227672,
    "sfomuseum:placetype": "image",
    "sfomuseum:primary_image": 1,
    "src:geom": "sfomuseum",
    "wof:belongsto": [
      102527513,
      1159162825,
      102191575,
      85633793,
      102087579,
      85922583,
      2015275647,
      85688637,
      1159160869
    ],
    "wof:country": "XY",
    "wof:created": 1776152169,
    "wof:depicts": [
      1159292297,
      2015275647,
      1360695653
    ],
    "wof:geomhash": "c281b9d9eefc83b5710e64b9d646067d",
    "wof:hierarchy": [
      {
        "building_id": -1,
        "campus_id": 102527513,
        "collection_id": 1159162825,
        "concourse_id": 1159162825,
        "continent_id": 102191575,
        "country_id": 85633793,
        "county_id": 102087579,
        "custom_id": 2015275899,
        "locality_id": 85922583,
        "neighbourhood_id": -1,
        "object_id": 2015275647,
        "region_id": 85688637,
        "wing_id": 1159160869
      }
    ],
    "wof:id": 2015275899,
    "wof:lastmodified": 1788452694,
    "wof:name": "negative: Standard Oil Company of California, Mills Field Municipal Airport of San Francisco",
    "wof:parent_id": 2015275647,
    "wof:placetype": "custom",
    "wof:repo": "sfomuseum-data-media-collection",
    "wof:superseded_by": [],
    "wof:supersedes": []
  },
  "bbox": [
    -122.38647222518921,
    37.6161053594541,
    -122.38583385944366,
    37.61661101879963
  ],
  "geometry": {"type":"Polygon","coordinates":[[[-122.38647222518921,37.61631782178288],[-122.386434674263,37.61623283692423],[-122.38637566566466,37.61617759671399],[-122.38630056381224,37.6161308549656],[-122.38616108894348,37.6161053594541],[-122.38602161407469,37.6161308549656],[-122.38591432571411,37.61618609521055],[-122.38585531711577,37.61626683087935],[-122.38583385944366,37.61636881265146],[-122.38587141036987,37.61646654505181],[-122.38594114780425,37.61654303118856],[-122.38605380058287,37.61660252035167],[-122.38618254661559,37.61661101879963],[-122.3863059282303,37.61657277577607],[-122.3864185810089,37.61650903735973],[-122.3864668607712,37.61641130501523],[-122.38647222518921,37.61631782178288]]]}
}
