{
  "id": 1527841969,
  "type": "Feature",
  "properties": {
    "date:cessation_lower": "1931-01-01",
    "date:cessation_upper": "1931-12-31",
    "date:inception_lower": "1931-01-01",
    "date:inception_upper": "1931-12-31",
    "edtf:cessation": "1931",
    "edtf:date": "1931",
    "edtf:inception": "1931",
    "geom:area": 0,
    "geom:bbox": "-122.386155,37.616358,-122.386155,37.616358",
    "geom:latitude": 37.616358,
    "geom:longitude": -122.386155,
    "iso:country": "XX",
    "media:fingerprint": "4b12ef0ed7a6ce5df4fae705a6a0b58be077f6f2",
    "media:imagehash_avg": "a:00002000f9ffffff",
    "media:imagehash_diff": "d:717dc7652357cf0f",
    "media:imagetext": "PAN AMERICAN AIRWAYS SYSTEM\nPASSENGERS U.S.AIR MAIL\nEXPRESS\nPARA\nFERHANBUCO.\nLAHA\nBUENOS AIRES\nbetween UNITED STATES\nAND\nMEXICO / WEST INDIES/\nCENTRAL SOUTH AMERICA\nGEN. OFFICES 122. E.42 nd ST. NEW YORK CITY\nMexican Aviation Co.\nDivision of Pan American Airways System\nGeneral Offices:\nWoodrow Building\nTickets and Express\nAu. 5 de Mayo, 7\nMexico City\nCorrected to March 1st. 1931",
    "media:imagetext_created": 1787951197,
    "media:imagetext_source": "com.apple.visionkit.VNImageRequestHandler#Version 26.6.2 (Build 25G83)",
    "media:medium": "image",
    "media:mimetype": "image/tiff",
    "media:properties": {
      "sizes": {
        "b": {
          "extension": "jpg",
          "height": 768,
          "mimetype": "image/jpeg",
          "secret": "xIFSqoGHuMlLc39c3ZG5S4Qr4eXjwHYV",
          "width": 369
        },
        "c": {
          "extension": "jpg",
          "height": 600,
          "mimetype": "image/jpeg",
          "secret": "xIFSqoGHuMlLc39c3ZG5S4Qr4eXjwHYV",
          "width": 288
        },
        "dc": {
          "extension": "jpg",
          "height": 600,
          "mimetype": "image/jpeg",
          "secret": "xIFSqoGHuMlLc39c3ZG5S4Qr4eXjwHYV",
          "width": 288
        },
        "ds": {
          "extension": "jpg",
          "height": 320,
          "mimetype": "image/jpeg",
          "secret": "xIFSqoGHuMlLc39c3ZG5S4Qr4eXjwHYV",
          "width": 320
        },
        "k": {
          "extension": "jpg",
          "height": 1536,
          "mimetype": "image/jpeg",
          "secret": "xIFSqoGHuMlLc39c3ZG5S4Qr4eXjwHYV",
          "width": 739
        },
        "n": {
          "extension": "jpg",
          "height": 240,
          "mimetype": "image/jpeg",
          "secret": "xIFSqoGHuMlLc39c3ZG5S4Qr4eXjwHYV",
          "width": 115
        },
        "o": {
          "extension": "jpg",
          "height": 2716,
          "mimetype": "image/jpeg",
          "secret": "qYFPcey9UIcib0FfU9pg8apBlDS8rcGN",
          "width": 1308
        },
        "s": {
          "extension": "jpg",
          "height": 320,
          "mimetype": "image/jpeg",
          "secret": "xIFSqoGHuMlLc39c3ZG5S4Qr4eXjwHYV",
          "width": 320
        },
        "z": {
          "extension": "jpg",
          "height": 480,
          "mimetype": "image/jpeg",
          "secret": "xIFSqoGHuMlLc39c3ZG5S4Qr4eXjwHYV",
          "width": 231
        }
      }
    },
    "media:source": "sfomuseum",
    "media:status_id": 1,
    "media:uri_template": "https://static.sfomuseum.org/media/152/784/196/9/1527841969_{secret}_{label}.{extension}",
    "millsfield:airline_id": [
      1159284777,
      1159285809
    ],
    "millsfield:category_id": 1511214223,
    "millsfield:collection_id": 1511214207,
    "millsfield:company_id": [
      1159286839
    ],
    "millsfield:images_colors": [
      {
        "hex": "#d6c7af",
        "name": "#d6c7af",
        "reference": "marekm4"
      },
      {
        "hex": "#c0c0c0",
        "name": "silver",
        "reference": "css4"
      },
      {
        "hex": "#cdc5c2",
        "name": "Silver",
        "reference": "crayola"
      },
      {
        "hex": "#366433",
        "name": "#366433",
        "reference": "marekm4"
      },
      {
        "hex": "#556b2f",
        "name": "darkolivegreen",
        "reference": "css4"
      },
      {
        "hex": "#414a4c",
        "name": "Outer Space",
        "reference": "crayola"
      },
      {
        "hex": "#959873",
        "name": "#959873",
        "reference": "marekm4"
      },
      {
        "hex": "#808080",
        "name": "grey",
        "reference": "css4"
      },
      {
        "hex": "#87a96b",
        "name": "Asparagus",
        "reference": "crayola"
      },
      {
        "hex": "#6d885d",
        "name": "#6d885d",
        "reference": "marekm4"
      },
      {
        "hex": "#696969",
        "name": "dimgrey",
        "reference": "css4"
      },
      {
        "hex": "#757575",
        "name": "Sonic Silver",
        "reference": "crayola"
      }
    ],
    "millsfield:images_texts": [
      "PAN AMERICAN AIRWAYS SYSTEM\nPASSENGERS U.S.AIR MAIL\nEXPRESS\nPARA\nFERHANBUCO.\nLAHA\nBUENOS AIRES\nbetween UNITED STATES\nAND\nMEXICO / WEST INDIES/\nCENTRAL SOUTH AMERICA\nGEN. OFFICES 122. E.42 nd ST. NEW YORK CITY\nMexican Aviation Co.\nDivision of Pan American Airways System\nGeneral Offices:\nWoodrow Building\nTickets and Express\nAu. 5 de Mayo, 7\nMexico City\nCorrected to March 1st. 1931"
    ],
    "millsfield:images_texts_ids": [
      1527841969
    ],
    "millsfield:similar": {
      "apple/mobileclip_s0": [
        {
          "distance": 0.37774378,
          "id": 1527856103
        },
        {
          "distance": 0.42035842,
          "id": 1762700821
        },
        {
          "distance": 0.4542272,
          "id": 1846755545
        },
        {
          "distance": 0.5823233,
          "id": 1762704095
        },
        {
          "distance": 0.59070003,
          "id": 1527821731
        },
        {
          "distance": 0.6215633,
          "id": 1527841245
        },
        {
          "distance": 0.6219326,
          "id": 1762714037
        },
        {
          "distance": 0.6251838,
          "id": 1762704101
        },
        {
          "distance": 0.63129276,
          "id": 1527818393
        },
        {
          "distance": 0.6492272,
          "id": 1527841115
        }
      ],
      "apple/mobileclip_s1": [
        {
          "distance": 0.253568,
          "id": 1527856103
        },
        {
          "distance": 0.37203813,
          "id": 1762700821
        },
        {
          "distance": 0.37952536,
          "id": 1846755545
        },
        {
          "distance": 0.48411745,
          "id": 1527842041
        },
        {
          "distance": 0.48510227,
          "id": 1762700783
        },
        {
          "distance": 0.48573172,
          "id": 1762898767
        },
        {
          "distance": 0.48613027,
          "id": 1527842047
        },
        {
          "distance": 0.4867335,
          "id": 1762893293
        },
        {
          "distance": 0.4889021,
          "id": 1527842045
        },
        {
          "distance": 0.4935074,
          "id": 1762698057
        }
      ],
      "apple/mobileclip_s2": [
        {
          "distance": 0.37811223,
          "id": 1527856103
        },
        {
          "distance": 0.4644018,
          "id": 1846755545
        },
        {
          "distance": 0.4941053,
          "id": 1762700821
        },
        {
          "distance": 0.63853633,
          "id": 1763388575
        },
        {
          "distance": 0.6407131,
          "id": 1527842047
        },
        {
          "distance": 0.6487863,
          "id": 1762698481
        },
        {
          "distance": 0.6613062,
          "id": 1527848223
        },
        {
          "distance": 0.6742349,
          "id": 1762893753
        },
        {
          "distance": 0.6747287,
          "id": 1527832325
        },
        {
          "distance": 0.6769191,
          "id": 1527842041
        }
      ]
    },
    "millsfield:subcategory_id": 1511213425,
    "mz:hierarchy_label": 1,
    "mz:is_current": -1,
    "sfomuseum:filename": "2005.132.040.001.tif",
    "sfomuseum:image_id": 67348,
    "sfomuseum:image_index": 5,
    "sfomuseum:image_type": "studio",
    "sfomuseum:object_id": 98000,
    "sfomuseum:placetype": "image",
    "sfomuseum:primary_image": 1,
    "src:geom": "sfomuseum",
    "wof:belongsto": [
      1511214223,
      1511936831,
      102527513,
      102191575,
      85633793,
      1511213425,
      85922583,
      102087579,
      1511214277,
      1511214203,
      85688637
    ],
    "wof:breaches": [],
    "wof:country": "XX",
    "wof:created": 1578952791,
    "wof:depicts": [
      1511936831,
      1159286839,
      1159285809,
      1159284777,
      1159284991
    ],
    "wof:geomhash": "bd906905ce4be6c0651c90b0fc24804c",
    "wof:hierarchy": [
      {
        "arcade_id": 1511213425,
        "building_id": 1511214277,
        "campus_id": 102527513,
        "concourse_id": 1511214223,
        "continent_id": 102191575,
        "country_id": 85633793,
        "county_id": 102087579,
        "custom_id": 1527841969,
        "image_id": 1527841969,
        "locality_id": 85922583,
        "media_id": 1527841969,
        "neighbourhood_id": -1,
        "region_id": 85688637,
        "venue_id": 1511936831,
        "wing_id": 1511214203
      }
    ],
    "wof:id": 1527841969,
    "wof:lastmodified": 1788450043,
    "wof:name": "timetable: Pan American Airways, Mexican Aviation Company",
    "wof:parent_id": 1511936831,
    "wof:placetype": "custom",
    "wof:placetype_alt": [
      "image"
    ],
    "wof:repo": "sfomuseum-data-media-collection",
    "wof:superseded_by": [],
    "wof:supersedes": [],
    "wof:tags": []
  },
  "bbox": [
    -122.386155,
    37.616358,
    -122.386155,
    37.616358
  ],
  "geometry": {"type":"Point","coordinates":[-122.386155,37.616358]}
}
