{
  "id": 1897763161,
  "type": "Feature",
  "properties": {
    "date:cessation_lower": "1980-12-01",
    "date:cessation_upper": "1980-12-31",
    "date:inception_lower": "1980-09-01",
    "date:inception_upper": "1980-09-30",
    "edtf:cessation": "1980-12",
    "edtf:inception": "1980-09",
    "geom:area": 2.477324999997507e-7,
    "geom:bbox": "-122.386472,37.616105,-122.385834,37.616611",
    "geom:latitude": 37.61635756125121,
    "geom:longitude": -122.38615532866096,
    "media:fingerprint": "c3ba5b7d1fc36dd463b9f394e2ea8cab1a95a341",
    "media:imagehash_avg": "a:ff7f1f070b070307",
    "media:imagehash_diff": "d:ffff3f3f3b7d7fff",
    "media:imagetext": "Design Wolf Karnagel\n1988 HEPP",
    "media:imagetext_created": 1787971251,
    "media:imagetext_source": "com.apple.visionkit.VNImageRequestHandler#Version 26.6.2 (Build 25G83)",
    "media:mimetype": "image/jpeg",
    "media:properties": {
      "sizes": {
        "b": {
          "extension": "jpg",
          "height": 767,
          "mimetype": "image/jpeg",
          "secret": "DZxheD7f5noG69ku5PiGVNEkpL2lQoQ7",
          "width": 1024
        },
        "c": {
          "extension": "jpg",
          "height": 599,
          "mimetype": "image/jpeg",
          "secret": "DZxheD7f5noG69ku5PiGVNEkpL2lQoQ7",
          "width": 799
        },
        "dc": {
          "extension": "jpg",
          "height": 599,
          "mimetype": "image/jpeg",
          "secret": "DZxheD7f5noG69ku5PiGVNEkpL2lQoQ7",
          "width": 799
        },
        "ds": {
          "extension": "jpg",
          "height": 320,
          "mimetype": "image/jpeg",
          "secret": "DZxheD7f5noG69ku5PiGVNEkpL2lQoQ7",
          "width": 320
        },
        "k": {
          "extension": "jpg",
          "height": 1535,
          "mimetype": "image/jpeg",
          "secret": "DZxheD7f5noG69ku5PiGVNEkpL2lQoQ7",
          "width": 2048
        },
        "n": {
          "extension": "jpg",
          "height": 239,
          "mimetype": "image/jpeg",
          "secret": "DZxheD7f5noG69ku5PiGVNEkpL2lQoQ7",
          "width": 320
        },
        "o": {
          "extension": "jpg",
          "height": 2336,
          "mimetype": "image/jpeg",
          "secret": "VLVKiNOYcNiduyrKudI5Qtv31HlCS3Ea",
          "width": 3115
        },
        "s": {
          "extension": "jpg",
          "height": 320,
          "mimetype": "image/jpeg",
          "secret": "DZxheD7f5noG69ku5PiGVNEkpL2lQoQ7",
          "width": 320
        },
        "z": {
          "extension": "jpg",
          "height": 479,
          "mimetype": "image/jpeg",
          "secret": "DZxheD7f5noG69ku5PiGVNEkpL2lQoQ7",
          "width": 640
        }
      }
    },
    "media:source": "sfomuseum",
    "media:status_id": 1,
    "media:uri_template": "https://static.sfomuseum.org/media/189/776/316/1/1897763161_{secret}_{label}.{extension}",
    "millsfield:airline_id": [
      1159284711
    ],
    "millsfield:category_id": 1746152551,
    "millsfield:collection_id": 1511214203,
    "millsfield:company_id": [
      1159288215
    ],
    "millsfield:images_colors": [
      {
        "hex": "#9f9e9e",
        "name": "#9f9e9e",
        "reference": "marekm4"
      },
      {
        "hex": "#a9a9a9",
        "name": "darkgrey",
        "reference": "css4"
      },
      {
        "hex": "#979aaa",
        "name": "Manatee",
        "reference": "crayola"
      },
      {
        "hex": "#5c5a58",
        "name": "#5c5a58",
        "reference": "marekm4"
      },
      {
        "hex": "#696969",
        "name": "dimgrey",
        "reference": "css4"
      },
      {
        "hex": "#6e5160",
        "name": "Eggplant",
        "reference": "crayola"
      }
    ],
    "millsfield:images_texts": [
      "Lufthansa",
      "Design Wolf Karnagel\n1988 HEPP"
    ],
    "millsfield:images_texts_ids": [
      1796597355,
      1897763161
    ],
    "millsfield:similar": {
      "apple/mobileclip_s0": [
        {
          "distance": 0.17158099,
          "id": 1897763165
        },
        {
          "distance": 0.22901866,
          "id": 1897763159
        },
        {
          "distance": 0.25170377,
          "id": 1897763163
        },
        {
          "distance": 0.26628736,
          "id": 1796597355
        },
        {
          "distance": 0.26724476,
          "id": 1897763035
        },
        {
          "distance": 0.26913717,
          "id": 1897763105
        },
        {
          "distance": 0.26986274,
          "id": 1897763167
        },
        {
          "distance": 0.28038695,
          "id": 1796597353
        },
        {
          "distance": 0.28533766,
          "id": 1796597357
        },
        {
          "distance": 0.29015815,
          "id": 1897763203
        }
      ],
      "apple/mobileclip_s1": [
        {
          "distance": 0.110101126,
          "id": 1897763165
        },
        {
          "distance": 0.15274327,
          "id": 1897763047
        },
        {
          "distance": 0.15707417,
          "id": 1897763335
        },
        {
          "distance": 0.16635582,
          "id": 1897763051
        },
        {
          "distance": 0.17126776,
          "id": 1796597355
        },
        {
          "distance": 0.17138323,
          "id": 1796597353
        },
        {
          "distance": 0.17618737,
          "id": 1796597359
        },
        {
          "distance": 0.17985067,
          "id": 1897763305
        },
        {
          "distance": 0.18109387,
          "id": 1897763339
        },
        {
          "distance": 0.18333317,
          "id": 1897763105
        }
      ],
      "apple/mobileclip_s2": [
        {
          "distance": 0.15370587,
          "id": 1796597353
        },
        {
          "distance": 0.17223029,
          "id": 1897763165
        },
        {
          "distance": 0.18527219,
          "id": 1796597363
        },
        {
          "distance": 0.18556839,
          "id": 1897763167
        },
        {
          "distance": 0.19840302,
          "id": 1897763163
        },
        {
          "distance": 0.20406239,
          "id": 1796597355
        },
        {
          "distance": 0.23073328,
          "id": 1897763335
        },
        {
          "distance": 0.23923887,
          "id": 1796597357
        },
        {
          "distance": 0.2441863,
          "id": 1897763047
        },
        {
          "distance": 0.24441718,
          "id": 1897763105
        }
      ]
    },
    "millsfield:subcategory_id": 1511213417,
    "mz:is_current": 1,
    "sfomuseum:filename": "IMG_0660.jpg",
    "sfomuseum:image_id": 229577,
    "sfomuseum:image_index": 3,
    "sfomuseum:image_type": "studio",
    "sfomuseum:object_id": 220703,
    "sfomuseum:placetype": "image",
    "sfomuseum:primary_image": 0,
    "src:geom": "sfomuseum",
    "wof:belongsto": [
      102527513,
      1159162825,
      102191575,
      85633793,
      102087579,
      85922583,
      1796596717,
      85688637,
      1159160869
    ],
    "wof:country": "XY",
    "wof:created": 1711611418,
    "wof:depicts": [
      1159284711,
      1159288215,
      1796596717
    ],
    "wof:geomhash": "ed7c2ab3547fc3916b5edc33488deaa7",
    "wof:hierarchy": [
      {
        "building_id": -1,
        "campus_id": 102527513,
        "collection_id": 1159162825,
        "concourse_id": 1159162825,
        "continent_id": 102191575,
        "country_id": 85633793,
        "county_id": 102087579,
        "custom_id": 1897763161,
        "image_id": 1897763161,
        "locality_id": 85922583,
        "neighbourhood_id": -1,
        "object_id": 1796596717,
        "region_id": 85688637,
        "wing_id": 1159160869
      }
    ],
    "wof:id": 1897763161,
    "wof:lastmodified": 1788452100,
    "wof:name": "fork: Lufthansa",
    "wof:parent_id": 1796596717,
    "wof:placetype": "custom",
    "wof:placetype_alt": [
      "image"
    ],
    "wof:repo": "sfomuseum-data-media-collection",
    "wof:superseded_by": [],
    "wof:supersedes": []
  },
  "bbox": [
    -122.386472,
    37.616105,
    -122.385834,
    37.616611
  ],
  "geometry": {"type":"Polygon","coordinates":[[[-122.386472,37.616318],[-122.386435,37.616233],[-122.386376,37.616178],[-122.386301,37.616131],[-122.386161,37.616105],[-122.386022,37.616131],[-122.385914,37.616186],[-122.385855,37.616267],[-122.385834,37.616369],[-122.385871,37.616467],[-122.385941,37.616543],[-122.386054,37.616603],[-122.386183,37.616611],[-122.386306,37.616573],[-122.386419,37.616509],[-122.386467,37.616411],[-122.386472,37.616318]]]}
}
