{
  "id": 1762710375,
  "type": "Feature",
  "properties": {
    "date:cessation_lower": "1950-01-01",
    "date:cessation_upper": "1959-12-31",
    "date:inception_lower": "1950-01-01",
    "date:inception_upper": "1959-12-31",
    "edtf:cessation": "195X",
    "edtf:inception": "195X",
    "geom:area": 2.477324999997507e-7,
    "geom:bbox": "-122.386472,37.616105,-122.385834,37.616611",
    "geom:latitude": 37.61635756125121,
    "geom:longitude": -122.38615532866096,
    "iso:country": "US",
    "media:fingerprint": "753c84f2fefcf35ce30e4a20e89d733df0c26dfd",
    "media:imagehash_avg": "a:bf03bff3e381ff00",
    "media:imagehash_diff": "d:7f7e7647073d7d79",
    "media:imagetext": "Administration Building, Kanawha Airport, Charleston, W. Va.\nCm m",
    "media:imagetext_created": 1701960376,
    "media:imagetext_source": "com.apple.visionkit.VNImageRequestHandler#Version 14.1.2 (Build 23B92)",
    "media:mimetype": "image/tiff",
    "media:properties": {
      "sizes": {
        "b": {
          "extension": "jpg",
          "height": 666,
          "mimetype": "image/jpeg",
          "secret": "D1RmP6EeiJhjyR8fu54v3DNnsmWKXxrW",
          "width": 1024
        },
        "c": {
          "extension": "jpg",
          "height": 520,
          "mimetype": "image/jpeg",
          "secret": "D1RmP6EeiJhjyR8fu54v3DNnsmWKXxrW",
          "width": 800
        },
        "dc": {
          "extension": "jpg",
          "height": 520,
          "mimetype": "image/jpeg",
          "secret": "D1RmP6EeiJhjyR8fu54v3DNnsmWKXxrW",
          "width": 800
        },
        "ds": {
          "extension": "jpg",
          "height": 320,
          "mimetype": "image/jpeg",
          "secret": "D1RmP6EeiJhjyR8fu54v3DNnsmWKXxrW",
          "width": 320
        },
        "k": {
          "extension": "jpg",
          "height": 1332,
          "mimetype": "image/jpeg",
          "secret": "D1RmP6EeiJhjyR8fu54v3DNnsmWKXxrW",
          "width": 2048
        },
        "n": {
          "extension": "jpg",
          "height": 208,
          "mimetype": "image/jpeg",
          "secret": "D1RmP6EeiJhjyR8fu54v3DNnsmWKXxrW",
          "width": 320
        },
        "o": {
          "extension": "jpg",
          "height": 1100,
          "mimetype": "image/jpeg",
          "secret": "KmJY4Fqx14qpTzgitFXlRveq8Zi4xRCY",
          "width": 1691
        },
        "s": {
          "extension": "jpg",
          "height": 320,
          "mimetype": "image/jpeg",
          "secret": "D1RmP6EeiJhjyR8fu54v3DNnsmWKXxrW",
          "width": 320
        },
        "z": {
          "extension": "jpg",
          "height": 416,
          "mimetype": "image/jpeg",
          "secret": "D1RmP6EeiJhjyR8fu54v3DNnsmWKXxrW",
          "width": 640
        }
      }
    },
    "media:source": "sfomuseum",
    "media:status_id": 1,
    "media:uri_template": "https://static.sfomuseum.org/media/176/271/037/5/1762710375_{secret}_{label}.{extension}",
    "millsfield:aircraft_id": [
      1159290421
    ],
    "millsfield:airport_id": [
      102530929
    ],
    "millsfield:category_id": 1511214215,
    "millsfield:collection_id": 1511214207,
    "millsfield:company_id": [],
    "millsfield:images_colors": [
      {
        "hex": "#c0c4b7",
        "name": "#c0c4b7",
        "reference": "marekm4"
      },
      {
        "hex": "#c0c0c0",
        "name": "silver",
        "reference": "css4"
      },
      {
        "hex": "#cdc5c2",
        "name": "Silver",
        "reference": "crayola"
      },
      {
        "hex": "#353411",
        "name": "#353411",
        "reference": "marekm4"
      },
      {
        "hex": "#2f4f4f",
        "name": "darkslategrey",
        "reference": "css4"
      },
      {
        "hex": "#414a4c",
        "name": "Outer Space",
        "reference": "crayola"
      },
      {
        "hex": "#beab62",
        "name": "#beab62",
        "reference": "marekm4"
      },
      {
        "hex": "#bdb76b",
        "name": "darkkhaki",
        "reference": "css4"
      },
      {
        "hex": "#bab86c",
        "name": "Olive Green",
        "reference": "crayola"
      },
      {
        "hex": "#59768d",
        "name": "#59768d",
        "reference": "marekm4"
      },
      {
        "hex": "#708090",
        "name": "slategrey",
        "reference": "css4"
      },
      {
        "hex": "#757575",
        "name": "Sonic Silver",
        "reference": "crayola"
      },
      {
        "hex": "#6e8a97",
        "name": "#6e8a97",
        "reference": "marekm4"
      },
      {
        "hex": "#778899",
        "name": "lightslategrey",
        "reference": "css4"
      }
    ],
    "millsfield:images_texts": [
      "Administration Building, Kanawha Airport, Charleston, W. Va.\nCm m",
      "U.S.\nPOSTAGE 34\nAdministration building, Kanawha County Airport from across\nAbout 10,000,000 cubic yards of earth and rock were\nmoved in the construction of this airport which is atop Hish Hills\noverlooking the city of Charleston.\nAect Atlayisk\nMAY31\nPUB. BY A. W. SMITH NEWS AGENCY, CHARLESTON,'\nHose you will\n11 -AM\nLIB\nlike this aard,\nDOST\nCARD\nPa kind Thing\nalle Heldman\nanneatlal, Indiana\nWilliamstown, W. Ya.\nmaty\n1,25\n175\n2015.1661929"
    ],
    "millsfield:images_texts_ids": [
      1762710375,
      1762710377
    ],
    "millsfield:similar": {
      "apple/mobileclip_s0": [
        {
          "distance": 0.5655063,
          "id": 1762711825
        },
        {
          "distance": 0.57652074,
          "id": 1762711649
        },
        {
          "distance": 0.57908374,
          "id": 1762711901
        },
        {
          "distance": 0.5845569,
          "id": 1762711559
        },
        {
          "distance": 0.59062046,
          "id": 1762712621
        },
        {
          "distance": 0.5909236,
          "id": 1762711603
        },
        {
          "distance": 0.5945638,
          "id": 1762708463
        },
        {
          "distance": 0.5945872,
          "id": 1762711123
        },
        {
          "distance": 0.5952506,
          "id": 1762711555
        },
        {
          "distance": 0.601874,
          "id": 1762711009
        }
      ],
      "apple/mobileclip_s1": [
        {
          "distance": 0.39327398,
          "id": 1762711185
        },
        {
          "distance": 0.39968777,
          "id": 1762711189
        },
        {
          "distance": 0.41564405,
          "id": 1762711825
        },
        {
          "distance": 0.41861954,
          "id": 1762711207
        },
        {
          "distance": 0.4280836,
          "id": 1762712233
        },
        {
          "distance": 0.4297845,
          "id": 1762711195
        },
        {
          "distance": 0.43402016,
          "id": 1762712939
        },
        {
          "distance": 0.4340762,
          "id": 1762711203
        },
        {
          "distance": 0.43667784,
          "id": 1762712215
        },
        {
          "distance": 0.438903,
          "id": 1762711649
        }
      ],
      "apple/mobileclip_s2": [
        {
          "distance": 0.6085331,
          "id": 1762711185
        },
        {
          "distance": 0.60912454,
          "id": 1762711189
        },
        {
          "distance": 0.6143714,
          "id": 1762711195
        },
        {
          "distance": 0.6156332,
          "id": 1762711207
        },
        {
          "distance": 0.6173165,
          "id": 1762711159
        },
        {
          "distance": 0.6204899,
          "id": 1762711825
        },
        {
          "distance": 0.62415457,
          "id": 1762711153
        },
        {
          "distance": 0.6274035,
          "id": 1762711891
        },
        {
          "distance": 0.6276326,
          "id": 1762710587
        },
        {
          "distance": 0.63297266,
          "id": 1762711203
        }
      ]
    },
    "millsfield:subcategory_id": 1511213363,
    "mz:is_current": 1,
    "sfomuseum:filename": "2015.166.1829_ft.tif",
    "sfomuseum:image_id": 158412,
    "sfomuseum:image_index": 5,
    "sfomuseum:image_type": "studio",
    "sfomuseum:object_id": 181590,
    "sfomuseum:placetype": "image",
    "sfomuseum:primary_image": 1,
    "src:geom": "sfomuseum",
    "wof:belongsto": [
      102527513,
      1159162825,
      102191575,
      85633793,
      102087579,
      85922583,
      1762683175,
      85688637,
      1159160869
    ],
    "wof:country": "US",
    "wof:created": 1641350086,
    "wof:depicts": [
      102530929,
      1762683175,
      1159290421
    ],
    "wof:geomhash": "ed7c2ab3547fc3916b5edc33488deaa7",
    "wof:hierarchy": [
      {
        "building_id": -1,
        "campus_id": 102527513,
        "collection_id": 1159162825,
        "concourse_id": 1159162825,
        "continent_id": 102191575,
        "country_id": 85633793,
        "county_id": 102087579,
        "custom_id": 1762710375,
        "image_id": 1762710375,
        "locality_id": 85922583,
        "neighbourhood_id": -1,
        "object_id": 1762683175,
        "region_id": 85688637,
        "wing_id": 1159160869
      }
    ],
    "wof:id": 1762710375,
    "wof:lastmodified": 1788450615,
    "wof:name": "postcard: Kanawha Airport, Douglas DC-4, Douglas DC-3",
    "wof:parent_id": 1762683175,
    "wof:placetype": "custom",
    "wof:placetype_alt": [
      "image"
    ],
    "wof:repo": "sfomuseum-data-media-collection",
    "wof:superseded_by": [],
    "wof:supersedes": []
  },
  "bbox": [
    -122.386472,
    37.616105,
    -122.385834,
    37.616611
  ],
  "geometry": {"type":"Polygon","coordinates":[[[-122.386472,37.616318],[-122.386435,37.616233],[-122.386376,37.616178],[-122.386301,37.616131],[-122.386161,37.616105],[-122.386022,37.616131],[-122.385914,37.616186],[-122.385855,37.616267],[-122.385834,37.616369],[-122.385871,37.616467],[-122.385941,37.616543],[-122.386054,37.616603],[-122.386183,37.616611],[-122.386306,37.616573],[-122.386419,37.616509],[-122.386467,37.616411],[-122.386472,37.616318]]]}
}
