{
  "id": 1762696999,
  "type": "Feature",
  "properties": {
    "date:cessation_lower": "1968-01-01",
    "date:cessation_upper": "1968-12-31",
    "date:inception_lower": "1968-01-01",
    "date:inception_upper": "1968-12-31",
    "edtf:cessation": "1968",
    "edtf:inception": "1968",
    "geom:area": 2.477324999997507e-7,
    "geom:bbox": "-122.386472,37.616105,-122.385834,37.616611",
    "geom:latitude": 37.61635756125121,
    "geom:longitude": -122.38615532866096,
    "media:fingerprint": "c230e19c09936297e11ef318ce57ff3bdd0900ed",
    "media:imagehash_avg": "a:80c3e7c3c3ffffff",
    "media:imagehash_diff": "d:23278e0f0e0e4668",
    "media:imagetext": "PHILIPPINE\nAIR LINES\nINTERNATIONAL TIMETABLE\nEFFECTIVE NOVEMBER 1, 1968\nCRIMSON TRAVEL SERVICE INC.\nPOTTSTON ST., HARVARD SQ.\n..DIDGE, MASS. 02138\nTEL. UN 8-2600",
    "media:imagetext_created": 1787955359,
    "media:imagetext_source": "com.apple.visionkit.VNImageRequestHandler#Version 26.6.2 (Build 25G83)",
    "media:mimetype": "image/tiff",
    "media:properties": {
      "sizes": {
        "b": {
          "extension": "jpg",
          "height": 768,
          "mimetype": "image/jpeg",
          "secret": "lM5Un3ptDWoSM0kLCuf8P12CgaAFRNPa",
          "width": 346
        },
        "c": {
          "extension": "jpg",
          "height": 600,
          "mimetype": "image/jpeg",
          "secret": "lM5Un3ptDWoSM0kLCuf8P12CgaAFRNPa",
          "width": 270
        },
        "dc": {
          "extension": "jpg",
          "height": 600,
          "mimetype": "image/jpeg",
          "secret": "lM5Un3ptDWoSM0kLCuf8P12CgaAFRNPa",
          "width": 270
        },
        "ds": {
          "extension": "jpg",
          "height": 320,
          "mimetype": "image/jpeg",
          "secret": "lM5Un3ptDWoSM0kLCuf8P12CgaAFRNPa",
          "width": 320
        },
        "k": {
          "extension": "jpg",
          "height": 1536,
          "mimetype": "image/jpeg",
          "secret": "lM5Un3ptDWoSM0kLCuf8P12CgaAFRNPa",
          "width": 693
        },
        "n": {
          "extension": "jpg",
          "height": 240,
          "mimetype": "image/jpeg",
          "secret": "lM5Un3ptDWoSM0kLCuf8P12CgaAFRNPa",
          "width": 108
        },
        "o": {
          "extension": "jpg",
          "height": 2748,
          "mimetype": "image/jpeg",
          "secret": "o2zoAZjkMNoOWBmRdpiLfSbHoPI78pBi",
          "width": 1240
        },
        "s": {
          "extension": "jpg",
          "height": 320,
          "mimetype": "image/jpeg",
          "secret": "lM5Un3ptDWoSM0kLCuf8P12CgaAFRNPa",
          "width": 320
        },
        "z": {
          "extension": "jpg",
          "height": 480,
          "mimetype": "image/jpeg",
          "secret": "lM5Un3ptDWoSM0kLCuf8P12CgaAFRNPa",
          "width": 216
        }
      }
    },
    "media:source": "sfomuseum",
    "media:status_id": 1,
    "media:uri_template": "https://static.sfomuseum.org/media/176/269/699/9/1762696999_{secret}_{label}.{extension}",
    "millsfield:airline_id": [
      1159285661
    ],
    "millsfield:category_id": 1511214223,
    "millsfield:collection_id": 1511214207,
    "millsfield:company_id": [
      1159287151
    ],
    "millsfield:images_colors": [
      {
        "hex": "#f7eddb",
        "name": "#f7eddb",
        "reference": "marekm4"
      },
      {
        "hex": "#faebd7",
        "name": "antiquewhite",
        "reference": "css4"
      },
      {
        "hex": "#fddde6",
        "name": "Piggy Pink",
        "reference": "crayola"
      },
      {
        "hex": "#14130c",
        "name": "#14130c",
        "reference": "marekm4"
      },
      {
        "hex": "#000000",
        "name": "black",
        "reference": "css4"
      },
      {
        "hex": "#000000",
        "name": "Black",
        "reference": "crayola"
      },
      {
        "hex": "#c12812",
        "name": "#c12812",
        "reference": "marekm4"
      },
      {
        "hex": "#b22222",
        "name": "firebrick",
        "reference": "css4"
      },
      {
        "hex": "#c46210",
        "name": "Alloy Orange",
        "reference": "crayola"
      }
    ],
    "millsfield:images_texts": [
      "PHILIPPINE\nAIR LINES\nINTERNATIONAL TIMETABLE\nEFFECTIVE NOVEMBER 1, 1968\nCRIMSON TRAVEL SERVICE INC.\nPOTTSTON ST., HARVARD SQ.\n..DIDGE, MASS. 02138\nTEL. UN 8-2600"
    ],
    "millsfield:images_texts_ids": [
      1762696999
    ],
    "millsfield:similar": {
      "apple/mobileclip_s0": [
        {
          "distance": 0.69250435,
          "id": 1527848635
        },
        {
          "distance": 0.70767975,
          "id": 1527820775
        },
        {
          "distance": 0.70776606,
          "id": 1527837893
        },
        {
          "distance": 0.7145592,
          "id": 1527850581
        },
        {
          "distance": 0.7169932,
          "id": 1527818469
        },
        {
          "distance": 0.71975106,
          "id": 1527837681
        },
        {
          "distance": 0.7236418,
          "id": 1763196119
        },
        {
          "distance": 0.7286836,
          "id": 1762696893
        },
        {
          "distance": 0.72899634,
          "id": 1762699049
        },
        {
          "distance": 0.73221946,
          "id": 1527838145
        }
      ],
      "apple/mobileclip_s1": [
        {
          "distance": 0.50390714,
          "id": 1763196119
        },
        {
          "distance": 0.51384944,
          "id": 1762715539
        },
        {
          "distance": 0.5138556,
          "id": 1527837717
        },
        {
          "distance": 0.5175491,
          "id": 1527838273
        },
        {
          "distance": 0.5218843,
          "id": 1527837713
        },
        {
          "distance": 0.5235133,
          "id": 1527838341
        },
        {
          "distance": 0.5241089,
          "id": 1527855167
        },
        {
          "distance": 0.52583325,
          "id": 1914555911
        },
        {
          "distance": 0.52742743,
          "id": 1527837873
        },
        {
          "distance": 0.5278962,
          "id": 1527837697
        }
      ],
      "apple/mobileclip_s2": [
        {
          "distance": 0.70336086,
          "id": 1527847719
        },
        {
          "distance": 0.70847225,
          "id": 1527849217
        },
        {
          "distance": 0.719311,
          "id": 1527848635
        },
        {
          "distance": 0.724855,
          "id": 1527837893
        },
        {
          "distance": 0.726464,
          "id": 1527836573
        },
        {
          "distance": 0.73222804,
          "id": 1527837717
        },
        {
          "distance": 0.73395157,
          "id": 1762715539
        },
        {
          "distance": 0.73638934,
          "id": 1527836595
        },
        {
          "distance": 0.7373778,
          "id": 1527837889
        },
        {
          "distance": 0.73921484,
          "id": 1914555911
        }
      ]
    },
    "millsfield:subcategory_id": 1511213425,
    "mz:is_current": 1,
    "sfomuseum:filename": "2012.173.332.tif",
    "sfomuseum:image_id": 64094,
    "sfomuseum:image_index": 5,
    "sfomuseum:image_type": "studio",
    "sfomuseum:object_id": 141436,
    "sfomuseum:placetype": "image",
    "sfomuseum:primary_image": 1,
    "src:geom": "sfomuseum",
    "wof:belongsto": [
      102527513,
      1159162825,
      102191575,
      85633793,
      102087579,
      85922583,
      1762684379,
      85688637,
      1159160869
    ],
    "wof:country": "XY",
    "wof:created": 1641345236,
    "wof:depicts": [
      1762684379,
      1159285661,
      1159287151
    ],
    "wof:geomhash": "ed7c2ab3547fc3916b5edc33488deaa7",
    "wof:hierarchy": [
      {
        "building_id": -1,
        "campus_id": 102527513,
        "collection_id": 1159162825,
        "concourse_id": 1159162825,
        "continent_id": 102191575,
        "country_id": 85633793,
        "county_id": 102087579,
        "custom_id": 1762696999,
        "image_id": 1762696999,
        "locality_id": 85922583,
        "neighbourhood_id": -1,
        "object_id": 1762684379,
        "region_id": 85688637,
        "wing_id": 1159160869
      }
    ],
    "wof:id": 1762696999,
    "wof:lastmodified": 1788450395,
    "wof:name": "timetable: Philippine Air Lines, international schedule",
    "wof:parent_id": 1762684379,
    "wof:placetype": "custom",
    "wof:placetype_alt": [
      "image"
    ],
    "wof:repo": "sfomuseum-data-media-collection",
    "wof:superseded_by": [],
    "wof:supersedes": []
  },
  "bbox": [
    -122.386472,
    37.616105,
    -122.385834,
    37.616611
  ],
  "geometry": {"type":"Polygon","coordinates":[[[-122.386472,37.616318],[-122.386435,37.616233],[-122.386376,37.616178],[-122.386301,37.616131],[-122.386161,37.616105],[-122.386022,37.616131],[-122.385914,37.616186],[-122.385855,37.616267],[-122.385834,37.616369],[-122.385871,37.616467],[-122.385941,37.616543],[-122.386054,37.616603],[-122.386183,37.616611],[-122.386306,37.616573],[-122.386419,37.616509],[-122.386467,37.616411],[-122.386472,37.616318]]]}
}
