{
  "id": 1763379537,
  "type": "Feature",
  "properties": {
    "date:cessation_lower": "1970-01-01",
    "date:cessation_upper": "1979-12-31",
    "date:inception_lower": "1970-01-01",
    "date:inception_upper": "1979-12-31",
    "edtf:cessation": "197X",
    "edtf:inception": "197X",
    "geom:area": 2.477324999997507e-7,
    "geom:bbox": "-122.386472,37.616105,-122.385834,37.616611",
    "geom:latitude": 37.61635756125121,
    "geom:longitude": -122.38615532866096,
    "media:fingerprint": "b0afc68ffe0fe1bc6603431df3d4d3c7124be42f",
    "media:imagehash_avg": "a:ffffff81c3e78381",
    "media:imagehash_diff": "d:171e0c0d0f0f1f1f",
    "media:imagetext": "A\nDELTA",
    "media:imagetext_created": 1787962308,
    "media:imagetext_source": "com.apple.visionkit.VNImageRequestHandler#Version 26.6.2 (Build 25G83)",
    "media:mimetype": "image/tiff",
    "media:properties": {
      "sizes": {
        "b": {
          "extension": "jpg",
          "height": 768,
          "mimetype": "image/jpeg",
          "secret": "lfO85qecoZQTy5WRMWR9W9FBA9tZs9hF",
          "width": 965
        },
        "c": {
          "extension": "jpg",
          "height": 600,
          "mimetype": "image/jpeg",
          "secret": "lfO85qecoZQTy5WRMWR9W9FBA9tZs9hF",
          "width": 754
        },
        "dc": {
          "extension": "jpg",
          "height": 600,
          "mimetype": "image/jpeg",
          "secret": "lfO85qecoZQTy5WRMWR9W9FBA9tZs9hF",
          "width": 754
        },
        "ds": {
          "extension": "jpg",
          "height": 320,
          "mimetype": "image/jpeg",
          "secret": "lfO85qecoZQTy5WRMWR9W9FBA9tZs9hF",
          "width": 320
        },
        "k": {
          "extension": "jpg",
          "height": 1536,
          "mimetype": "image/jpeg",
          "secret": "lfO85qecoZQTy5WRMWR9W9FBA9tZs9hF",
          "width": 1931
        },
        "n": {
          "extension": "jpg",
          "height": 240,
          "mimetype": "image/jpeg",
          "secret": "lfO85qecoZQTy5WRMWR9W9FBA9tZs9hF",
          "width": 301
        },
        "o": {
          "extension": "jpg",
          "height": 1667,
          "mimetype": "image/jpeg",
          "secret": "2oYJg5LYR4chXZ4KSE0LzaOtczHYUk63",
          "width": 2096
        },
        "s": {
          "extension": "jpg",
          "height": 320,
          "mimetype": "image/jpeg",
          "secret": "lfO85qecoZQTy5WRMWR9W9FBA9tZs9hF",
          "width": 320
        },
        "z": {
          "extension": "jpg",
          "height": 480,
          "mimetype": "image/jpeg",
          "secret": "lfO85qecoZQTy5WRMWR9W9FBA9tZs9hF",
          "width": 603
        }
      }
    },
    "media:source": "sfomuseum",
    "media:status_id": 1,
    "media:uri_template": "https://static.sfomuseum.org/media/176/337/953/7/1763379537_{secret}_{label}.{extension}",
    "millsfield:airline_id": [
      1159284261
    ],
    "millsfield:category_id": 1762679663,
    "millsfield:collection_id": 1511214203,
    "millsfield:company_id": [
      1159287931
    ],
    "millsfield:images_colors": [
      {
        "hex": "#b3b0ad",
        "name": "#b3b0ad",
        "reference": "marekm4"
      },
      {
        "hex": "#a9a9a9",
        "name": "darkgrey",
        "reference": "css4"
      },
      {
        "hex": "#b0b7c6",
        "name": "Cadet Blue",
        "reference": "crayola"
      },
      {
        "hex": "#a38f73",
        "name": "#a38f73",
        "reference": "marekm4"
      },
      {
        "hex": "#bc8f8f",
        "name": "rosybrown",
        "reference": "css4"
      },
      {
        "hex": "#9f8170",
        "name": "Beaver",
        "reference": "crayola"
      },
      {
        "hex": "#67584a",
        "name": "#67584a",
        "reference": "marekm4"
      },
      {
        "hex": "#696969",
        "name": "dimgrey",
        "reference": "css4"
      },
      {
        "hex": "#6e5160",
        "name": "Eggplant",
        "reference": "crayola"
      },
      {
        "hex": "#917762",
        "name": "#917762",
        "reference": "marekm4"
      },
      {
        "hex": "#808080",
        "name": "grey",
        "reference": "css4"
      },
      {
        "hex": "#8a795d",
        "name": "Shadow",
        "reference": "crayola"
      }
    ],
    "millsfield:images_texts": [
      "A\nDELTA"
    ],
    "millsfield:images_texts_ids": [
      1763379537
    ],
    "millsfield:similar": {
      "apple/mobileclip_s0": [
        {
          "distance": 0.20911473,
          "id": 1763379533
        },
        {
          "distance": 0.23458037,
          "id": 1763379535
        },
        {
          "distance": 0.26336247,
          "id": 1763287259
        },
        {
          "distance": 0.3148164,
          "id": 1729566941
        },
        {
          "distance": 0.36064485,
          "id": 1763380031
        },
        {
          "distance": 0.36862478,
          "id": 1763379573
        },
        {
          "distance": 0.4028982,
          "id": 1763379629
        },
        {
          "distance": 0.43302995,
          "id": 1763380029
        },
        {
          "distance": 0.43363354,
          "id": 1763379601
        },
        {
          "distance": 0.47306767,
          "id": 1762966601
        }
      ],
      "apple/mobileclip_s1": [
        {
          "distance": 0.06661875,
          "id": 1763379533
        },
        {
          "distance": 0.08307359,
          "id": 1763379535
        },
        {
          "distance": 0.13548335,
          "id": 1729566941
        },
        {
          "distance": 0.19354372,
          "id": 1763287259
        },
        {
          "distance": 0.20098074,
          "id": 1763379573
        },
        {
          "distance": 0.20224391,
          "id": 1763380031
        },
        {
          "distance": 0.26162896,
          "id": 1763380029
        },
        {
          "distance": 0.27614307,
          "id": 1763379629
        },
        {
          "distance": 0.29318273,
          "id": 1729566899
        },
        {
          "distance": 0.30012673,
          "id": 1762966601
        }
      ],
      "apple/mobileclip_s2": [
        {
          "distance": 0.061295893,
          "id": 1763379533
        },
        {
          "distance": 0.08223214,
          "id": 1763379535
        },
        {
          "distance": 0.14327617,
          "id": 1729566941
        },
        {
          "distance": 0.19269106,
          "id": 1763287259
        },
        {
          "distance": 0.24489254,
          "id": 1763379573
        },
        {
          "distance": 0.2476434,
          "id": 1763380031
        },
        {
          "distance": 0.31546277,
          "id": 1796414303
        },
        {
          "distance": 0.31650406,
          "id": 1763379629
        },
        {
          "distance": 0.33125463,
          "id": 1763380029
        },
        {
          "distance": 0.3325433,
          "id": 1729566899
        }
      ]
    },
    "millsfield:subcategory_id": 1897358749,
    "mz:is_current": 1,
    "sfomuseum:filename": "111436.tif",
    "sfomuseum:image_id": 111436,
    "sfomuseum:image_index": 5,
    "sfomuseum:image_type": "studio",
    "sfomuseum:object_id": 85201,
    "sfomuseum:placetype": "image",
    "sfomuseum:primary_image": 1,
    "src:geom": "sfomuseum",
    "wof:belongsto": [
      102527513,
      1159162825,
      102191575,
      85633793,
      102087579,
      85922583,
      1763279047,
      85688637,
      1159160869
    ],
    "wof:country": "XY",
    "wof:created": 1648683368,
    "wof:depicts": [
      1159284261,
      1159287931,
      1763279047
    ],
    "wof:geomhash": "ed7c2ab3547fc3916b5edc33488deaa7",
    "wof:hierarchy": [
      {
        "building_id": -1,
        "campus_id": 102527513,
        "collection_id": 1159162825,
        "concourse_id": 1159162825,
        "continent_id": 102191575,
        "country_id": 85633793,
        "county_id": 102087579,
        "custom_id": 1763379537,
        "image_id": 1763379537,
        "locality_id": 85922583,
        "neighbourhood_id": -1,
        "object_id": 1763279047,
        "region_id": 85688637,
        "wing_id": 1159160869
      }
    ],
    "wof:id": 1763379537,
    "wof:lastmodified": 1788451084,
    "wof:name": "children's souvenir wings: Delta Air Lines",
    "wof:parent_id": 1763279047,
    "wof:placetype": "custom",
    "wof:placetype_alt": [
      "image"
    ],
    "wof:repo": "sfomuseum-data-media-collection",
    "wof:superseded_by": [],
    "wof:supersedes": []
  },
  "bbox": [
    -122.386472,
    37.616105,
    -122.385834,
    37.616611
  ],
  "geometry": {"type":"Polygon","coordinates":[[[-122.386472,37.616318],[-122.386435,37.616233],[-122.386376,37.616178],[-122.386301,37.616131],[-122.386161,37.616105],[-122.386022,37.616131],[-122.385914,37.616186],[-122.385855,37.616267],[-122.385834,37.616369],[-122.385871,37.616467],[-122.385941,37.616543],[-122.386054,37.616603],[-122.386183,37.616611],[-122.386306,37.616573],[-122.386419,37.616509],[-122.386467,37.616411],[-122.386472,37.616318]]]}
}
