{
  "id": 1897762631,
  "type": "Feature",
  "properties": {
    "date:cessation_lower": "2018-01-01",
    "date:cessation_upper": "2018-12-31",
    "date:inception_lower": "2018-01-01",
    "date:inception_upper": "2018-12-31",
    "edtf:cessation": "2018",
    "edtf:inception": "2018",
    "geom:area": 2.477324999997507e-7,
    "geom:bbox": "-122.386472,37.616105,-122.385834,37.616611",
    "geom:latitude": 37.61635756125121,
    "geom:longitude": -122.38615532866096,
    "media:fingerprint": "539ab6ca1a91037a864e311f8475b1ec99f8a1cc",
    "media:imagehash_avg": "a:ffe0e0f0fee080c0",
    "media:imagehash_diff": "d:01038bc2e68f1b01",
    "media:imagetext": "CHINA AIRLINES\nbone china\nCH6240",
    "media:imagetext_created": 1787971221,
    "media:imagetext_source": "com.apple.visionkit.VNImageRequestHandler#Version 26.6.2 (Build 25G83)",
    "media:mimetype": "image/jpeg",
    "media:properties": {
      "sizes": {
        "b": {
          "extension": "jpg",
          "height": 528,
          "mimetype": "image/jpeg",
          "secret": "vr0LanWtVyuGJNP24dm5FZbzgfRkV7dg",
          "width": 1023
        },
        "c": {
          "extension": "jpg",
          "height": 412,
          "mimetype": "image/jpeg",
          "secret": "vr0LanWtVyuGJNP24dm5FZbzgfRkV7dg",
          "width": 800
        },
        "dc": {
          "extension": "jpg",
          "height": 412,
          "mimetype": "image/jpeg",
          "secret": "vr0LanWtVyuGJNP24dm5FZbzgfRkV7dg",
          "width": 800
        },
        "ds": {
          "extension": "jpg",
          "height": 320,
          "mimetype": "image/jpeg",
          "secret": "vr0LanWtVyuGJNP24dm5FZbzgfRkV7dg",
          "width": 320
        },
        "k": {
          "extension": "jpg",
          "height": 1056,
          "mimetype": "image/jpeg",
          "secret": "vr0LanWtVyuGJNP24dm5FZbzgfRkV7dg",
          "width": 2047
        },
        "n": {
          "extension": "jpg",
          "height": 165,
          "mimetype": "image/jpeg",
          "secret": "vr0LanWtVyuGJNP24dm5FZbzgfRkV7dg",
          "width": 320
        },
        "o": {
          "extension": "jpg",
          "height": 1600,
          "mimetype": "image/jpeg",
          "secret": "F69rLvtLBO0RiMGg5xkxnQ8oRg5VNVlk",
          "width": 3101
        },
        "s": {
          "extension": "jpg",
          "height": 320,
          "mimetype": "image/jpeg",
          "secret": "vr0LanWtVyuGJNP24dm5FZbzgfRkV7dg",
          "width": 320
        },
        "z": {
          "extension": "jpg",
          "height": 330,
          "mimetype": "image/jpeg",
          "secret": "vr0LanWtVyuGJNP24dm5FZbzgfRkV7dg",
          "width": 640
        }
      }
    },
    "media:source": "sfomuseum",
    "media:status_id": 1,
    "media:uri_template": "https://static.sfomuseum.org/media/189/776/263/1/1897762631_{secret}_{label}.{extension}",
    "millsfield:airline_id": [
      1159284153
    ],
    "millsfield:category_id": 1746152551,
    "millsfield:collection_id": 1511214203,
    "millsfield:company_id": [
      1159288057
    ],
    "millsfield:images_colors": [
      {
        "hex": "#a6a5a1",
        "name": "#a6a5a1",
        "reference": "marekm4"
      },
      {
        "hex": "#a9a9a9",
        "name": "darkgrey",
        "reference": "css4"
      },
      {
        "hex": "#979aaa",
        "name": "Manatee",
        "reference": "crayola"
      },
      {
        "hex": "#656666",
        "name": "#656666",
        "reference": "marekm4"
      },
      {
        "hex": "#696969",
        "name": "dimgrey",
        "reference": "css4"
      },
      {
        "hex": "#6e5160",
        "name": "Eggplant",
        "reference": "crayola"
      }
    ],
    "millsfield:images_texts": [
      "CHINA AIRLINES\nbone china\nCH6240"
    ],
    "millsfield:images_texts_ids": [
      1897762631
    ],
    "millsfield:similar": {
      "apple/mobileclip_s0": [
        {
          "distance": 0.54926753,
          "id": 1897762713
        },
        {
          "distance": 0.5698866,
          "id": 1897762897
        },
        {
          "distance": 0.5812071,
          "id": 1897762605
        },
        {
          "distance": 0.6198129,
          "id": 1897762603
        },
        {
          "distance": 0.6500953,
          "id": 1897762693
        },
        {
          "distance": 0.653107,
          "id": 1897762745
        },
        {
          "distance": 0.6912156,
          "id": 1897762601
        },
        {
          "distance": 0.7141609,
          "id": 1796506477
        },
        {
          "distance": 0.714411,
          "id": 1897762711
        },
        {
          "distance": 0.7245826,
          "id": 1796506473
        }
      ],
      "apple/mobileclip_s1": [
        {
          "distance": 0.42002004,
          "id": 1897762601
        },
        {
          "distance": 0.4228494,
          "id": 1897762713
        },
        {
          "distance": 0.4352121,
          "id": 1897762605
        },
        {
          "distance": 0.44036558,
          "id": 1897762897
        },
        {
          "distance": 0.45540547,
          "id": 1897762603
        },
        {
          "distance": 0.4896857,
          "id": 1897762693
        },
        {
          "distance": 0.5089595,
          "id": 1796506477
        },
        {
          "distance": 0.5158541,
          "id": 1796506473
        },
        {
          "distance": 0.52104545,
          "id": 1897762711
        },
        {
          "distance": 0.5299715,
          "id": 1897762745
        }
      ],
      "apple/mobileclip_s2": [
        {
          "distance": 0.58274084,
          "id": 1897762897
        },
        {
          "distance": 0.58717084,
          "id": 1897762713
        },
        {
          "distance": 0.641121,
          "id": 1897762601
        },
        {
          "distance": 0.68743026,
          "id": 1897762605
        },
        {
          "distance": 0.7064973,
          "id": 1779744959
        },
        {
          "distance": 0.708522,
          "id": 1897762603
        },
        {
          "distance": 0.70979583,
          "id": 1897762711
        },
        {
          "distance": 0.71154773,
          "id": 1897762693
        },
        {
          "distance": 0.7148178,
          "id": 1780288581
        },
        {
          "distance": 0.732239,
          "id": 1796805341
        }
      ]
    },
    "millsfield:subcategory_id": 1511213417,
    "mz:is_current": 1,
    "sfomuseum:filename": "IMG_1882.jpg",
    "sfomuseum:image_id": 226644,
    "sfomuseum:image_index": 0,
    "sfomuseum:image_type": "studio",
    "sfomuseum:object_id": 220000,
    "sfomuseum:placetype": "image",
    "sfomuseum:primary_image": 0,
    "src:geom": "sfomuseum",
    "wof:belongsto": [
      102527513,
      1159162825,
      102191575,
      85633793,
      102087579,
      85922583,
      1746270947,
      85688637,
      1159160869
    ],
    "wof:country": "XY",
    "wof:created": 1711611248,
    "wof:depicts": [
      1746270947,
      1159284153,
      1159288057
    ],
    "wof:geomhash": "ed7c2ab3547fc3916b5edc33488deaa7",
    "wof:hierarchy": [
      {
        "building_id": -1,
        "campus_id": 102527513,
        "collection_id": 1159162825,
        "concourse_id": 1159162825,
        "continent_id": 102191575,
        "country_id": 85633793,
        "county_id": 102087579,
        "custom_id": 1897762631,
        "image_id": 1897762631,
        "locality_id": 85922583,
        "neighbourhood_id": -1,
        "object_id": 1746270947,
        "region_id": 85688637,
        "wing_id": 1159160869
      }
    ],
    "wof:id": 1897762631,
    "wof:lastmodified": 1788452088,
    "wof:name": "soup spoon: China Airlines",
    "wof:parent_id": 1746270947,
    "wof:placetype": "custom",
    "wof:placetype_alt": [
      "image"
    ],
    "wof:repo": "sfomuseum-data-media-collection",
    "wof:superseded_by": [],
    "wof:supersedes": []
  },
  "bbox": [
    -122.386472,
    37.616105,
    -122.385834,
    37.616611
  ],
  "geometry": {"type":"Polygon","coordinates":[[[-122.386472,37.616318],[-122.386435,37.616233],[-122.386376,37.616178],[-122.386301,37.616131],[-122.386161,37.616105],[-122.386022,37.616131],[-122.385914,37.616186],[-122.385855,37.616267],[-122.385834,37.616369],[-122.385871,37.616467],[-122.385941,37.616543],[-122.386054,37.616603],[-122.386183,37.616611],[-122.386306,37.616573],[-122.386419,37.616509],[-122.386467,37.616411],[-122.386472,37.616318]]]}
}
