{
  "id": 1527850049,
  "type": "Feature",
  "properties": {
    "date:cessation_lower": "1980-01-01",
    "date:cessation_upper": "1989-12-31",
    "date:inception_lower": "1980-01-01",
    "date:inception_upper": "1989-12-31",
    "edtf:cessation": "198X",
    "edtf:date": "196x",
    "edtf:inception": "198X",
    "geom:area": 0,
    "geom:bbox": "-122.386155,37.616358,-122.386155,37.616358",
    "geom:latitude": 37.616358,
    "geom:longitude": -122.386155,
    "iso:country": "XX",
    "media:fingerprint": "be4d95cc0c11944f25a9e35e7bd5756ba6107174",
    "media:imagehash_avg": "a:0083d9d9ffd5919f",
    "media:imagehash_diff": "d:8707133333152531",
    "media:imagetext": "AIR PORTUGAL\nSEGURANÇA\nsafety instructions\nconsignes de sécurite\nBOEING\n707\nOXIGENIO / OXYGEN / OXYGÈNE\nCOLETE DE SALVAÇÃO / LIFE JACKET / GILET DE SAUVETAGE\nÉ FAVOR NÃO RETIRAR DO AVIÃO\nPLEASE DO NOT REMOVE FROM AIKURAFT\nPRIÈRE DE NE PAS EMPORTER CETTE CARTE\nENCHER O COLETE SÓ QUANDO ABANDONAR O AVIÃO\nINFLATE LIFE JACKET ONLY WHEN LEAVING THE PLANE\nGONFLER LE GILET AU MOMENT D' ABANDONER L'AVION",
    "media:imagetext_created": 1787952902,
    "media:imagetext_source": "com.apple.visionkit.VNImageRequestHandler#Version 26.6.2 (Build 25G83)",
    "media:medium": "image",
    "media:mimetype": "image/tiff",
    "media:properties": {
      "sizes": {
        "b": {
          "extension": "jpg",
          "height": 768,
          "mimetype": "image/jpeg",
          "secret": "kd690L2zfJI27rdXLy1kC2u2Z1UldjRO",
          "width": 664
        },
        "c": {
          "extension": "jpg",
          "height": 600,
          "mimetype": "image/jpeg",
          "secret": "kd690L2zfJI27rdXLy1kC2u2Z1UldjRO",
          "width": 519
        },
        "dc": {
          "extension": "jpg",
          "height": 600,
          "mimetype": "image/jpeg",
          "secret": "kd690L2zfJI27rdXLy1kC2u2Z1UldjRO",
          "width": 519
        },
        "ds": {
          "extension": "jpg",
          "height": 320,
          "mimetype": "image/jpeg",
          "secret": "kd690L2zfJI27rdXLy1kC2u2Z1UldjRO",
          "width": 320
        },
        "k": {
          "extension": "jpg",
          "height": 1536,
          "mimetype": "image/jpeg",
          "secret": "kd690L2zfJI27rdXLy1kC2u2Z1UldjRO",
          "width": 1329
        },
        "n": {
          "extension": "jpg",
          "height": 240,
          "mimetype": "image/jpeg",
          "secret": "kd690L2zfJI27rdXLy1kC2u2Z1UldjRO",
          "width": 207
        },
        "o": {
          "extension": "jpg",
          "height": 2586,
          "mimetype": "image/jpeg",
          "secret": "p9cfms2FY80ZuMPmfm9Jr7RcrjPmbHLm",
          "width": 2239
        },
        "s": {
          "extension": "jpg",
          "height": 320,
          "mimetype": "image/jpeg",
          "secret": "kd690L2zfJI27rdXLy1kC2u2Z1UldjRO",
          "width": 320
        },
        "z": {
          "extension": "jpg",
          "height": 480,
          "mimetype": "image/jpeg",
          "secret": "kd690L2zfJI27rdXLy1kC2u2Z1UldjRO",
          "width": 415
        }
      }
    },
    "media:source": "sfomuseum",
    "media:status_id": 1,
    "media:uri_template": "https://static.sfomuseum.org/media/152/785/004/9/1527850049_{secret}_{label}.{extension}",
    "millsfield:aircraft_id": [
      1159289653
    ],
    "millsfield:airline_id": [
      1159285271
    ],
    "millsfield:category_id": 1762671311,
    "millsfield:collection_id": 1511214207,
    "millsfield:company_id": [
      1159293593
    ],
    "millsfield:images_colors": [
      {
        "hex": "#e5d7bf",
        "name": "#e5d7bf",
        "reference": "marekm4"
      },
      {
        "hex": "#f5deb3",
        "name": "wheat",
        "reference": "css4"
      },
      {
        "hex": "#efcdb8",
        "name": "Desert Sand",
        "reference": "crayola"
      },
      {
        "hex": "#3e9e43",
        "name": "#3e9e43",
        "reference": "marekm4"
      },
      {
        "hex": "#2e8b57",
        "name": "seagreen",
        "reference": "css4"
      },
      {
        "hex": "#319177",
        "name": "Illuminating Emerald",
        "reference": "crayola"
      },
      {
        "hex": "#211a19",
        "name": "#211a19",
        "reference": "marekm4"
      },
      {
        "hex": "#000000",
        "name": "black",
        "reference": "css4"
      },
      {
        "hex": "#000000",
        "name": "Black",
        "reference": "crayola"
      },
      {
        "hex": "#df4f0e",
        "name": "#df4f0e",
        "reference": "marekm4"
      },
      {
        "hex": "#d2691e",
        "name": "chocolate",
        "reference": "css4"
      },
      {
        "hex": "#c46210",
        "name": "Alloy Orange",
        "reference": "crayola"
      }
    ],
    "millsfield:images_texts": [
      "AIR PORTUGAL\nSEGURANÇA\nsafety instructions\nconsignes de sécurité\nBOEING\n707\nA DESCOLAGEM E ATERRAGEM\nAT TAKE-OFF AND LANDING\nDECOLLAGE ET ATTERRISSAGE\nAPERTAR CINTOS\nFASTEN SEAT BELT\nATTACHEZ VOS CEINTURES\nNÃO FUMAR\nNO SMOKING\nNE PAS FUMER\nDURANTE O VOO É PROIBIDO FUMAR NOS LAVABOS\nDURING THE FLIGHT SMOKING IS FORBIDDEN IN TOILLETS\nPENDANT LE VOL IL EST INTERDIT DE FUMER DANS LES TOILETTES\nPLEASE\nDO\nNOT\nREMOVE\nFROM\nAIRCRAFT\nPOSIÇÃO DE EMERGÊNCIA\nSAFETY POSITION\nPOSITION DE SECURITÉ\nMod. 2087",
      "SEINO\nSIIX3\n0000000000000,00000\n0 00 0 0 0 00\n00000000000000000000000\n0000 0 0 0 00000C",
      "AIR PORTUGAL\nSEGURANÇA\nsafety instructions\nconsignes de sécurite\nBOEING\n707\nOXIGENIO / OXYGEN / OXYGÈNE\nCOLETE DE SALVAÇÃO / LIFE JACKET / GILET DE SAUVETAGE\nÉ FAVOR NÃO RETIRAR DO AVIÃO\nPLEASE DO NOT REMOVE FROM AIKURAFT\nPRIÈRE DE NE PAS EMPORTER CETTE CARTE\nENCHER O COLETE SÓ QUANDO ABANDONAR O AVIÃO\nINFLATE LIFE JACKET ONLY WHEN LEAVING THE PLANE\nGONFLER LE GILET AU MOMENT D' ABANDONER L'AVION"
    ],
    "millsfield:images_texts_ids": [
      1527850045,
      1527850047,
      1527850049
    ],
    "millsfield:similar": {
      "apple/mobileclip_s0": [
        {
          "distance": 0.4432958,
          "id": 1527850045
        },
        {
          "distance": 0.55333054,
          "id": 1797194919
        },
        {
          "distance": 0.56126565,
          "id": 1913938543
        },
        {
          "distance": 0.57120216,
          "id": 1762894897
        },
        {
          "distance": 0.57121813,
          "id": 1914579793
        },
        {
          "distance": 0.5722311,
          "id": 1914556031
        },
        {
          "distance": 0.5729626,
          "id": 1914590405
        },
        {
          "distance": 0.57617575,
          "id": 1762894419
        },
        {
          "distance": 0.5802813,
          "id": 1914556519
        },
        {
          "distance": 0.5807833,
          "id": 1762894733
        }
      ],
      "apple/mobileclip_s1": [
        {
          "distance": 0.39485013,
          "id": 1527850045
        },
        {
          "distance": 0.45847282,
          "id": 1913872103
        },
        {
          "distance": 0.4589264,
          "id": 1527850027
        },
        {
          "distance": 0.45941117,
          "id": 1914556137
        },
        {
          "distance": 0.46168414,
          "id": 1762894415
        },
        {
          "distance": 0.4628903,
          "id": 1797194919
        },
        {
          "distance": 0.4642685,
          "id": 1913938543
        },
        {
          "distance": 0.466406,
          "id": 1914579823
        },
        {
          "distance": 0.46961722,
          "id": 1762894065
        },
        {
          "distance": 0.47083524,
          "id": 1931109377
        }
      ],
      "apple/mobileclip_s2": [
        {
          "distance": 0.60110056,
          "id": 1527850045
        },
        {
          "distance": 0.6523787,
          "id": 1527850843
        },
        {
          "distance": 0.6548301,
          "id": 1931096635
        },
        {
          "distance": 0.65526336,
          "id": 1931096651
        },
        {
          "distance": 0.65605694,
          "id": 1931110091
        },
        {
          "distance": 0.66086423,
          "id": 1931109901
        },
        {
          "distance": 0.6739995,
          "id": 1913872235
        },
        {
          "distance": 0.674436,
          "id": 1913872375
        },
        {
          "distance": 0.682346,
          "id": 1762894211
        },
        {
          "distance": 0.68555206,
          "id": 1762894603
        }
      ]
    },
    "millsfield:subcategory_id": 1511213703,
    "mz:hierarchy_label": 1,
    "mz:is_current": -1,
    "sfomuseum:filename": "76782.tif",
    "sfomuseum:image_id": 76782,
    "sfomuseum:image_index": 5,
    "sfomuseum:image_type": "studio",
    "sfomuseum:object_id": 78841,
    "sfomuseum:placetype": "image",
    "sfomuseum:primary_image": 0,
    "src:geom": "sfomuseum",
    "wof:belongsto": [
      1511214243,
      1511926901,
      102527513,
      102191575,
      85633793,
      1511213703,
      85922583,
      102087579,
      1511214277,
      1511214203,
      85688637
    ],
    "wof:breaches": [],
    "wof:country": "XX",
    "wof:created": 1578954126,
    "wof:depicts": [
      1159293593,
      1159287519,
      1159285271,
      1511926901,
      1159289653
    ],
    "wof:geomhash": "bd906905ce4be6c0651c90b0fc24804c",
    "wof:hierarchy": [
      {
        "arcade_id": 1511213703,
        "building_id": 1511214277,
        "campus_id": 102527513,
        "concourse_id": 1511214243,
        "continent_id": 102191575,
        "country_id": 85633793,
        "county_id": 102087579,
        "custom_id": 1527850049,
        "image_id": 1527850049,
        "locality_id": 85922583,
        "media_id": 1527850049,
        "neighbourhood_id": -1,
        "region_id": 85688637,
        "venue_id": 1511926901,
        "wing_id": 1511214203
      }
    ],
    "wof:id": 1527850049,
    "wof:lastmodified": 1788450169,
    "wof:name": "safety information card: TAP Air Portugal, Boeing 707",
    "wof:parent_id": 1511926901,
    "wof:placetype": "custom",
    "wof:placetype_alt": [
      "image"
    ],
    "wof:repo": "sfomuseum-data-media-collection",
    "wof:superseded_by": [],
    "wof:supersedes": [],
    "wof:tags": []
  },
  "bbox": [
    -122.386155,
    37.616358,
    -122.386155,
    37.616358
  ],
  "geometry": {"type":"Point","coordinates":[-122.386155,37.616358]}
}
