{
  "id": 1527841619,
  "type": "Feature",
  "properties": {
    "date:cessation_lower": "1983-01-01",
    "date:cessation_upper": "1983-12-31",
    "date:inception_lower": "1983-01-01",
    "date:inception_upper": "1983-12-31",
    "edtf:cessation": "1983",
    "edtf:date": "1983",
    "edtf:inception": "1983",
    "geom:area": 0,
    "geom:bbox": "-122.386155,37.616358,-122.386155,37.616358",
    "geom:latitude": 37.616358,
    "geom:longitude": -122.386155,
    "iso:country": "XX",
    "media:fingerprint": "1463363c3fb660eedd8de28131514c43128382ef",
    "media:imagehash_avg": "a:ff808080ba8f8081",
    "media:imagehash_diff": "d:4646474072384c57",
    "media:imagetext": "QANTAS\nThe Australian Airline\nTimetable\nEffective March 6, 1983",
    "media:imagetext_created": 1787951121,
    "media:imagetext_source": "com.apple.visionkit.VNImageRequestHandler#Version 26.6.2 (Build 25G83)",
    "media:medium": "image",
    "media:mimetype": "image/tiff",
    "media:properties": {
      "sizes": {
        "b": {
          "extension": "jpg",
          "height": 768,
          "mimetype": "image/jpeg",
          "secret": "Uxi72zdt9QZYt2gAUnsqRmsYiewqPUcv",
          "width": 336
        },
        "c": {
          "extension": "jpg",
          "height": 600,
          "mimetype": "image/jpeg",
          "secret": "Uxi72zdt9QZYt2gAUnsqRmsYiewqPUcv",
          "width": 262
        },
        "dc": {
          "extension": "jpg",
          "height": 600,
          "mimetype": "image/jpeg",
          "secret": "Uxi72zdt9QZYt2gAUnsqRmsYiewqPUcv",
          "width": 262
        },
        "ds": {
          "extension": "jpg",
          "height": 320,
          "mimetype": "image/jpeg",
          "secret": "Uxi72zdt9QZYt2gAUnsqRmsYiewqPUcv",
          "width": 320
        },
        "k": {
          "extension": "jpg",
          "height": 1536,
          "mimetype": "image/jpeg",
          "secret": "Uxi72zdt9QZYt2gAUnsqRmsYiewqPUcv",
          "width": 672
        },
        "n": {
          "extension": "jpg",
          "height": 240,
          "mimetype": "image/jpeg",
          "secret": "Uxi72zdt9QZYt2gAUnsqRmsYiewqPUcv",
          "width": 105
        },
        "o": {
          "extension": "jpg",
          "height": 2671,
          "mimetype": "image/jpeg",
          "secret": "p4NnGDxnzCKbarYX61soXbDrGXYLfXyH",
          "width": 1170
        },
        "s": {
          "extension": "jpg",
          "height": 320,
          "mimetype": "image/jpeg",
          "secret": "Uxi72zdt9QZYt2gAUnsqRmsYiewqPUcv",
          "width": 320
        },
        "z": {
          "extension": "jpg",
          "height": 480,
          "mimetype": "image/jpeg",
          "secret": "Uxi72zdt9QZYt2gAUnsqRmsYiewqPUcv",
          "width": 210
        }
      }
    },
    "media:source": "sfomuseum",
    "media:status_id": 1,
    "media:uri_template": "https://static.sfomuseum.org/media/152/784/161/9/1527841619_{secret}_{label}.{extension}",
    "millsfield:airline_id": [
      1159285043
    ],
    "millsfield:category_id": 1511214223,
    "millsfield:collection_id": 1511214207,
    "millsfield:company_id": [
      1159287479
    ],
    "millsfield:images_colors": [
      {
        "hex": "#ea1001",
        "name": "#ea1001",
        "reference": "marekm4"
      },
      {
        "hex": "#ff0000",
        "name": "red",
        "reference": "css4"
      },
      {
        "hex": "#ff2b2b",
        "name": "Orange Red",
        "reference": "crayola"
      },
      {
        "hex": "#ebd7bd",
        "name": "#ebd7bd",
        "reference": "marekm4"
      },
      {
        "hex": "#f5deb3",
        "name": "wheat",
        "reference": "css4"
      },
      {
        "hex": "#efcdb8",
        "name": "Desert Sand",
        "reference": "crayola"
      },
      {
        "hex": "#291308",
        "name": "#291308",
        "reference": "marekm4"
      },
      {
        "hex": "#000000",
        "name": "black",
        "reference": "css4"
      },
      {
        "hex": "#000000",
        "name": "Black",
        "reference": "crayola"
      }
    ],
    "millsfield:images_texts": [
      "QANTAS\nThe Australian Airline\nTimetable\nEffective March 6, 1983",
      "Manchester\nLondone\nAmsterdam\nFrankfurt\nBelgrade\nRome\nAthens\nVancouver\nTokyo\nSan Francisco\nLos AngelesS\nBahrain\nBombay\nJakarta\nHarare\nHong Kong\n/Bangkok\nM Manila\nSingapore\nDarwin\nBaiN\nPort Hedland\nHonolulu.\nPerth C\nTowns-\nville\nBrisbane\nyan\nAdelaide\nMelbourne V\nPort Moresby\nFiji\nNoumea\nNorfolk Island\nAuckland\nWellington\n• Christchurch\nTahiti\nEFFECTIVE 29 MARCH 1983\nQANTAS\nNetwork"
    ],
    "millsfield:images_texts_ids": [
      1527841619,
      1527850679
    ],
    "millsfield:similar": {
      "apple/mobileclip_s0": [
        {
          "distance": 0.2937155,
          "id": 1527841581
        },
        {
          "distance": 0.3037337,
          "id": 1527841615
        },
        {
          "distance": 0.3104399,
          "id": 1527841591
        },
        {
          "distance": 0.32872263,
          "id": 1527841525
        },
        {
          "distance": 0.3287274,
          "id": 1762715113
        },
        {
          "distance": 0.33748946,
          "id": 1527841621
        },
        {
          "distance": 0.34152055,
          "id": 1527841603
        },
        {
          "distance": 0.36624897,
          "id": 1762701933
        },
        {
          "distance": 0.37505567,
          "id": 1527841617
        },
        {
          "distance": 0.3779066,
          "id": 1527841585
        }
      ],
      "apple/mobileclip_s1": [
        {
          "distance": 0.21626815,
          "id": 1527841591
        },
        {
          "distance": 0.23036942,
          "id": 1527841579
        },
        {
          "distance": 0.24499784,
          "id": 1762715113
        },
        {
          "distance": 0.2554103,
          "id": 1527841525
        },
        {
          "distance": 0.2556685,
          "id": 1527841581
        },
        {
          "distance": 0.26557484,
          "id": 1527841585
        },
        {
          "distance": 0.26692137,
          "id": 1527841615
        },
        {
          "distance": 0.28940168,
          "id": 1527841617
        },
        {
          "distance": 0.29529172,
          "id": 1527841621
        },
        {
          "distance": 0.30340624,
          "id": 1762701933
        }
      ],
      "apple/mobileclip_s2": [
        {
          "distance": 0.21864626,
          "id": 1527841591
        },
        {
          "distance": 0.28176528,
          "id": 1527841525
        },
        {
          "distance": 0.30321237,
          "id": 1527841621
        },
        {
          "distance": 0.3068423,
          "id": 1527841603
        },
        {
          "distance": 0.3130113,
          "id": 1762715113
        },
        {
          "distance": 0.3155433,
          "id": 1527841581
        },
        {
          "distance": 0.31897327,
          "id": 1527841615
        },
        {
          "distance": 0.3337704,
          "id": 1527841617
        },
        {
          "distance": 0.34239775,
          "id": 1527841579
        },
        {
          "distance": 0.36009705,
          "id": 1527841587
        }
      ]
    },
    "millsfield:subcategory_id": 1511213425,
    "mz:hierarchy_label": 1,
    "mz:is_current": -1,
    "sfomuseum:filename": "2009.122.553.tif",
    "sfomuseum:image_id": 67136,
    "sfomuseum:image_index": 5,
    "sfomuseum:image_type": "studio",
    "sfomuseum:object_id": 103557,
    "sfomuseum:placetype": "image",
    "sfomuseum:primary_image": 1,
    "src:geom": "sfomuseum",
    "wof:belongsto": [
      1511214223,
      1511941123,
      102527513,
      102191575,
      85633793,
      1511213425,
      85922583,
      102087579,
      1511214277,
      1511214203,
      85688637
    ],
    "wof:breaches": [],
    "wof:country": "XX",
    "wof:created": 1578952736,
    "wof:depicts": [
      1159285043,
      1511941123,
      1159287479
    ],
    "wof:geomhash": "bd906905ce4be6c0651c90b0fc24804c",
    "wof:hierarchy": [
      {
        "arcade_id": 1511213425,
        "building_id": 1511214277,
        "campus_id": 102527513,
        "concourse_id": 1511214223,
        "continent_id": 102191575,
        "country_id": 85633793,
        "county_id": 102087579,
        "custom_id": 1527841619,
        "image_id": 1527841619,
        "locality_id": 85922583,
        "media_id": 1527841619,
        "neighbourhood_id": -1,
        "region_id": 85688637,
        "venue_id": 1511941123,
        "wing_id": 1511214203
      }
    ],
    "wof:id": 1527841619,
    "wof:lastmodified": 1788450036,
    "wof:name": "timetable: Qantas Airways",
    "wof:parent_id": 1511941123,
    "wof:placetype": "custom",
    "wof:placetype_alt": [
      "image"
    ],
    "wof:repo": "sfomuseum-data-media-collection",
    "wof:superseded_by": [],
    "wof:supersedes": [],
    "wof:tags": []
  },
  "bbox": [
    -122.386155,
    37.616358,
    -122.386155,
    37.616358
  ],
  "geometry": {"type":"Point","coordinates":[-122.386155,37.616358]}
}
