{
  "id": 1913797027,
  "type": "Feature",
  "properties": {
    "date:cessation_lower": "1934-11-01",
    "date:cessation_upper": "1934-11-30",
    "date:inception_lower": "1934-11-01",
    "date:inception_upper": "1934-11-30",
    "edtf:cessation": "1934-11-07~",
    "edtf:inception": "1934-11-07~",
    "geom:area": 2.477324999997507e-7,
    "geom:bbox": "-122.386472,37.616105,-122.385834,37.616611",
    "geom:latitude": 37.61635756125121,
    "geom:longitude": -122.38615532866096,
    "media:fingerprint": "91af5578fd93d4e50ab3e9147127ba4aa9c259d9",
    "media:imagehash_avg": "a:9f818181818181ff",
    "media:imagehash_diff": "d:7175773733351733",
    "media:imagetext": "Nov. /th\nWednesday\n1932\nDearest Debs:\nEddie Smith called me\nup late this afternoon and told me of hi\ntalk with you at Kiukiang on his way\nup to Hankow. He said that you\nwere already a day late. That\nmeans I guess that you did not\narrive in Hankow until today\nand there is no telling I guess\nwhether or not you will make up\nany schedule. Against that dis-\nadvantage about travel in China is the\nfact that if you want to travel on\nstrict schedule it would be better to\nride the Bronxville trains to Grand\nCentral.I imagine it is a bit discon-\ncerting and hope that such little in-\nconveniences will not mar your trip to\nsuch an extent as to take all the pleas-\nure out of it. However I know such is\nnot the case. Had a busy day today and\nwe got a few things done at the directors\nmeeting with the main session however\npostponed until next Monday. I had dinner\nhere and let Gin Isu go home. The kids\nwere fast asleep by the time I arrived\na little after eight P.M. The Jones family\nare here now and I had dinner with them.\nThey loved Peiping and Mrs. Chens.\nHave a lot of work to do and will\ntry to get along with it in this icebox\nwhile the fire is still struggling.",
    "media:imagetext_created": 1787971972,
    "media:imagetext_source": "com.apple.visionkit.VNImageRequestHandler#Version 26.6.2 (Build 25G83)",
    "media:mimetype": "image/tiff",
    "media:properties": {
      "sizes": {
        "b": {
          "extension": "jpg",
          "height": 768,
          "mimetype": "image/jpeg",
          "secret": "cn76RPJLAomRLBi6waemyj4mBE2DIsBs",
          "width": 513
        },
        "c": {
          "extension": "jpg",
          "height": 600,
          "mimetype": "image/jpeg",
          "secret": "cn76RPJLAomRLBi6waemyj4mBE2DIsBs",
          "width": 400
        },
        "dc": {
          "extension": "jpg",
          "height": 600,
          "mimetype": "image/jpeg",
          "secret": "cn76RPJLAomRLBi6waemyj4mBE2DIsBs",
          "width": 400
        },
        "ds": {
          "extension": "jpg",
          "height": 320,
          "mimetype": "image/jpeg",
          "secret": "cn76RPJLAomRLBi6waemyj4mBE2DIsBs",
          "width": 320
        },
        "k": {
          "extension": "jpg",
          "height": 1536,
          "mimetype": "image/jpeg",
          "secret": "cn76RPJLAomRLBi6waemyj4mBE2DIsBs",
          "width": 1026
        },
        "n": {
          "extension": "jpg",
          "height": 240,
          "mimetype": "image/jpeg",
          "secret": "cn76RPJLAomRLBi6waemyj4mBE2DIsBs",
          "width": 160
        },
        "o": {
          "extension": "jpg",
          "height": 2000,
          "mimetype": "image/jpeg",
          "secret": "1jNwNAGJY0gOWsy5p9fKATfp4iKR2bYi",
          "width": 1336
        },
        "s": {
          "extension": "jpg",
          "height": 320,
          "mimetype": "image/jpeg",
          "secret": "cn76RPJLAomRLBi6waemyj4mBE2DIsBs",
          "width": 320
        },
        "z": {
          "extension": "jpg",
          "height": 480,
          "mimetype": "image/jpeg",
          "secret": "cn76RPJLAomRLBi6waemyj4mBE2DIsBs",
          "width": 320
        }
      }
    },
    "media:source": "sfomuseum",
    "media:status_id": 1,
    "media:uri_template": "https://static.sfomuseum.org/media/191/379/702/7/1913797027_{secret}_{label}.{extension}",
    "millsfield:airline_id": [
      1159284991
    ],
    "millsfield:category_id": 1511214251,
    "millsfield:collection_id": 1511214207,
    "millsfield:company_id": [
      1159286839
    ],
    "millsfield:images_colors": [
      {
        "hex": "#dbcdac",
        "name": "#dbcdac",
        "reference": "marekm4"
      },
      {
        "hex": "#f5deb3",
        "name": "wheat",
        "reference": "css4"
      },
      {
        "hex": "#efcdb8",
        "name": "Desert Sand",
        "reference": "crayola"
      },
      {
        "hex": "#a29667",
        "name": "#a29667",
        "reference": "marekm4"
      },
      {
        "hex": "#bdb76b",
        "name": "darkkhaki",
        "reference": "css4"
      },
      {
        "hex": "#9f8170",
        "name": "Beaver",
        "reference": "crayola"
      },
      {
        "hex": "#655f41",
        "name": "#655f41",
        "reference": "marekm4"
      },
      {
        "hex": "#556b2f",
        "name": "darkolivegreen",
        "reference": "css4"
      },
      {
        "hex": "#6e5160",
        "name": "Eggplant",
        "reference": "crayola"
      },
      {
        "hex": "#897556",
        "name": "#897556",
        "reference": "marekm4"
      },
      {
        "hex": "#696969",
        "name": "dimgrey",
        "reference": "css4"
      },
      {
        "hex": "#8a795d",
        "name": "Shadow",
        "reference": "crayola"
      }
    ],
    "millsfield:images_texts": [
      "Nov. /th\nWednesday\n1932\nDearest Debs:\nEddie Smith called me\nup late this afternoon and told me of hi\ntalk with you at Kiukiang on his way\nup to Hankow. He said that you\nwere already a day late. That\nmeans I guess that you did not\narrive in Hankow until today\nand there is no telling I guess\nwhether or not you will make up\nany schedule. Against that dis-\nadvantage about travel in China is the\nfact that if you want to travel on\nstrict schedule it would be better to\nride the Bronxville trains to Grand\nCentral.I imagine it is a bit discon-\ncerting and hope that such little in-\nconveniences will not mar your trip to\nsuch an extent as to take all the pleas-\nure out of it. However I know such is\nnot the case. Had a busy day today and\nwe got a few things done at the directors\nmeeting with the main session however\npostponed until next Monday. I had dinner\nhere and let Gin Isu go home. The kids\nwere fast asleep by the time I arrived\na little after eight P.M. The Jones family\nare here now and I had dinner with them.\nThey loved Peiping and Mrs. Chens.\nHave a lot of work to do and will\ntry to get along with it in this icebox\nwhile the fire is still struggling.",
      "Thursday Pm - Chores\nCat to harr dinn\nloith me so she\nwanted untie fat\nhome at 8 and\nin barr grat\nfinitee.\ncertaine darling.\nShe gam me\nher\nletti to on and\nthe pance\nhe with\nwhich she wit t\nand asterd me to\nCorrect the spilling\nwhich of corn s\npromina em\ngrave, to do but\nwithout the slightst\nintinition af\"ruining\n4\nher lettu for yor.\nDont you dread\nte temé\nwhen ale\nwords in Cats litera\nwiee tr of?\n700.0\ncorrectly.\nMy tiffin want\noff or and afte\nreturning to the\noffice prete, soon",
      "alor came Jon litte\nfom Hankow. I think\nthe CNAC boys ant\nPretty mei to cale on\nyou an they hav\nplenty tu do. Do a\nPleasure\nthough\nall so intrrested\nin the company.\nAm not going to\nCanton tomorrow c\nthis is too much\nfor me ta do prepara\n2017.121.10420\nto monday farte"
    ],
    "millsfield:images_texts_ids": [
      1913797027,
      1913797029,
      1913797031
    ],
    "millsfield:similar": {
      "apple/mobileclip_s0": [
        {
          "distance": 0.491317,
          "id": 1913802803
        },
        {
          "distance": 0.4981716,
          "id": 1913802785
        },
        {
          "distance": 0.51149756,
          "id": 1913799995
        },
        {
          "distance": 0.52089834,
          "id": 1913799907
        },
        {
          "distance": 0.5224545,
          "id": 1913799999
        },
        {
          "distance": 0.52809995,
          "id": 1913799991
        },
        {
          "distance": 0.52990824,
          "id": 1913802789
        },
        {
          "distance": 0.53029555,
          "id": 1913799129
        },
        {
          "distance": 0.53120273,
          "id": 1913799171
        },
        {
          "distance": 0.5316028,
          "id": 1913800441
        }
      ],
      "apple/mobileclip_s1": [
        {
          "distance": 0.373733,
          "id": 1913800255
        },
        {
          "distance": 0.39385816,
          "id": 1913800441
        },
        {
          "distance": 0.41730133,
          "id": 1913802803
        },
        {
          "distance": 0.41731167,
          "id": 1527851645
        },
        {
          "distance": 0.41762558,
          "id": 1913800751
        },
        {
          "distance": 0.4206702,
          "id": 1913796719
        },
        {
          "distance": 0.42208505,
          "id": 1913796739
        },
        {
          "distance": 0.42299503,
          "id": 1527856991
        },
        {
          "distance": 0.42490548,
          "id": 1913799173
        },
        {
          "distance": 0.42566994,
          "id": 1762713713
        }
      ],
      "apple/mobileclip_s2": [
        {
          "distance": 0.46032408,
          "id": 1913800441
        },
        {
          "distance": 0.46924236,
          "id": 1913800255
        },
        {
          "distance": 0.5244466,
          "id": 1913800001
        },
        {
          "distance": 0.5283575,
          "id": 1527856717
        },
        {
          "distance": 0.5334727,
          "id": 1913799169
        },
        {
          "distance": 0.5353656,
          "id": 1913800007
        },
        {
          "distance": 0.5366806,
          "id": 1913799991
        },
        {
          "distance": 0.53745145,
          "id": 1913802803
        },
        {
          "distance": 0.53819734,
          "id": 1527849073
        },
        {
          "distance": 0.5383069,
          "id": 1913799907
        }
      ]
    },
    "millsfield:subcategory_id": 1511213489,
    "mz:is_current": 1,
    "sfomuseum:filename": "2019.121.1042_1.tif",
    "sfomuseum:image_id": 219763,
    "sfomuseum:image_index": 5,
    "sfomuseum:image_type": "studio",
    "sfomuseum:object_id": 211405,
    "sfomuseum:placetype": "image",
    "sfomuseum:primary_image": 1,
    "src:geom": "sfomuseum",
    "wof:belongsto": [
      102527513,
      1159162825,
      102191575,
      85633793,
      102087579,
      85922583,
      1913796193,
      85688637,
      1159160869
    ],
    "wof:country": "XY",
    "wof:created": 1714549438,
    "wof:depicts": [
      1159286839,
      1913796193,
      1159284991
    ],
    "wof:geomhash": "ed7c2ab3547fc3916b5edc33488deaa7",
    "wof:hierarchy": [
      {
        "building_id": -1,
        "campus_id": 102527513,
        "collection_id": 1159162825,
        "concourse_id": 1159162825,
        "continent_id": 102191575,
        "country_id": 85633793,
        "county_id": 102087579,
        "custom_id": 1913797027,
        "image_id": 1913797027,
        "locality_id": 85922583,
        "neighbourhood_id": -1,
        "object_id": 1913796193,
        "region_id": 85688637,
        "wing_id": 1159160869
      }
    ],
    "wof:id": 1913797027,
    "wof:lastmodified": 1788220297,
    "wof:name": "correspondence: Harold M. Bixby to Debby Bixby",
    "wof:parent_id": 1913796193,
    "wof:placetype": "custom",
    "wof:placetype_alt": [
      "image"
    ],
    "wof:repo": "sfomuseum-data-media-collection",
    "wof:superseded_by": [],
    "wof:supersedes": []
  },
  "bbox": [
    -122.386472,
    37.616105,
    -122.385834,
    37.616611
  ],
  "geometry": {"type":"Polygon","coordinates":[[[-122.386472,37.616318],[-122.386435,37.616233],[-122.386376,37.616178],[-122.386301,37.616131],[-122.386161,37.616105],[-122.386022,37.616131],[-122.385914,37.616186],[-122.385855,37.616267],[-122.385834,37.616369],[-122.385871,37.616467],[-122.385941,37.616543],[-122.386054,37.616603],[-122.386183,37.616611],[-122.386306,37.616573],[-122.386419,37.616509],[-122.386467,37.616411],[-122.386472,37.616318]]]}
}
