{
  "id": 1762924223,
  "type": "Feature",
  "properties": {
    "date:cessation_lower": "1980-01-01",
    "date:cessation_upper": "1989-12-31",
    "date:inception_lower": "1980-01-01",
    "date:inception_upper": "1989-12-31",
    "edtf:cessation": "198X",
    "edtf:inception": "198X",
    "geom:area": 2.477324999997507e-7,
    "geom:bbox": "-122.386472,37.616105,-122.385834,37.616611",
    "geom:latitude": 37.61635756125121,
    "geom:longitude": -122.38615532866096,
    "media:fingerprint": "d9e4d187a335b9ace57b591fcc317d267b306fea",
    "media:imagehash_avg": "a:ffc79f998b010101",
    "media:imagehash_diff": "d:0f0f2f3b333b3b1f",
    "media:mimetype": "image/tiff",
    "media:properties": {
      "sizes": {
        "b": {
          "extension": "jpg",
          "height": 768,
          "mimetype": "image/jpeg",
          "secret": "9sDOGPBPKwGKOdoJSbuV2AFAniCsF9Fb",
          "width": 960
        },
        "c": {
          "extension": "jpg",
          "height": 600,
          "mimetype": "image/jpeg",
          "secret": "9sDOGPBPKwGKOdoJSbuV2AFAniCsF9Fb",
          "width": 750
        },
        "dc": {
          "extension": "jpg",
          "height": 600,
          "mimetype": "image/jpeg",
          "secret": "9sDOGPBPKwGKOdoJSbuV2AFAniCsF9Fb",
          "width": 750
        },
        "ds": {
          "extension": "jpg",
          "height": 320,
          "mimetype": "image/jpeg",
          "secret": "9sDOGPBPKwGKOdoJSbuV2AFAniCsF9Fb",
          "width": 320
        },
        "k": {
          "extension": "jpg",
          "height": 1536,
          "mimetype": "image/jpeg",
          "secret": "9sDOGPBPKwGKOdoJSbuV2AFAniCsF9Fb",
          "width": 1920
        },
        "n": {
          "extension": "jpg",
          "height": 240,
          "mimetype": "image/jpeg",
          "secret": "9sDOGPBPKwGKOdoJSbuV2AFAniCsF9Fb",
          "width": 300
        },
        "o": {
          "extension": "jpg",
          "height": 1667,
          "mimetype": "image/jpeg",
          "secret": "brD3DipHoHpKh7SswhP0IgGLFiljLak1",
          "width": 2084
        },
        "s": {
          "extension": "jpg",
          "height": 320,
          "mimetype": "image/jpeg",
          "secret": "9sDOGPBPKwGKOdoJSbuV2AFAniCsF9Fb",
          "width": 320
        },
        "z": {
          "extension": "jpg",
          "height": 480,
          "mimetype": "image/jpeg",
          "secret": "9sDOGPBPKwGKOdoJSbuV2AFAniCsF9Fb",
          "width": 600
        }
      }
    },
    "media:source": "sfomuseum",
    "media:status_id": 1,
    "media:uri_template": "https://static.sfomuseum.org/media/176/292/422/3/1762924223_{secret}_{label}.{extension}",
    "millsfield:airline_id": [
      1159294431
    ],
    "millsfield:category_id": 1763416393,
    "millsfield:collection_id": 1511214203,
    "millsfield:company_id": [
      1159287595
    ],
    "millsfield:images_colors": [
      {
        "hex": "#b6b7bb",
        "name": "#b6b7bb",
        "reference": "marekm4"
      },
      {
        "hex": "#c0c0c0",
        "name": "silver",
        "reference": "css4"
      },
      {
        "hex": "#b0b7c6",
        "name": "Cadet Blue",
        "reference": "crayola"
      }
    ],
    "millsfield:similar": {
      "apple/mobileclip_s0": [
        {
          "distance": 0.21791652,
          "id": 1762924227
        },
        {
          "distance": 0.31163764,
          "id": 1762924229
        },
        {
          "distance": 0.31941396,
          "id": 1762924225
        },
        {
          "distance": 0.33211178,
          "id": 1762924701
        },
        {
          "distance": 0.34650123,
          "id": 1779445473
        },
        {
          "distance": 0.36088526,
          "id": 1914237007
        },
        {
          "distance": 0.36130577,
          "id": 1779453447
        },
        {
          "distance": 0.36230385,
          "id": 1762924071
        },
        {
          "distance": 0.3634836,
          "id": 1763447183
        },
        {
          "distance": 0.3635414,
          "id": 1914237011
        }
      ],
      "apple/mobileclip_s1": [
        {
          "distance": 0.15773816,
          "id": 1762924227
        },
        {
          "distance": 0.21894106,
          "id": 1762924225
        },
        {
          "distance": 0.21921197,
          "id": 1762924229
        },
        {
          "distance": 0.22751848,
          "id": 1762924701
        },
        {
          "distance": 0.23670343,
          "id": 1762924071
        },
        {
          "distance": 0.24281344,
          "id": 1762924577
        },
        {
          "distance": 0.2506352,
          "id": 1762924427
        },
        {
          "distance": 0.25132918,
          "id": 1762924699
        },
        {
          "distance": 0.2582942,
          "id": 1762924217
        },
        {
          "distance": 0.26240677,
          "id": 1763446795
        }
      ],
      "apple/mobileclip_s2": [
        {
          "distance": 0.24252878,
          "id": 1762924227
        },
        {
          "distance": 0.28750646,
          "id": 1762924225
        },
        {
          "distance": 0.29141298,
          "id": 1762924229
        },
        {
          "distance": 0.36735138,
          "id": 1762924577
        },
        {
          "distance": 0.3721945,
          "id": 1779445549
        },
        {
          "distance": 0.37487152,
          "id": 1762924217
        },
        {
          "distance": 0.3756241,
          "id": 1779445555
        },
        {
          "distance": 0.37622386,
          "id": 1779445497
        },
        {
          "distance": 0.37766713,
          "id": 1779453445
        },
        {
          "distance": 0.3790326,
          "id": 1762924557
        }
      ]
    },
    "millsfield:subcategory_id": 1511213215,
    "mz:is_current": 1,
    "sfomuseum:filename": "2006.032.032_bk.tif",
    "sfomuseum:image_id": 146268,
    "sfomuseum:image_index": 5,
    "sfomuseum:image_type": "studio",
    "sfomuseum:object_id": 80278,
    "sfomuseum:placetype": "image",
    "sfomuseum:primary_image": 0,
    "src:geom": "sfomuseum",
    "wof:belongsto": [
      102527513,
      1159162825,
      102191575,
      85633793,
      102087579,
      85922583,
      1762923395,
      85688637,
      1159160869
    ],
    "wof:country": "XY",
    "wof:created": 1643762247,
    "wof:depicts": [
      1159287595,
      1762923395,
      1159294431
    ],
    "wof:geomhash": "ed7c2ab3547fc3916b5edc33488deaa7",
    "wof:hierarchy": [
      {
        "building_id": -1,
        "campus_id": 102527513,
        "collection_id": 1159162825,
        "concourse_id": 1159162825,
        "continent_id": 102191575,
        "country_id": 85633793,
        "county_id": 102087579,
        "custom_id": 1762924223,
        "image_id": 1762924223,
        "locality_id": 85922583,
        "neighbourhood_id": -1,
        "object_id": 1762923395,
        "region_id": 85688637,
        "wing_id": 1159160869
      }
    ],
    "wof:id": 1762924223,
    "wof:lastmodified": 1788450858,
    "wof:name": "flight attendant blouse: Western Airlines",
    "wof:parent_id": 1762923395,
    "wof:placetype": "custom",
    "wof:placetype_alt": [
      "image"
    ],
    "wof:repo": "sfomuseum-data-media-collection",
    "wof:superseded_by": [],
    "wof:supersedes": []
  },
  "bbox": [
    -122.386472,
    37.616105,
    -122.385834,
    37.616611
  ],
  "geometry": {"type":"Polygon","coordinates":[[[-122.386472,37.616318],[-122.386435,37.616233],[-122.386376,37.616178],[-122.386301,37.616131],[-122.386161,37.616105],[-122.386022,37.616131],[-122.385914,37.616186],[-122.385855,37.616267],[-122.385834,37.616369],[-122.385871,37.616467],[-122.385941,37.616543],[-122.386054,37.616603],[-122.386183,37.616611],[-122.386306,37.616573],[-122.386419,37.616509],[-122.386467,37.616411],[-122.386472,37.616318]]]}
}
