{
  "id": 1897771619,
  "type": "Feature",
  "properties": {
    "date:cessation_lower": "2003-01-01",
    "date:cessation_upper": "2003-12-31",
    "date:inception_lower": "2003-01-01",
    "date:inception_upper": "2003-12-31",
    "edtf:cessation": "2003~",
    "edtf:inception": "2003~",
    "geom:area": 2.477324999997507e-7,
    "geom:bbox": "-122.386472,37.616105,-122.385834,37.616611",
    "geom:latitude": 37.61635756125121,
    "geom:longitude": -122.38615532866096,
    "media:fingerprint": "d97defdee4d45c7c03ab348d847a603e47f360d5",
    "media:imagehash_avg": "a:c181bdff8181e7ff",
    "media:imagehash_diff": "d:0f177154130f0f0e",
    "media:imagetext": "",
    "media:mimetype": "image/jpeg",
    "media:properties": {
      "sizes": {
        "b": {
          "extension": "jpg",
          "height": 768,
          "mimetype": "image/jpeg",
          "secret": "dcE2Ban8WaYbRhLTw8ofNetS3iSd0trB",
          "width": 959
        },
        "c": {
          "extension": "jpg",
          "height": 600,
          "mimetype": "image/jpeg",
          "secret": "dcE2Ban8WaYbRhLTw8ofNetS3iSd0trB",
          "width": 749
        },
        "dc": {
          "extension": "jpg",
          "height": 600,
          "mimetype": "image/jpeg",
          "secret": "dcE2Ban8WaYbRhLTw8ofNetS3iSd0trB",
          "width": 749
        },
        "ds": {
          "extension": "jpg",
          "height": 320,
          "mimetype": "image/jpeg",
          "secret": "dcE2Ban8WaYbRhLTw8ofNetS3iSd0trB",
          "width": 320
        },
        "k": {
          "extension": "jpg",
          "height": 1536,
          "mimetype": "image/jpeg",
          "secret": "dcE2Ban8WaYbRhLTw8ofNetS3iSd0trB",
          "width": 1919
        },
        "n": {
          "extension": "jpg",
          "height": 240,
          "mimetype": "image/jpeg",
          "secret": "dcE2Ban8WaYbRhLTw8ofNetS3iSd0trB",
          "width": 299
        },
        "o": {
          "extension": "jpg",
          "height": 793,
          "mimetype": "image/jpeg",
          "secret": "7ubOqLty8zYEjxfq6N31FSASQSiKZX2A",
          "width": 991
        },
        "s": {
          "extension": "jpg",
          "height": 320,
          "mimetype": "image/jpeg",
          "secret": "dcE2Ban8WaYbRhLTw8ofNetS3iSd0trB",
          "width": 320
        },
        "z": {
          "extension": "jpg",
          "height": 480,
          "mimetype": "image/jpeg",
          "secret": "dcE2Ban8WaYbRhLTw8ofNetS3iSd0trB",
          "width": 599
        }
      }
    },
    "media:source": "sfomuseum",
    "media:status_id": 1,
    "media:uri_template": "https://static.sfomuseum.org/media/189/777/161/9/1897771619_{secret}_{label}.{extension}",
    "millsfield:aircraft_id": [
      1159289915
    ],
    "millsfield:airline_id": [
      1159284165
    ],
    "millsfield:category_id": 1511214235,
    "millsfield:collection_id": 1511214203,
    "millsfield:company_id": [
      1159293593,
      1159289873
    ],
    "millsfield:has_coloring_book": 1,
    "millsfield:images_colors": [
      {
        "hex": "#a5a7a3",
        "name": "#a5a7a3",
        "reference": "marekm4"
      },
      {
        "hex": "#a9a9a9",
        "name": "darkgrey",
        "reference": "css4"
      },
      {
        "hex": "#979aaa",
        "name": "Manatee",
        "reference": "crayola"
      },
      {
        "hex": "#6b6d6a",
        "name": "#6b6d6a",
        "reference": "marekm4"
      },
      {
        "hex": "#696969",
        "name": "dimgrey",
        "reference": "css4"
      },
      {
        "hex": "#757575",
        "name": "Sonic Silver",
        "reference": "crayola"
      }
    ],
    "millsfield:images_texts": [
      "SOUTHERN\nB-2466"
    ],
    "millsfield:images_texts_ids": [
      1763279873
    ],
    "millsfield:similar": {
      "apple/mobileclip_s0": [
        {
          "distance": 0.34668577,
          "id": 1897771627
        },
        {
          "distance": 0.35934272,
          "id": 1897771409
        },
        {
          "distance": 0.38511607,
          "id": 1897771291
        },
        {
          "distance": 0.39053512,
          "id": 1897771613
        },
        {
          "distance": 0.39367574,
          "id": 1897771421
        },
        {
          "distance": 0.40068674,
          "id": 1763138225
        },
        {
          "distance": 0.4214447,
          "id": 1897359035
        },
        {
          "distance": 0.42682415,
          "id": 1897771639
        },
        {
          "distance": 0.43157786,
          "id": 1763138467
        },
        {
          "distance": 0.4327591,
          "id": 1897771407
        }
      ],
      "apple/mobileclip_s1": [
        {
          "distance": 0.20706348,
          "id": 1897771613
        },
        {
          "distance": 0.22512124,
          "id": 1897771627
        },
        {
          "distance": 0.24440107,
          "id": 1897771409
        },
        {
          "distance": 0.25292423,
          "id": 1763137055
        },
        {
          "distance": 0.25732931,
          "id": 1897771407
        },
        {
          "distance": 0.2576543,
          "id": 1763137299
        },
        {
          "distance": 0.2627577,
          "id": 1763112197
        },
        {
          "distance": 0.26289132,
          "id": 1527857597
        },
        {
          "distance": 0.2722057,
          "id": 1763137041
        },
        {
          "distance": 0.2767528,
          "id": 1763138531
        }
      ],
      "apple/mobileclip_s2": [
        {
          "distance": 0.31954885,
          "id": 1897771613
        },
        {
          "distance": 0.3427054,
          "id": 1897771627
        },
        {
          "distance": 0.36380866,
          "id": 1763110029
        },
        {
          "distance": 0.36501956,
          "id": 1897771407
        },
        {
          "distance": 0.3680938,
          "id": 1763137327
        },
        {
          "distance": 0.37618792,
          "id": 1897771201
        },
        {
          "distance": 0.38489845,
          "id": 1763137055
        },
        {
          "distance": 0.38629797,
          "id": 1897771573
        },
        {
          "distance": 0.38825488,
          "id": 1527858139
        },
        {
          "distance": 0.39227203,
          "id": 1897771417
        }
      ]
    },
    "millsfield:subcategory_id": 1511213161,
    "mz:is_current": 1,
    "sfomuseum:filename": "19F299AD-4627-4334-9547-42FC676DBB29_1_105_c.jpeg",
    "sfomuseum:image_id": 233850,
    "sfomuseum:image_index": 0,
    "sfomuseum:image_type": "studio",
    "sfomuseum:object_id": 222881,
    "sfomuseum:placetype": "image",
    "sfomuseum:primary_image": 0,
    "src:geom": "sfomuseum",
    "wof:belongsto": [
      102527513,
      1159162825,
      102191575,
      85633793,
      102087579,
      85922583,
      1763278715,
      85688637,
      1159160869
    ],
    "wof:country": "XY",
    "wof:created": 1711697500,
    "wof:depicts": [
      1159293593,
      1159289873,
      1763278715,
      1159284165,
      1159289915
    ],
    "wof:geomhash": "ed7c2ab3547fc3916b5edc33488deaa7",
    "wof:hierarchy": [
      {
        "building_id": -1,
        "campus_id": 102527513,
        "collection_id": 1159162825,
        "concourse_id": 1159162825,
        "continent_id": 102191575,
        "country_id": 85633793,
        "county_id": 102087579,
        "custom_id": 1897771619,
        "image_id": 1897771619,
        "locality_id": 85922583,
        "neighbourhood_id": -1,
        "object_id": 1763278715,
        "region_id": 85688637,
        "wing_id": 1159160869
      }
    ],
    "wof:id": 1897771619,
    "wof:lastmodified": 1788452122,
    "wof:name": "model airplane: China Southern Airlines, Boeing 747-400",
    "wof:parent_id": 1763278715,
    "wof:placetype": "custom",
    "wof:placetype_alt": [
      "image"
    ],
    "wof:repo": "sfomuseum-data-media-collection",
    "wof:superseded_by": [],
    "wof:supersedes": []
  },
  "bbox": [
    -122.386472,
    37.616105,
    -122.385834,
    37.616611
  ],
  "geometry": {"type":"Polygon","coordinates":[[[-122.386472,37.616318],[-122.386435,37.616233],[-122.386376,37.616178],[-122.386301,37.616131],[-122.386161,37.616105],[-122.386022,37.616131],[-122.385914,37.616186],[-122.385855,37.616267],[-122.385834,37.616369],[-122.385871,37.616467],[-122.385941,37.616543],[-122.386054,37.616603],[-122.386183,37.616611],[-122.386306,37.616573],[-122.386419,37.616509],[-122.386467,37.616411],[-122.386472,37.616318]]]}
}
