{
  "id": 2048164403,
  "type": "Feature",
  "properties": {
    "date:cessation_lower": "2015-01-01",
    "date:cessation_upper": "2015-12-31",
    "date:inception_lower": "2015-01-01",
    "date:inception_upper": "2015-12-31",
    "edtf:cessation": "2015",
    "edtf:inception": "2015",
    "geom:area": 2.4750474575706356e-7,
    "geom:bbox": "-122.386472,37.616105,-122.385834,37.616611",
    "geom:latitude": 37.61635747477365,
    "geom:longitude": -122.38615540108617,
    "media:fingerprint": "249114c49948e62abcaccd30bdb03c788a5013af",
    "media:imagehash_avg": "a:fffd8181818181ff",
    "media:imagehash_diff": "d:1919094d0b150131",
    "media:imagetext": "tear-off to open\nMULTI BAG\nA multi purpose bag for you\nA STAR ALLIANCE MEMBER,\nSAS",
    "media:mimetype": "image/tiff",
    "media:properties": {
      "colours": null,
      "sizes": {
        "b": {
          "extension": "jpg",
          "height": 768,
          "mimetype": "image/jpeg",
          "secret": "V2C3JNIW5BKQR3SkbwJRuI2GKT8k24pL",
          "width": 413
        },
        "c": {
          "extension": "jpg",
          "height": 600,
          "mimetype": "image/jpeg",
          "secret": "V2C3JNIW5BKQR3SkbwJRuI2GKT8k24pL",
          "width": 322
        },
        "dc": {
          "extension": "jpg",
          "height": 600,
          "mimetype": "image/jpeg",
          "secret": "V2C3JNIW5BKQR3SkbwJRuI2GKT8k24pL",
          "width": 322
        },
        "ds": {
          "extension": "jpg",
          "height": 600,
          "mimetype": "image/jpeg",
          "secret": "V2C3JNIW5BKQR3SkbwJRuI2GKT8k24pL",
          "width": 322
        },
        "k": {
          "extension": "jpg",
          "height": 1536,
          "mimetype": "image/jpeg",
          "secret": "V2C3JNIW5BKQR3SkbwJRuI2GKT8k24pL",
          "width": 826
        },
        "n": {
          "extension": "jpg",
          "height": 240,
          "mimetype": "image/jpeg",
          "secret": "V2C3JNIW5BKQR3SkbwJRuI2GKT8k24pL",
          "width": 129
        },
        "o": {
          "extension": "jpg",
          "height": 1500,
          "mimetype": "image/jpeg",
          "secret": "iAj2GqYcyra3GmtNeAlJvw29FxXglJ2o",
          "width": 807
        },
        "s": {
          "extension": "jpg",
          "height": 600,
          "mimetype": "image/jpeg",
          "secret": "V2C3JNIW5BKQR3SkbwJRuI2GKT8k24pL",
          "width": 322
        },
        "z": {
          "extension": "jpg",
          "height": 480,
          "mimetype": "image/jpeg",
          "secret": "V2C3JNIW5BKQR3SkbwJRuI2GKT8k24pL",
          "width": 258
        }
      }
    },
    "media:source": "sfomuseum",
    "media:status_id": 1,
    "media:uri_template": "https://static.sfomuseum.org/media/204/816/440/3/2048164403_{secret}_{label}.{extention}",
    "millsfield:airline_id": [
      1159285129
    ],
    "millsfield:category_id": 1762671311,
    "millsfield:collection_id": 1511214207,
    "millsfield:company_id": [
      1159287667
    ],
    "millsfield:images_colors": [
      {
        "hex": "#4a4748",
        "name": "#4a4748",
        "reference": "marekm4"
      },
      {
        "hex": "#2f4f4f",
        "name": "darkslategrey",
        "reference": "css4"
      },
      {
        "hex": "#414a4c",
        "name": "Outer Space",
        "reference": "crayola"
      },
      {
        "hex": "#f2f5f6",
        "name": "#f2f5f6",
        "reference": "marekm4"
      },
      {
        "hex": "#f5f5f5",
        "name": "whitesmoke",
        "reference": "css4"
      },
      {
        "hex": "#ffffff",
        "name": "White",
        "reference": "crayola"
      },
      {
        "hex": "#0275e7",
        "name": "#0275e7",
        "reference": "marekm4"
      },
      {
        "hex": "#1e90ff",
        "name": "dodgerblue",
        "reference": "css4"
      },
      {
        "hex": "#1974d2",
        "name": "Navy Blue",
        "reference": "crayola"
      },
      {
        "hex": "#0d8cf4",
        "name": "#0d8cf4",
        "reference": "marekm4"
      },
      {
        "hex": "#1f75fe",
        "name": "Blue",
        "reference": "crayola"
      }
    ],
    "millsfield:subcategory_id": 1511213185,
    "mz:is_current": 1,
    "sfomuseum:filename": "BB0136a.tif",
    "sfomuseum:image_id": 270212,
    "sfomuseum:image_index": 0,
    "sfomuseum:image_type": "studio",
    "sfomuseum:object_id": 235388,
    "sfomuseum:placetype": "image",
    "sfomuseum:primary_image": 1,
    "src:geom": "sfomuseum",
    "wof:belongsto": [
      102527513,
      1159162825,
      102191575,
      85633793,
      102087579,
      85922583,
      2048162767,
      85688637,
      1159160869
    ],
    "wof:country": "XY",
    "wof:created": 1787792921,
    "wof:depicts": [
      1159285129,
      1159287667,
      2048162767
    ],
    "wof:geomhash": "c281b9d9eefc83b5710e64b9d646067d",
    "wof:hierarchy": [
      {
        "building_id": -1,
        "campus_id": 102527513,
        "collection_id": 1159162825,
        "concourse_id": 1159162825,
        "continent_id": 102191575,
        "country_id": 85633793,
        "county_id": 102087579,
        "custom_id": 2048164403,
        "locality_id": 85922583,
        "neighbourhood_id": -1,
        "object_id": 2048162767,
        "region_id": 85688637,
        "wing_id": 1159160869
      }
    ],
    "wof:id": 2048164403,
    "wof:lastmodified": 1787795469,
    "wof:name": "airsickness bag: Scandinavian Airlines System (SAS)",
    "wof:parent_id": 2048162767,
    "wof:placetype": "custom",
    "wof:repo": "sfomuseum-data-media-collection",
    "wof:superseded_by": [],
    "wof:supersedes": []
  },
  "bbox": [
    -122.38647222518921,
    37.6161053594541,
    -122.38583385944366,
    37.61661101879963
  ],
  "geometry": {"type":"Polygon","coordinates":[[[-122.38647222518921,37.61631782178288],[-122.386434674263,37.61623283692423],[-122.38637566566466,37.61617759671399],[-122.38630056381224,37.6161308549656],[-122.38616108894348,37.6161053594541],[-122.38602161407469,37.6161308549656],[-122.38591432571411,37.61618609521055],[-122.38585531711577,37.61626683087935],[-122.38583385944366,37.61636881265146],[-122.38587141036987,37.61646654505181],[-122.38594114780425,37.61654303118856],[-122.38605380058287,37.61660252035167],[-122.38618254661559,37.61661101879963],[-122.3863059282303,37.61657277577607],[-122.3864185810089,37.61650903735973],[-122.3864668607712,37.61641130501523],[-122.38647222518921,37.61631782178288]]]}
}
