{
  "id": 1527833031,
  "type": "Feature",
  "properties": {
    "date:cessation_lower": "1953-05-29",
    "date:cessation_upper": "1953-05-29",
    "date:inception_lower": "1953-05-29",
    "date:inception_upper": "1953-05-29",
    "edtf:cessation": "1953-05-29",
    "edtf:date": "1953-05-29",
    "edtf:inception": "1953-05-29",
    "geom:area": 0,
    "geom:bbox": "-122.386155,37.616358,-122.386155,37.616358",
    "geom:latitude": 37.616358,
    "geom:longitude": -122.386155,
    "iso:country": "XX",
    "media:fingerprint": "6059a756b92f17829ea12fddb4d324b054d80e1c",
    "media:imagehash_avg": "a:fc6cf8bcdfff2f01",
    "media:imagehash_diff": "d:50d8a968b8aada9f",
    "media:imagetext": "PROGRESS\n50\nOF POWERED\nSECURITY\nDAYTON\nMAY 29\n9-AM\n1953\nOHIO\nAIR\nMAIL\nPROGRES\nO OF POWERE\nIRS\n6$5\nAM\nUNITED STATES POSTAGE\n_CONVENTION STATION\nVIA AIR MAIL\nOSCAR H. FATOUT\n314 ELM AVE.\nLONG BEACH 2, CALIF",
    "media:imagetext_created": 1787949536,
    "media:imagetext_source": "com.apple.visionkit.VNImageRequestHandler#Version 26.6.2 (Build 25G83)",
    "media:medium": "image",
    "media:mimetype": "image/tiff",
    "media:properties": {
      "sizes": {
        "b": {
          "extension": "jpg",
          "height": 574,
          "mimetype": "image/jpeg",
          "secret": "Le4x1JeKQXVLRbApvAmcLG0tgt7dMRQ5",
          "width": 1024
        },
        "c": {
          "extension": "jpg",
          "height": 448,
          "mimetype": "image/jpeg",
          "secret": "Le4x1JeKQXVLRbApvAmcLG0tgt7dMRQ5",
          "width": 800
        },
        "dc": {
          "extension": "jpg",
          "height": 448,
          "mimetype": "image/jpeg",
          "secret": "Le4x1JeKQXVLRbApvAmcLG0tgt7dMRQ5",
          "width": 800
        },
        "ds": {
          "extension": "jpg",
          "height": 320,
          "mimetype": "image/jpeg",
          "secret": "Le4x1JeKQXVLRbApvAmcLG0tgt7dMRQ5",
          "width": 320
        },
        "k": {
          "extension": "jpg",
          "height": 1149,
          "mimetype": "image/jpeg",
          "secret": "Le4x1JeKQXVLRbApvAmcLG0tgt7dMRQ5",
          "width": 2048
        },
        "n": {
          "extension": "jpg",
          "height": 179,
          "mimetype": "image/jpeg",
          "secret": "Le4x1JeKQXVLRbApvAmcLG0tgt7dMRQ5",
          "width": 320
        },
        "o": {
          "extension": "jpg",
          "height": 1100,
          "mimetype": "image/jpeg",
          "secret": "7U6ecNkXOqCQosQTfdJbCoM4ScAthsE8",
          "width": 1960
        },
        "s": {
          "extension": "jpg",
          "height": 320,
          "mimetype": "image/jpeg",
          "secret": "Le4x1JeKQXVLRbApvAmcLG0tgt7dMRQ5",
          "width": 320
        },
        "z": {
          "extension": "jpg",
          "height": 359,
          "mimetype": "image/jpeg",
          "secret": "Le4x1JeKQXVLRbApvAmcLG0tgt7dMRQ5",
          "width": 640
        }
      }
    },
    "media:source": "sfomuseum",
    "media:status_id": 1,
    "media:uri_template": "https://static.sfomuseum.org/media/152/783/303/1/1527833031_{secret}_{label}.{extension}",
    "millsfield:category_id": 1511214215,
    "millsfield:collection_id": 1511214207,
    "millsfield:images_colors": [
      {
        "hex": "#d6ccb3",
        "name": "#d6ccb3",
        "reference": "marekm4"
      },
      {
        "hex": "#c0c0c0",
        "name": "silver",
        "reference": "css4"
      },
      {
        "hex": "#cdc5c2",
        "name": "Silver",
        "reference": "crayola"
      },
      {
        "hex": "#232b4b",
        "name": "#232b4b",
        "reference": "marekm4"
      },
      {
        "hex": "#2f4f4f",
        "name": "darkslategrey",
        "reference": "css4"
      },
      {
        "hex": "#414a4c",
        "name": "Outer Space",
        "reference": "crayola"
      },
      {
        "hex": "#ba2712",
        "name": "#ba2712",
        "reference": "marekm4"
      },
      {
        "hex": "#b22222",
        "name": "firebrick",
        "reference": "css4"
      },
      {
        "hex": "#9c2542",
        "name": "Big Dip O' Ruby",
        "reference": "crayola"
      },
      {
        "hex": "#c39273",
        "name": "#c39273",
        "reference": "marekm4"
      },
      {
        "hex": "#bc8f8f",
        "name": "rosybrown",
        "reference": "css4"
      },
      {
        "hex": "#cd9575",
        "name": "Antique Brass",
        "reference": "crayola"
      },
      {
        "hex": "#334d88",
        "name": "#334d88",
        "reference": "marekm4"
      },
      {
        "hex": "#483d8b",
        "name": "darkslateblue",
        "reference": "css4"
      },
      {
        "hex": "#2e5894",
        "name": "B'dazzled Blue",
        "reference": "crayola"
      }
    ],
    "millsfield:images_texts": [
      "PROGRESS\n50\nOF POWERED\nSECURITY\nDAYTON\nMAY 29\n9-AM\n1953\nOHIO\nAIR\nMAIL\nPROGRES\nO OF POWERE\nIRS\n6$5\nAM\nUNITED STATES POSTAGE\n_CONVENTION STATION\nVIA AIR MAIL\nOSCAR H. FATOUT\n314 ELM AVE.\nLONG BEACH 2, CALIF",
      "2012.149. 1578"
    ],
    "millsfield:images_texts_ids": [
      1527833031,
      1527833035
    ],
    "millsfield:similar": {
      "apple/mobileclip_s0": [
        {
          "distance": 0.46715066,
          "id": 1527834329
        },
        {
          "distance": 0.5137619,
          "id": 1527834353
        },
        {
          "distance": 0.5235858,
          "id": 1527854407
        },
        {
          "distance": 0.5245499,
          "id": 1527833039
        },
        {
          "distance": 0.5334616,
          "id": 1527833395
        },
        {
          "distance": 0.5361319,
          "id": 1527834247
        },
        {
          "distance": 0.53782487,
          "id": 1527833539
        },
        {
          "distance": 0.5440104,
          "id": 1763388717
        },
        {
          "distance": 0.55254513,
          "id": 1527833525
        },
        {
          "distance": 0.5528932,
          "id": 1527829903
        }
      ],
      "apple/mobileclip_s1": [
        {
          "distance": 0.34262013,
          "id": 1527834037
        },
        {
          "distance": 0.3656507,
          "id": 1527833125
        },
        {
          "distance": 0.36669633,
          "id": 1527833101
        },
        {
          "distance": 0.3680603,
          "id": 1527833525
        },
        {
          "distance": 0.37187847,
          "id": 1527834247
        },
        {
          "distance": 0.37230036,
          "id": 1527834259
        },
        {
          "distance": 0.37464124,
          "id": 1527833395
        },
        {
          "distance": 0.37691858,
          "id": 1527833091
        },
        {
          "distance": 0.37708032,
          "id": 1527833661
        },
        {
          "distance": 0.37739575,
          "id": 1527833147
        }
      ],
      "apple/mobileclip_s2": [
        {
          "distance": 0.48157373,
          "id": 1527833395
        },
        {
          "distance": 0.49513218,
          "id": 1527829899
        },
        {
          "distance": 0.49542323,
          "id": 1527830185
        },
        {
          "distance": 0.50120294,
          "id": 1527833525
        },
        {
          "distance": 0.5051405,
          "id": 1527829895
        },
        {
          "distance": 0.50608087,
          "id": 1527833125
        },
        {
          "distance": 0.5097136,
          "id": 1527834329
        },
        {
          "distance": 0.5167974,
          "id": 1527829885
        },
        {
          "distance": 0.51915765,
          "id": 1527832681
        },
        {
          "distance": 0.5264028,
          "id": 1527829889
        }
      ]
    },
    "millsfield:subcategory_id": 1511213159,
    "mz:hierarchy_label": 1,
    "mz:is_current": -1,
    "sfomuseum:filename": "62304.tif",
    "sfomuseum:image_id": 62304,
    "sfomuseum:image_index": 5,
    "sfomuseum:image_type": "studio",
    "sfomuseum:object_id": 138942,
    "sfomuseum:placetype": "image",
    "sfomuseum:primary_image": 1,
    "src:geom": "sfomuseum",
    "wof:belongsto": [
      1511213159,
      102087579,
      1511214215,
      1511953125,
      1511214203,
      85633793,
      102191575,
      85922583,
      1511214277,
      102527513,
      85688637
    ],
    "wof:breaches": [],
    "wof:country": "XX",
    "wof:created": 1578951395,
    "wof:depicts": [
      1511953125
    ],
    "wof:geomhash": "bd906905ce4be6c0651c90b0fc24804c",
    "wof:hierarchy": [
      {
        "arcade_id": 1511213159,
        "building_id": 1511214277,
        "campus_id": 102527513,
        "concourse_id": 1511214215,
        "continent_id": 102191575,
        "country_id": 85633793,
        "county_id": 102087579,
        "custom_id": 1527833031,
        "image_id": 1527833031,
        "locality_id": 85922583,
        "media_id": 1527833031,
        "neighbourhood_id": -1,
        "region_id": 85688637,
        "venue_id": 1511953125,
        "wing_id": 1511214203
      }
    ],
    "wof:id": 1527833031,
    "wof:lastmodified": 1788449900,
    "wof:name": "airmail flight cover: Dayton Philatelic Society",
    "wof:parent_id": 1511953125,
    "wof:placetype": "custom",
    "wof:placetype_alt": [
      "image"
    ],
    "wof:repo": "sfomuseum-data-media-collection",
    "wof:superseded_by": [],
    "wof:supersedes": [],
    "wof:tags": []
  },
  "bbox": [
    -122.386155,
    37.616358,
    -122.386155,
    37.616358
  ],
  "geometry": {"type":"Point","coordinates":[-122.386155,37.616358]}
}
