{
  "id": 1527832241,
  "type": "Feature",
  "properties": {
    "date:cessation_lower": "1972-01-01",
    "date:cessation_upper": "1972-12-31",
    "date:inception_lower": "1972-01-01",
    "date:inception_upper": "1972-12-31",
    "edtf:cessation": "1972",
    "edtf:date": "1972",
    "edtf:inception": "1972",
    "geom:area": 0,
    "geom:bbox": "-122.386155,37.616358,-122.386155,37.616358",
    "geom:latitude": 37.616358,
    "geom:longitude": -122.386155,
    "iso:country": "XX",
    "media:fingerprint": "6c36477d428b716a75df5db6aad0b73f51ee82d5",
    "media:imagehash_avg": "a:fffffff307400000",
    "media:imagehash_diff": "d:715187877fcd8143",
    "media:imagetext": "AIR\nCALIFORNIA\nFlight Schedule • Effective December 13, 1972\nNow Serving •.. SACRAMENTO • SAN FRANCISCO\n• OAKLAND • SAN JOSE • ONTARIO •\nPALM SPRINGS • ORANGE COUNTY • SAN DIEGO\n\"SUR\nVALLEYS\"\nBear\nheaven y\n\u0026 Squaw\nTHROUGH THE SACRAMENTO GATEWAY",
    "media:imagetext_created": 1787949412,
    "media:imagetext_source": "com.apple.visionkit.VNImageRequestHandler#Version 26.6.2 (Build 25G83)",
    "media:medium": "image",
    "media:mimetype": "image/tiff",
    "media:properties": {
      "sizes": {
        "b": {
          "extension": "jpg",
          "height": 768,
          "mimetype": "image/jpeg",
          "secret": "lNBq9iT7TuiHFIK4pAD2RjbuhrMc21zc",
          "width": 318
        },
        "c": {
          "extension": "jpg",
          "height": 600,
          "mimetype": "image/jpeg",
          "secret": "lNBq9iT7TuiHFIK4pAD2RjbuhrMc21zc",
          "width": 248
        },
        "dc": {
          "extension": "jpg",
          "height": 600,
          "mimetype": "image/jpeg",
          "secret": "lNBq9iT7TuiHFIK4pAD2RjbuhrMc21zc",
          "width": 248
        },
        "ds": {
          "extension": "jpg",
          "height": 320,
          "mimetype": "image/jpeg",
          "secret": "lNBq9iT7TuiHFIK4pAD2RjbuhrMc21zc",
          "width": 320
        },
        "k": {
          "extension": "jpg",
          "height": 1536,
          "mimetype": "image/jpeg",
          "secret": "lNBq9iT7TuiHFIK4pAD2RjbuhrMc21zc",
          "width": 637
        },
        "n": {
          "extension": "jpg",
          "height": 240,
          "mimetype": "image/jpeg",
          "secret": "lNBq9iT7TuiHFIK4pAD2RjbuhrMc21zc",
          "width": 99
        },
        "o": {
          "extension": "jpg",
          "height": 2097,
          "mimetype": "image/jpeg",
          "secret": "jAMprc9gP3X6KXgBS61UNRSXUJX30wje",
          "width": 870
        },
        "s": {
          "extension": "jpg",
          "height": 320,
          "mimetype": "image/jpeg",
          "secret": "lNBq9iT7TuiHFIK4pAD2RjbuhrMc21zc",
          "width": 320
        },
        "z": {
          "extension": "jpg",
          "height": 480,
          "mimetype": "image/jpeg",
          "secret": "lNBq9iT7TuiHFIK4pAD2RjbuhrMc21zc",
          "width": 199
        }
      }
    },
    "media:source": "sfomuseum",
    "media:status_id": 1,
    "media:uri_template": "https://static.sfomuseum.org/media/152/783/224/1/1527832241_{secret}_{label}.{extension}",
    "millsfield:airline_id": [
      1159283793
    ],
    "millsfield:category_id": 1511214223,
    "millsfield:collection_id": 1511214207,
    "millsfield:company_id": [
      1159286809
    ],
    "millsfield:images_colors": [
      {
        "hex": "#1742a7",
        "name": "#1742a7",
        "reference": "marekm4"
      },
      {
        "hex": "#483d8b",
        "name": "darkslateblue",
        "reference": "css4"
      },
      {
        "hex": "#324ab2",
        "name": "Violet Blue",
        "reference": "crayola"
      },
      {
        "hex": "#dfe0d6",
        "name": "#dfe0d6",
        "reference": "marekm4"
      },
      {
        "hex": "#dcdcdc",
        "name": "gainsboro",
        "reference": "css4"
      },
      {
        "hex": "#dbd7d2",
        "name": "Timberwolf",
        "reference": "crayola"
      },
      {
        "hex": "#70b333",
        "name": "#70b333",
        "reference": "marekm4"
      },
      {
        "hex": "#6b8e23",
        "name": "olivedrab",
        "reference": "css4"
      },
      {
        "hex": "#87a96b",
        "name": "Asparagus",
        "reference": "crayola"
      }
    ],
    "millsfield:images_texts": [
      "AIR\nCALIFORNIA\nFlight Schedule • Effective December 13, 1972\nNow Serving •.. SACRAMENTO • SAN FRANCISCO\n• OAKLAND • SAN JOSE • ONTARIO •\nPALM SPRINGS • ORANGE COUNTY • SAN DIEGO\n\"SUR\nVALLEYS\"\nBear\nheaven y\n\u0026 Squaw\nTHROUGH THE SACRAMENTO GATEWAY",
      "Oakland\nOakland to Ontario\n9:05A\n8:05A\n10:45A\nOakland to Orange County\n7:00A\n7:15A\n8:35A\n20P\n9:30P\nOakland to Palm Springs\n9:00A 11:10A\n510/\n2 Su\n$25.92\n9:45A 11:55A\n9:45A\n11:45A\n40A\n1:45R\n2.00P\n4•30Р\nMo thru Th\nthru\nthru Th\n4:45P\n6:35P\nSa\nOakland to San Diego\n$24.50\n: 15A\n9:10A\n9:45P\n11.15P\nOntario\nOntario to Oakland\n8.30A\n11:30A\n9.50A\n3:30Р\n$21.60\nthru\nthru Th\n$21.60\nthru I\nthru\nTh\nthru\nSu\nthru\nthru Th\nthru Fr\nthru Th\nthru Su\nFr\n$21.60\nthru\nSa\nthru Th\n• 00 c0\n8:50P\n9:20P\n: 50P\n9:00P\nOntario to Orange County\n11:15A\n11:\no thru Th\n$5.40\n-- LOC\n00000°\nthru Th\no thru Th\nOntario to Sacramento\n$22.00\n11:15A\n1:00P\n1:15P\n1:30P\n4:00P\n5:30P\n6:00P\n80880\nthru Th\n1 thru Th\nOntario to San Diego\n$13.40\n11:15A\n2:00P\n1:00P\n2:00P\n1:30P\n4:15P\nSu\nMo thru Th\n4:00P\n4:55P\n5:30P\n7:40P\n6:00P\n7:40P\nOntario to San Jose\n8:30A\n11:15A\n9:25A\n11:30A\n0----0-0000000\nMo thru Th\n$21.60\nthru\nthru\nTh\nthru\nTh\nTh\n8:30P\n9:00P\nOrange County\nOrange County to Oakland\n$21.60\n8. 00A\n9:00A\n9. 20A\nthru\n10:20A\n12:00N\nthru Fr\n12:35P\n1:15P\n3:00P\n3:45P\n4:20P\n4:00P\n5.20P\n6:00P\n6:45P\n8:40P\n9. 00P\nTh.\nthru\nthru\nthru\nnin inin\nOrange County to Ontario\n$5.40\n10:30A 10:45A\n10:45A 11:00A\nSo thru Sa\nMo thru Th\nSu\nOrange County to Palm Springs\n$9.00\n10:45A 11:10A\n410\nSu\n11:30A 11:55A\n412\nMo thru Th\n1:40P\n2:05P\n6:\n10P\n6:35Р\n428\n454\nMo thru Th\nOrange County to Sacramento\n$22.00\n7:10A\n8:40A\n701\nMo thru Sa\n11:45A\n: 15P\n1:30P\nSu\nMo thru Th\n5:00P\nSal\n5455P\n6:25P\nOrange County to San Diego\n8:45A\n10A\n2:00P\n3:00P\n4:00₽\n5:00P\n5:20P\n6:00P\n6:45Р\n8:30P\n8:40P\n9:00P\nthru Th\nthru Fr\nthru Fr\nSu\nthru\nFr\nPalm Springs\nPalm Springs to Oakland\n$25.92\n12:00N\n12:20P\n2:35P\n419\n427/\nMo thru Th\n623\n2:00P\n4:00P\n3:50P\nSu\nMo thru Th\n4:30P\n6:55P\n9:20₽\n8.50Г\n7-25Р 19:00Р\n461/\nSo thru Th\n$8.00\na Su\nru Fr\nPalm Springs to Orange County\n$9.00\n11:50A 12:15P\n425\n12:00N 12:25P\n12:20P 12:45P\nMo thru Th,\n2:50P\n6:55P\n3:15P\n7:20P\n7:25P\n7:50P\n0000\nFr\nSu\nMo thru Th\nPalm Springs to Sacramento\n$28.25\nOrange County to San Francisco $21.60\n7:00A\n8:00A\n101\n8:30A\n8:45A\n9:30A\n105\nMo thru Th\n9:45A\n107\nMo thru Th\n:30A\n12.30P\n11:30A\n1 • 00B\n1.30P\n115\n425\n427\nTh\nthru Th\nthru Fr\nthru Th\n12:00N\n3:00P\n419/2 Fr\n12:20P\n3:30P\n721\n427/\n2 Mo thru Th\n725\n4:00P\n7.30P\n2 Mo thru Th\n4:30P\n7:00P\n751 2 Fr\n759\n9:30P\nq-Д5Р\n000000000-0C\nPalm Springs to San Diego\n$17.00\n11:50A\n2:00P\n425/ 1 Su\n12:20P\n2:00P\n427/ 1 Sa\n2:50P\n626\n4:15P\n441/ 1 Fr\n7:25P\n9:05P\n636\n461/ 1 Mo thru Th\n268\nPalm Springs to San Francisco\n$25.92\n11:50A\n1:30P\nOrange County to San Jose\nS21.60\n12:20P 2:00P\n: 425 1 Mo thru Th,\n7.10 Л\n2:50P\n4:30P\n441\nFr\n8:00A\n8.05 A\n8-55A\n701\nMo thru S:\nMo thru Fi\n9:00A\n9:55\n7:25P\n9:00P\n461\nMn than Th\n12.004\nthru Fr\nPalm Springs to San Jose\n$25.92\n12:35P\n1.15P\nMo thru Th,\n12:20P 2:10P\n12:20P\n419\n427/\n1.30P\n2:25P\n721\nFr\n623\n1 Nothu Th\n4:30P\n6:55P\n7:00P\n7:25P\n8:55P\n8:25P\n9:35P\nMo thru Th\nSa\nMo thru Th\n661/\nSacramento\nSacramento to Ontario\n$22.00\n9:05A 11:00A\n710\n2 Mo thru Sa\n3:30P\n4:00P\n5:30P\n738\n7:00P\n8:30P\n740\nMo thru Th\n766\nSu\nSacramento to Orange County\n$22.00\n9:05A 10:35A\n1:45P\n3:30P\n3:15P\n710\nMo thru Sa\n4:35P\nFr\n) thru Th\n6:30P\n8:00P\n7:00P\n7:30P\n8:05P\n8:00P\n9:00P\n9:30P\n770\nMo thru Th\nSacramento to Palm Springs\n$28.25\n9:05A 11:55A\n710/ 2 MothruTh.\n412\nSa\n9:05A 11:40A\n710/\n2 Fr\n4:00P\n7:05P\n740/\n1 Mo thru Th\n456\nSacramento to San Diego\n$25.00\n9:05A 11:40A\n710/ 2 Mo thru Th\n614\n9:05A 12:10P\n710/ 2 c.\n4:00P\n7:40P\n640/ 1 Mo thru Th\n6:30P\n9:40R\n764/\n2 Sa\nSacramento to San Jose\n$8.50\n9:05A\n9:30A\n710\nMo thru Sa\n1.A5D\n2. 100\n6:30P\n6:55P\n764\n7:30P\nSa\n8:00P\n7:55P\n8.25P\n768\n770\nMo thru Th\nSan Diego\nSan Diego to Oakland\n720 200\n605\n9.35A 11:35A\n12:35P\n2.250\n$24.50\nMn than r\nSu thru Fr\nVo thru Th\n2.25P\n3:00P\n4:20P\n4:30Р\n5:20P\n7:30P\n7:20P\nQ.П5P 10.00P\n8-20P 10:20P\nN-NN-NN\nSa, Su\nMo thru Fr\nSu\nSan Diego to Ontario\n$13.40\n9:35A 11:00A\n619/\n9:35A 10:45A\n710\n1 Mo thru Fr\nSu\n12:35P\n3:30P\nSa\n4:45P 5:30P\n1 Mo thru Th\n740\nSan Diego to Orange County\n$8.00\n7:20A\n7:45A\n605\nMo thru Fr\n12:359 11:00\nthru Fr\n12:35P\n2:45P\n8:20P\n00000\nSan Diego to Palm Springs\nthru Fr\n$17.00\n9:35A 11:40A\n414\n619/\nSu\n410\n4:45P\n657/\n456\n1 Mo thru Th\nSan Diego to Sacramento\n$25.00\n12:35P\n3:30Р\n2:25P 6:00P\n2 Sa\n2:25P\n6:30P\n749\nSu\n4:45P 7:30P\nMo thru Th\n4:45P 7:00P\n1 Fr\nSan Diego to San Jose\n$24,50\n7:20A\n8:55A\n9:35A 11:10A\n12-350\n2:10P\nthru Th.\n3:00Р\n4:45P\nthru Fr\n5:20P\n7:05P\nthru\nFr\n8.20P\n9:55P\nSan Francisco\nSan Francisco to Orange County $21.60\n7:00A\n8:20A\n102\nMo thru Th\n7.20\n0.20A\n8.30А\n9:30A\nthru\n9.30A 10:30A\n10:00A 11:00A\n10:15A 11:15A\nthru Th,\n12:30P\n1:30P\n12:30г\n2:00P\n1: 30Р\n2:30P\n3:30P\n3.30Р\nthe Sa\n4.30P\n6: 00P\n5:00P\nOP\n5:30P\n8:00P\n8:00P\n8:30P\n9:00P 10:00P\nP000-09\nthru Th\nthru Th\nSan Francisco to Palm Springs\n$25.92\n9:30A 11:10A\n410\n10:15A 11:55A\n412\nSu\nMo thru Th,\nSa\n12:30P\n5:00P\n2:05P\n5:30P\n7:05P\n428\n454\n456\n---•\nMo thru Th\nSan Jose\nSan Jose to Ontario\n$21.60\n7:10A\n8:05A\n0.9CA\n0--00-00000\nMo thru Sa\nthru Sa\nthru Th\n55P\n5:10P\n6:40P\n7:10P\nSan Jose to Orange County\n7:25A\n7:40A\n9:20A\n10:10A\n10:10A\n10:40A\n12.30P\n2:10P\n2:20P\n2:45P\n3:25P\n5:00P\n5:40Р\nT:05P\n7:35P\n8:05P\n8:10P\n8:25P\n8:35P\n9:00P\n9:55P\n10:\nSan Jose to Palm Springs\n9.25A 11:10A\n510/ 1 Su\n9:40A 11:55A\n410\n710/ 1 Sa\n10:10A 11:55A\n10:10A\n11:40A\n12:10P\n1:35Р\n2:25P\n2.35P\n5:00P\n2.50.\n7-05\n5:10P\n6-35P\n1 Sa\nthru Th\n$21.60\n) thru\nTh\nthru Fr\nthrit\nthru Th\nthru Su\nthru Fr\nthru Th\nthru Fr\nthru Th\n$25.92\nMo thru Th\nthru\n# 111\n# *1\n# 11\nSan Jose to Sacramento\n8:15A\n8:40A\n12:50P\n2:35P\n3:00P\n3:05P\n3:30P\n6:05P\n6:30P\nSan Jose ta San Diego\n7:40A\n9:10A\n10:10A 11:40A\n$8.50\nMo thru Sa\nMo thru Th\n$24.50\nMo thru Fr\n10:40A\n12:30P\nthru Su\nthru\nthru\n8:10P\n10:10P\nNoblon\nSan Francisco\nSan lose\nNeanad Count.\nDisneyland\nPalm Springs\nSan Diego\nTicket Office Locations\n• Disnevland Hotel\n1441 S. West St.\nAnaheim, Calif. 92802\n(714) 533-0772\nReservations \u0026 Information:\n(714) 540-4550\n• 777 South Main St.,\nSuite 121, Orange,\nReservations \u0026 Information:\n(714) 540-4550\n• 505L Street\nSacramento, Calif. 95814\n(916) 444-7217\n• 1026 Third Avenue,\nSan Diego, Calif. 92101\n(714) 234-7333\n• 460 Post St., San\nFrancisco, Calif. 94102\n(415) 433-2101"
    ],
    "millsfield:images_texts_ids": [
      1527832241,
      1527844299
    ],
    "millsfield:similar": {
      "apple/mobileclip_s0": [
        {
          "distance": 0.19104888,
          "id": 1762715105
        },
        {
          "distance": 0.6598911,
          "id": 1527836871
        },
        {
          "distance": 0.721016,
          "id": 1527846783
        },
        {
          "distance": 0.73763597,
          "id": 1746680709
        },
        {
          "distance": 0.7711288,
          "id": 1762714495
        },
        {
          "distance": 0.7750152,
          "id": 1762714549
        },
        {
          "distance": 0.78130037,
          "id": 1763445883
        },
        {
          "distance": 0.7894144,
          "id": 1527836867
        },
        {
          "distance": 0.7950577,
          "id": 1746680603
        },
        {
          "distance": 0.79736143,
          "id": 1527836997
        }
      ],
      "apple/mobileclip_s1": [
        {
          "distance": 0.13109995,
          "id": 1762715105
        },
        {
          "distance": 0.47571537,
          "id": 1763445883
        },
        {
          "distance": 0.47797167,
          "id": 1527846783
        },
        {
          "distance": 0.48323205,
          "id": 1527836871
        },
        {
          "distance": 0.50791395,
          "id": 1746680709
        },
        {
          "distance": 0.5224701,
          "id": 1527836997
        },
        {
          "distance": 0.52840215,
          "id": 1746680603
        },
        {
          "distance": 0.53333384,
          "id": 1762715211
        },
        {
          "distance": 0.54014426,
          "id": 1527847493
        },
        {
          "distance": 0.5403496,
          "id": 1527847503
        }
      ],
      "apple/mobileclip_s2": [
        {
          "distance": 0.20003481,
          "id": 1762715105
        },
        {
          "distance": 0.6077625,
          "id": 1527836871
        },
        {
          "distance": 0.6374175,
          "id": 1763445883
        },
        {
          "distance": 0.6444337,
          "id": 1527836997
        },
        {
          "distance": 0.7245115,
          "id": 1779436533
        },
        {
          "distance": 0.7249503,
          "id": 1527839275
        },
        {
          "distance": 0.7257767,
          "id": 1527846783
        },
        {
          "distance": 0.7263034,
          "id": 1779437633
        },
        {
          "distance": 0.72681457,
          "id": 1762714549
        },
        {
          "distance": 0.72877043,
          "id": 1763241379
        }
      ]
    },
    "millsfield:subcategory_id": 1511213425,
    "mz:hierarchy_label": 1,
    "mz:is_current": -1,
    "sfomuseum:filename": "61191.tif",
    "sfomuseum:image_id": 61191,
    "sfomuseum:image_index": 5,
    "sfomuseum:image_type": "studio",
    "sfomuseum:object_id": 97467,
    "sfomuseum:placetype": "image",
    "sfomuseum:primary_image": 1,
    "src:geom": "sfomuseum",
    "wof:belongsto": [
      1511214223,
      1511935671,
      102527513,
      102191575,
      85633793,
      1511213425,
      85922583,
      102087579,
      1511214277,
      1511214203,
      85688637
    ],
    "wof:breaches": [],
    "wof:country": "XX",
    "wof:created": 1578951275,
    "wof:depicts": [
      1159286809,
      1159283793,
      1511935671
    ],
    "wof:geomhash": "bd906905ce4be6c0651c90b0fc24804c",
    "wof:hierarchy": [
      {
        "arcade_id": 1511213425,
        "building_id": 1511214277,
        "campus_id": 102527513,
        "concourse_id": 1511214223,
        "continent_id": 102191575,
        "country_id": 85633793,
        "county_id": 102087579,
        "custom_id": 1527832241,
        "image_id": 1527832241,
        "locality_id": 85922583,
        "media_id": 1527832241,
        "neighbourhood_id": -1,
        "region_id": 85688637,
        "venue_id": 1511935671,
        "wing_id": 1511214203
      }
    ],
    "wof:id": 1527832241,
    "wof:lastmodified": 1788213925,
    "wof:name": "timetable: Air California",
    "wof:parent_id": 1511935671,
    "wof:placetype": "custom",
    "wof:placetype_alt": [
      "image"
    ],
    "wof:repo": "sfomuseum-data-media-collection",
    "wof:superseded_by": [],
    "wof:supersedes": [],
    "wof:tags": []
  },
  "bbox": [
    -122.386155,
    37.616358,
    -122.386155,
    37.616358
  ],
  "geometry": {"type":"Point","coordinates":[-122.386155,37.616358]}
}
