{
  "id": 1964107087,
  "type": "Feature",
  "properties": {
    "date:cessation_lower": "1980-01-01",
    "date:cessation_upper": "1989-12-31",
    "date:inception_lower": "1980-01-01",
    "date:inception_upper": "1989-12-31",
    "edtf:cessation": "198X",
    "edtf:inception": "198X",
    "geom:area": 2.477324999997507e-7,
    "geom:bbox": "-122.386472,37.616105,-122.385834,37.616611",
    "geom:latitude": 37.61635756125121,
    "geom:longitude": -122.38615532866096,
    "media:fingerprint": "a06f75b51f8da7686be0d680eab44300728141ad",
    "media:imagehash_avg": "a:47c1c1fdcdc1410f",
    "media:imagehash_diff": "d:8f9793d999999b90",
    "media:imagetext": "KLM",
    "media:imagetext_created": 1787975047,
    "media:imagetext_source": "com.apple.visionkit.VNImageRequestHandler#Version 26.6.2 (Build 25G83)",
    "media:mimetype": "image/tiff",
    "media:properties": {
      "sizes": {
        "b": {
          "extension": "jpg",
          "height": 768,
          "mimetype": "image/jpeg",
          "secret": "w0Zd6XSO9fzNrSw37u4itWqZiK8pSXBR",
          "width": 965
        },
        "c": {
          "extension": "jpg",
          "height": 600,
          "mimetype": "image/jpeg",
          "secret": "w0Zd6XSO9fzNrSw37u4itWqZiK8pSXBR",
          "width": 754
        },
        "dc": {
          "extension": "jpg",
          "height": 320,
          "mimetype": "image/jpeg",
          "secret": "w0Zd6XSO9fzNrSw37u4itWqZiK8pSXBR",
          "width": 320
        },
        "ds": {
          "extension": "jpg",
          "height": 320,
          "mimetype": "image/jpeg",
          "secret": "w0Zd6XSO9fzNrSw37u4itWqZiK8pSXBR",
          "width": 320
        },
        "k": {
          "extension": "jpg",
          "height": 1536,
          "mimetype": "image/jpeg",
          "secret": "w0Zd6XSO9fzNrSw37u4itWqZiK8pSXBR",
          "width": 1931
        },
        "n": {
          "extension": "jpg",
          "height": 240,
          "mimetype": "image/jpeg",
          "secret": "w0Zd6XSO9fzNrSw37u4itWqZiK8pSXBR",
          "width": 301
        },
        "o": {
          "extension": "jpg",
          "height": 1667,
          "mimetype": "image/jpeg",
          "secret": "V5dxd7Wr2X9oUO7vZYN7wtrcByqjn6ao",
          "width": 2096
        },
        "s": {
          "extension": "jpg",
          "height": 320,
          "mimetype": "image/jpeg",
          "secret": "w0Zd6XSO9fzNrSw37u4itWqZiK8pSXBR",
          "width": 320
        },
        "z": {
          "extension": "jpg",
          "height": 480,
          "mimetype": "image/jpeg",
          "secret": "w0Zd6XSO9fzNrSw37u4itWqZiK8pSXBR",
          "width": 603
        }
      }
    },
    "media:source": "sfomuseum",
    "media:status_id": 1,
    "media:uri_template": "https://static.sfomuseum.org/media/196/410/708/7/1964107087_{secret}_{label}.{extention}",
    "millsfield:airline_id": [
      1159284613
    ],
    "millsfield:category_id": 1763416373,
    "millsfield:collection_id": 1511214203,
    "millsfield:company_id": [
      1159287541
    ],
    "millsfield:images_colors": [
      {
        "hex": "#aeaead",
        "name": "#aeaead",
        "reference": "marekm4"
      },
      {
        "hex": "#a9a9a9",
        "name": "darkgrey",
        "reference": "css4"
      },
      {
        "hex": "#b0b7c6",
        "name": "Cadet Blue",
        "reference": "crayola"
      },
      {
        "hex": "#415356",
        "name": "#415356",
        "reference": "marekm4"
      },
      {
        "hex": "#2f4f4f",
        "name": "darkslategrey",
        "reference": "css4"
      },
      {
        "hex": "#414a4c",
        "name": "Outer Space",
        "reference": "crayola"
      }
    ],
    "millsfield:images_texts": [
      "KLM",
      ": balmoral\nBalmoral International...\nEurope's finest cigar."
    ],
    "millsfield:images_texts_ids": [
      1964107087,
      1964107091
    ],
    "millsfield:similar": {
      "apple/mobileclip_s0": [
        {
          "distance": 0.42187357,
          "id": 1964107077
        },
        {
          "distance": 0.47900093,
          "id": 1779984505
        },
        {
          "distance": 0.47900093,
          "id": 1779984507
        },
        {
          "distance": 0.5337189,
          "id": 1964107081
        },
        {
          "distance": 0.55340594,
          "id": 1763101837
        },
        {
          "distance": 0.5574457,
          "id": 1779914863
        },
        {
          "distance": 0.5827595,
          "id": 1762898677
        },
        {
          "distance": 0.58539736,
          "id": 1931110363
        },
        {
          "distance": 0.5985211,
          "id": 1763496159
        },
        {
          "distance": 0.60512894,
          "id": 1763496155
        }
      ],
      "apple/mobileclip_s1": [
        {
          "distance": 0.25700474,
          "id": 1964107077
        },
        {
          "distance": 0.4039608,
          "id": 1964107081
        },
        {
          "distance": 0.40640214,
          "id": 1763496159
        },
        {
          "distance": 0.42263788,
          "id": 1763496161
        },
        {
          "distance": 0.45084074,
          "id": 1779914863
        },
        {
          "distance": 0.4528287,
          "id": 1779984505
        },
        {
          "distance": 0.4528287,
          "id": 1779984507
        },
        {
          "distance": 0.45440176,
          "id": 1763101837
        },
        {
          "distance": 0.45763105,
          "id": 1931110363
        },
        {
          "distance": 0.4635764,
          "id": 1763496155
        }
      ],
      "apple/mobileclip_s2": [
        {
          "distance": 0.30410364,
          "id": 1964107077
        },
        {
          "distance": 0.4990229,
          "id": 1964107081
        },
        {
          "distance": 0.5337471,
          "id": 1931110363
        },
        {
          "distance": 0.5843384,
          "id": 1763496159
        },
        {
          "distance": 0.5861807,
          "id": 1763496161
        },
        {
          "distance": 0.601736,
          "id": 1779984505
        },
        {
          "distance": 0.601736,
          "id": 1779984507
        },
        {
          "distance": 0.62065345,
          "id": 1762898677
        },
        {
          "distance": 0.6370665,
          "id": 1763101837
        },
        {
          "distance": 0.6422556,
          "id": 1930466373
        }
      ]
    },
    "millsfield:subcategory_id": 1511213677,
    "mz:is_current": 1,
    "sfomuseum:filename": "112578.tif",
    "sfomuseum:image_id": 112578,
    "sfomuseum:image_index": 5,
    "sfomuseum:image_type": "studio",
    "sfomuseum:object_id": 130397,
    "sfomuseum:placetype": "image",
    "sfomuseum:primary_image": 1,
    "src:geom": "sfomuseum",
    "wof:belongsto": [
      102527513,
      1159162825,
      102191575,
      85633793,
      102087579,
      85922583,
      1964106561,
      85688637,
      1159160869
    ],
    "wof:country": "XY",
    "wof:created": 1742974621,
    "wof:depicts": [
      1159287541,
      1964106561,
      1159284613
    ],
    "wof:geomhash": "ed7c2ab3547fc3916b5edc33488deaa7",
    "wof:hierarchy": [
      {
        "building_id": -1,
        "campus_id": 102527513,
        "collection_id": 1159162825,
        "concourse_id": 1159162825,
        "continent_id": 102191575,
        "country_id": 85633793,
        "county_id": 102087579,
        "custom_id": 1964107087,
        "locality_id": 85922583,
        "neighbourhood_id": -1,
        "object_id": 1964106561,
        "region_id": 85688637,
        "wing_id": 1159160869
      }
    ],
    "wof:id": 1964107087,
    "wof:lastmodified": 1788452539,
    "wof:name": "matchbox: KLM (Royal Dutch Airlines)",
    "wof:parent_id": 1964106561,
    "wof:placetype": "custom",
    "wof:repo": "sfomuseum-data-media-collection",
    "wof:superseded_by": [],
    "wof:supersedes": []
  },
  "bbox": [
    -122.386472,
    37.616105,
    -122.385834,
    37.616611
  ],
  "geometry": {"type":"Polygon","coordinates":[[[-122.386472,37.616318],[-122.386435,37.616233],[-122.386376,37.616178],[-122.386301,37.616131],[-122.386161,37.616105],[-122.386022,37.616131],[-122.385914,37.616186],[-122.385855,37.616267],[-122.385834,37.616369],[-122.385871,37.616467],[-122.385941,37.616543],[-122.386054,37.616603],[-122.386183,37.616611],[-122.386306,37.616573],[-122.386419,37.616509],[-122.386467,37.616411],[-122.386472,37.616318]]]}
}
