{
  "id": 1846756357,
  "type": "Feature",
  "properties": {
    "date:cessation_lower": "1940-12-01",
    "date:cessation_upper": "1940-12-31",
    "date:inception_lower": "1940-09-01",
    "date:inception_upper": "1940-09-30",
    "edtf:cessation": "1940-12",
    "edtf:inception": "1940-09",
    "geom:area": 2.477324999997507e-7,
    "geom:bbox": "-122.386472,37.616105,-122.385834,37.616611",
    "geom:latitude": 37.61635756125121,
    "geom:longitude": -122.38615532866096,
    "media:fingerprint": "581d643c4ce00ae797d597204d67d9b688cce195",
    "media:imagehash_avg": "a:001e7e7e7e7e1e00",
    "media:imagehash_diff": "d:b4f4c8c8c8f8b2e1",
    "media:imagetext": "• • • New ultra-speed FLYING CLIPPERS\nfor Pan American World Airways have been\ndesigned to make the world your neighborhood.\nPOST CARD\nPLACE\nSTAMP\nHERE\nPRINTED IN U.S.A.\nFirst across the Pacific.\nFirst plane service across the North Atlantic.\nFirst throughout Latin America.\n50-",
    "media:imagetext_created": 1787967536,
    "media:imagetext_source": "com.apple.visionkit.VNImageRequestHandler#Version 26.6.2 (Build 25G83)",
    "media:mimetype": "image/jpeg",
    "media:properties": {
      "sizes": {
        "b": {
          "extension": "jpg",
          "height": 702,
          "mimetype": "image/jpeg",
          "secret": "SpRXNcj9VJgvnBkurlBhC0CH9WQ7NDBT",
          "width": 1023
        },
        "c": {
          "extension": "jpg",
          "height": 548,
          "mimetype": "image/jpeg",
          "secret": "SpRXNcj9VJgvnBkurlBhC0CH9WQ7NDBT",
          "width": 800
        },
        "dc": {
          "extension": "jpg",
          "height": 548,
          "mimetype": "image/jpeg",
          "secret": "SpRXNcj9VJgvnBkurlBhC0CH9WQ7NDBT",
          "width": 800
        },
        "ds": {
          "extension": "jpg",
          "height": 320,
          "mimetype": "image/jpeg",
          "secret": "SpRXNcj9VJgvnBkurlBhC0CH9WQ7NDBT",
          "width": 320
        },
        "k": {
          "extension": "jpg",
          "height": 1404,
          "mimetype": "image/jpeg",
          "secret": "SpRXNcj9VJgvnBkurlBhC0CH9WQ7NDBT",
          "width": 2047
        },
        "n": {
          "extension": "jpg",
          "height": 219,
          "mimetype": "image/jpeg",
          "secret": "SpRXNcj9VJgvnBkurlBhC0CH9WQ7NDBT",
          "width": 320
        },
        "o": {
          "extension": "jpg",
          "height": 1202,
          "mimetype": "image/jpeg",
          "secret": "28GMRiBNPeY3EmGXVeEdcGvG2tXG2i7z",
          "width": 1753
        },
        "s": {
          "extension": "jpg",
          "height": 320,
          "mimetype": "image/jpeg",
          "secret": "SpRXNcj9VJgvnBkurlBhC0CH9WQ7NDBT",
          "width": 320
        },
        "z": {
          "extension": "jpg",
          "height": 438,
          "mimetype": "image/jpeg",
          "secret": "SpRXNcj9VJgvnBkurlBhC0CH9WQ7NDBT",
          "width": 640
        }
      }
    },
    "media:source": "sfomuseum",
    "media:status_id": 1,
    "media:uri_template": "https://static.sfomuseum.org/media/184/675/635/7/1846756357_{secret}_{label}.{extension}",
    "millsfield:aircraft_id": [
      1813535299
    ],
    "millsfield:airline_id": [
      1159284991
    ],
    "millsfield:category_id": 1511214215,
    "millsfield:collection_id": 1511214207,
    "millsfield:company_id": [
      1159286839
    ],
    "millsfield:images_colors": [
      {
        "hex": "#cfceba",
        "name": "#cfceba",
        "reference": "marekm4"
      },
      {
        "hex": "#c0c0c0",
        "name": "silver",
        "reference": "css4"
      },
      {
        "hex": "#cdc5c2",
        "name": "Silver",
        "reference": "crayola"
      }
    ],
    "millsfield:images_texts": [
      "PREVIEW OF TOMORROW'S FLYING CLIPPERS: In-flight business conference\nPRA\n- PAK AMERICAN WORLD ALRWAYS\nThe System of the Flying Clippers",
      "• • • New ultra-speed FLYING CLIPPERS\nfor Pan American World Airways have been\ndesigned to make the world your neighborhood.\nPOST CARD\nPLACE\nSTAMP\nHERE\nPRINTED IN U.S.A.\nFirst across the Pacific.\nFirst plane service across the North Atlantic.\nFirst throughout Latin America.\n50-"
    ],
    "millsfield:images_texts_ids": [
      1846756355,
      1846756357
    ],
    "millsfield:similar": {
      "apple/mobileclip_s0": [
        {
          "distance": 0.2452133,
          "id": 1846756371
        },
        {
          "distance": 0.2504784,
          "id": 1846756389
        },
        {
          "distance": 0.26601443,
          "id": 1846756353
        },
        {
          "distance": 0.26629692,
          "id": 1846756345
        },
        {
          "distance": 0.2754842,
          "id": 1846756375
        },
        {
          "distance": 0.27976444,
          "id": 1846756385
        },
        {
          "distance": 0.28850773,
          "id": 1846756381
        },
        {
          "distance": 0.29287142,
          "id": 1846756393
        },
        {
          "distance": 0.32746682,
          "id": 1846756543
        },
        {
          "distance": 0.33685926,
          "id": 1846756057
        }
      ],
      "apple/mobileclip_s1": [
        {
          "distance": 0.16693313,
          "id": 1846756381
        },
        {
          "distance": 0.19026297,
          "id": 1846756345
        },
        {
          "distance": 0.19380547,
          "id": 1846756353
        },
        {
          "distance": 0.2109004,
          "id": 1846756375
        },
        {
          "distance": 0.21679646,
          "id": 1846756389
        },
        {
          "distance": 0.22322601,
          "id": 1846756393
        },
        {
          "distance": 0.22897919,
          "id": 1846756385
        },
        {
          "distance": 0.2362909,
          "id": 1846756371
        },
        {
          "distance": 0.25402385,
          "id": 1846756223
        },
        {
          "distance": 0.2617134,
          "id": 1846756579
        }
      ],
      "apple/mobileclip_s2": [
        {
          "distance": 0.36395985,
          "id": 1846756345
        },
        {
          "distance": 0.38341227,
          "id": 1846756219
        },
        {
          "distance": 0.38383207,
          "id": 1846756371
        },
        {
          "distance": 0.38723925,
          "id": 1846756223
        },
        {
          "distance": 0.39854896,
          "id": 1846756381
        },
        {
          "distance": 0.39946365,
          "id": 1846755487
        },
        {
          "distance": 0.4030611,
          "id": 1846756151
        },
        {
          "distance": 0.40546352,
          "id": 1846756389
        },
        {
          "distance": 0.40629092,
          "id": 1846756519
        },
        {
          "distance": 0.4160043,
          "id": 1846756543
        }
      ]
    },
    "millsfield:subcategory_id": 1511213363,
    "mz:is_current": 1,
    "sfomuseum:filename": "475b.jpg",
    "sfomuseum:image_id": 265741,
    "sfomuseum:image_index": 0,
    "sfomuseum:image_type": "studio",
    "sfomuseum:object_id": 233397,
    "sfomuseum:placetype": "image",
    "sfomuseum:primary_image": 0,
    "src:geom": "sfomuseum",
    "wof:belongsto": [
      102527513,
      1159162825,
      102191575,
      85633793,
      102087579,
      85922583,
      1846754305,
      85688637,
      1159160869
    ],
    "wof:country": "XY",
    "wof:created": 1680078818,
    "wof:depicts": [
      1846754305,
      1159284991,
      1159286839,
      1813535299
    ],
    "wof:geomhash": "ed7c2ab3547fc3916b5edc33488deaa7",
    "wof:hierarchy": [
      {
        "building_id": -1,
        "campus_id": 102527513,
        "collection_id": 1159162825,
        "concourse_id": 1159162825,
        "continent_id": 102191575,
        "country_id": 85633793,
        "county_id": 102087579,
        "custom_id": 1846756357,
        "image_id": 1846756357,
        "locality_id": 85922583,
        "neighbourhood_id": -1,
        "object_id": 1846754305,
        "region_id": 85688637,
        "wing_id": 1159160869
      }
    ],
    "wof:id": 1846756357,
    "wof:lastmodified": 1788451658,
    "wof:name": "postcard: Pan American World Airways, Convair Model 37",
    "wof:parent_id": 1846754305,
    "wof:placetype": "custom",
    "wof:placetype_alt": [
      "image"
    ],
    "wof:repo": "sfomuseum-data-media-collection",
    "wof:superseded_by": [],
    "wof:supersedes": []
  },
  "bbox": [
    -122.386472,
    37.616105,
    -122.385834,
    37.616611
  ],
  "geometry": {"type":"Polygon","coordinates":[[[-122.386472,37.616318],[-122.386435,37.616233],[-122.386376,37.616178],[-122.386301,37.616131],[-122.386161,37.616105],[-122.386022,37.616131],[-122.385914,37.616186],[-122.385855,37.616267],[-122.385834,37.616369],[-122.385871,37.616467],[-122.385941,37.616543],[-122.386054,37.616603],[-122.386183,37.616611],[-122.386306,37.616573],[-122.386419,37.616509],[-122.386467,37.616411],[-122.386472,37.616318]]]}
}
