{
  "id": 1779946127,
  "type": "Feature",
  "properties": {
    "date:cessation_lower": "1970-01-01",
    "date:cessation_upper": "1979-12-31",
    "date:inception_lower": "1970-01-01",
    "date:inception_upper": "1979-12-31",
    "edtf:cessation": "197X",
    "edtf:inception": "197X",
    "geom:area": 2.477324999997507e-7,
    "geom:bbox": "-122.386472,37.616105,-122.385834,37.616611",
    "geom:latitude": 37.61635756125121,
    "geom:longitude": -122.38615532866096,
    "media:fingerprint": "002eed7777936502ff37e642309f2e9bc051e792",
    "media:imagehash_avg": "a:ffff7b73263c0000",
    "media:imagehash_diff": "d:f0f0f2e6ccc8f0f0",
    "media:imagetext": "catch us!PSA",
    "media:imagetext_created": 1787965342,
    "media:imagetext_source": "com.apple.visionkit.VNImageRequestHandler#Version 26.6.2 (Build 25G83)",
    "media:mimetype": "image/tiff",
    "media:properties": {
      "sizes": {
        "b": {
          "extension": "jpg",
          "height": 768,
          "mimetype": "image/jpeg",
          "secret": "ahGeZPlN65l96FqOVKyv0QYWFa5zPGcO",
          "width": 965
        },
        "c": {
          "extension": "jpg",
          "height": 600,
          "mimetype": "image/jpeg",
          "secret": "ahGeZPlN65l96FqOVKyv0QYWFa5zPGcO",
          "width": 753
        },
        "dc": {
          "extension": "jpg",
          "height": 600,
          "mimetype": "image/jpeg",
          "secret": "ahGeZPlN65l96FqOVKyv0QYWFa5zPGcO",
          "width": 753
        },
        "ds": {
          "extension": "jpg",
          "height": 320,
          "mimetype": "image/jpeg",
          "secret": "ahGeZPlN65l96FqOVKyv0QYWFa5zPGcO",
          "width": 320
        },
        "k": {
          "extension": "jpg",
          "height": 1536,
          "mimetype": "image/jpeg",
          "secret": "ahGeZPlN65l96FqOVKyv0QYWFa5zPGcO",
          "width": 1930
        },
        "n": {
          "extension": "jpg",
          "height": 240,
          "mimetype": "image/jpeg",
          "secret": "ahGeZPlN65l96FqOVKyv0QYWFa5zPGcO",
          "width": 301
        },
        "o": {
          "extension": "jpg",
          "height": 1668,
          "mimetype": "image/jpeg",
          "secret": "iEdUT0ldz3lqoN3GzrGi2jCjFdIFacxO",
          "width": 2096
        },
        "s": {
          "extension": "jpg",
          "height": 320,
          "mimetype": "image/jpeg",
          "secret": "ahGeZPlN65l96FqOVKyv0QYWFa5zPGcO",
          "width": 320
        },
        "z": {
          "extension": "jpg",
          "height": 480,
          "mimetype": "image/jpeg",
          "secret": "ahGeZPlN65l96FqOVKyv0QYWFa5zPGcO",
          "width": 603
        }
      }
    },
    "media:source": "sfomuseum",
    "media:status_id": 1,
    "media:uri_template": "https://static.sfomuseum.org/media/177/994/612/7/1779946127_{secret}_{label}.{extension}",
    "millsfield:airline_id": [
      1159284973
    ],
    "millsfield:category_id": 1746152533,
    "millsfield:collection_id": 1511214203,
    "millsfield:company_id": [
      1159286629
    ],
    "millsfield:images_colors": [
      {
        "hex": "#afaaa9",
        "name": "#afaaa9",
        "reference": "marekm4"
      },
      {
        "hex": "#a9a9a9",
        "name": "darkgrey",
        "reference": "css4"
      },
      {
        "hex": "#979aaa",
        "name": "Manatee",
        "reference": "crayola"
      },
      {
        "hex": "#ab252c",
        "name": "#ab252c",
        "reference": "marekm4"
      },
      {
        "hex": "#a52a2a",
        "name": "brown",
        "reference": "css4"
      },
      {
        "hex": "#9c2542",
        "name": "Big Dip O' Ruby",
        "reference": "crayola"
      }
    ],
    "millsfield:images_texts": [
      "catch us!PSA"
    ],
    "millsfield:images_texts_ids": [
      1779946127
    ],
    "millsfield:similar": {
      "apple/mobileclip_s0": [
        {
          "distance": 0.30648255,
          "id": 1779946129
        },
        {
          "distance": 0.30923125,
          "id": 1779937237
        },
        {
          "distance": 0.33596694,
          "id": 1779946131
        },
        {
          "distance": 0.54060775,
          "id": 1779946133
        },
        {
          "distance": 0.5862964,
          "id": 1779946135
        },
        {
          "distance": 0.6068361,
          "id": 1779946313
        },
        {
          "distance": 0.6236508,
          "id": 1779937259
        },
        {
          "distance": 0.63355464,
          "id": 1779946205
        },
        {
          "distance": 0.6446901,
          "id": 1763441593
        },
        {
          "distance": 0.6451812,
          "id": 1779744617
        }
      ],
      "apple/mobileclip_s1": [
        {
          "distance": 0.18136816,
          "id": 1779937237
        },
        {
          "distance": 0.19305612,
          "id": 1779946131
        },
        {
          "distance": 0.220668,
          "id": 1779946129
        },
        {
          "distance": 0.3696387,
          "id": 1779946135
        },
        {
          "distance": 0.3779329,
          "id": 1779946133
        },
        {
          "distance": 0.4016249,
          "id": 1779937259
        },
        {
          "distance": 0.45270878,
          "id": 1779946111
        },
        {
          "distance": 0.45292017,
          "id": 1779946205
        },
        {
          "distance": 0.45718512,
          "id": 1779946097
        },
        {
          "distance": 0.46113077,
          "id": 1779937239
        }
      ],
      "apple/mobileclip_s2": [
        {
          "distance": 0.31770748,
          "id": 1779937237
        },
        {
          "distance": 0.31785035,
          "id": 1779946129
        },
        {
          "distance": 0.37156886,
          "id": 1779946131
        },
        {
          "distance": 0.5357398,
          "id": 1779946133
        },
        {
          "distance": 0.5574431,
          "id": 1779937259
        },
        {
          "distance": 0.565289,
          "id": 1779946135
        },
        {
          "distance": 0.6682102,
          "id": 1779946205
        },
        {
          "distance": 0.6779773,
          "id": 1780288309
        },
        {
          "distance": 0.68781716,
          "id": 1780288473
        },
        {
          "distance": 0.6886404,
          "id": 1779946239
        }
      ]
    },
    "millsfield:subcategory_id": 1511213837,
    "mz:is_current": 1,
    "sfomuseum:filename": "106064.tif",
    "sfomuseum:image_id": 106064,
    "sfomuseum:image_index": 5,
    "sfomuseum:image_type": "studio",
    "sfomuseum:object_id": 121748,
    "sfomuseum:placetype": "image",
    "sfomuseum:primary_image": 1,
    "src:geom": "sfomuseum",
    "wof:belongsto": [
      102527513,
      1159162825,
      102191575,
      85633793,
      102087579,
      85922583,
      1779945521,
      85688637,
      1159160869
    ],
    "wof:country": "XY",
    "wof:created": 1658562830,
    "wof:depicts": [
      1159284973,
      1159286629,
      1779945521
    ],
    "wof:geomhash": "ed7c2ab3547fc3916b5edc33488deaa7",
    "wof:hierarchy": [
      {
        "building_id": -1,
        "campus_id": 102527513,
        "collection_id": 1159162825,
        "concourse_id": 1159162825,
        "continent_id": 102191575,
        "country_id": 85633793,
        "county_id": 102087579,
        "custom_id": 1779946127,
        "image_id": 1779946127,
        "locality_id": 85922583,
        "neighbourhood_id": -1,
        "object_id": 1779945521,
        "region_id": 85688637,
        "wing_id": 1159160869
      }
    ],
    "wof:id": 1779946127,
    "wof:lastmodified": 1788451403,
    "wof:name": "cocktail pick: Pacific Southwest Airlines (PSA)",
    "wof:parent_id": 1779945521,
    "wof:placetype": "custom",
    "wof:placetype_alt": [
      "image"
    ],
    "wof:repo": "sfomuseum-data-media-collection",
    "wof:superseded_by": [],
    "wof:supersedes": []
  },
  "bbox": [
    -122.386472,
    37.616105,
    -122.385834,
    37.616611
  ],
  "geometry": {"type":"Polygon","coordinates":[[[-122.386472,37.616318],[-122.386435,37.616233],[-122.386376,37.616178],[-122.386301,37.616131],[-122.386161,37.616105],[-122.386022,37.616131],[-122.385914,37.616186],[-122.385855,37.616267],[-122.385834,37.616369],[-122.385871,37.616467],[-122.385941,37.616543],[-122.386054,37.616603],[-122.386183,37.616611],[-122.386306,37.616573],[-122.386419,37.616509],[-122.386467,37.616411],[-122.386472,37.616318]]]}
}
