{
  "id": 1527821173,
  "type": "Feature",
  "properties": {
    "date:cessation_lower": "1927-01-01",
    "date:cessation_upper": "1927-12-31",
    "date:inception_lower": "1927-01-01",
    "date:inception_upper": "1927-12-31",
    "edtf:cessation": "1927",
    "edtf:date": "1927",
    "edtf:inception": "1927",
    "geom:area": 0,
    "geom:bbox": "-122.386155,37.616358,-122.386155,37.616358",
    "geom:latitude": 37.616358,
    "geom:longitude": -122.386155,
    "iso:country": "US",
    "media:fingerprint": "b7a0be939c7ad28af4f01b0ed826d9a63740303b",
    "media:imagehash_avg": "a:fefc38f8fc3c3c00",
    "media:imagehash_diff": "d:e0c0f171a0e8f0f1",
    "media:imagetext": "AZZS\n54.27\nMUNICIPAL AIRDORT E ELEV ADMISTRATION BUILDING",
    "media:imagetext_created": 1787948008,
    "media:imagetext_source": "com.apple.visionkit.VNImageRequestHandler#Version 26.6.2 (Build 25G83)",
    "media:medium": "image",
    "media:mimetype": "image/tiff",
    "media:properties": {
      "sizes": {
        "b": {
          "extension": "jpg",
          "height": 736,
          "mimetype": "image/jpeg",
          "secret": "gz237jLDMhuWVMnsOa5OtQIG8Z3lXspC",
          "width": 1024
        },
        "c": {
          "extension": "jpg",
          "height": 575,
          "mimetype": "image/jpeg",
          "secret": "gz237jLDMhuWVMnsOa5OtQIG8Z3lXspC",
          "width": 800
        },
        "dc": {
          "extension": "jpg",
          "height": 575,
          "mimetype": "image/jpeg",
          "secret": "gz237jLDMhuWVMnsOa5OtQIG8Z3lXspC",
          "width": 800
        },
        "ds": {
          "extension": "jpg",
          "height": 320,
          "mimetype": "image/jpeg",
          "secret": "gz237jLDMhuWVMnsOa5OtQIG8Z3lXspC",
          "width": 320
        },
        "k": {
          "extension": "jpg",
          "height": 1472,
          "mimetype": "image/jpeg",
          "secret": "gz237jLDMhuWVMnsOa5OtQIG8Z3lXspC",
          "width": 2048
        },
        "n": {
          "extension": "jpg",
          "height": 230,
          "mimetype": "image/jpeg",
          "secret": "gz237jLDMhuWVMnsOa5OtQIG8Z3lXspC",
          "width": 320
        },
        "o": {
          "extension": "jpg",
          "height": 5676,
          "mimetype": "image/jpeg",
          "secret": "NuZxREt6rEwktJcvTuwG0mlwCPRn516z",
          "width": 7892
        },
        "s": {
          "extension": "jpg",
          "height": 320,
          "mimetype": "image/jpeg",
          "secret": "gz237jLDMhuWVMnsOa5OtQIG8Z3lXspC",
          "width": 320
        },
        "z": {
          "extension": "jpg",
          "height": 460,
          "mimetype": "image/jpeg",
          "secret": "gz237jLDMhuWVMnsOa5OtQIG8Z3lXspC",
          "width": 640
        }
      }
    },
    "media:source": "sfomuseum",
    "media:status_id": 1,
    "media:uri_template": "https://static.sfomuseum.org/media/152/782/117/3/1527821173_{secret}_{label}.{extension}",
    "millsfield:airport_id": [
      102527513,
      1360695653
    ],
    "millsfield:category_id": 1511214209,
    "millsfield:collection_id": 1511214207,
    "millsfield:images_colors": [
      {
        "hex": "#b6b6b6",
        "name": "#b6b6b6",
        "reference": "marekm4"
      },
      {
        "hex": "#c0c0c0",
        "name": "silver",
        "reference": "css4"
      },
      {
        "hex": "#b0b7c6",
        "name": "Cadet Blue",
        "reference": "crayola"
      },
      {
        "hex": "#4e4e4e",
        "name": "#4e4e4e",
        "reference": "marekm4"
      },
      {
        "hex": "#2f4f4f",
        "name": "darkslategrey",
        "reference": "css4"
      },
      {
        "hex": "#414a4c",
        "name": "Outer Space",
        "reference": "crayola"
      }
    ],
    "millsfield:images_texts": [
      "AZZS\n54.27\nMUNICIPAL AIRDORT E ELEV ADMISTRATION BUILDING"
    ],
    "millsfield:images_texts_ids": [
      1527821173
    ],
    "millsfield:similar": {
      "apple/mobileclip_s0": [
        {
          "distance": 0.52126837,
          "id": 1762890839
        },
        {
          "distance": 0.5515393,
          "id": 1527821239
        },
        {
          "distance": 0.5603314,
          "id": 1527821369
        },
        {
          "distance": 0.5617753,
          "id": 1527821229
        },
        {
          "distance": 0.56624717,
          "id": 1527821441
        },
        {
          "distance": 0.57171947,
          "id": 1813193043
        },
        {
          "distance": 0.57899976,
          "id": 1527824093
        },
        {
          "distance": 0.58178896,
          "id": 1527821259
        },
        {
          "distance": 0.5900106,
          "id": 1527824877
        },
        {
          "distance": 0.5918668,
          "id": 1762890947
        }
      ],
      "apple/mobileclip_s1": [
        {
          "distance": 0.38783172,
          "id": 1527821239
        },
        {
          "distance": 0.40392938,
          "id": 1527821229
        },
        {
          "distance": 0.4242944,
          "id": 1527821441
        },
        {
          "distance": 0.44412866,
          "id": 1527821259
        },
        {
          "distance": 0.45760652,
          "id": 1762890839
        },
        {
          "distance": 0.47070926,
          "id": 2014998089
        },
        {
          "distance": 0.4798778,
          "id": 1762891139
        },
        {
          "distance": 0.48389888,
          "id": 1527825413
        },
        {
          "distance": 0.48584238,
          "id": 1527821369
        },
        {
          "distance": 0.4893068,
          "id": 2015275931
        }
      ],
      "apple/mobileclip_s2": [
        {
          "distance": 0.5513547,
          "id": 1527821369
        },
        {
          "distance": 0.57803565,
          "id": 1527821229
        },
        {
          "distance": 0.59959555,
          "id": 1527821441
        },
        {
          "distance": 0.6053786,
          "id": 1527821239
        },
        {
          "distance": 0.6273544,
          "id": 1527819153
        },
        {
          "distance": 0.6357057,
          "id": 1762891117
        },
        {
          "distance": 0.6439661,
          "id": 1527821259
        },
        {
          "distance": 0.6597097,
          "id": 1762710835
        },
        {
          "distance": 0.661259,
          "id": 1527824093
        },
        {
          "distance": 0.6707621,
          "id": 1762890839
        }
      ]
    },
    "millsfield:subcategory_id": 1511213801,
    "mz:hierarchy_label": 1,
    "mz:is_current": -1,
    "sfomuseum:filename": "38605.tif",
    "sfomuseum:image_id": 38605,
    "sfomuseum:image_index": 5,
    "sfomuseum:image_type": "studio",
    "sfomuseum:object_id": 117540,
    "sfomuseum:placetype": "image",
    "sfomuseum:primary_image": 1,
    "src:geom": "sfomuseum",
    "wof:belongsto": [
      1511214209,
      1511949683,
      102527513,
      102191575,
      85633793,
      1511213801,
      85922583,
      102087579,
      1511214277,
      1511214203,
      85688637
    ],
    "wof:breaches": [],
    "wof:country": "US",
    "wof:created": 1578949531,
    "wof:depicts": [
      1360695653,
      1511949683,
      102527513
    ],
    "wof:geomhash": "bd906905ce4be6c0651c90b0fc24804c",
    "wof:hierarchy": [
      {
        "arcade_id": 1511213801,
        "building_id": 1511214277,
        "campus_id": 102527513,
        "concourse_id": 1511214209,
        "continent_id": 102191575,
        "country_id": 85633793,
        "county_id": 102087579,
        "custom_id": 1527821173,
        "image_id": 1527821173,
        "locality_id": 85922583,
        "media_id": 1527821173,
        "neighbourhood_id": -1,
        "region_id": 85688637,
        "venue_id": 1511949683,
        "wing_id": 1511214203
      }
    ],
    "wof:id": 1527821173,
    "wof:lastmodified": 1788449743,
    "wof:name": "negative: Mills Field Municipal Airport of San Francisco, Administration Building",
    "wof:parent_id": 1511949683,
    "wof:placetype": "custom",
    "wof:placetype_alt": [
      "image"
    ],
    "wof:repo": "sfomuseum-data-media-collection",
    "wof:superseded_by": [],
    "wof:supersedes": [],
    "wof:tags": []
  },
  "bbox": [
    -122.386155,
    37.616358,
    -122.386155,
    37.616358
  ],
  "geometry": {"type":"Point","coordinates":[-122.386155,37.616358]}
}
