{
  "id": 1762698641,
  "type": "Feature",
  "properties": {
    "date:cessation_lower": "1976-01-01",
    "date:cessation_upper": "1976-12-31",
    "date:inception_lower": "1976-01-01",
    "date:inception_upper": "1976-12-31",
    "edtf:cessation": "1976",
    "edtf:inception": "1976",
    "geom:area": 2.477324999997507e-7,
    "geom:bbox": "-122.386472,37.616105,-122.385834,37.616611",
    "geom:latitude": 37.61635756125121,
    "geom:longitude": -122.38615532866096,
    "media:fingerprint": "67a492f45e25903a01077c40bef81074cdeb6cd0",
    "media:imagehash_avg": "a:ff81818181870fff",
    "media:imagehash_diff": "d:63270f0f773f7fcf",
    "media:imagetext": "AIR\nCALIFORNIA\nFLIGHT SCHEDULE\nEffective November 1, 1976\nNow, more Bay Area service for an easier\nway to go...\nTo Palm Springs, daily from San Francisco,\nOakland and San Jose.\nTo Ontario, increased flights from Oakland\nand San Jose.\nTo San Diego, same-day round trips nonstop\nfrom San Jose.\nServing San Diego, Orange County,\nPalm Springs, Ontario, Sacramento,\nSan Francisco, Oakland, San Jose\nand Lake Tahoe.",
    "media:imagetext_created": 1787955736,
    "media:imagetext_source": "com.apple.visionkit.VNImageRequestHandler#Version 26.6.2 (Build 25G83)",
    "media:mimetype": "image/tiff",
    "media:properties": {
      "sizes": {
        "b": {
          "extension": "jpg",
          "height": 768,
          "mimetype": "image/jpeg",
          "secret": "iEVUnD853gkLdjnmWEZj74bt7I5wfgl8",
          "width": 334
        },
        "c": {
          "extension": "jpg",
          "height": 600,
          "mimetype": "image/jpeg",
          "secret": "iEVUnD853gkLdjnmWEZj74bt7I5wfgl8",
          "width": 261
        },
        "dc": {
          "extension": "jpg",
          "height": 600,
          "mimetype": "image/jpeg",
          "secret": "iEVUnD853gkLdjnmWEZj74bt7I5wfgl8",
          "width": 261
        },
        "ds": {
          "extension": "jpg",
          "height": 320,
          "mimetype": "image/jpeg",
          "secret": "iEVUnD853gkLdjnmWEZj74bt7I5wfgl8",
          "width": 320
        },
        "k": {
          "extension": "jpg",
          "height": 1536,
          "mimetype": "image/jpeg",
          "secret": "iEVUnD853gkLdjnmWEZj74bt7I5wfgl8",
          "width": 668
        },
        "n": {
          "extension": "jpg",
          "height": 240,
          "mimetype": "image/jpeg",
          "secret": "iEVUnD853gkLdjnmWEZj74bt7I5wfgl8",
          "width": 104
        },
        "o": {
          "extension": "jpg",
          "height": 2719,
          "mimetype": "image/jpeg",
          "secret": "BObLaqMx2Z92sQxOUEqM3pHGReC2p2Wx",
          "width": 1184
        },
        "s": {
          "extension": "jpg",
          "height": 320,
          "mimetype": "image/jpeg",
          "secret": "iEVUnD853gkLdjnmWEZj74bt7I5wfgl8",
          "width": 320
        },
        "z": {
          "extension": "jpg",
          "height": 480,
          "mimetype": "image/jpeg",
          "secret": "iEVUnD853gkLdjnmWEZj74bt7I5wfgl8",
          "width": 209
        }
      }
    },
    "media:source": "sfomuseum",
    "media:status_id": 1,
    "media:uri_template": "https://static.sfomuseum.org/media/176/269/864/1/1762698641_{secret}_{label}.{extension}",
    "millsfield:airline_id": [
      1159283793
    ],
    "millsfield:category_id": 1511214223,
    "millsfield:collection_id": 1511214207,
    "millsfield:company_id": [
      1159286809
    ],
    "millsfield:images_colors": [
      {
        "hex": "#db4500",
        "name": "#db4500",
        "reference": "marekm4"
      },
      {
        "hex": "#ff4500",
        "name": "orangered",
        "reference": "css4"
      },
      {
        "hex": "#c46210",
        "name": "Alloy Orange",
        "reference": "crayola"
      },
      {
        "hex": "#ebe1d2",
        "name": "#ebe1d2",
        "reference": "marekm4"
      },
      {
        "hex": "#dcdcdc",
        "name": "gainsboro",
        "reference": "css4"
      },
      {
        "hex": "#efdecd",
        "name": "Almond",
        "reference": "crayola"
      },
      {
        "hex": "#0f0906",
        "name": "#0f0906",
        "reference": "marekm4"
      },
      {
        "hex": "#000000",
        "name": "black",
        "reference": "css4"
      },
      {
        "hex": "#000000",
        "name": "Black",
        "reference": "crayola"
      }
    ],
    "millsfield:images_texts": [
      "AIR\nCALIFORNIA\nFLIGHT SCHEDULE\nEffective November 1, 1976\nNow, more Bay Area service for an easier\nway to go...\nTo Palm Springs, daily from San Francisco,\nOakland and San Jose.\nTo Ontario, increased flights from Oakland\nand San Jose.\nTo San Diego, same-day round trips nonstop\nfrom San Jose.\nServing San Diego, Orange County,\nPalm Springs, Ontario, Sacramento,\nSan Francisco, Oakland, San Jose\nand Lake Tahoe."
    ],
    "millsfield:images_texts_ids": [
      1762698641
    ],
    "millsfield:similar": {
      "apple/mobileclip_s0": [
        {
          "distance": 0.27125153,
          "id": 1527832279
        },
        {
          "distance": 0.37038267,
          "id": 1527832281
        },
        {
          "distance": 0.39466825,
          "id": 1762698643
        },
        {
          "distance": 0.5786482,
          "id": 1762698651
        },
        {
          "distance": 0.5881596,
          "id": 1527832277
        },
        {
          "distance": 0.5882613,
          "id": 1527832329
        },
        {
          "distance": 0.59269494,
          "id": 1527832275
        },
        {
          "distance": 0.60765785,
          "id": 1762696915
        },
        {
          "distance": 0.6176498,
          "id": 1762700223
        },
        {
          "distance": 0.62270856,
          "id": 1762698639
        }
      ],
      "apple/mobileclip_s1": [
        {
          "distance": 0.2242883,
          "id": 1527832279
        },
        {
          "distance": 0.28274187,
          "id": 1762698643
        },
        {
          "distance": 0.30022034,
          "id": 1527832281
        },
        {
          "distance": 0.39052448,
          "id": 1527832275
        },
        {
          "distance": 0.433085,
          "id": 1762698639
        },
        {
          "distance": 0.44159347,
          "id": 1527832273
        },
        {
          "distance": 0.44848692,
          "id": 1527832331
        },
        {
          "distance": 0.45820954,
          "id": 1527832329
        },
        {
          "distance": 0.46097556,
          "id": 1527832277
        },
        {
          "distance": 0.46219203,
          "id": 1527832333
        }
      ],
      "apple/mobileclip_s2": [
        {
          "distance": 0.30042753,
          "id": 1527832279
        },
        {
          "distance": 0.35593316,
          "id": 1762698643
        },
        {
          "distance": 0.41461116,
          "id": 1527832281
        },
        {
          "distance": 0.531953,
          "id": 1527832275
        },
        {
          "distance": 0.5444441,
          "id": 1527832329
        },
        {
          "distance": 0.5820393,
          "id": 1762698639
        },
        {
          "distance": 0.58351165,
          "id": 1762696915
        },
        {
          "distance": 0.59201545,
          "id": 1527832273
        },
        {
          "distance": 0.5983932,
          "id": 1527832331
        },
        {
          "distance": 0.60429525,
          "id": 1762698651
        }
      ]
    },
    "millsfield:subcategory_id": 1511213425,
    "mz:is_current": 1,
    "sfomuseum:filename": "2014.084.0052_ft.tif",
    "sfomuseum:image_id": 102217,
    "sfomuseum:image_index": 5,
    "sfomuseum:image_type": "studio",
    "sfomuseum:object_id": 156478,
    "sfomuseum:placetype": "image",
    "sfomuseum:primary_image": 1,
    "src:geom": "sfomuseum",
    "wof:belongsto": [
      102527513,
      1159162825,
      102191575,
      85633793,
      102087579,
      85922583,
      1762690099,
      85688637,
      1159160869
    ],
    "wof:country": "XY",
    "wof:created": 1641345799,
    "wof:depicts": [
      1762690099,
      1159283793,
      1159286809
    ],
    "wof:geomhash": "ed7c2ab3547fc3916b5edc33488deaa7",
    "wof:hierarchy": [
      {
        "building_id": -1,
        "campus_id": 102527513,
        "collection_id": 1159162825,
        "concourse_id": 1159162825,
        "continent_id": 102191575,
        "country_id": 85633793,
        "county_id": 102087579,
        "custom_id": 1762698641,
        "image_id": 1762698641,
        "locality_id": 85922583,
        "neighbourhood_id": -1,
        "object_id": 1762690099,
        "region_id": 85688637,
        "wing_id": 1159160869
      }
    ],
    "wof:id": 1762698641,
    "wof:lastmodified": 1788450422,
    "wof:name": "timetable: Air California",
    "wof:parent_id": 1762690099,
    "wof:placetype": "custom",
    "wof:placetype_alt": [
      "image"
    ],
    "wof:repo": "sfomuseum-data-media-collection",
    "wof:superseded_by": [],
    "wof:supersedes": []
  },
  "bbox": [
    -122.386472,
    37.616105,
    -122.385834,
    37.616611
  ],
  "geometry": {"type":"Polygon","coordinates":[[[-122.386472,37.616318],[-122.386435,37.616233],[-122.386376,37.616178],[-122.386301,37.616131],[-122.386161,37.616105],[-122.386022,37.616131],[-122.385914,37.616186],[-122.385855,37.616267],[-122.385834,37.616369],[-122.385871,37.616467],[-122.385941,37.616543],[-122.386054,37.616603],[-122.386183,37.616611],[-122.386306,37.616573],[-122.386419,37.616509],[-122.386467,37.616411],[-122.386472,37.616318]]]}
}
