{
  "id": 1813534293,
  "type": "Feature",
  "properties": {
    "date:cessation_lower": "2017-01-01",
    "date:cessation_upper": "2017-12-31",
    "date:inception_lower": "2017-01-01",
    "date:inception_upper": "2017-12-31",
    "edtf:cessation": "2017~",
    "edtf:inception": "2017~",
    "geom:area": 2.477324999997507e-7,
    "geom:bbox": "-122.386472,37.616105,-122.385834,37.616611",
    "geom:latitude": 37.61635756125121,
    "geom:longitude": -122.38615532866096,
    "media:fingerprint": "9ff624542a1f2d6b1d0e436ae0bdefdec4b0b2c5",
    "media:imagehash_avg": "a:ff838181818181ff",
    "media:imagehash_diff": "d:6307333333333f6f",
    "media:imagetext": "2D18•047.071\n• Wall displayi\nVirg America",
    "media:imagetext_created": 1787967284,
    "media:imagetext_source": "com.apple.visionkit.VNImageRequestHandler#Version 26.6.2 (Build 25G83)",
    "media:mimetype": "image/jpeg",
    "media:properties": {
      "sizes": {
        "b": {
          "extension": "jpg",
          "height": 767,
          "mimetype": "image/jpeg",
          "secret": "ezr1akImN6e234WUYISusbcu4auCnpyw",
          "width": 803
        },
        "c": {
          "extension": "jpg",
          "height": 600,
          "mimetype": "image/jpeg",
          "secret": "ezr1akImN6e234WUYISusbcu4auCnpyw",
          "width": 627
        },
        "dc": {
          "extension": "jpg",
          "height": 600,
          "mimetype": "image/jpeg",
          "secret": "ezr1akImN6e234WUYISusbcu4auCnpyw",
          "width": 627
        },
        "ds": {
          "extension": "jpg",
          "height": 320,
          "mimetype": "image/jpeg",
          "secret": "ezr1akImN6e234WUYISusbcu4auCnpyw",
          "width": 320
        },
        "k": {
          "extension": "jpg",
          "height": 1535,
          "mimetype": "image/jpeg",
          "secret": "ezr1akImN6e234WUYISusbcu4auCnpyw",
          "width": 1606
        },
        "n": {
          "extension": "jpg",
          "height": 240,
          "mimetype": "image/jpeg",
          "secret": "ezr1akImN6e234WUYISusbcu4auCnpyw",
          "width": 250
        },
        "o": {
          "extension": "jpg",
          "height": 2427,
          "mimetype": "image/jpeg",
          "secret": "o1wIw0NcTOTYLIaZsk39UIAiQrtgAolh",
          "width": 2538
        },
        "s": {
          "extension": "jpg",
          "height": 320,
          "mimetype": "image/jpeg",
          "secret": "ezr1akImN6e234WUYISusbcu4auCnpyw",
          "width": 320
        },
        "z": {
          "extension": "jpg",
          "height": 480,
          "mimetype": "image/jpeg",
          "secret": "ezr1akImN6e234WUYISusbcu4auCnpyw",
          "width": 501
        }
      }
    },
    "media:source": "sfomuseum",
    "media:status_id": 1,
    "media:uri_template": "https://static.sfomuseum.org/media/181/353/429/3/1813534293_{secret}_{label}.{extension}",
    "millsfield:airline_id": [
      1159285481
    ],
    "millsfield:category_id": 1511214249,
    "millsfield:collection_id": 1511214203,
    "millsfield:company_id": [
      1159288091
    ],
    "millsfield:exhibition_ids": [
      1896874709
    ],
    "millsfield:images_colors": [
      {
        "hex": "#d7d1be",
        "name": "#d7d1be",
        "reference": "marekm4"
      },
      {
        "hex": "#d3d3d3",
        "name": "lightgrey",
        "reference": "css4"
      },
      {
        "hex": "#cdc5c2",
        "name": "Silver",
        "reference": "crayola"
      },
      {
        "hex": "#153476",
        "name": "#153476",
        "reference": "marekm4"
      },
      {
        "hex": "#191970",
        "name": "midnightblue",
        "reference": "css4"
      },
      {
        "hex": "#1a4876",
        "name": "Midnight Blue",
        "reference": "crayola"
      },
      {
        "hex": "#1e3e82",
        "name": "#1e3e82",
        "reference": "marekm4"
      }
    ],
    "millsfield:images_texts": [
      "2012 047.071\n• Will display"
    ],
    "millsfield:images_texts_ids": [
      1813534293
    ],
    "millsfield:on_view": 1,
    "millsfield:similar": {
      "apple/mobileclip_s0": [
        {
          "distance": 0.25695908,
          "id": 1897367155
        },
        {
          "distance": 0.7263817,
          "id": 1527838971
        },
        {
          "distance": 0.74482936,
          "id": 1527842481
        },
        {
          "distance": 0.75365126,
          "id": 1897771481
        },
        {
          "distance": 0.7540393,
          "id": 1881093425
        },
        {
          "distance": 0.7559374,
          "id": 1964115907
        },
        {
          "distance": 0.762257,
          "id": 1763380375
        },
        {
          "distance": 0.7623063,
          "id": 1763456239
        },
        {
          "distance": 0.76273805,
          "id": 1527821737
        },
        {
          "distance": 0.7630329,
          "id": 1763504053
        }
      ],
      "apple/mobileclip_s1": [
        {
          "distance": 0.22887172,
          "id": 1897367155
        },
        {
          "distance": 0.52234304,
          "id": 2048167471
        },
        {
          "distance": 0.5259004,
          "id": 2048167649
        },
        {
          "distance": 0.5308103,
          "id": 2014778319
        },
        {
          "distance": 0.53318155,
          "id": 2014778309
        },
        {
          "distance": 0.53416944,
          "id": 2048167639
        },
        {
          "distance": 0.53516555,
          "id": 1763456239
        },
        {
          "distance": 0.53697985,
          "id": 1763379739
        },
        {
          "distance": 0.5375151,
          "id": 2048167209
        },
        {
          "distance": 0.53762764,
          "id": 2048176401
        }
      ],
      "apple/mobileclip_s2": [
        {
          "distance": 0.33247542,
          "id": 1897367155
        },
        {
          "distance": 0.8210966,
          "id": 1881093359
        },
        {
          "distance": 0.8329165,
          "id": 2048167471
        },
        {
          "distance": 0.8334008,
          "id": 2048167641
        },
        {
          "distance": 0.83356726,
          "id": 2048176401
        },
        {
          "distance": 0.83782524,
          "id": 1813534305
        },
        {
          "distance": 0.8383958,
          "id": 2048167649
        },
        {
          "distance": 0.8443583,
          "id": 2048167639
        },
        {
          "distance": 0.8469273,
          "id": 2048167087
        },
        {
          "distance": 0.8513583,
          "id": 2048167643
        }
      ]
    },
    "millsfield:subcategory_id": 1511213513,
    "mz:is_current": 1,
    "sfomuseum:filename": "IMG_3428.JPG",
    "sfomuseum:image_id": 197514,
    "sfomuseum:image_index": 1,
    "sfomuseum:image_type": "curator",
    "sfomuseum:object_id": 197071,
    "sfomuseum:placetype": "image",
    "sfomuseum:primary_image": 1,
    "src:geom": "sfomuseum",
    "wof:belongsto": [
      102527513,
      1159162825,
      102191575,
      85633793,
      102087579,
      85922583,
      1813534181,
      85688637,
      1159160869
    ],
    "wof:country": "XY",
    "wof:created": 1678477786,
    "wof:depicts": [
      1159285481,
      1159288091,
      1813534181
    ],
    "wof:geomhash": "ed7c2ab3547fc3916b5edc33488deaa7",
    "wof:hierarchy": [
      {
        "building_id": -1,
        "campus_id": 102527513,
        "collection_id": 1159162825,
        "concourse_id": 1159162825,
        "continent_id": 102191575,
        "country_id": 85633793,
        "county_id": 102087579,
        "custom_id": 1813534293,
        "image_id": 1813534293,
        "locality_id": 85922583,
        "neighbourhood_id": -1,
        "object_id": 1813534181,
        "region_id": 85688637,
        "wing_id": 1159160869
      }
    ],
    "wof:id": 1813534293,
    "wof:lastmodified": 1788451608,
    "wof:name": "wall display: Virgin America",
    "wof:parent_id": 1813534181,
    "wof:placetype": "custom",
    "wof:placetype_alt": [
      "image"
    ],
    "wof:repo": "sfomuseum-data-media-collection",
    "wof:superseded_by": [],
    "wof:supersedes": []
  },
  "bbox": [
    -122.386472,
    37.616105,
    -122.385834,
    37.616611
  ],
  "geometry": {"type":"Polygon","coordinates":[[[-122.386472,37.616318],[-122.386435,37.616233],[-122.386376,37.616178],[-122.386301,37.616131],[-122.386161,37.616105],[-122.386022,37.616131],[-122.385914,37.616186],[-122.385855,37.616267],[-122.385834,37.616369],[-122.385871,37.616467],[-122.385941,37.616543],[-122.386054,37.616603],[-122.386183,37.616611],[-122.386306,37.616573],[-122.386419,37.616509],[-122.386467,37.616411],[-122.386472,37.616318]]]}
}
