{
  "id": 1780279331,
  "type": "Feature",
  "properties": {
    "date:cessation_lower": "1950-01-01",
    "date:cessation_upper": "1950-12-31",
    "date:inception_lower": "1950-01-01",
    "date:inception_upper": "1950-12-31",
    "edtf:cessation": "1950~",
    "edtf:inception": "1950~",
    "geom:area": 2.477324999997507e-7,
    "geom:bbox": "-122.386472,37.616105,-122.385834,37.616611",
    "geom:latitude": 37.61635756125121,
    "geom:longitude": -122.38615532866096,
    "media:fingerprint": "",
    "media:imagehash_avg": "a:e7e7c381818181c3",
    "media:imagehash_diff": "d:8e8e1f0b0f0f1f0f",
    "media:imagetext": "AHOT TO BE RHIN\nis 1 FLD. 0ZS\nAHEAD\nINTERNAL REVENUE\nIN QUALITY\nEXTRA\nCLIPPER\nPREMIUM\nWING\nBEER\nCD..\nINC\nSAN FRANCISCO.",
    "media:imagetext_created": 1787965758,
    "media:imagetext_source": "com.apple.visionkit.VNImageRequestHandler#Version 26.6.2 (Build 25G83)",
    "media:mimetype": "image/jpeg",
    "media:properties": {
      "sizes": {}
    },
    "media:source": "sfomuseum",
    "media:status_id": 1,
    "media:uri_template": "https://static.sfomuseum.org/media/178/027/933/1/1780279331_{secret}_{label}.{extension}",
    "millsfield:airline_id": [
      1159284989
    ],
    "millsfield:category_id": 1746152533,
    "millsfield:collection_id": 1511214203,
    "millsfield:company_id": [
      1159286839
    ],
    "millsfield:exhibition_ids": [
      1159160217
    ],
    "millsfield:images_colors": [
      {
        "hex": "#e4e3e0",
        "name": "#e4e3e0",
        "reference": "marekm4"
      },
      {
        "hex": "#dcdcdc",
        "name": "gainsboro",
        "reference": "css4"
      },
      {
        "hex": "#dbd7d2",
        "name": "Timberwolf",
        "reference": "crayola"
      },
      {
        "hex": "#533929",
        "name": "#533929",
        "reference": "marekm4"
      },
      {
        "hex": "#556b2f",
        "name": "darkolivegreen",
        "reference": "css4"
      },
      {
        "hex": "#714b23",
        "name": "Raw Umber",
        "reference": "crayola"
      },
      {
        "hex": "#8f4f23",
        "name": "#8f4f23",
        "reference": "marekm4"
      },
      {
        "hex": "#8b4513",
        "name": "saddlebrown",
        "reference": "css4"
      },
      {
        "hex": "#b09d59",
        "name": "#b09d59",
        "reference": "marekm4"
      },
      {
        "hex": "#bdb76b",
        "name": "darkkhaki",
        "reference": "css4"
      },
      {
        "hex": "#bab86c",
        "name": "Olive Green",
        "reference": "crayola"
      }
    ],
    "millsfield:images_texts": [
      "AHOT TO BE RHIN\nis 1 FLD. 0ZS\nAHEAD\nINTERNAL REVENUE\nIN QUALITY\nEXTRA\nCLIPPER\nPREMIUM\nWING\nBEER\nCD..\nINC\nSAN FRANCISCO.",
      "NASSPOST MINIS\nHOLLO DE BELIE"
    ],
    "millsfield:images_texts_ids": [
      1780279331,
      1897761883
    ],
    "millsfield:on_view": 0,
    "millsfield:similar": {
      "apple/mobileclip_s0": [
        {
          "distance": 0.7127132,
          "id": 1780280017
        },
        {
          "distance": 0.7263187,
          "id": 1780280171
        },
        {
          "distance": 0.7287422,
          "id": 1780280087
        },
        {
          "distance": 0.73428935,
          "id": 1780279963
        },
        {
          "distance": 0.735803,
          "id": 1780280015
        },
        {
          "distance": 0.73861575,
          "id": 1780280013
        },
        {
          "distance": 0.7539517,
          "id": 1780279959
        },
        {
          "distance": 0.75577617,
          "id": 1780280119
        },
        {
          "distance": 0.75778204,
          "id": 1780280169
        },
        {
          "distance": 0.7578783,
          "id": 1780280139
        }
      ],
      "apple/mobileclip_s1": [
        {
          "distance": 0.51444536,
          "id": 1780280093
        },
        {
          "distance": 0.5294307,
          "id": 1780280035
        },
        {
          "distance": 0.5299244,
          "id": 1780279963
        },
        {
          "distance": 0.53064555,
          "id": 1780280159
        },
        {
          "distance": 0.5353981,
          "id": 1780279951
        },
        {
          "distance": 0.5354192,
          "id": 1780280157
        },
        {
          "distance": 0.53778887,
          "id": 1780280123
        },
        {
          "distance": 0.53955764,
          "id": 1780279345
        },
        {
          "distance": 0.54305655,
          "id": 1780280017
        },
        {
          "distance": 0.54648775,
          "id": 1780280085
        }
      ],
      "apple/mobileclip_s2": [
        {
          "distance": 0.764435,
          "id": 1780279345
        },
        {
          "distance": 0.7729344,
          "id": 1780279951
        },
        {
          "distance": 0.77719104,
          "id": 1780280093
        },
        {
          "distance": 0.7777352,
          "id": 1780280017
        },
        {
          "distance": 0.7847816,
          "id": 1780279959
        },
        {
          "distance": 0.78747785,
          "id": 1780280159
        },
        {
          "distance": 0.788006,
          "id": 1780280085
        },
        {
          "distance": 0.7882412,
          "id": 1780279973
        },
        {
          "distance": 0.78831893,
          "id": 1780280119
        },
        {
          "distance": 0.79599655,
          "id": 1780280015
        }
      ]
    },
    "millsfield:subcategory_id": 1746152547,
    "mz:is_current": 1,
    "sfomuseum:filename": "15367.JPG",
    "sfomuseum:image_id": 15367,
    "sfomuseum:image_index": 1,
    "sfomuseum:image_type": "studio",
    "sfomuseum:object_id": 51040,
    "sfomuseum:placetype": "image",
    "sfomuseum:primary_image": 1,
    "src:geom": "sfomuseum",
    "wof:belongsto": [
      102527513,
      1159162825,
      102191575,
      85633793,
      102087579,
      85922583,
      1780279309,
      85688637,
      1159160869
    ],
    "wof:country": "XY",
    "wof:created": 1660722550,
    "wof:depicts": [
      1159284989,
      1159286839,
      1780279309
    ],
    "wof:geomhash": "ed7c2ab3547fc3916b5edc33488deaa7",
    "wof:hierarchy": [
      {
        "building_id": -1,
        "campus_id": 102527513,
        "collection_id": 1159162825,
        "concourse_id": 1159162825,
        "continent_id": 102191575,
        "country_id": 85633793,
        "county_id": 102087579,
        "custom_id": 1780279331,
        "image_id": 1780279331,
        "locality_id": 85922583,
        "neighbourhood_id": -1,
        "object_id": 1780279309,
        "region_id": 85688637,
        "wing_id": 1159160869
      }
    ],
    "wof:id": 1780279331,
    "wof:lastmodified": 1788451448,
    "wof:name": "beer bottle: \"Clipper Premium Beer\"",
    "wof:parent_id": 1780279309,
    "wof:placetype": "custom",
    "wof:placetype_alt": [
      "image"
    ],
    "wof:repo": "sfomuseum-data-media-collection",
    "wof:superseded_by": [],
    "wof:supersedes": []
  },
  "bbox": [
    -122.386472,
    37.616105,
    -122.385834,
    37.616611
  ],
  "geometry": {"type":"Polygon","coordinates":[[[-122.386472,37.616318],[-122.386435,37.616233],[-122.386376,37.616178],[-122.386301,37.616131],[-122.386161,37.616105],[-122.386022,37.616131],[-122.385914,37.616186],[-122.385855,37.616267],[-122.385834,37.616369],[-122.385871,37.616467],[-122.385941,37.616543],[-122.386054,37.616603],[-122.386183,37.616611],[-122.386306,37.616573],[-122.386419,37.616509],[-122.386467,37.616411],[-122.386472,37.616318]]]}
}
