{
  "id": 1880321303,
  "type": "Feature",
  "properties": {
    "date:cessation_lower": "2016-01-01",
    "date:cessation_upper": "2016-12-31",
    "date:inception_lower": "2016-01-01",
    "date:inception_upper": "2016-12-31",
    "edtf:cessation": "2016",
    "edtf:inception": "2016",
    "geom:area": 2.477324999997507e-7,
    "geom:bbox": "-122.386472,37.616105,-122.385834,37.616611",
    "geom:latitude": 37.61635756125121,
    "geom:longitude": -122.38615532866096,
    "media:fingerprint": "1cbf85da6615d72d993e781c906a8dbb9c788efb",
    "media:imagehash_avg": "a:00007e0081e7ffff",
    "media:imagehash_diff": "d:e0f0f017178e8ede",
    "media:imagetext": "",
    "media:mimetype": "image/tiff",
    "media:properties": {
      "sizes": {
        "b": {
          "extension": "jpg",
          "height": 768,
          "mimetype": "image/jpeg",
          "secret": "DwR6FQ08F20sYweFtxfhHUvPcw3e1W8A",
          "width": 960
        },
        "c": {
          "extension": "jpg",
          "height": 600,
          "mimetype": "image/jpeg",
          "secret": "DwR6FQ08F20sYweFtxfhHUvPcw3e1W8A",
          "width": 750
        },
        "dc": {
          "extension": "jpg",
          "height": 600,
          "mimetype": "image/jpeg",
          "secret": "DwR6FQ08F20sYweFtxfhHUvPcw3e1W8A",
          "width": 750
        },
        "ds": {
          "extension": "jpg",
          "height": 320,
          "mimetype": "image/jpeg",
          "secret": "DwR6FQ08F20sYweFtxfhHUvPcw3e1W8A",
          "width": 320
        },
        "k": {
          "extension": "jpg",
          "height": 1536,
          "mimetype": "image/jpeg",
          "secret": "DwR6FQ08F20sYweFtxfhHUvPcw3e1W8A",
          "width": 1920
        },
        "n": {
          "extension": "jpg",
          "height": 240,
          "mimetype": "image/jpeg",
          "secret": "DwR6FQ08F20sYweFtxfhHUvPcw3e1W8A",
          "width": 300
        },
        "o": {
          "extension": "jpg",
          "height": 1600,
          "mimetype": "image/jpeg",
          "secret": "KVILWvnK7ImIEZBQKOg3fK4Mjhq5Yb8W",
          "width": 2000
        },
        "s": {
          "extension": "jpg",
          "height": 320,
          "mimetype": "image/jpeg",
          "secret": "DwR6FQ08F20sYweFtxfhHUvPcw3e1W8A",
          "width": 320
        },
        "z": {
          "extension": "jpg",
          "height": 480,
          "mimetype": "image/jpeg",
          "secret": "DwR6FQ08F20sYweFtxfhHUvPcw3e1W8A",
          "width": 600
        }
      }
    },
    "media:source": "sfomuseum",
    "media:status_id": 1,
    "media:uri_template": "https://static.sfomuseum.org/media/188/032/130/3/1880321303_{secret}_{label}.{extension}",
    "millsfield:aircraft_id": [
      1159292975
    ],
    "millsfield:airline_id": [
      1159284019
    ],
    "millsfield:category_id": 1511214235,
    "millsfield:collection_id": 1511214203,
    "millsfield:company_id": [
      1159293929
    ],
    "millsfield:exhibition_ids": [
      1159160707
    ],
    "millsfield:images_colors": [
      {
        "hex": "#acacac",
        "name": "#acacac",
        "reference": "marekm4"
      },
      {
        "hex": "#a9a9a9",
        "name": "darkgrey",
        "reference": "css4"
      },
      {
        "hex": "#979aaa",
        "name": "Manatee",
        "reference": "crayola"
      },
      {
        "hex": "#475066",
        "name": "#475066",
        "reference": "marekm4"
      },
      {
        "hex": "#2f4f4f",
        "name": "darkslategrey",
        "reference": "css4"
      },
      {
        "hex": "#4a646c",
        "name": "Deep Space Sparkle",
        "reference": "crayola"
      }
    ],
    "millsfield:images_texts": [
      "BRITISH AIR FERRIES\nBAF\nPorky Pete",
      "BAF\nBRITISH AIR FERRIES\nBAF\nPorky Pete",
      "Porky Pate\nBAF\nBRITISH AIR FERRIES\nJone",
      "Porky Pois\nBAF\nBRITISH AIR FERRIES"
    ],
    "millsfield:images_texts_ids": [
      1880321307,
      1880321309,
      1880321311,
      1880321691
    ],
    "millsfield:on_view": 0,
    "millsfield:similar": {
      "apple/mobileclip_s0": [
        {
          "distance": 0.3575161,
          "id": 1897771217
        },
        {
          "distance": 0.36821023,
          "id": 1897771235
        },
        {
          "distance": 0.37392,
          "id": 1880321105
        },
        {
          "distance": 0.39102507,
          "id": 1880321305
        },
        {
          "distance": 0.39467105,
          "id": 1763138211
        },
        {
          "distance": 0.4061397,
          "id": 1880321623
        },
        {
          "distance": 0.4111114,
          "id": 1880321095
        },
        {
          "distance": 0.41656843,
          "id": 1880321669
        },
        {
          "distance": 0.4203877,
          "id": 1880321651
        },
        {
          "distance": 0.4245503,
          "id": 1763138399
        }
      ],
      "apple/mobileclip_s1": [
        {
          "distance": 0.288653,
          "id": 1763138211
        },
        {
          "distance": 0.31421813,
          "id": 1880319561
        },
        {
          "distance": 0.318998,
          "id": 1881138331
        },
        {
          "distance": 0.32596874,
          "id": 1763110239
        },
        {
          "distance": 0.3297398,
          "id": 1880321305
        },
        {
          "distance": 0.33503583,
          "id": 1763144661
        },
        {
          "distance": 0.33525154,
          "id": 1880321177
        },
        {
          "distance": 0.33643478,
          "id": 1763145251
        },
        {
          "distance": 0.33715364,
          "id": 1880319313
        },
        {
          "distance": 0.34097883,
          "id": 1914676719
        }
      ],
      "apple/mobileclip_s2": [
        {
          "distance": 0.40071812,
          "id": 1880321105
        },
        {
          "distance": 0.414208,
          "id": 1880321613
        },
        {
          "distance": 0.41443574,
          "id": 1880321149
        },
        {
          "distance": 0.4187775,
          "id": 1763138211
        },
        {
          "distance": 0.41879776,
          "id": 1880321305
        },
        {
          "distance": 0.43499303,
          "id": 1880320897
        },
        {
          "distance": 0.43873882,
          "id": 1763138203
        },
        {
          "distance": 0.4396364,
          "id": 1880321017
        },
        {
          "distance": 0.45892864,
          "id": 1880320899
        },
        {
          "distance": 0.4592294,
          "id": 1880319251
        }
      ]
    },
    "millsfield:subcategory_id": 1511213161,
    "mz:is_current": 1,
    "sfomuseum:filename": "2016.062.073_bk.tif",
    "sfomuseum:image_id": 249215,
    "sfomuseum:image_index": 5,
    "sfomuseum:image_type": "studio",
    "sfomuseum:object_id": 179406,
    "sfomuseum:placetype": "image",
    "sfomuseum:primary_image": 0,
    "src:geom": "sfomuseum",
    "wof:belongsto": [
      102527513,
      1159162825,
      102191575,
      85633793,
      102087579,
      85922583,
      1880318863,
      85688637,
      1159160869
    ],
    "wof:country": "XY",
    "wof:created": 1694023171,
    "wof:depicts": [
      1159293929,
      1880318863,
      1159284019,
      1159292975
    ],
    "wof:geomhash": "ed7c2ab3547fc3916b5edc33488deaa7",
    "wof:hierarchy": [
      {
        "building_id": -1,
        "campus_id": 102527513,
        "collection_id": 1159162825,
        "concourse_id": 1159162825,
        "continent_id": 102191575,
        "country_id": 85633793,
        "county_id": 102087579,
        "custom_id": 1880321303,
        "image_id": 1880321303,
        "locality_id": 85922583,
        "neighbourhood_id": -1,
        "object_id": 1880318863,
        "region_id": 85688637,
        "wing_id": 1159160869
      }
    ],
    "wof:id": 1880321303,
    "wof:lastmodified": 1788451819,
    "wof:name": "model airplane: British Air Ferries, Aviation Traders ATL.98 Carvair",
    "wof:parent_id": 1880318863,
    "wof:placetype": "custom",
    "wof:placetype_alt": [
      "image"
    ],
    "wof:repo": "sfomuseum-data-media-collection",
    "wof:superseded_by": [],
    "wof:supersedes": []
  },
  "bbox": [
    -122.386472,
    37.616105,
    -122.385834,
    37.616611
  ],
  "geometry": {"type":"Polygon","coordinates":[[[-122.386472,37.616318],[-122.386435,37.616233],[-122.386376,37.616178],[-122.386301,37.616131],[-122.386161,37.616105],[-122.386022,37.616131],[-122.385914,37.616186],[-122.385855,37.616267],[-122.385834,37.616369],[-122.385871,37.616467],[-122.385941,37.616543],[-122.386054,37.616603],[-122.386183,37.616611],[-122.386306,37.616573],[-122.386419,37.616509],[-122.386467,37.616411],[-122.386472,37.616318]]]}
}
