{
  "id": 1527830043,
  "type": "Feature",
  "properties": {
    "date:cessation_lower": "1950-04-04",
    "date:cessation_upper": "1950-04-04",
    "date:inception_lower": "1950-04-04",
    "date:inception_upper": "1950-04-04",
    "edtf:cessation": "1950-04-04",
    "edtf:date": "1950-04-04",
    "edtf:inception": "1950-04-04",
    "geom:area": 0,
    "geom:bbox": "-122.386155,37.616358,-122.386155,37.616358",
    "geom:latitude": 37.616358,
    "geom:longitude": -122.386155,
    "iso:country": "XX",
    "media:fingerprint": "25608cb00a68412fa779c84c9116f48e2cca9f55",
    "media:imagehash_avg": "a:ff070703010515bd",
    "media:imagehash_diff": "d:056f57372b6d6d71",
    "media:imagetext": "(136)\nSONCHEN\n-54.50 16\n0\n2000.054.023",
    "media:imagetext_created": 1787949213,
    "media:imagetext_source": "com.apple.visionkit.VNImageRequestHandler#Version 26.6.2 (Build 25G83)",
    "media:medium": "image",
    "media:mimetype": "image/tiff",
    "media:properties": {
      "sizes": {
        "b": {
          "extension": "jpg",
          "height": 592,
          "mimetype": "image/jpeg",
          "secret": "a9yojI9Sa27OVvUBy4o2pUqPszbB5aJO",
          "width": 1024
        },
        "c": {
          "extension": "jpg",
          "height": 463,
          "mimetype": "image/jpeg",
          "secret": "a9yojI9Sa27OVvUBy4o2pUqPszbB5aJO",
          "width": 800
        },
        "dc": {
          "extension": "jpg",
          "height": 463,
          "mimetype": "image/jpeg",
          "secret": "a9yojI9Sa27OVvUBy4o2pUqPszbB5aJO",
          "width": 800
        },
        "ds": {
          "extension": "jpg",
          "height": 320,
          "mimetype": "image/jpeg",
          "secret": "a9yojI9Sa27OVvUBy4o2pUqPszbB5aJO",
          "width": 320
        },
        "k": {
          "extension": "jpg",
          "height": 1185,
          "mimetype": "image/jpeg",
          "secret": "a9yojI9Sa27OVvUBy4o2pUqPszbB5aJO",
          "width": 2048
        },
        "n": {
          "extension": "jpg",
          "height": 185,
          "mimetype": "image/jpeg",
          "secret": "a9yojI9Sa27OVvUBy4o2pUqPszbB5aJO",
          "width": 320
        },
        "o": {
          "extension": "jpg",
          "height": 1170,
          "mimetype": "image/jpeg",
          "secret": "eR9RTr6qG0gitfevceRPUWZQiRFO67Kd",
          "width": 2021
        },
        "s": {
          "extension": "jpg",
          "height": 320,
          "mimetype": "image/jpeg",
          "secret": "a9yojI9Sa27OVvUBy4o2pUqPszbB5aJO",
          "width": 320
        },
        "z": {
          "extension": "jpg",
          "height": 370,
          "mimetype": "image/jpeg",
          "secret": "a9yojI9Sa27OVvUBy4o2pUqPszbB5aJO",
          "width": 640
        }
      }
    },
    "media:source": "sfomuseum",
    "media:status_id": 1,
    "media:uri_template": "https://static.sfomuseum.org/media/152/783/004/3/1527830043_{secret}_{label}.{extension}",
    "millsfield:airline_id": [
      1159284989
    ],
    "millsfield:category_id": 1511214215,
    "millsfield:collection_id": 1511214207,
    "millsfield:company_id": [
      1159286839
    ],
    "millsfield:images_colors": [
      {
        "hex": "#f7e4c7",
        "name": "#f7e4c7",
        "reference": "marekm4"
      },
      {
        "hex": "#ffe4c4",
        "name": "bisque",
        "reference": "css4"
      },
      {
        "hex": "#efdecd",
        "name": "Almond",
        "reference": "crayola"
      }
    ],
    "millsfield:images_texts": [
      "AN YORK, N\nUS POSTAGERAINMATS\n215\n15\n1950\nAIR MALL TITI\nTHE UNIVERI\n0949\nUNION\nJOIN ZUROWSKy\n65 EAST 75 ST.\nNEW YORK, 3, N.Y.\nISTFLiGHT A.M.F. NY. TO MUNiCH Via P.A.A.",
      "(136)\nSONCHEN\n-54.50 16\n0\n2000.054.023"
    ],
    "millsfield:images_texts_ids": [
      1527830041,
      1527830043
    ],
    "millsfield:similar": {
      "apple/mobileclip_s0": [
        {
          "distance": 0.31471163,
          "id": 1527830047
        },
        {
          "distance": 0.365516,
          "id": 1527830021
        },
        {
          "distance": 0.36691254,
          "id": 1527830025
        },
        {
          "distance": 0.39715782,
          "id": 1527832515
        },
        {
          "distance": 0.4001912,
          "id": 1527834125
        },
        {
          "distance": 0.4047232,
          "id": 1527828963
        },
        {
          "distance": 0.41416013,
          "id": 1527829999
        },
        {
          "distance": 0.41517228,
          "id": 1527830213
        },
        {
          "distance": 0.4160654,
          "id": 1527832731
        },
        {
          "distance": 0.42121443,
          "id": 1527833339
        }
      ],
      "apple/mobileclip_s1": [
        {
          "distance": 0.3232243,
          "id": 1527830007
        },
        {
          "distance": 0.33496293,
          "id": 1527830025
        },
        {
          "distance": 0.34449333,
          "id": 1746281321
        },
        {
          "distance": 0.3453772,
          "id": 1527830047
        },
        {
          "distance": 0.354468,
          "id": 1527819857
        },
        {
          "distance": 0.35711476,
          "id": 1527834557
        },
        {
          "distance": 0.3597704,
          "id": 1527820185
        },
        {
          "distance": 0.36134073,
          "id": 1527833737
        },
        {
          "distance": 0.3613783,
          "id": 1746281417
        },
        {
          "distance": 0.36276215,
          "id": 1527819933
        }
      ],
      "apple/mobileclip_s2": [
        {
          "distance": 0.35022622,
          "id": 1527830007
        },
        {
          "distance": 0.3631903,
          "id": 1527830047
        },
        {
          "distance": 0.4292829,
          "id": 1527830025
        },
        {
          "distance": 0.4402632,
          "id": 1527833321
        },
        {
          "distance": 0.44160405,
          "id": 1527852613
        },
        {
          "distance": 0.44526067,
          "id": 1527828971
        },
        {
          "distance": 0.45004618,
          "id": 1527820219
        },
        {
          "distance": 0.4504107,
          "id": 1527828963
        },
        {
          "distance": 0.45691523,
          "id": 1527829999
        },
        {
          "distance": 0.45831805,
          "id": 1527833339
        }
      ]
    },
    "millsfield:subcategory_id": 1511213159,
    "mz:hierarchy_label": 1,
    "mz:is_current": -1,
    "sfomuseum:filename": "48834.tif",
    "sfomuseum:image_id": 48834,
    "sfomuseum:image_index": 5,
    "sfomuseum:image_type": "studio",
    "sfomuseum:object_id": 49845,
    "sfomuseum:placetype": "image",
    "sfomuseum:primary_image": 0,
    "src:geom": "sfomuseum",
    "wof:belongsto": [
      1511214215,
      1511909815,
      102527513,
      102191575,
      85633793,
      1511213159,
      85922583,
      102087579,
      1511214277,
      1511214203,
      85688637
    ],
    "wof:breaches": [],
    "wof:country": "XX",
    "wof:created": 1578950932,
    "wof:depicts": [
      1159286839,
      1511909815,
      1159284989
    ],
    "wof:geomhash": "bd906905ce4be6c0651c90b0fc24804c",
    "wof:hierarchy": [
      {
        "arcade_id": 1511213159,
        "building_id": 1511214277,
        "campus_id": 102527513,
        "concourse_id": 1511214215,
        "continent_id": 102191575,
        "country_id": 85633793,
        "county_id": 102087579,
        "custom_id": 1527830043,
        "image_id": 1527830043,
        "locality_id": 85922583,
        "media_id": 1527830043,
        "neighbourhood_id": -1,
        "region_id": 85688637,
        "venue_id": 1511909815,
        "wing_id": 1511214203
      }
    ],
    "wof:id": 1527830043,
    "wof:lastmodified": 1788449870,
    "wof:name": "airmail flight cover: Pan American World Airways, New York - Munich route",
    "wof:parent_id": 1511909815,
    "wof:placetype": "custom",
    "wof:placetype_alt": [
      "image"
    ],
    "wof:repo": "sfomuseum-data-media-collection",
    "wof:superseded_by": [],
    "wof:supersedes": [],
    "wof:tags": []
  },
  "bbox": [
    -122.386155,
    37.616358,
    -122.386155,
    37.616358
  ],
  "geometry": {"type":"Point","coordinates":[-122.386155,37.616358]}
}
