{
  "id": 1762710243,
  "type": "Feature",
  "properties": {
    "date:cessation_lower": "1940-01-01",
    "date:cessation_upper": "1949-12-31",
    "date:inception_lower": "1940-01-01",
    "date:inception_upper": "1949-12-31",
    "edtf:cessation": "194X",
    "edtf:inception": "194X",
    "geom:area": 2.477324999997507e-7,
    "geom:bbox": "-122.386472,37.616105,-122.385834,37.616611",
    "geom:latitude": 37.61635756125121,
    "geom:longitude": -122.38615532866096,
    "media:fingerprint": "761d666e7b3c4db076225a6dec7864fac92531b7",
    "media:imagehash_avg": "a:ff808480808080ff",
    "media:imagehash_diff": "d:69787d7c746c6569",
    "media:imagetext": "AMN OOH OXES 0190\n20 g\n2015.166.1798",
    "media:imagetext_created": 1787957620,
    "media:imagetext_source": "com.apple.visionkit.VNImageRequestHandler#Version 26.6.2 (Build 25G83)",
    "media:mimetype": "image/tiff",
    "media:properties": {
      "sizes": {
        "b": {
          "extension": "jpg",
          "height": 668,
          "mimetype": "image/jpeg",
          "secret": "nMgGiGAu8ZechxAer9HXxT9NBqsZMKvW",
          "width": 1024
        },
        "c": {
          "extension": "jpg",
          "height": 522,
          "mimetype": "image/jpeg",
          "secret": "nMgGiGAu8ZechxAer9HXxT9NBqsZMKvW",
          "width": 800
        },
        "dc": {
          "extension": "jpg",
          "height": 522,
          "mimetype": "image/jpeg",
          "secret": "nMgGiGAu8ZechxAer9HXxT9NBqsZMKvW",
          "width": 800
        },
        "ds": {
          "extension": "jpg",
          "height": 320,
          "mimetype": "image/jpeg",
          "secret": "nMgGiGAu8ZechxAer9HXxT9NBqsZMKvW",
          "width": 320
        },
        "k": {
          "extension": "jpg",
          "height": 1337,
          "mimetype": "image/jpeg",
          "secret": "nMgGiGAu8ZechxAer9HXxT9NBqsZMKvW",
          "width": 2048
        },
        "n": {
          "extension": "jpg",
          "height": 208,
          "mimetype": "image/jpeg",
          "secret": "nMgGiGAu8ZechxAer9HXxT9NBqsZMKvW",
          "width": 320
        },
        "o": {
          "extension": "jpg",
          "height": 1105,
          "mimetype": "image/jpeg",
          "secret": "BjPN747UhaqHsczahBN9ZmH0kwXoMdHv",
          "width": 1692
        },
        "s": {
          "extension": "jpg",
          "height": 320,
          "mimetype": "image/jpeg",
          "secret": "nMgGiGAu8ZechxAer9HXxT9NBqsZMKvW",
          "width": 320
        },
        "z": {
          "extension": "jpg",
          "height": 417,
          "mimetype": "image/jpeg",
          "secret": "nMgGiGAu8ZechxAer9HXxT9NBqsZMKvW",
          "width": 640
        }
      }
    },
    "media:source": "sfomuseum",
    "media:status_id": 1,
    "media:uri_template": "https://static.sfomuseum.org/media/176/271/024/3/1762710243_{secret}_{label}.{extension}",
    "millsfield:airport_id": [
      -1
    ],
    "millsfield:category_id": 1511214215,
    "millsfield:collection_id": 1511214207,
    "millsfield:images_colors": [
      {
        "hex": "#e0c994",
        "name": "#e0c994",
        "reference": "marekm4"
      },
      {
        "hex": "#deb887",
        "name": "burlywood",
        "reference": "css4"
      },
      {
        "hex": "#e7c697",
        "name": "Gold",
        "reference": "crayola"
      },
      {
        "hex": "#ccb277",
        "name": "#ccb277",
        "reference": "marekm4"
      },
      {
        "hex": "#bdb76b",
        "name": "darkkhaki",
        "reference": "css4"
      },
      {
        "hex": "#bab86c",
        "name": "Olive Green",
        "reference": "crayola"
      }
    ],
    "millsfield:images_texts": [
      "Proto-Klinke \u0026 Co\nZentral - fughafon -Berlin",
      "AMN OOH OXES 0190\n20 g\n2015.166.1798"
    ],
    "millsfield:images_texts_ids": [
      1762708551,
      1762710243
    ],
    "millsfield:similar": {
      "apple/mobileclip_s0": [
        {
          "distance": 0.3434541,
          "id": 1762711625
        },
        {
          "distance": 0.39403868,
          "id": 1762707725
        },
        {
          "distance": 0.39597133,
          "id": 1762713283
        },
        {
          "distance": 0.39946538,
          "id": 1762710261
        },
        {
          "distance": 0.40246722,
          "id": 1762713507
        },
        {
          "distance": 0.41219577,
          "id": 1762713431
        },
        {
          "distance": 0.41351694,
          "id": 1762896251
        },
        {
          "distance": 0.41931137,
          "id": 1762713169
        },
        {
          "distance": 0.4248365,
          "id": 1762708649
        },
        {
          "distance": 0.42728376,
          "id": 1779667847
        }
      ],
      "apple/mobileclip_s1": [
        {
          "distance": 0.25507084,
          "id": 1762710261
        },
        {
          "distance": 0.2567578,
          "id": 1762713237
        },
        {
          "distance": 0.26164654,
          "id": 1762706233
        },
        {
          "distance": 0.26252434,
          "id": 1762713283
        },
        {
          "distance": 0.2626679,
          "id": 1779667847
        },
        {
          "distance": 0.26515335,
          "id": 1762710251
        },
        {
          "distance": 0.26601443,
          "id": 1779668347
        },
        {
          "distance": 0.26768076,
          "id": 1779668341
        },
        {
          "distance": 0.2688643,
          "id": 1779668373
        },
        {
          "distance": 0.26905313,
          "id": 1779668377
        }
      ],
      "apple/mobileclip_s2": [
        {
          "distance": 0.3764753,
          "id": 1762713237
        },
        {
          "distance": 0.38545763,
          "id": 1779668369
        },
        {
          "distance": 0.39066795,
          "id": 1762713283
        },
        {
          "distance": 0.4008734,
          "id": 1762706233
        },
        {
          "distance": 0.40239853,
          "id": 1779667847
        },
        {
          "distance": 0.40321136,
          "id": 1762710261
        },
        {
          "distance": 0.41843268,
          "id": 1762706261
        },
        {
          "distance": 0.42318892,
          "id": 1762710251
        },
        {
          "distance": 0.42827553,
          "id": 1779668377
        },
        {
          "distance": 0.42866653,
          "id": 1762713485
        }
      ]
    },
    "millsfield:subcategory_id": 1511213363,
    "millsfield:tail_numbers": [
      "D1073"
    ],
    "millsfield:tailnumbers": [
      "D1073"
    ],
    "mz:is_current": 1,
    "sfomuseum:filename": "2015.166.1798_bk.tif",
    "sfomuseum:image_id": 158352,
    "sfomuseum:image_index": 5,
    "sfomuseum:image_type": "studio",
    "sfomuseum:object_id": 181559,
    "sfomuseum:placetype": "image",
    "sfomuseum:primary_image": 0,
    "src:geom": "sfomuseum",
    "wof:belongsto": [
      102527513,
      1159162825,
      102191575,
      85633793,
      102087579,
      85922583,
      1762693691,
      85688637,
      1159160869
    ],
    "wof:country": "XY",
    "wof:created": 1641350042,
    "wof:depicts": [
      1762693691
    ],
    "wof:geomhash": "ed7c2ab3547fc3916b5edc33488deaa7",
    "wof:hierarchy": [
      {
        "building_id": -1,
        "campus_id": 102527513,
        "collection_id": 1159162825,
        "concourse_id": 1159162825,
        "continent_id": 102191575,
        "country_id": 85633793,
        "county_id": 102087579,
        "custom_id": 1762710243,
        "image_id": 1762710243,
        "locality_id": 85922583,
        "neighbourhood_id": -1,
        "object_id": 1762693691,
        "region_id": 85688637,
        "wing_id": 1159160869
      }
    ],
    "wof:id": 1762710243,
    "wof:lastmodified": 1788450612,
    "wof:name": "postcard: Berlin Zentral Flughafen, Junkers G.31",
    "wof:parent_id": 1762693691,
    "wof:placetype": "custom",
    "wof:placetype_alt": [
      "image"
    ],
    "wof:repo": "sfomuseum-data-media-collection",
    "wof:superseded_by": [],
    "wof:supersedes": []
  },
  "bbox": [
    -122.386472,
    37.616105,
    -122.385834,
    37.616611
  ],
  "geometry": {"type":"Polygon","coordinates":[[[-122.386472,37.616318],[-122.386435,37.616233],[-122.386376,37.616178],[-122.386301,37.616131],[-122.386161,37.616105],[-122.386022,37.616131],[-122.385914,37.616186],[-122.385855,37.616267],[-122.385834,37.616369],[-122.385871,37.616467],[-122.385941,37.616543],[-122.386054,37.616603],[-122.386183,37.616611],[-122.386306,37.616573],[-122.386419,37.616509],[-122.386467,37.616411],[-122.386472,37.616318]]]}
}
