{
  "id": 1913798813,
  "type": "Feature",
  "properties": {
    "date:cessation_lower": "1938-02-28",
    "date:cessation_upper": "1938-02-28",
    "date:inception_lower": "1938-02-28",
    "date:inception_upper": "1938-02-28",
    "edtf:cessation": "1938-02-28",
    "edtf:inception": "1938-02-28",
    "geom:area": 2.477324999997507e-7,
    "geom:bbox": "-122.386472,37.616105,-122.385834,37.616611",
    "geom:latitude": 37.61635756125121,
    "geom:longitude": -122.38615532866096,
    "media:fingerprint": "6abd918a1a6aa0db580215bc464801170249f820",
    "media:imagehash_avg": "a:ffff8b81818181ff",
    "media:imagehash_diff": "d:3b5b5b1b1b1b1b1b",
    "media:imagetext": "N\nV\nChungking,\nFeb. 28, 1938\nManila, P. I•\nDear Mr. Bixby:\nI have been trying for some time to get up enough courage to\nwrite you a letter containing something more, or less, than a\nmere recital of the events of the day as they take place.\nIt Is now just six months since I landed in China on my return from the\nthe States and all my ideas on the situation out here are as\nvague and shifting now as they were then, probably more so. I have\ntried constantly to {orm/some conclumion, even in the most genefal\nand indefinite terms, as to what the outcome of the present\nconditions in China would be, and how they would effect CNAC and\nwhat would be the best way to meet the situation, but so far I\nhavent been able to reach any conclusion with sufficient clearness\nto form a foundation for any particularly definite course of action.\nAbout all I am really/going on is hope, a term I use with full\nconsideration. Howerer in any circumstances you must haversome\nplan of action however unsatisfactory. Ours is insecurely based\non the guess and hope method. We are simply living and working\nfrom day to day. We are dr course making every effort to be able\nto continue this day to day existence as long in the future as\npossible, but that 1g as far as I have got up to now.\nThere have been many things in this war which have been a\ndisappointment to me and of course there have been some agreeable\nsurprises. The Chinese people as a wh le, according to my ideas,/\nare not in this war and never have been. Maybe it would be fairer\nto say that the Chinese are very much in this war but their\nresistance has been mostly passive resistance. But it is very\ndifficult to win a war with passive resistance, particularly against\nthe Japanese. You may acquire many moral victories and Jou may win\nwhat comes after the war, although I question that also with the\nJapanese. Also it As difficult to win a naz modern war with coolies\nmostly grabbed up off the street. The upper and middle class Chinese\nhave not yet realized that this is really their war and they have\nto furnish the backbone as well as the brains of the fighting 1f\nthey have any hope of winning, It is almost inconceivable for a\nnation to have beenlin such a war as this for seven months, with\nits territory Invaded and its poople to have suffered such horrors\nand barbarous treatment as the Chinese have and yet not find\npractically every ablebodied man between twenty and forty trying\nto get into the army. But I do not know one Chinese who has gone\ninto the fighting forces since this war started or who has a son\nwho has done so. I realize there must be many of the so called\nbetter classes who are in the army but they are comparatively few.",
    "media:imagetext_created": 1787971997,
    "media:imagetext_source": "com.apple.visionkit.VNImageRequestHandler#Version 26.6.2 (Build 25G83)",
    "media:mimetype": "image/tiff",
    "media:properties": {
      "sizes": {
        "b": {
          "extension": "jpg",
          "height": 768,
          "mimetype": "image/jpeg",
          "secret": "T80q4b9y9Z75LQoMOW4RLjFnjHKb9f85",
          "width": 603
        },
        "c": {
          "extension": "jpg",
          "height": 600,
          "mimetype": "image/jpeg",
          "secret": "T80q4b9y9Z75LQoMOW4RLjFnjHKb9f85",
          "width": 471
        },
        "dc": {
          "extension": "jpg",
          "height": 600,
          "mimetype": "image/jpeg",
          "secret": "T80q4b9y9Z75LQoMOW4RLjFnjHKb9f85",
          "width": 471
        },
        "ds": {
          "extension": "jpg",
          "height": 320,
          "mimetype": "image/jpeg",
          "secret": "T80q4b9y9Z75LQoMOW4RLjFnjHKb9f85",
          "width": 320
        },
        "k": {
          "extension": "jpg",
          "height": 1536,
          "mimetype": "image/jpeg",
          "secret": "T80q4b9y9Z75LQoMOW4RLjFnjHKb9f85",
          "width": 1206
        },
        "n": {
          "extension": "jpg",
          "height": 240,
          "mimetype": "image/jpeg",
          "secret": "T80q4b9y9Z75LQoMOW4RLjFnjHKb9f85",
          "width": 188
        },
        "o": {
          "extension": "jpg",
          "height": 2000,
          "mimetype": "image/jpeg",
          "secret": "kYIe8SvYTrBjmrhIUEYkBnrzl9Kf7MBO",
          "width": 1571
        },
        "s": {
          "extension": "jpg",
          "height": 320,
          "mimetype": "image/jpeg",
          "secret": "T80q4b9y9Z75LQoMOW4RLjFnjHKb9f85",
          "width": 320
        },
        "z": {
          "extension": "jpg",
          "height": 480,
          "mimetype": "image/jpeg",
          "secret": "T80q4b9y9Z75LQoMOW4RLjFnjHKb9f85",
          "width": 377
        }
      }
    },
    "media:source": "sfomuseum",
    "media:status_id": 1,
    "media:uri_template": "https://static.sfomuseum.org/media/191/379/881/3/1913798813_{secret}_{label}.{extension}",
    "millsfield:airline_id": [
      1159284991
    ],
    "millsfield:category_id": 1511214251,
    "millsfield:collection_id": 1511214207,
    "millsfield:company_id": [
      1159286839
    ],
    "millsfield:images_colors": [
      {
        "hex": "#e2dbbf",
        "name": "#e2dbbf",
        "reference": "marekm4"
      },
      {
        "hex": "#f5deb3",
        "name": "wheat",
        "reference": "css4"
      },
      {
        "hex": "#eceabe",
        "name": "Spring Green",
        "reference": "crayola"
      },
      {
        "hex": "#908d76",
        "name": "#908d76",
        "reference": "marekm4"
      },
      {
        "hex": "#808080",
        "name": "grey",
        "reference": "css4"
      },
      {
        "hex": "#9f8170",
        "name": "Beaver",
        "reference": "crayola"
      }
    ],
    "millsfield:images_texts": [
      "N\nV\nChungking,\nFeb. 28, 1938\nManila, P. I•\nDear Mr. Bixby:\nI have been trying for some time to get up enough courage to\nwrite you a letter containing something more, or less, than a\nmere recital of the events of the day as they take place.\nIt Is now just six months since I landed in China on my return from the\nthe States and all my ideas on the situation out here are as\nvague and shifting now as they were then, probably more so. I have\ntried constantly to {orm/some conclumion, even in the most genefal\nand indefinite terms, as to what the outcome of the present\nconditions in China would be, and how they would effect CNAC and\nwhat would be the best way to meet the situation, but so far I\nhavent been able to reach any conclusion with sufficient clearness\nto form a foundation for any particularly definite course of action.\nAbout all I am really/going on is hope, a term I use with full\nconsideration. Howerer in any circumstances you must haversome\nplan of action however unsatisfactory. Ours is insecurely based\non the guess and hope method. We are simply living and working\nfrom day to day. We are dr course making every effort to be able\nto continue this day to day existence as long in the future as\npossible, but that 1g as far as I have got up to now.\nThere have been many things in this war which have been a\ndisappointment to me and of course there have been some agreeable\nsurprises. The Chinese people as a wh le, according to my ideas,/\nare not in this war and never have been. Maybe it would be fairer\nto say that the Chinese are very much in this war but their\nresistance has been mostly passive resistance. But it is very\ndifficult to win a war with passive resistance, particularly against\nthe Japanese. You may acquire many moral victories and Jou may win\nwhat comes after the war, although I question that also with the\nJapanese. Also it As difficult to win a naz modern war with coolies\nmostly grabbed up off the street. The upper and middle class Chinese\nhave not yet realized that this is really their war and they have\nto furnish the backbone as well as the brains of the fighting 1f\nthey have any hope of winning, It is almost inconceivable for a\nnation to have beenlin such a war as this for seven months, with\nits territory Invaded and its poople to have suffered such horrors\nand barbarous treatment as the Chinese have and yet not find\npractically every ablebodied man between twenty and forty trying\nto get into the army. But I do not know one Chinese who has gone\ninto the fighting forces since this war started or who has a son\nwho has done so. I realize there must be many of the so called\nbetter classes who are in the army but they are comparatively few.",
      "CNAC I presume has approximately four hundred employees. The\nAxiation Commission got a few mechanics from us but we havent had\none man join a fighting force,\nWe hear a lot about guerilla warfare, in the papers. Also we hear\na lot about skirmishes and big battles pending along the Lunghai\nRailway. While in Hankow last week I talked to one of the best known\ncorrespondents who had just returned from that area. He left he\nsaid because there was nothing going on. He thought the Japanese\ncould march any where they want and take any place they want, he\ncould not understand why they were so inactive. The night before\nI left Hankow I Invited Donald and Capt. McHugh to dinner. I do\nnot wish to quote either of these gentlemen, they told me some\nvery interesting and amising stories, but nothing to indicate I\nwas very far wrong in my views. Donald did seem to think the\nindustrial situation in Japan was worse than generally known\nand might become effective soon, also that Japan was having much\ndifficulty getting raw material. No doubt, so 1s China. It seems\nto me however that Japan could continue this war, as it is now\nbeing fought, for several years and at the end have more raw\nmaterial, supplies than China had in the beginning. Any financial\ncrash or political upheavel in Japan in my opinion will not come\nIf at all, until after the war. Unless of course something an\nunexpected happens.\nI do not wish to appear either pessimistic or optomistic. CNAC\nis doing as well as I ever expected, better in fact, we are\nstaying in business and paying expenses. It would befoolish for\nme to say I have no idea of the outcome, that is too obvious.\nI have reached only one firm conviction,which may be all wrong,\nand that 1s, that no matter how this war ends, either in a\ncomplete victory for Japan or an over-whelming victory for China\nor any point between these two extremes, PAA's only hope for\nsalvaging something out of the China Investment depends entirely\non what there is left to salvage when the war is over. If we can\nrender a service to China during this crisis, and I think we\ncertainly are, this may in turn be helpful to PAA after the war\n1s over, 1l China comes out of it even partially in tact. If Japan\nwins the war completely and enforces harsh terms then PAA's only\nchances to recover anything 1s for CNAC to be going concern,\nno matter uncertain the going may be. Our head may be bloody but\nif It is unbowed they cant count us out. At least I hope they cant.\nThat added up outlines all I know and plan in China. It is clear I\ndo not know much and my plans are very modest. It is a weak effort\nat best but it seems to me it has to be made. I dont 11ke the job\nbut I asked for it. In fact as I recall I really begged for it.\nI certainly sold myself a bill of goods. I hope the next time I try\nto talk myself into a job ir. Trippe has me thrown out of his",
      "office via the window. Well I am trying to atone for my sins\nby staying with the job but 1f PAA has any young brain trusters\nover there who can figure out some really smart ideas I surely\nwould be glad to gime him this golden opportunity to practice\nhis art.\nYours very truly,\nW. Is Bond\nWLB\n9S2011S1P/os"
    ],
    "millsfield:images_texts_ids": [
      1913798813,
      1913798921,
      1913798973
    ],
    "millsfield:similar": {
      "apple/mobileclip_s0": [
        {
          "distance": 0.22788939,
          "id": 1913799157
        },
        {
          "distance": 0.23658518,
          "id": 1913799649
        },
        {
          "distance": 0.23692147,
          "id": 1913799113
        },
        {
          "distance": 0.24080154,
          "id": 1913799143
        },
        {
          "distance": 0.2413067,
          "id": 1913797519
        },
        {
          "distance": 0.24855539,
          "id": 1913797961
        },
        {
          "distance": 0.24898113,
          "id": 1913798921
        },
        {
          "distance": 0.24955629,
          "id": 1913801033
        },
        {
          "distance": 0.25276428,
          "id": 1913799967
        },
        {
          "distance": 0.2529916,
          "id": 1913799993
        }
      ],
      "apple/mobileclip_s1": [
        {
          "distance": 0.21074305,
          "id": 1913799157
        },
        {
          "distance": 0.21090475,
          "id": 1913799129
        },
        {
          "distance": 0.21226291,
          "id": 1913800497
        },
        {
          "distance": 0.2126133,
          "id": 1913799137
        },
        {
          "distance": 0.22021262,
          "id": 1913799475
        },
        {
          "distance": 0.23298061,
          "id": 1913799993
        },
        {
          "distance": 0.2329953,
          "id": 1913796771
        },
        {
          "distance": 0.23560236,
          "id": 1880201515
        },
        {
          "distance": 0.23572877,
          "id": 1913802415
        },
        {
          "distance": 0.24108483,
          "id": 1913799113
        }
      ],
      "apple/mobileclip_s2": [
        {
          "distance": 0.31263226,
          "id": 1913799907
        },
        {
          "distance": 0.31766587,
          "id": 1913799475
        },
        {
          "distance": 0.3186855,
          "id": 1913798921
        },
        {
          "distance": 0.3254164,
          "id": 1913799157
        },
        {
          "distance": 0.33324775,
          "id": 1913800497
        },
        {
          "distance": 0.3367532,
          "id": 1913799129
        },
        {
          "distance": 0.33709365,
          "id": 1913799139
        },
        {
          "distance": 0.3401694,
          "id": 1913801793
        },
        {
          "distance": 0.3417143,
          "id": 1913796733
        },
        {
          "distance": 0.34511325,
          "id": 1913799965
        }
      ]
    },
    "millsfield:subcategory_id": 1511213489,
    "mz:is_current": 1,
    "sfomuseum:filename": "2019.121.1052a.tif",
    "sfomuseum:image_id": 220060,
    "sfomuseum:image_index": 5,
    "sfomuseum:image_type": "studio",
    "sfomuseum:object_id": 211415,
    "sfomuseum:placetype": "image",
    "sfomuseum:primary_image": 1,
    "src:geom": "sfomuseum",
    "wof:belongsto": [
      102527513,
      1159162825,
      102191575,
      85633793,
      102087579,
      85922583,
      1913795565,
      85688637,
      1159160869
    ],
    "wof:country": "XY",
    "wof:created": 1714549506,
    "wof:depicts": [
      1159286839,
      1913795565,
      1159284991
    ],
    "wof:geomhash": "ed7c2ab3547fc3916b5edc33488deaa7",
    "wof:hierarchy": [
      {
        "building_id": -1,
        "campus_id": 102527513,
        "collection_id": 1159162825,
        "concourse_id": 1159162825,
        "continent_id": 102191575,
        "country_id": 85633793,
        "county_id": 102087579,
        "custom_id": 1913798813,
        "image_id": 1913798813,
        "locality_id": 85922583,
        "neighbourhood_id": -1,
        "object_id": 1913795565,
        "region_id": 85688637,
        "wing_id": 1159160869
      }
    ],
    "wof:id": 1913798813,
    "wof:lastmodified": 1788160869,
    "wof:name": "correspondence: William L. Bond to Harold M. Bixby",
    "wof:parent_id": 1913795565,
    "wof:placetype": "custom",
    "wof:placetype_alt": [
      "image"
    ],
    "wof:repo": "sfomuseum-data-media-collection",
    "wof:superseded_by": [],
    "wof:supersedes": []
  },
  "bbox": [
    -122.386472,
    37.616105,
    -122.385834,
    37.616611
  ],
  "geometry": {"type":"Polygon","coordinates":[[[-122.386472,37.616318],[-122.386435,37.616233],[-122.386376,37.616178],[-122.386301,37.616131],[-122.386161,37.616105],[-122.386022,37.616131],[-122.385914,37.616186],[-122.385855,37.616267],[-122.385834,37.616369],[-122.385871,37.616467],[-122.385941,37.616543],[-122.386054,37.616603],[-122.386183,37.616611],[-122.386306,37.616573],[-122.386419,37.616509],[-122.386467,37.616411],[-122.386472,37.616318]]]}
}
