{
  "id": 1762697911,
  "type": "Feature",
  "properties": {
    "date:cessation_lower": "1988-01-01",
    "date:cessation_upper": "1988-12-31",
    "date:inception_lower": "1988-01-01",
    "date:inception_upper": "1988-12-31",
    "edtf:cessation": "1988",
    "edtf:inception": "1988",
    "geom:area": 2.477324999997507e-7,
    "geom:bbox": "-122.386472,37.616105,-122.385834,37.616611",
    "geom:latitude": 37.61635756125121,
    "geom:longitude": -122.38615532866096,
    "media:fingerprint": "6a2a6bef7468c6c2798e6fee302055e347fa261e",
    "media:imagehash_avg": "a:0001fbffffd3efc1",
    "media:imagehash_diff": "d:4933030f32261f1f",
    "media:imagetext": "MORE FLIGHTS!\nADDITIONAL FLIGHTS EFFECTIVE 01 FEB. 1989\nTO BE USED WITH AIR NOVA'S 30 OCT. 1988 TIMETABLE\nINTRODUCING... MORE AIR NOVA JETS\nWe're growing again.... to serve you even better. With\nnew jets... more flights... and better schedules.\nIntroducing our new 85-seat British Aerospace jets,\none of the world's most sophisticated aircraft in its\nclass. Two new jets with more comfortable seats and\nspacious 2 + 3 seating (versus standard 3 + 3 jet\nseating)... for your comfort and convenience.\nIntroducing new jet flights into Deer Lake/Corner\nBrook. Plus, additional jet service between Gander,\nSt. John's, Halifax, Moncton, Montréal and Ottawa\nNo other regional airline offers more choice... better\nschedules... or more full business days.\nAir Nova... the choice of frequent flyers.\nAirNova\nAirNova\nLiaison Air Canada Connector",
    "media:imagetext_created": 1787955541,
    "media:imagetext_source": "com.apple.visionkit.VNImageRequestHandler#Version 26.6.2 (Build 25G83)",
    "media:mimetype": "image/tiff",
    "media:properties": {
      "sizes": {
        "b": {
          "extension": "jpg",
          "height": 768,
          "mimetype": "image/jpeg",
          "secret": "zJS6G0qhLWCoDbZeYdr4JOBoYSlRmrKT",
          "width": 328
        },
        "c": {
          "extension": "jpg",
          "height": 600,
          "mimetype": "image/jpeg",
          "secret": "zJS6G0qhLWCoDbZeYdr4JOBoYSlRmrKT",
          "width": 256
        },
        "dc": {
          "extension": "jpg",
          "height": 600,
          "mimetype": "image/jpeg",
          "secret": "zJS6G0qhLWCoDbZeYdr4JOBoYSlRmrKT",
          "width": 256
        },
        "ds": {
          "extension": "jpg",
          "height": 320,
          "mimetype": "image/jpeg",
          "secret": "zJS6G0qhLWCoDbZeYdr4JOBoYSlRmrKT",
          "width": 320
        },
        "k": {
          "extension": "jpg",
          "height": 1536,
          "mimetype": "image/jpeg",
          "secret": "zJS6G0qhLWCoDbZeYdr4JOBoYSlRmrKT",
          "width": 657
        },
        "n": {
          "extension": "jpg",
          "height": 240,
          "mimetype": "image/jpeg",
          "secret": "zJS6G0qhLWCoDbZeYdr4JOBoYSlRmrKT",
          "width": 102
        },
        "o": {
          "extension": "jpg",
          "height": 2706,
          "mimetype": "image/jpeg",
          "secret": "cCreyXLJDPcbt4KMFcFQ1gjvrK5kzmz7",
          "width": 1158
        },
        "s": {
          "extension": "jpg",
          "height": 320,
          "mimetype": "image/jpeg",
          "secret": "zJS6G0qhLWCoDbZeYdr4JOBoYSlRmrKT",
          "width": 320
        },
        "z": {
          "extension": "jpg",
          "height": 480,
          "mimetype": "image/jpeg",
          "secret": "zJS6G0qhLWCoDbZeYdr4JOBoYSlRmrKT",
          "width": 205
        }
      }
    },
    "media:source": "sfomuseum",
    "media:status_id": 1,
    "media:uri_template": "https://static.sfomuseum.org/media/176/269/791/1/1762697911_{secret}_{label}.{extension}",
    "millsfield:airline_id": [
      1159283705
    ],
    "millsfield:category_id": 1511214223,
    "millsfield:collection_id": 1511214207,
    "millsfield:company_id": [
      1159287947
    ],
    "millsfield:images_colors": [
      {
        "hex": "#ebe5cf",
        "name": "#ebe5cf",
        "reference": "marekm4"
      },
      {
        "hex": "#faebd7",
        "name": "antiquewhite",
        "reference": "css4"
      },
      {
        "hex": "#efdecd",
        "name": "Almond",
        "reference": "crayola"
      },
      {
        "hex": "#c21806",
        "name": "#c21806",
        "reference": "marekm4"
      },
      {
        "hex": "#b22222",
        "name": "firebrick",
        "reference": "css4"
      },
      {
        "hex": "#9c2542",
        "name": "Big Dip O' Ruby",
        "reference": "crayola"
      },
      {
        "hex": "#432015",
        "name": "#432015",
        "reference": "marekm4"
      },
      {
        "hex": "#800000",
        "name": "maroon",
        "reference": "css4"
      },
      {
        "hex": "#714b23",
        "name": "Raw Umber",
        "reference": "crayola"
      }
    ],
    "millsfield:images_texts": [
      "MORE FLIGHTS!\nADDITIONAL FLIGHTS EFFECTIVE 01 FEB. 1989\nTO BE USED WITH AIR NOVA'S 30 OCT. 1988 TIMETABLE\nINTRODUCING... MORE AIR NOVA JETS\nWe're growing again.... to serve you even better. With\nnew jets... more flights... and better schedules.\nIntroducing our new 85-seat British Aerospace jets,\none of the world's most sophisticated aircraft in its\nclass. Two new jets with more comfortable seats and\nspacious 2 + 3 seating (versus standard 3 + 3 jet\nseating)... for your comfort and convenience.\nIntroducing new jet flights into Deer Lake/Corner\nBrook. Plus, additional jet service between Gander,\nSt. John's, Halifax, Moncton, Montréal and Ottawa\nNo other regional airline offers more choice... better\nschedules... or more full business days.\nAir Nova... the choice of frequent flyers.\nAirNova\nAirNova\nLiaison Air Canada Connector"
    ],
    "millsfield:images_texts_ids": [
      1762697911
    ],
    "millsfield:similar": {
      "apple/mobileclip_s0": [
        {
          "distance": 0.56708324,
          "id": 1527853389
        },
        {
          "distance": 0.5800379,
          "id": 1527855125
        },
        {
          "distance": 0.58411723,
          "id": 1914622579
        },
        {
          "distance": 0.5925765,
          "id": 1729566571
        },
        {
          "distance": 0.59372586,
          "id": 1527836413
        },
        {
          "distance": 0.5987511,
          "id": 1914623149
        },
        {
          "distance": 0.59956163,
          "id": 1527837469
        },
        {
          "distance": 0.6012012,
          "id": 1762715095
        },
        {
          "distance": 0.6141395,
          "id": 1914489091
        },
        {
          "distance": 0.6153806,
          "id": 1897196899
        }
      ],
      "apple/mobileclip_s1": [
        {
          "distance": 0.43114778,
          "id": 1914489091
        },
        {
          "distance": 0.44702086,
          "id": 1914489097
        },
        {
          "distance": 0.45405135,
          "id": 1527852219
        },
        {
          "distance": 0.46097505,
          "id": 1762699721
        },
        {
          "distance": 0.4620998,
          "id": 1527853351
        },
        {
          "distance": 0.4665025,
          "id": 1763256351
        },
        {
          "distance": 0.4686255,
          "id": 1914622735
        },
        {
          "distance": 0.4700993,
          "id": 1762703035
        },
        {
          "distance": 0.47295955,
          "id": 1527855185
        },
        {
          "distance": 0.47337282,
          "id": 1913928701
        }
      ],
      "apple/mobileclip_s2": [
        {
          "distance": 0.637785,
          "id": 1527855185
        },
        {
          "distance": 0.63866204,
          "id": 1914622735
        },
        {
          "distance": 0.64873546,
          "id": 1527844507
        },
        {
          "distance": 0.64873546,
          "id": 1527844511
        },
        {
          "distance": 0.6515046,
          "id": 1762699137
        },
        {
          "distance": 0.65350777,
          "id": 1729566571
        },
        {
          "distance": 0.65708107,
          "id": 1527842761
        },
        {
          "distance": 0.65794176,
          "id": 1527832259
        },
        {
          "distance": 0.66206956,
          "id": 1527854729
        },
        {
          "distance": 0.66478395,
          "id": 1527832257
        }
      ]
    },
    "millsfield:subcategory_id": 1511213425,
    "mz:is_current": 1,
    "sfomuseum:filename": "2009.122.166.tif",
    "sfomuseum:image_id": 71439,
    "sfomuseum:image_index": 5,
    "sfomuseum:image_type": "studio",
    "sfomuseum:object_id": 103169,
    "sfomuseum:placetype": "image",
    "sfomuseum:primary_image": 1,
    "src:geom": "sfomuseum",
    "wof:belongsto": [
      102527513,
      1159162825,
      102191575,
      85633793,
      102087579,
      85922583,
      1762691719,
      85688637,
      1159160869
    ],
    "wof:country": "XY",
    "wof:created": 1641345533,
    "wof:depicts": [
      1159287947,
      1762691719,
      1159283705
    ],
    "wof:geomhash": "ed7c2ab3547fc3916b5edc33488deaa7",
    "wof:hierarchy": [
      {
        "building_id": -1,
        "campus_id": 102527513,
        "collection_id": 1159162825,
        "concourse_id": 1159162825,
        "continent_id": 102191575,
        "country_id": 85633793,
        "county_id": 102087579,
        "custom_id": 1762697911,
        "image_id": 1762697911,
        "locality_id": 85922583,
        "neighbourhood_id": -1,
        "object_id": 1762691719,
        "region_id": 85688637,
        "wing_id": 1159160869
      }
    ],
    "wof:id": 1762697911,
    "wof:lastmodified": 1788450410,
    "wof:name": "timetable: Air Nova, quick reference ",
    "wof:parent_id": 1762691719,
    "wof:placetype": "custom",
    "wof:placetype_alt": [
      "image"
    ],
    "wof:repo": "sfomuseum-data-media-collection",
    "wof:superseded_by": [],
    "wof:supersedes": []
  },
  "bbox": [
    -122.386472,
    37.616105,
    -122.385834,
    37.616611
  ],
  "geometry": {"type":"Polygon","coordinates":[[[-122.386472,37.616318],[-122.386435,37.616233],[-122.386376,37.616178],[-122.386301,37.616131],[-122.386161,37.616105],[-122.386022,37.616131],[-122.385914,37.616186],[-122.385855,37.616267],[-122.385834,37.616369],[-122.385871,37.616467],[-122.385941,37.616543],[-122.386054,37.616603],[-122.386183,37.616611],[-122.386306,37.616573],[-122.386419,37.616509],[-122.386467,37.616411],[-122.386472,37.616318]]]}
}
