{
  "id": 1897195989,
  "type": "Feature",
  "properties": {
    "date:cessation_lower": "2001-01-01",
    "date:cessation_upper": "2001-12-31",
    "date:inception_lower": "2001-01-01",
    "date:inception_upper": "2001-12-31",
    "edtf:cessation": "2001~",
    "edtf:inception": "2001~",
    "geom:area": 2.477324999997507e-7,
    "geom:bbox": "-122.386472,37.616105,-122.385834,37.616611",
    "geom:latitude": 37.61635756125121,
    "geom:longitude": -122.38615532866096,
    "media:fingerprint": "511eedd5e47ac48a7147a5bdaa6b6df309d1ec4e",
    "media:imagehash_avg": "a:7fffffc38181ffff",
    "media:imagehash_diff": "d:f0f0e896171733d0",
    "media:imagetext": "OOI\nHU UNITE D",
    "media:imagetext_created": 1787970792,
    "media:imagetext_source": "com.apple.visionkit.VNImageRequestHandler#Version 26.6.2 (Build 25G83)",
    "media:mimetype": "image/tiff",
    "media:properties": {
      "sizes": {
        "b": {
          "extension": "jpg",
          "height": 768,
          "mimetype": "image/jpeg",
          "secret": "5MGpqH7G0LuhG7twrEfX0lxFBmdClMr6",
          "width": 960
        },
        "c": {
          "extension": "jpg",
          "height": 600,
          "mimetype": "image/jpeg",
          "secret": "5MGpqH7G0LuhG7twrEfX0lxFBmdClMr6",
          "width": 750
        },
        "dc": {
          "extension": "jpg",
          "height": 600,
          "mimetype": "image/jpeg",
          "secret": "5MGpqH7G0LuhG7twrEfX0lxFBmdClMr6",
          "width": 750
        },
        "ds": {
          "extension": "jpg",
          "height": 320,
          "mimetype": "image/jpeg",
          "secret": "5MGpqH7G0LuhG7twrEfX0lxFBmdClMr6",
          "width": 320
        },
        "k": {
          "extension": "jpg",
          "height": 1536,
          "mimetype": "image/jpeg",
          "secret": "5MGpqH7G0LuhG7twrEfX0lxFBmdClMr6",
          "width": 1920
        },
        "n": {
          "extension": "jpg",
          "height": 240,
          "mimetype": "image/jpeg",
          "secret": "5MGpqH7G0LuhG7twrEfX0lxFBmdClMr6",
          "width": 300
        },
        "o": {
          "extension": "jpg",
          "height": 1680,
          "mimetype": "image/jpeg",
          "secret": "I3y4T3nqSopMBLk0bhoqvjs8sZLoWSMG",
          "width": 2100
        },
        "s": {
          "extension": "jpg",
          "height": 320,
          "mimetype": "image/jpeg",
          "secret": "5MGpqH7G0LuhG7twrEfX0lxFBmdClMr6",
          "width": 320
        },
        "z": {
          "extension": "jpg",
          "height": 480,
          "mimetype": "image/jpeg",
          "secret": "5MGpqH7G0LuhG7twrEfX0lxFBmdClMr6",
          "width": 600
        }
      }
    },
    "media:source": "sfomuseum",
    "media:status_id": 1,
    "media:uri_template": "https://static.sfomuseum.org/media/189/719/598/9/1897195989_{secret}_{label}.{extension}",
    "millsfield:airline_id": [
      1159285413
    ],
    "millsfield:category_id": 1511214235,
    "millsfield:collection_id": 1511214203,
    "millsfield:company_id": [
      1159288779
    ],
    "millsfield:images_colors": [
      {
        "hex": "#cecfd3",
        "name": "#cecfd3",
        "reference": "marekm4"
      },
      {
        "hex": "#d3d3d3",
        "name": "lightgrey",
        "reference": "css4"
      },
      {
        "hex": "#dbd7d2",
        "name": "Timberwolf",
        "reference": "crayola"
      },
      {
        "hex": "#402a28",
        "name": "#402a28",
        "reference": "marekm4"
      },
      {
        "hex": "#2f4f4f",
        "name": "darkslategrey",
        "reference": "css4"
      },
      {
        "hex": "#414a4c",
        "name": "Outer Space",
        "reference": "crayola"
      },
      {
        "hex": "#906667",
        "name": "#906667",
        "reference": "marekm4"
      },
      {
        "hex": "#696969",
        "name": "dimgrey",
        "reference": "css4"
      },
      {
        "hex": "#8a795d",
        "name": "Shadow",
        "reference": "crayola"
      }
    ],
    "millsfield:images_texts": [
      "BISIT\n© Hong Kong to New York Non-stop\nARLINES",
      "© Hong Kong to New York Non-stop\n0000",
      "OOI\nHU UNITE D"
    ],
    "millsfield:images_texts_ids": [
      1897195983,
      1897195987,
      1897195989
    ],
    "millsfield:similar": {
      "apple/mobileclip_s0": [
        {
          "distance": 0.2802834,
          "id": 1897195987
        },
        {
          "distance": 0.30140918,
          "id": 1897195983
        },
        {
          "distance": 0.33140945,
          "id": 1897195985
        },
        {
          "distance": 0.6668096,
          "id": 1896922345
        },
        {
          "distance": 0.71337074,
          "id": 1930466483
        },
        {
          "distance": 0.725065,
          "id": 1763389229
        },
        {
          "distance": 0.73438126,
          "id": 1896922349
        },
        {
          "distance": 0.7393397,
          "id": 1763144639
        },
        {
          "distance": 0.7455852,
          "id": 1914676651
        },
        {
          "distance": 0.7507856,
          "id": 1914676469
        }
      ],
      "apple/mobileclip_s1": [
        {
          "distance": 0.17293884,
          "id": 1897195983
        },
        {
          "distance": 0.22859325,
          "id": 1897195987
        },
        {
          "distance": 0.22877906,
          "id": 1897195985
        },
        {
          "distance": 0.49773142,
          "id": 1897494793
        },
        {
          "distance": 0.5040322,
          "id": 1930561229
        },
        {
          "distance": 0.5084563,
          "id": 1896922345
        },
        {
          "distance": 0.51590466,
          "id": 1881041545
        },
        {
          "distance": 0.528937,
          "id": 1896922349
        },
        {
          "distance": 0.53193986,
          "id": 1763144663
        },
        {
          "distance": 0.5388685,
          "id": 1763389229
        }
      ],
      "apple/mobileclip_s2": [
        {
          "distance": 0.22677472,
          "id": 1897195983
        },
        {
          "distance": 0.2582252,
          "id": 1897195985
        },
        {
          "distance": 0.3116787,
          "id": 1897195987
        },
        {
          "distance": 0.77761436,
          "id": 1896922345
        },
        {
          "distance": 0.7972603,
          "id": 1914676467
        },
        {
          "distance": 0.7996966,
          "id": 1914676465
        },
        {
          "distance": 0.8036829,
          "id": 1881138371
        },
        {
          "distance": 0.81410044,
          "id": 1914676459
        },
        {
          "distance": 0.81720525,
          "id": 1880440397
        },
        {
          "distance": 0.82173413,
          "id": 1763144663
        }
      ]
    },
    "millsfield:subcategory_id": 1511213531,
    "mz:is_current": 1,
    "sfomuseum:filename": "2022.066.001_4.tif",
    "sfomuseum:image_id": 271892,
    "sfomuseum:image_index": 0,
    "sfomuseum:image_type": "studio",
    "sfomuseum:object_id": 231145,
    "sfomuseum:placetype": "image",
    "sfomuseum:primary_image": 0,
    "src:geom": "sfomuseum",
    "wof:belongsto": [
      102527513,
      1159162825,
      102191575,
      85633793,
      102087579,
      85922583,
      1897195973,
      85688637,
      1159160869
    ],
    "wof:country": "XY",
    "wof:created": 1706118727,
    "wof:depicts": [
      1897195973,
      1159285413,
      1159288779
    ],
    "wof:geomhash": "ed7c2ab3547fc3916b5edc33488deaa7",
    "wof:hierarchy": [
      {
        "building_id": -1,
        "campus_id": 102527513,
        "collection_id": 1159162825,
        "concourse_id": 1159162825,
        "continent_id": 102191575,
        "country_id": 85633793,
        "county_id": 102087579,
        "custom_id": 1897195989,
        "image_id": 1897195989,
        "locality_id": 85922583,
        "neighbourhood_id": -1,
        "object_id": 1897195973,
        "region_id": 85688637,
        "wing_id": 1159160869
      }
    ],
    "wof:id": 1897195989,
    "wof:lastmodified": 1788452032,
    "wof:name": "model boat: Hong Kong ferry, United Airlines",
    "wof:parent_id": 1897195973,
    "wof:placetype": "custom",
    "wof:placetype_alt": [
      "image"
    ],
    "wof:repo": "sfomuseum-data-media-collection",
    "wof:superseded_by": [],
    "wof:supersedes": []
  },
  "bbox": [
    -122.386472,
    37.616105,
    -122.385834,
    37.616611
  ],
  "geometry": {"type":"Polygon","coordinates":[[[-122.386472,37.616318],[-122.386435,37.616233],[-122.386376,37.616178],[-122.386301,37.616131],[-122.386161,37.616105],[-122.386022,37.616131],[-122.385914,37.616186],[-122.385855,37.616267],[-122.385834,37.616369],[-122.385871,37.616467],[-122.385941,37.616543],[-122.386054,37.616603],[-122.386183,37.616611],[-122.386306,37.616573],[-122.386419,37.616509],[-122.386467,37.616411],[-122.386472,37.616318]]]}
}
