{
  "id": 1527856747,
  "type": "Feature",
  "properties": {
    "date:cessation_lower": "1927-01-01",
    "date:cessation_upper": "1927-12-31",
    "date:inception_lower": "1927-01-01",
    "date:inception_upper": "1927-12-31",
    "edtf:cessation": "1927~",
    "edtf:date": "1927~",
    "edtf:inception": "1927~",
    "geom:area": 0,
    "geom:bbox": "-122.386155,37.616358,-122.386155,37.616358",
    "geom:latitude": 37.616358,
    "geom:longitude": -122.386155,
    "iso:country": "US",
    "media:fingerprint": "b6117e8e82a8f37faa3b3e171e35845bfc67aff8",
    "media:imagehash_avg": "a:ffc38181f7f5ffff",
    "media:imagehash_diff": "d:cc0f071f456d65e5",
    "media:imagetext": "All of that certain piece or parcel of land\nsituated in San Mateo County,\nState of California\nand\nmore particularly described as follows:\nl'hat certain tract of land in section 2, 1 4\ns., R. 5 W., M. D. B. \u0026 M., designated on the\nofficial map of the County\nEstate 193\nof San Mateo as \"Sharp\nbeing portions or all of\nthe SW * OF NE * OF S.\nthe NE\nthe wa of set of s. 2\nand the SE ‡ of SW\nof Sec 2, and containing\napproximately 193 acres.\n310, 210.600.g",
    "media:imagetext_created": 1787954118,
    "media:imagetext_source": "com.apple.visionkit.VNImageRequestHandler#Version 26.6.2 (Build 25G83)",
    "media:medium": "image",
    "media:mimetype": "image/tiff",
    "media:properties": {
      "sizes": {
        "b": {
          "extension": "jpg",
          "height": 768,
          "mimetype": "image/jpeg",
          "secret": "xsGBFT7Qv6Yhi0NiSbAzRkb59JRl8HSQ",
          "width": 596
        },
        "c": {
          "extension": "jpg",
          "height": 600,
          "mimetype": "image/jpeg",
          "secret": "xsGBFT7Qv6Yhi0NiSbAzRkb59JRl8HSQ",
          "width": 466
        },
        "dc": {
          "extension": "jpg",
          "height": 600,
          "mimetype": "image/jpeg",
          "secret": "xsGBFT7Qv6Yhi0NiSbAzRkb59JRl8HSQ",
          "width": 466
        },
        "ds": {
          "extension": "jpg",
          "height": 320,
          "mimetype": "image/jpeg",
          "secret": "xsGBFT7Qv6Yhi0NiSbAzRkb59JRl8HSQ",
          "width": 320
        },
        "k": {
          "extension": "jpg",
          "height": 1536,
          "mimetype": "image/jpeg",
          "secret": "xsGBFT7Qv6Yhi0NiSbAzRkb59JRl8HSQ",
          "width": 1192
        },
        "n": {
          "extension": "jpg",
          "height": 240,
          "mimetype": "image/jpeg",
          "secret": "xsGBFT7Qv6Yhi0NiSbAzRkb59JRl8HSQ",
          "width": 186
        },
        "o": {
          "extension": "jpg",
          "height": 1800,
          "mimetype": "image/jpeg",
          "secret": "ZesrvOMjzQMREGcOiDbKgrPdSGW3sVDa",
          "width": 1398
        },
        "s": {
          "extension": "jpg",
          "height": 320,
          "mimetype": "image/jpeg",
          "secret": "xsGBFT7Qv6Yhi0NiSbAzRkb59JRl8HSQ",
          "width": 320
        },
        "z": {
          "extension": "jpg",
          "height": 480,
          "mimetype": "image/jpeg",
          "secret": "xsGBFT7Qv6Yhi0NiSbAzRkb59JRl8HSQ",
          "width": 372
        }
      }
    },
    "media:source": "sfomuseum",
    "media:status_id": 1,
    "media:uri_template": "https://static.sfomuseum.org/media/152/785/674/7/1527856747_{secret}_{label}.{extension}",
    "millsfield:airport_id": [
      1360695653
    ],
    "millsfield:category_id": 1511214239,
    "millsfield:collection_id": 1511214207,
    "millsfield:images_colors": [
      {
        "hex": "#eae0bc",
        "name": "#eae0bc",
        "reference": "marekm4"
      },
      {
        "hex": "#f5deb3",
        "name": "wheat",
        "reference": "css4"
      },
      {
        "hex": "#eceabe",
        "name": "Spring Green",
        "reference": "crayola"
      },
      {
        "hex": "#404129",
        "name": "#404129",
        "reference": "marekm4"
      },
      {
        "hex": "#2f4f4f",
        "name": "darkslategrey",
        "reference": "css4"
      },
      {
        "hex": "#414a4c",
        "name": "Outer Space",
        "reference": "crayola"
      }
    ],
    "millsfield:images_texts": [
      "Wires feed\nKNOW ALL MEN BY THESE PRESENTS:\nTHAT\nSHARP ESTATE COMPANY\nof the County of\n_, State of California, in\nconsideration of the sum of One Dollar ($1.00) to it in hand\npaid, receipt whereof is hereby acknowledged, does hereby bar-\ngain and agree to and with the CITY AND COUNTY OF SAN\nFRANCISCO, a municipal corporation, upon the payment to it\nor its legal representative, of the sum of NINETEEN THOUSAND\nTHREE HUNDRED and 00/100 DOLLARS ($19,300.00) to sell\nand convey to said City and County of San Francisco all that\ncertain piece or parcel of lana situated in the City and\nCounty of San Francisco, State of California, and more\nparticularly described as follows, to-wit:\nAll of that certain piece or parcel of land\nsituated in San Mateo county,\nState\nof California\nand more particularly described as follows:\nThat certain tract of land in Section\nT. 4\nM.D.B.\u0026M., designated\non the ordicial.\nnan of the County of San Mateo as \"Sharp Estate\n193\nand being portions or all of NW ÷ of S. 2;\nthe NE of the sw of\ns. 2, and containing approximately 193 acres.\nTOGETHER with all the appurtenances\ntrevento belonging\nand the right to slope on the adjoining lanas of the under-\nsigned owner •\nIN WITNESS THEREOF\nhave hereunto set\nhand\n•and seal this\nday of\n,1929.\nSigned, sealed and delivered\nin the presence of\nName of wife (or husband):\nAddress, to sena deed:",
      "All of that certain piece or parcel of land\nsituated in San Mateo County,\nState of California\nand\nmore particularly described as follows:\nl'hat certain tract of land in section 2, 1 4\ns., R. 5 W., M. D. B. \u0026 M., designated on the\nofficial map of the County\nEstate 193\nof San Mateo as \"Sharp\nbeing portions or all of\nthe SW * OF NE * OF S.\nthe NE\nthe wa of set of s. 2\nand the SE ‡ of SW\nof Sec 2, and containing\napproximately 193 acres.\n310, 210.600.g",
      "KNOW ALL MEN BY THESE PRESENTS:\nTHAT\nSHARP ESTATE COMPANY\nof the County of\n__, State of California, in\nconsideration of the sum of One Dollar ($1.00) toit in hand\npaid, receipt whereof is hereby acknowledged, des hereby bar-\ngain and agree to and with the CITY AND COUNTY OF SAI\nFRANCISCO, a municipal corporation, upon the payment to it\nor its legal representative, of the sum of NINETBEN THOUSAND\nTHRINE HUNDRED and 00/100 DOLLARS ($19,300.00) to sell\nand convey to said City and County of San Franeisco all that\ncertain piece or parcel of lana situated in the City and\nCounty of San Francisco, State of California, and more\nparticularly described as follows, to-wit:\nAll of that certain piece or parcel of land\nsituated in San Mateo County, State of California\nand more particularly deseribed as follows:\nThat certain tract of land in Section 2\n1. 4\nS., Br the County of Sån Mateo as \"sharp Estate 193\nmap of the\nM.D.B.\u0026ll., designated on the official\n5. 810 505 mately 0s no rege sil + or 8\nand being portions or 11 of the sit of\nthe NEt of the\nS. 2, and containing approximately 193 acres.\nTOCETHER with all the appurtenances thereunto belonging\nand the right to slope on the adjoining lands of the under-\nsigned owner •\nIN WITNESS WHEREOF\nhave hereunto set\nand seal this\nday o1\n,1929.\nSigned sealed and delivered\nin the presence of\nName of wife (or husband):\nAddress, to send deed:",
      "IN WITNESS WHEREO, the parties hereto have set\ntheir hands and seals this\nday of\n1927.\nHILLS ESZARE INCORPORAZED,\na Corporation,\nBy\nBy\nPresident\nSecretary\nTESSOR\nCITY AND COUNTY OF SAI FRANCISCO,\na Municipal Corporation,\nBy\nMayor\nATTEST:\nClerk of the Board\nvisors.\nLESSEE\nSuper-"
    ],
    "millsfield:images_texts_ids": [
      1527856745,
      1527856747,
      1527856751,
      1527856753
    ],
    "millsfield:similar": {
      "apple/mobileclip_s0": [
        {
          "distance": 0.25483546,
          "id": 1913796937
        },
        {
          "distance": 0.28708187,
          "id": 1762897109
        },
        {
          "distance": 0.2935928,
          "id": 1913799481
        },
        {
          "distance": 0.29589593,
          "id": 1913799563
        },
        {
          "distance": 0.2973242,
          "id": 1913822647
        },
        {
          "distance": 0.3146432,
          "id": 1913797001
        },
        {
          "distance": 0.31566718,
          "id": 1527856769
        },
        {
          "distance": 0.3233054,
          "id": 1913799569
        },
        {
          "distance": 0.32527426,
          "id": 1913799657
        },
        {
          "distance": 0.3265245,
          "id": 1913801817
        }
      ],
      "apple/mobileclip_s1": [
        {
          "distance": 0.21549372,
          "id": 1913796937
        },
        {
          "distance": 0.22388133,
          "id": 1527856769
        },
        {
          "distance": 0.2242534,
          "id": 1527856861
        },
        {
          "distance": 0.24194492,
          "id": 1913799563
        },
        {
          "distance": 0.2466735,
          "id": 1527856829
        },
        {
          "distance": 0.2542063,
          "id": 1913796741
        },
        {
          "distance": 0.25692615,
          "id": 1913799427
        },
        {
          "distance": 0.26195017,
          "id": 1913797001
        },
        {
          "distance": 0.26259628,
          "id": 1913799425
        },
        {
          "distance": 0.26998824,
          "id": 1913799667
        }
      ],
      "apple/mobileclip_s2": [
        {
          "distance": 0.2459153,
          "id": 1913799481
        },
        {
          "distance": 0.29445663,
          "id": 1913799563
        },
        {
          "distance": 0.30325344,
          "id": 1913796937
        },
        {
          "distance": 0.3037795,
          "id": 1527856769
        },
        {
          "distance": 0.31179145,
          "id": 1913799427
        },
        {
          "distance": 0.31455472,
          "id": 1913797025
        },
        {
          "distance": 0.32372746,
          "id": 1913801037
        },
        {
          "distance": 0.3306442,
          "id": 1913822647
        },
        {
          "distance": 0.33404505,
          "id": 1527856829
        },
        {
          "distance": 0.33407563,
          "id": 1913799417
        }
      ]
    },
    "millsfield:subcategory_id": 1511213147,
    "mz:hierarchy_label": 1,
    "mz:is_current": -1,
    "sfomuseum:filename": "157170.tif",
    "sfomuseum:image_id": 157170,
    "sfomuseum:image_index": 5,
    "sfomuseum:image_type": "studio",
    "sfomuseum:object_id": 50618,
    "sfomuseum:placetype": "image",
    "sfomuseum:primary_image": 0,
    "src:geom": "sfomuseum",
    "wof:belongsto": [
      1511214239,
      1511910055,
      102527513,
      102191575,
      85633793,
      1511213147,
      85922583,
      102087579,
      1511214277,
      1511214203,
      85688637
    ],
    "wof:breaches": [],
    "wof:country": "US",
    "wof:created": 1578955185,
    "wof:depicts": [
      1360695653,
      1511910055
    ],
    "wof:geomhash": "bd906905ce4be6c0651c90b0fc24804c",
    "wof:hierarchy": [
      {
        "arcade_id": 1511213147,
        "building_id": 1511214277,
        "campus_id": 102527513,
        "concourse_id": 1511214239,
        "continent_id": 102191575,
        "country_id": 85633793,
        "county_id": 102087579,
        "custom_id": 1527856747,
        "image_id": 1527856747,
        "locality_id": 85922583,
        "media_id": 1527856747,
        "neighbourhood_id": -1,
        "region_id": 85688637,
        "venue_id": 1511910055,
        "wing_id": 1511214203
      }
    ],
    "wof:id": 1527856747,
    "wof:lastmodified": 1788160853,
    "wof:name": "lease draft: City and County of San Francisco, Sharp Estate",
    "wof:parent_id": 1511910055,
    "wof:placetype": "custom",
    "wof:placetype_alt": [
      "image"
    ],
    "wof:repo": "sfomuseum-data-media-collection",
    "wof:superseded_by": [],
    "wof:supersedes": [],
    "wof:tags": []
  },
  "bbox": [
    -122.386155,
    37.616358,
    -122.386155,
    37.616358
  ],
  "geometry": {"type":"Point","coordinates":[-122.386155,37.616358]}
}
