{
  "id": 1796472107,
  "type": "Feature",
  "properties": {
    "date:cessation_lower": "1969-01-01",
    "date:cessation_upper": "1969-12-31",
    "date:inception_lower": "1969-01-01",
    "date:inception_upper": "1969-12-31",
    "edtf:cessation": "1969~",
    "edtf:inception": "1969~",
    "geom:area": 2.477324999997507e-7,
    "geom:bbox": "-122.386472,37.616105,-122.385834,37.616611",
    "geom:latitude": 37.61635756125121,
    "geom:longitude": -122.38615532866096,
    "media:fingerprint": "e546adcff8f8c381fb40309405db0cab01f0d7bd",
    "media:imagehash_avg": "a:c581c7c7c3c3c7e7",
    "media:imagehash_diff": "d:2d2f0e0e0e0e0e8e",
    "media:imagetext": "JAL",
    "media:imagetext_created": 1787966595,
    "media:imagetext_source": "com.apple.visionkit.VNImageRequestHandler#Version 26.6.2 (Build 25G83)",
    "media:mimetype": "image/jpeg",
    "media:properties": {
      "sizes": {
        "b": {
          "extension": "jpg",
          "height": 768,
          "mimetype": "image/jpeg",
          "secret": "1sQOFDcgYF7rqsO85AGtaQNgxaWGD6iH",
          "width": 146
        },
        "c": {
          "extension": "jpg",
          "height": 600,
          "mimetype": "image/jpeg",
          "secret": "1sQOFDcgYF7rqsO85AGtaQNgxaWGD6iH",
          "width": 114
        },
        "dc": {
          "extension": "jpg",
          "height": 600,
          "mimetype": "image/jpeg",
          "secret": "1sQOFDcgYF7rqsO85AGtaQNgxaWGD6iH",
          "width": 114
        },
        "ds": {
          "extension": "jpg",
          "height": 320,
          "mimetype": "image/jpeg",
          "secret": "1sQOFDcgYF7rqsO85AGtaQNgxaWGD6iH",
          "width": 320
        },
        "k": {
          "extension": "jpg",
          "height": 1536,
          "mimetype": "image/jpeg",
          "secret": "1sQOFDcgYF7rqsO85AGtaQNgxaWGD6iH",
          "width": 293
        },
        "n": {
          "extension": "jpg",
          "height": 240,
          "mimetype": "image/jpeg",
          "secret": "1sQOFDcgYF7rqsO85AGtaQNgxaWGD6iH",
          "width": 45
        },
        "o": {
          "extension": "jpg",
          "height": 2206,
          "mimetype": "image/jpeg",
          "secret": "3fYr6Di3oZ8tKVAijDLIv7eNRQ4s7GIY",
          "width": 422
        },
        "s": {
          "extension": "jpg",
          "height": 320,
          "mimetype": "image/jpeg",
          "secret": "1sQOFDcgYF7rqsO85AGtaQNgxaWGD6iH",
          "width": 320
        },
        "z": {
          "extension": "jpg",
          "height": 480,
          "mimetype": "image/jpeg",
          "secret": "1sQOFDcgYF7rqsO85AGtaQNgxaWGD6iH",
          "width": 91
        }
      }
    },
    "media:source": "sfomuseum",
    "media:status_id": 1,
    "media:uri_template": "https://static.sfomuseum.org/media/179/647/210/7/1796472107_{secret}_{label}.{extension}",
    "millsfield:airline_id": [
      1159285785
    ],
    "millsfield:category_id": 1746152551,
    "millsfield:collection_id": 1511214203,
    "millsfield:company_id": [
      1159288505
    ],
    "millsfield:images_colors": [
      {
        "hex": "#d5d7d5",
        "name": "#d5d7d5",
        "reference": "marekm4"
      },
      {
        "hex": "#d3d3d3",
        "name": "lightgrey",
        "reference": "css4"
      },
      {
        "hex": "#dbd7d2",
        "name": "Timberwolf",
        "reference": "crayola"
      },
      {
        "hex": "#3d403b",
        "name": "#3d403b",
        "reference": "marekm4"
      },
      {
        "hex": "#2f4f4f",
        "name": "darkslategrey",
        "reference": "css4"
      },
      {
        "hex": "#414a4c",
        "name": "Outer Space",
        "reference": "crayola"
      }
    ],
    "millsfield:images_texts": [
      "JAL"
    ],
    "millsfield:images_texts_ids": [
      1796472107
    ],
    "millsfield:similar": {
      "apple/mobileclip_s0": [
        {
          "distance": 0.43303594,
          "id": 1796465021
        },
        {
          "distance": 0.50230247,
          "id": 1796465035
        },
        {
          "distance": 0.50586605,
          "id": 1796503273
        },
        {
          "distance": 0.5095231,
          "id": 1796472087
        },
        {
          "distance": 0.5209525,
          "id": 1796597049
        },
        {
          "distance": 0.52097946,
          "id": 1796472089
        },
        {
          "distance": 0.5895292,
          "id": 1796484683
        },
        {
          "distance": 0.6069757,
          "id": 1796476611
        },
        {
          "distance": 0.61309683,
          "id": 1796506289
        },
        {
          "distance": 0.6169204,
          "id": 1796472085
        }
      ],
      "apple/mobileclip_s1": [
        {
          "distance": 0.24514534,
          "id": 1796465021
        },
        {
          "distance": 0.25370952,
          "id": 1796472087
        },
        {
          "distance": 0.3031361,
          "id": 1796503273
        },
        {
          "distance": 0.33391914,
          "id": 1796484683
        },
        {
          "distance": 0.33602962,
          "id": 1796472089
        },
        {
          "distance": 0.33810088,
          "id": 1796506291
        },
        {
          "distance": 0.3412063,
          "id": 1796597049
        },
        {
          "distance": 0.34190708,
          "id": 1796465035
        },
        {
          "distance": 0.34248754,
          "id": 1796472083
        },
        {
          "distance": 0.34256005,
          "id": 1796506289
        }
      ],
      "apple/mobileclip_s2": [
        {
          "distance": 0.25468007,
          "id": 1796472087
        },
        {
          "distance": 0.2810445,
          "id": 1796465021
        },
        {
          "distance": 0.36206704,
          "id": 1796472083
        },
        {
          "distance": 0.3694932,
          "id": 1796465035
        },
        {
          "distance": 0.37342036,
          "id": 1796503273
        },
        {
          "distance": 0.40451032,
          "id": 1796476609
        },
        {
          "distance": 0.415141,
          "id": 1796476603
        },
        {
          "distance": 0.4171439,
          "id": 1796472075
        },
        {
          "distance": 0.418158,
          "id": 1796472111
        },
        {
          "distance": 0.43368658,
          "id": 1796506291
        }
      ]
    },
    "millsfield:subcategory_id": 1511213417,
    "mz:is_current": 1,
    "sfomuseum:filename": "17069.JPG",
    "sfomuseum:image_id": 17069,
    "sfomuseum:image_index": 1,
    "sfomuseum:image_type": "curator",
    "sfomuseum:object_id": 64064,
    "sfomuseum:placetype": "image",
    "sfomuseum:primary_image": 1,
    "src:geom": "sfomuseum",
    "wof:belongsto": [
      102527513,
      1159162825,
      102191575,
      85633793,
      102087579,
      85922583,
      1796471681,
      85688637,
      1159160869
    ],
    "wof:country": "XY",
    "wof:created": 1666338944,
    "wof:depicts": [
      1796471681,
      1159285785,
      1159288505,
      1159284563,
      1159288585
    ],
    "wof:geomhash": "ed7c2ab3547fc3916b5edc33488deaa7",
    "wof:hierarchy": [
      {
        "building_id": -1,
        "campus_id": 102527513,
        "collection_id": 1159162825,
        "concourse_id": 1159162825,
        "continent_id": 102191575,
        "country_id": 85633793,
        "county_id": 102087579,
        "custom_id": 1796472107,
        "image_id": 1796472107,
        "locality_id": 85922583,
        "neighbourhood_id": -1,
        "object_id": 1796471681,
        "region_id": 85688637,
        "wing_id": 1159160869
      }
    ],
    "wof:id": 1796472107,
    "wof:lastmodified": 1788451530,
    "wof:name": "fork: Japan Airlines",
    "wof:parent_id": 1796471681,
    "wof:placetype": "custom",
    "wof:placetype_alt": [
      "image"
    ],
    "wof:repo": "sfomuseum-data-media-collection",
    "wof:superseded_by": [],
    "wof:supersedes": []
  },
  "bbox": [
    -122.386472,
    37.616105,
    -122.385834,
    37.616611
  ],
  "geometry": {"type":"Polygon","coordinates":[[[-122.386472,37.616318],[-122.386435,37.616233],[-122.386376,37.616178],[-122.386301,37.616131],[-122.386161,37.616105],[-122.386022,37.616131],[-122.385914,37.616186],[-122.385855,37.616267],[-122.385834,37.616369],[-122.385871,37.616467],[-122.385941,37.616543],[-122.386054,37.616603],[-122.386183,37.616611],[-122.386306,37.616573],[-122.386419,37.616509],[-122.386467,37.616411],[-122.386472,37.616318]]]}
}
