{
  "id": 1527850903,
  "type": "Feature",
  "properties": {
    "date:cessation_lower": "1970-01-01",
    "date:cessation_upper": "1979-12-31",
    "date:inception_lower": "1970-01-01",
    "date:inception_upper": "1979-12-31",
    "edtf:cessation": "197X",
    "edtf:date": "197x",
    "edtf:inception": "197X",
    "geom:area": 0,
    "geom:bbox": "-122.386155,37.616358,-122.386155,37.616358",
    "geom:latitude": 37.616358,
    "geom:longitude": -122.386155,
    "iso:country": "XX",
    "media:fingerprint": "f073a77f63e68a16503cf04ffac1b5eef24bb81f",
    "media:imagehash_avg": "a:181c0e1e7f7e7c3c",
    "media:imagehash_diff": "d:e09090d0e8f0e0f0",
    "media:medium": "image",
    "media:mimetype": "image/tiff",
    "media:properties": {
      "sizes": {
        "b": {
          "extension": "jpg",
          "height": 682,
          "mimetype": "image/jpeg",
          "secret": "QUKtCh2ebcDTiztkTLJmsFNt0eWYFQpr",
          "width": 1024
        },
        "c": {
          "extension": "jpg",
          "height": 533,
          "mimetype": "image/jpeg",
          "secret": "QUKtCh2ebcDTiztkTLJmsFNt0eWYFQpr",
          "width": 800
        },
        "dc": {
          "extension": "jpg",
          "height": 533,
          "mimetype": "image/jpeg",
          "secret": "QUKtCh2ebcDTiztkTLJmsFNt0eWYFQpr",
          "width": 800
        },
        "ds": {
          "extension": "jpg",
          "height": 320,
          "mimetype": "image/jpeg",
          "secret": "QUKtCh2ebcDTiztkTLJmsFNt0eWYFQpr",
          "width": 320
        },
        "k": {
          "extension": "jpg",
          "height": 1365,
          "mimetype": "image/jpeg",
          "secret": "QUKtCh2ebcDTiztkTLJmsFNt0eWYFQpr",
          "width": 2048
        },
        "n": {
          "extension": "jpg",
          "height": 213,
          "mimetype": "image/jpeg",
          "secret": "QUKtCh2ebcDTiztkTLJmsFNt0eWYFQpr",
          "width": 320
        },
        "o": {
          "extension": "jpg",
          "height": 3280,
          "mimetype": "image/jpeg",
          "secret": "pUI8eXRkgp7HiHeTwBX9weoWydc8XmdV",
          "width": 4920
        },
        "s": {
          "extension": "jpg",
          "height": 320,
          "mimetype": "image/jpeg",
          "secret": "QUKtCh2ebcDTiztkTLJmsFNt0eWYFQpr",
          "width": 320
        },
        "z": {
          "extension": "jpg",
          "height": 426,
          "mimetype": "image/jpeg",
          "secret": "QUKtCh2ebcDTiztkTLJmsFNt0eWYFQpr",
          "width": 640
        }
      }
    },
    "media:source": "sfomuseum",
    "media:status_id": 1,
    "media:uri_template": "https://static.sfomuseum.org/media/152/785/090/3/1527850903_{secret}_{label}.{extension}",
    "millsfield:airline_id": [
      1159285759
    ],
    "millsfield:category_id": 1746152551,
    "millsfield:collection_id": 1511214203,
    "millsfield:company_id": [
      1159288301
    ],
    "millsfield:images_colors": [
      {
        "hex": "#777676",
        "name": "#777676",
        "reference": "marekm4"
      },
      {
        "hex": "#808080",
        "name": "grey",
        "reference": "css4"
      },
      {
        "hex": "#757575",
        "name": "Sonic Silver",
        "reference": "crayola"
      },
      {
        "hex": "#888787",
        "name": "#888787",
        "reference": "marekm4"
      },
      {
        "hex": "#95918c",
        "name": "Gray",
        "reference": "crayola"
      },
      {
        "hex": "#807f7f",
        "name": "#807f7f",
        "reference": "marekm4"
      },
      {
        "hex": "#7f7f80",
        "name": "#7f7f80",
        "reference": "marekm4"
      },
      {
        "hex": "#807f80",
        "name": "#807f80",
        "reference": "marekm4"
      }
    ],
    "millsfield:similar": {
      "apple/mobileclip_s0": [
        {
          "distance": 0.21338691,
          "id": 1796472215
        },
        {
          "distance": 0.23323393,
          "id": 1796472211
        },
        {
          "distance": 0.2425295,
          "id": 1763372755
        },
        {
          "distance": 0.24972995,
          "id": 1796484809
        },
        {
          "distance": 0.26121408,
          "id": 1796472123
        },
        {
          "distance": 0.26431882,
          "id": 1796484687
        },
        {
          "distance": 0.27069867,
          "id": 1796472541
        },
        {
          "distance": 0.2707747,
          "id": 1763513093
        },
        {
          "distance": 0.2721356,
          "id": 1796472415
        },
        {
          "distance": 0.27479696,
          "id": 1796527797
        }
      ],
      "apple/mobileclip_s1": [
        {
          "distance": 0.15594538,
          "id": 1763372755
        },
        {
          "distance": 0.163855,
          "id": 1796476669
        },
        {
          "distance": 0.16481851,
          "id": 1796476675
        },
        {
          "distance": 0.16506341,
          "id": 1796472215
        },
        {
          "distance": 0.16507699,
          "id": 1796506613
        },
        {
          "distance": 0.1656724,
          "id": 1796484687
        },
        {
          "distance": 0.16744022,
          "id": 1796454775
        },
        {
          "distance": 0.16762789,
          "id": 1897762447
        },
        {
          "distance": 0.16904226,
          "id": 1796465221
        },
        {
          "distance": 0.16939935,
          "id": 1796472259
        }
      ],
      "apple/mobileclip_s2": [
        {
          "distance": 0.18503793,
          "id": 1796506613
        },
        {
          "distance": 0.19474459,
          "id": 1796472215
        },
        {
          "distance": 0.19940296,
          "id": 1930466461
        },
        {
          "distance": 0.20571782,
          "id": 1763372755
        },
        {
          "distance": 0.20611583,
          "id": 1796509673
        },
        {
          "distance": 0.20730764,
          "id": 1796509675
        },
        {
          "distance": 0.21044667,
          "id": 1796476651
        },
        {
          "distance": 0.21184675,
          "id": 1796472359
        },
        {
          "distance": 0.21448882,
          "id": 1796476675
        },
        {
          "distance": 0.2152424,
          "id": 1796472211
        }
      ]
    },
    "millsfield:subcategory_id": 1511213417,
    "mz:hierarchy_label": 1,
    "mz:is_current": -1,
    "sfomuseum:filename": "82535.tif",
    "sfomuseum:image_id": 82535,
    "sfomuseum:image_index": 5,
    "sfomuseum:image_type": "studio",
    "sfomuseum:object_id": 63969,
    "sfomuseum:placetype": "image",
    "sfomuseum:primary_image": 1,
    "src:geom": "sfomuseum",
    "wof:belongsto": [
      1511214245,
      1511922449,
      102527513,
      102191575,
      85633793,
      1511213767,
      85922583,
      102087579,
      1511214277,
      1511214203,
      85688637
    ],
    "wof:breaches": [],
    "wof:country": "XX",
    "wof:created": 1578954269,
    "wof:depicts": [
      1511922449,
      1159285759,
      1159284217,
      1159288301
    ],
    "wof:geomhash": "bd906905ce4be6c0651c90b0fc24804c",
    "wof:hierarchy": [
      {
        "arcade_id": 1511213767,
        "building_id": 1511214277,
        "campus_id": 102527513,
        "concourse_id": 1511214245,
        "continent_id": 102191575,
        "country_id": 85633793,
        "county_id": 102087579,
        "custom_id": 1527850903,
        "image_id": 1527850903,
        "locality_id": 85922583,
        "media_id": 1527850903,
        "neighbourhood_id": -1,
        "region_id": 85688637,
        "venue_id": 1511922449,
        "wing_id": 1511214203
      }
    ],
    "wof:id": 1527850903,
    "wof:lastmodified": 1788450182,
    "wof:name": "spoon: CP Air (Canadian Pacific Airlines)",
    "wof:parent_id": 1511922449,
    "wof:placetype": "custom",
    "wof:placetype_alt": [
      "image"
    ],
    "wof:repo": "sfomuseum-data-media-collection",
    "wof:superseded_by": [],
    "wof:supersedes": [],
    "wof:tags": []
  },
  "bbox": [
    -122.386155,
    37.616358,
    -122.386155,
    37.616358
  ],
  "geometry": {"type":"Point","coordinates":[-122.386155,37.616358]}
}
