{
  "id": 1763380875,
  "type": "Feature",
  "properties": {
    "date:cessation_lower": "1975-01-01",
    "date:cessation_upper": "1975-12-31",
    "date:inception_lower": "1975-01-01",
    "date:inception_upper": "1975-12-31",
    "edtf:cessation": "1975",
    "edtf:inception": "1975",
    "geom:area": 2.477324999997507e-7,
    "geom:bbox": "-122.386472,37.616105,-122.385834,37.616611",
    "geom:latitude": 37.61635756125121,
    "geom:longitude": -122.38615532866096,
    "media:fingerprint": "5ba963d23d127870218379b1c4eab07f73865eab",
    "media:imagehash_avg": "a:ffc3c3c3c3c3c3ff",
    "media:imagehash_diff": "d:8797939797979f9f",
    "media:imagetext": "LOS ANCELES\n• DELTA AIR LINES",
    "media:imagetext_created": 1787962580,
    "media:imagetext_source": "com.apple.visionkit.VNImageRequestHandler#Version 26.6.2 (Build 25G83)",
    "media:mimetype": "image/tiff",
    "media:properties": {
      "sizes": {
        "b": {
          "extension": "jpg",
          "height": 768,
          "mimetype": "image/jpeg",
          "secret": "qKfYfnVrslqEfMXe6Mgl68zI3A3dsivo",
          "width": 965
        },
        "c": {
          "extension": "jpg",
          "height": 600,
          "mimetype": "image/jpeg",
          "secret": "qKfYfnVrslqEfMXe6Mgl68zI3A3dsivo",
          "width": 754
        },
        "dc": {
          "extension": "jpg",
          "height": 600,
          "mimetype": "image/jpeg",
          "secret": "qKfYfnVrslqEfMXe6Mgl68zI3A3dsivo",
          "width": 754
        },
        "ds": {
          "extension": "jpg",
          "height": 320,
          "mimetype": "image/jpeg",
          "secret": "qKfYfnVrslqEfMXe6Mgl68zI3A3dsivo",
          "width": 320
        },
        "k": {
          "extension": "jpg",
          "height": 1536,
          "mimetype": "image/jpeg",
          "secret": "qKfYfnVrslqEfMXe6Mgl68zI3A3dsivo",
          "width": 1931
        },
        "n": {
          "extension": "jpg",
          "height": 240,
          "mimetype": "image/jpeg",
          "secret": "qKfYfnVrslqEfMXe6Mgl68zI3A3dsivo",
          "width": 301
        },
        "o": {
          "extension": "jpg",
          "height": 1667,
          "mimetype": "image/jpeg",
          "secret": "xORjTnhJ5y5w2V5Lc7diLm5IjThNjUWH",
          "width": 2096
        },
        "s": {
          "extension": "jpg",
          "height": 320,
          "mimetype": "image/jpeg",
          "secret": "qKfYfnVrslqEfMXe6Mgl68zI3A3dsivo",
          "width": 320
        },
        "z": {
          "extension": "jpg",
          "height": 480,
          "mimetype": "image/jpeg",
          "secret": "qKfYfnVrslqEfMXe6Mgl68zI3A3dsivo",
          "width": 603
        }
      }
    },
    "media:source": "sfomuseum",
    "media:status_id": 1,
    "media:uri_template": "https://static.sfomuseum.org/media/176/338/087/5/1763380875_{secret}_{label}.{extension}",
    "millsfield:airline_id": [
      1159284261
    ],
    "millsfield:category_id": 1762679663,
    "millsfield:collection_id": 1511214203,
    "millsfield:company_id": [
      1159287931
    ],
    "millsfield:images_colors": [
      {
        "hex": "#b1b0af",
        "name": "#b1b0af",
        "reference": "marekm4"
      },
      {
        "hex": "#a9a9a9",
        "name": "darkgrey",
        "reference": "css4"
      },
      {
        "hex": "#b0b7c6",
        "name": "Cadet Blue",
        "reference": "crayola"
      },
      {
        "hex": "#483e3a",
        "name": "#483e3a",
        "reference": "marekm4"
      },
      {
        "hex": "#2f4f4f",
        "name": "darkslategrey",
        "reference": "css4"
      },
      {
        "hex": "#414a4c",
        "name": "Outer Space",
        "reference": "crayola"
      },
      {
        "hex": "#a1564a",
        "name": "#a1564a",
        "reference": "marekm4"
      },
      {
        "hex": "#a0522d",
        "name": "sienna",
        "reference": "css4"
      },
      {
        "hex": "#a5694f",
        "name": "Sepia",
        "reference": "crayola"
      },
      {
        "hex": "#bca357",
        "name": "#bca357",
        "reference": "marekm4"
      },
      {
        "hex": "#bdb76b",
        "name": "darkkhaki",
        "reference": "css4"
      },
      {
        "hex": "#bab86c",
        "name": "Olive Green",
        "reference": "crayola"
      },
      {
        "hex": "#6194a9",
        "name": "#6194a9",
        "reference": "marekm4"
      },
      {
        "hex": "#5f9ea0",
        "name": "cadetblue",
        "reference": "css4"
      },
      {
        "hex": "#6699cc",
        "name": "Blue Gray",
        "reference": "crayola"
      }
    ],
    "millsfield:images_texts": [
      "LOS ANCELES\n• DELTA AIR LINES"
    ],
    "millsfield:images_texts_ids": [
      1763380875
    ],
    "millsfield:similar": {
      "apple/mobileclip_s0": [
        {
          "distance": 0.26327598,
          "id": 1763380625
        },
        {
          "distance": 0.26802966,
          "id": 1763380735
        },
        {
          "distance": 0.410725,
          "id": 1763380877
        },
        {
          "distance": 0.5936859,
          "id": 1763380891
        },
        {
          "distance": 0.6114571,
          "id": 1763380745
        },
        {
          "distance": 0.61722326,
          "id": 1763380921
        },
        {
          "distance": 0.628846,
          "id": 1763380885
        },
        {
          "distance": 0.63666123,
          "id": 1763380623
        },
        {
          "distance": 0.63919896,
          "id": 1763380893
        },
        {
          "distance": 0.6450857,
          "id": 1763380677
        }
      ],
      "apple/mobileclip_s1": [
        {
          "distance": 0.26757532,
          "id": 1763380877
        },
        {
          "distance": 0.26906687,
          "id": 1763380735
        },
        {
          "distance": 0.30175048,
          "id": 1763380625
        },
        {
          "distance": 0.48223287,
          "id": 1763380883
        },
        {
          "distance": 0.48624074,
          "id": 1763380893
        },
        {
          "distance": 0.5008805,
          "id": 1763380891
        },
        {
          "distance": 0.50166506,
          "id": 1913842289
        },
        {
          "distance": 0.5035828,
          "id": 1763380885
        },
        {
          "distance": 0.5048213,
          "id": 1763380873
        },
        {
          "distance": 0.50606555,
          "id": 1964359225
        }
      ],
      "apple/mobileclip_s2": [
        {
          "distance": 0.25429633,
          "id": 1763380735
        },
        {
          "distance": 0.2603002,
          "id": 1763380625
        },
        {
          "distance": 0.2882662,
          "id": 1763380877
        },
        {
          "distance": 0.6306478,
          "id": 1763380873
        },
        {
          "distance": 0.65030926,
          "id": 1964167537
        },
        {
          "distance": 0.6544882,
          "id": 1964167523
        },
        {
          "distance": 0.6600882,
          "id": 1763380871
        },
        {
          "distance": 0.66982734,
          "id": 1763380885
        },
        {
          "distance": 0.66989756,
          "id": 1763380677
        },
        {
          "distance": 0.6774512,
          "id": 1763380667
        }
      ]
    },
    "millsfield:subcategory_id": 1511213361,
    "mz:is_current": 1,
    "sfomuseum:filename": "115197.tif",
    "sfomuseum:image_id": 115197,
    "sfomuseum:image_index": 5,
    "sfomuseum:image_type": "studio",
    "sfomuseum:object_id": 107452,
    "sfomuseum:placetype": "image",
    "sfomuseum:primary_image": 1,
    "src:geom": "sfomuseum",
    "wof:belongsto": [
      102527513,
      1159162825,
      102191575,
      85633793,
      102087579,
      85922583,
      1763350589,
      85688637,
      1159160869
    ],
    "wof:country": "XY",
    "wof:created": 1648683678,
    "wof:depicts": [
      1763350589,
      1159284261,
      1159287931
    ],
    "wof:geomhash": "ed7c2ab3547fc3916b5edc33488deaa7",
    "wof:hierarchy": [
      {
        "building_id": -1,
        "campus_id": 102527513,
        "collection_id": 1159162825,
        "concourse_id": 1159162825,
        "continent_id": 102191575,
        "country_id": 85633793,
        "county_id": 102087579,
        "custom_id": 1763380875,
        "image_id": 1763380875,
        "locality_id": 85922583,
        "neighbourhood_id": -1,
        "object_id": 1763350589,
        "region_id": 85688637,
        "wing_id": 1159160869
      }
    ],
    "wof:id": 1763380875,
    "wof:lastmodified": 1788451107,
    "wof:name": "playing cards: Delta Air Lines, Los Angeles",
    "wof:parent_id": 1763350589,
    "wof:placetype": "custom",
    "wof:placetype_alt": [
      "image"
    ],
    "wof:repo": "sfomuseum-data-media-collection",
    "wof:superseded_by": [],
    "wof:supersedes": []
  },
  "bbox": [
    -122.386472,
    37.616105,
    -122.385834,
    37.616611
  ],
  "geometry": {"type":"Polygon","coordinates":[[[-122.386472,37.616318],[-122.386435,37.616233],[-122.386376,37.616178],[-122.386301,37.616131],[-122.386161,37.616105],[-122.386022,37.616131],[-122.385914,37.616186],[-122.385855,37.616267],[-122.385834,37.616369],[-122.385871,37.616467],[-122.385941,37.616543],[-122.386054,37.616603],[-122.386183,37.616611],[-122.386306,37.616573],[-122.386419,37.616509],[-122.386467,37.616411],[-122.386472,37.616318]]]}
}
