{
  "id": 1527826331,
  "type": "Feature",
  "properties": {
    "date:cessation_lower": "1968-01-01",
    "date:cessation_upper": "1968-12-31",
    "date:inception_lower": "1968-01-01",
    "date:inception_upper": "1968-12-31",
    "edtf:cessation": "1968",
    "edtf:date": "1968",
    "edtf:inception": "1968",
    "geom:area": 0,
    "geom:bbox": "-122.386155,37.616358,-122.386155,37.616358",
    "geom:latitude": 37.616358,
    "geom:longitude": -122.386155,
    "iso:country": "US",
    "media:fingerprint": "3f77ddd680c1a217eb724dbb0b4cfa562ddd88a3",
    "media:imagehash_avg": "a:00087effffff7800",
    "media:imagehash_diff": "d:f0f0f0e0e0e0c4d4",
    "media:medium": "image",
    "media:mimetype": "image/tiff",
    "media:properties": {
      "sizes": {
        "b": {
          "extension": "jpg",
          "height": 768,
          "mimetype": "image/jpeg",
          "secret": "Wbejd63N4AFJjgp4Do69b749khvfGIvT",
          "width": 759
        },
        "c": {
          "extension": "jpg",
          "height": 600,
          "mimetype": "image/jpeg",
          "secret": "Wbejd63N4AFJjgp4Do69b749khvfGIvT",
          "width": 593
        },
        "dc": {
          "extension": "jpg",
          "height": 600,
          "mimetype": "image/jpeg",
          "secret": "Wbejd63N4AFJjgp4Do69b749khvfGIvT",
          "width": 593
        },
        "ds": {
          "extension": "jpg",
          "height": 320,
          "mimetype": "image/jpeg",
          "secret": "Wbejd63N4AFJjgp4Do69b749khvfGIvT",
          "width": 320
        },
        "k": {
          "extension": "jpg",
          "height": 1536,
          "mimetype": "image/jpeg",
          "secret": "Wbejd63N4AFJjgp4Do69b749khvfGIvT",
          "width": 1519
        },
        "n": {
          "extension": "jpg",
          "height": 239,
          "mimetype": "image/jpeg",
          "secret": "Wbejd63N4AFJjgp4Do69b749khvfGIvT",
          "width": 237
        },
        "o": {
          "extension": "jpg",
          "height": 2563,
          "mimetype": "image/jpeg",
          "secret": "S7GzIgkSN6eCdCheAirG2sRjkT7FKQaW",
          "width": 2536
        },
        "s": {
          "extension": "jpg",
          "height": 320,
          "mimetype": "image/jpeg",
          "secret": "Wbejd63N4AFJjgp4Do69b749khvfGIvT",
          "width": 320
        },
        "z": {
          "extension": "jpg",
          "height": 479,
          "mimetype": "image/jpeg",
          "secret": "Wbejd63N4AFJjgp4Do69b749khvfGIvT",
          "width": 474
        }
      }
    },
    "media:source": "sfomuseum",
    "media:status_id": 1,
    "media:uri_template": "https://static.sfomuseum.org/media/152/782/633/1/1527826331_{secret}_{label}.{extension}",
    "millsfield:airport_id": [
      102527513
    ],
    "millsfield:category_id": 1511214209,
    "millsfield:collection_id": 1511214207,
    "millsfield:images_colors": [
      {
        "hex": "#c7c7c7",
        "name": "#c7c7c7",
        "reference": "marekm4"
      },
      {
        "hex": "#c0c0c0",
        "name": "silver",
        "reference": "css4"
      },
      {
        "hex": "#cdc5c2",
        "name": "Silver",
        "reference": "crayola"
      },
      {
        "hex": "#5a5a5a",
        "name": "#5a5a5a",
        "reference": "marekm4"
      },
      {
        "hex": "#696969",
        "name": "dimgrey",
        "reference": "css4"
      },
      {
        "hex": "#6e5160",
        "name": "Eggplant",
        "reference": "crayola"
      }
    ],
    "millsfield:similar": {
      "apple/mobileclip_s0": [
        {
          "distance": 0.5473279,
          "id": 1527822659
        },
        {
          "distance": 0.5606601,
          "id": 1527822643
        },
        {
          "distance": 0.61582357,
          "id": 1527827111
        },
        {
          "distance": 0.6176479,
          "id": 1527825325
        },
        {
          "distance": 0.6317545,
          "id": 1527827101
        },
        {
          "distance": 0.6523165,
          "id": 1763441971
        },
        {
          "distance": 0.6530766,
          "id": 1527825311
        },
        {
          "distance": 0.65971136,
          "id": 1527822983
        },
        {
          "distance": 0.66624266,
          "id": 1527821907
        },
        {
          "distance": 0.66677105,
          "id": 1527822007
        }
      ],
      "apple/mobileclip_s1": [
        {
          "distance": 0.4942899,
          "id": 1527822643
        },
        {
          "distance": 0.49513853,
          "id": 1527824875
        },
        {
          "distance": 0.4974688,
          "id": 1527825311
        },
        {
          "distance": 0.5095056,
          "id": 1527825325
        },
        {
          "distance": 0.51336455,
          "id": 1527827101
        },
        {
          "distance": 0.51532674,
          "id": 1527826277
        },
        {
          "distance": 0.5207569,
          "id": 1527822659
        },
        {
          "distance": 0.5241451,
          "id": 1527826391
        },
        {
          "distance": 0.5296572,
          "id": 1763441971
        },
        {
          "distance": 0.529857,
          "id": 1763441911
        }
      ],
      "apple/mobileclip_s2": [
        {
          "distance": 0.6730434,
          "id": 1527825313
        },
        {
          "distance": 0.67969286,
          "id": 1527822643
        },
        {
          "distance": 0.6921363,
          "id": 1527826277
        },
        {
          "distance": 0.6965951,
          "id": 1527827111
        },
        {
          "distance": 0.69914436,
          "id": 1527822659
        },
        {
          "distance": 0.7070969,
          "id": 1527822995
        },
        {
          "distance": 0.7125421,
          "id": 1527821337
        },
        {
          "distance": 0.73531884,
          "id": 1527824875
        },
        {
          "distance": 0.73723924,
          "id": 1913663153
        },
        {
          "distance": 0.73858005,
          "id": 1527825311
        }
      ]
    },
    "millsfield:subcategory_id": 1511213801,
    "mz:hierarchy_label": 1,
    "mz:is_current": -1,
    "sfomuseum:filename": "43592.tif",
    "sfomuseum:image_id": 43592,
    "sfomuseum:image_index": 5,
    "sfomuseum:image_type": "studio",
    "sfomuseum:object_id": 116336,
    "sfomuseum:placetype": "image",
    "sfomuseum:primary_image": 1,
    "src:geom": "sfomuseum",
    "wof:belongsto": [
      85688637,
      85633793,
      85922583,
      102527513,
      102191575,
      102087579,
      1511947369,
      1511213801,
      1511214203,
      1511214277,
      1511214209
    ],
    "wof:breaches": [],
    "wof:country": "US",
    "wof:created": 1578950352,
    "wof:depicts": [
      1511947369,
      102527513
    ],
    "wof:geomhash": "bd906905ce4be6c0651c90b0fc24804c",
    "wof:hierarchy": [
      {
        "arcade_id": 1511213801,
        "building_id": 1511214277,
        "campus_id": 102527513,
        "concourse_id": 1511214209,
        "continent_id": 102191575,
        "country_id": 85633793,
        "county_id": 102087579,
        "custom_id": 1527826331,
        "image_id": 1527826331,
        "locality_id": 85922583,
        "media_id": 1527826331,
        "neighbourhood_id": -1,
        "region_id": 85688637,
        "venue_id": 1511947369,
        "wing_id": 1511214203
      }
    ],
    "wof:id": 1527826331,
    "wof:lastmodified": 1788449817,
    "wof:name": "negative: San Francisco International Airport (SFO), parking lot",
    "wof:parent_id": 1511947369,
    "wof:placetype": "custom",
    "wof:placetype_alt": [
      "image"
    ],
    "wof:repo": "sfomuseum-data-media-collection",
    "wof:superseded_by": [],
    "wof:supersedes": [],
    "wof:tags": []
  },
  "bbox": [
    -122.386155,
    37.616358,
    -122.386155,
    37.616358
  ],
  "geometry": {"type":"Point","coordinates":[-122.386155,37.616358]}
}
