{
  "id": 1880456567,
  "type": "Feature",
  "properties": {
    "date:cessation_lower": "2001-01-01",
    "date:cessation_upper": "2001-12-31",
    "date:inception_lower": "2001-01-01",
    "date:inception_upper": "2001-12-31",
    "edtf:cessation": "2001",
    "edtf:inception": "2001",
    "geom:area": 2.477324999997507e-7,
    "geom:bbox": "-122.386472,37.616105,-122.385834,37.616611",
    "geom:latitude": 37.61635756125121,
    "geom:longitude": -122.38615532866096,
    "media:fingerprint": "f872628f50c102c48795b306337fc8fc93f3a28a",
    "media:imagehash_avg": "a:ffc7c7c7c3f3f3ff",
    "media:imagehash_diff": "d:0f1f1f0f07070707",
    "media:imagetext": "",
    "media:mimetype": "image/tiff",
    "media:properties": {
      "sizes": {
        "b": {
          "extension": "jpg",
          "height": 768,
          "mimetype": "image/jpeg",
          "secret": "0VZWGcziaBo6xle0VKeNit7Sqrz3QAYI",
          "width": 959
        },
        "c": {
          "extension": "jpg",
          "height": 600,
          "mimetype": "image/jpeg",
          "secret": "0VZWGcziaBo6xle0VKeNit7Sqrz3QAYI",
          "width": 749
        },
        "dc": {
          "extension": "jpg",
          "height": 600,
          "mimetype": "image/jpeg",
          "secret": "0VZWGcziaBo6xle0VKeNit7Sqrz3QAYI",
          "width": 749
        },
        "ds": {
          "extension": "jpg",
          "height": 320,
          "mimetype": "image/jpeg",
          "secret": "0VZWGcziaBo6xle0VKeNit7Sqrz3QAYI",
          "width": 320
        },
        "k": {
          "extension": "jpg",
          "height": 1536,
          "mimetype": "image/jpeg",
          "secret": "0VZWGcziaBo6xle0VKeNit7Sqrz3QAYI",
          "width": 1919
        },
        "n": {
          "extension": "jpg",
          "height": 240,
          "mimetype": "image/jpeg",
          "secret": "0VZWGcziaBo6xle0VKeNit7Sqrz3QAYI",
          "width": 299
        },
        "o": {
          "extension": "jpg",
          "height": 1667,
          "mimetype": "image/jpeg",
          "secret": "jpF19Ry9XmV4Pf3rj9kfWSh0MO515x76",
          "width": 2083
        },
        "s": {
          "extension": "jpg",
          "height": 320,
          "mimetype": "image/jpeg",
          "secret": "0VZWGcziaBo6xle0VKeNit7Sqrz3QAYI",
          "width": 320
        },
        "z": {
          "extension": "jpg",
          "height": 480,
          "mimetype": "image/jpeg",
          "secret": "0VZWGcziaBo6xle0VKeNit7Sqrz3QAYI",
          "width": 599
        }
      }
    },
    "media:source": "sfomuseum",
    "media:status_id": 1,
    "media:uri_template": "https://static.sfomuseum.org/media/188/045/656/7/1880456567_{secret}_{label}.{extension}",
    "millsfield:airline_id": [
      1159284261
    ],
    "millsfield:category_id": 1763416393,
    "millsfield:collection_id": 1511214203,
    "millsfield:company_id": [
      1159287931
    ],
    "millsfield:images_colors": [
      {
        "hex": "#b3b4b5",
        "name": "#b3b4b5",
        "reference": "marekm4"
      },
      {
        "hex": "#a9a9a9",
        "name": "darkgrey",
        "reference": "css4"
      },
      {
        "hex": "#b0b7c6",
        "name": "Cadet Blue",
        "reference": "crayola"
      },
      {
        "hex": "#312d2e",
        "name": "#312d2e",
        "reference": "marekm4"
      },
      {
        "hex": "#2f4f4f",
        "name": "darkslategrey",
        "reference": "css4"
      },
      {
        "hex": "#414a4c",
        "name": "Outer Space",
        "reference": "crayola"
      }
    ],
    "millsfield:similar": {
      "apple/mobileclip_s0": [
        {
          "distance": 0.15836886,
          "id": 1880456563
        },
        {
          "distance": 0.17789747,
          "id": 1880456565
        },
        {
          "distance": 0.23351984,
          "id": 1880332405
        },
        {
          "distance": 0.2462433,
          "id": 1880498435
        },
        {
          "distance": 0.2502227,
          "id": 1880332009
        },
        {
          "distance": 0.2541077,
          "id": 1897358843
        },
        {
          "distance": 0.25928697,
          "id": 1880370005
        },
        {
          "distance": 0.26611298,
          "id": 1880508147
        },
        {
          "distance": 0.26694804,
          "id": 1880498659
        },
        {
          "distance": 0.27146164,
          "id": 1880858315
        }
      ],
      "apple/mobileclip_s1": [
        {
          "distance": 0.117614456,
          "id": 1880456565
        },
        {
          "distance": 0.13367574,
          "id": 1880498435
        },
        {
          "distance": 0.13593933,
          "id": 1880456563
        },
        {
          "distance": 0.18055075,
          "id": 1880498659
        },
        {
          "distance": 0.19047475,
          "id": 1763445975
        },
        {
          "distance": 0.1912374,
          "id": 1880858315
        },
        {
          "distance": 0.19735847,
          "id": 1763447143
        },
        {
          "distance": 0.20373605,
          "id": 1880507901
        },
        {
          "distance": 0.20749904,
          "id": 1880332009
        },
        {
          "distance": 0.20774521,
          "id": 1880332405
        }
      ],
      "apple/mobileclip_s2": [
        {
          "distance": 0.1606765,
          "id": 1880456563
        },
        {
          "distance": 0.17931832,
          "id": 1880456565
        },
        {
          "distance": 0.23057051,
          "id": 1880498435
        },
        {
          "distance": 0.2650864,
          "id": 1880332039
        },
        {
          "distance": 0.26515102,
          "id": 1880370005
        },
        {
          "distance": 0.2863848,
          "id": 1880332405
        },
        {
          "distance": 0.28970587,
          "id": 1763446397
        },
        {
          "distance": 0.29203704,
          "id": 1880332041
        },
        {
          "distance": 0.29414374,
          "id": 1880332009
        },
        {
          "distance": 0.30441397,
          "id": 1880858315
        }
      ]
    },
    "millsfield:subcategory_id": 1511213343,
    "mz:is_current": 1,
    "sfomuseum:filename": "2011.215.044.tif",
    "sfomuseum:image_id": 146816,
    "sfomuseum:image_index": 5,
    "sfomuseum:image_type": "studio",
    "sfomuseum:object_id": 124586,
    "sfomuseum:placetype": "image",
    "sfomuseum:primary_image": 1,
    "src:geom": "sfomuseum",
    "wof:belongsto": [
      102527513,
      1159162825,
      102191575,
      85633793,
      102087579,
      85922583,
      1880456177,
      85688637,
      1159160869
    ],
    "wof:country": "XY",
    "wof:created": 1695284203,
    "wof:depicts": [
      1159284261,
      1159287931,
      1880456177
    ],
    "wof:geomhash": "ed7c2ab3547fc3916b5edc33488deaa7",
    "wof:hierarchy": [
      {
        "building_id": -1,
        "campus_id": 102527513,
        "collection_id": 1159162825,
        "concourse_id": 1159162825,
        "continent_id": 102191575,
        "country_id": 85633793,
        "county_id": 102087579,
        "custom_id": 1880456567,
        "image_id": 1880456567,
        "locality_id": 85922583,
        "neighbourhood_id": -1,
        "object_id": 1880456177,
        "region_id": 85688637,
        "wing_id": 1159160869
      }
    ],
    "wof:id": 1880456567,
    "wof:lastmodified": 1788451880,
    "wof:name": "flight attendant pants: Delta Air Lines",
    "wof:parent_id": 1880456177,
    "wof:placetype": "custom",
    "wof:placetype_alt": [
      "image"
    ],
    "wof:repo": "sfomuseum-data-media-collection",
    "wof:superseded_by": [],
    "wof:supersedes": []
  },
  "bbox": [
    -122.386472,
    37.616105,
    -122.385834,
    37.616611
  ],
  "geometry": {"type":"Polygon","coordinates":[[[-122.386472,37.616318],[-122.386435,37.616233],[-122.386376,37.616178],[-122.386301,37.616131],[-122.386161,37.616105],[-122.386022,37.616131],[-122.385914,37.616186],[-122.385855,37.616267],[-122.385834,37.616369],[-122.385871,37.616467],[-122.385941,37.616543],[-122.386054,37.616603],[-122.386183,37.616611],[-122.386306,37.616573],[-122.386419,37.616509],[-122.386467,37.616411],[-122.386472,37.616318]]]}
}
