{
  "id": 1527830029,
  "type": "Feature",
  "properties": {
    "date:cessation_lower": "1950-11-01",
    "date:cessation_upper": "1950-11-01",
    "date:inception_lower": "1950-11-01",
    "date:inception_upper": "1950-11-01",
    "edtf:cessation": "1950-11-01",
    "edtf:date": "1950-11-01",
    "edtf:inception": "1950-11-01",
    "geom:area": 0,
    "geom:bbox": "-122.386155,37.616358,-122.386155,37.616358",
    "geom:latitude": 37.616358,
    "geom:longitude": -122.386155,
    "iso:country": "XX",
    "media:fingerprint": "9494884332a2af7dc4b9d0592dec20ef88f90322",
    "media:imagehash_avg": "a:037f7a5b7f3c7c00",
    "media:imagehash_diff": "d:d7e292b2b270f829",
    "media:imagetext": "FRAN\n19\n30.\n- 13\n2000.054.090",
    "media:imagetext_created": 1787949211,
    "media:imagetext_source": "com.apple.visionkit.VNImageRequestHandler#Version 26.6.2 (Build 25G83)",
    "media:medium": "image",
    "media:mimetype": "image/tiff",
    "media:properties": {
      "sizes": {
        "b": {
          "extension": "jpg",
          "height": 592,
          "mimetype": "image/jpeg",
          "secret": "jLfTtMfQZJNiB0afPlp3oFn6tEGQFRxT",
          "width": 1024
        },
        "c": {
          "extension": "jpg",
          "height": 463,
          "mimetype": "image/jpeg",
          "secret": "jLfTtMfQZJNiB0afPlp3oFn6tEGQFRxT",
          "width": 800
        },
        "dc": {
          "extension": "jpg",
          "height": 463,
          "mimetype": "image/jpeg",
          "secret": "jLfTtMfQZJNiB0afPlp3oFn6tEGQFRxT",
          "width": 800
        },
        "ds": {
          "extension": "jpg",
          "height": 320,
          "mimetype": "image/jpeg",
          "secret": "jLfTtMfQZJNiB0afPlp3oFn6tEGQFRxT",
          "width": 320
        },
        "k": {
          "extension": "jpg",
          "height": 1185,
          "mimetype": "image/jpeg",
          "secret": "jLfTtMfQZJNiB0afPlp3oFn6tEGQFRxT",
          "width": 2048
        },
        "n": {
          "extension": "jpg",
          "height": 185,
          "mimetype": "image/jpeg",
          "secret": "jLfTtMfQZJNiB0afPlp3oFn6tEGQFRxT",
          "width": 320
        },
        "o": {
          "extension": "jpg",
          "height": 1170,
          "mimetype": "image/jpeg",
          "secret": "yLSTYXDv2p96bv7xCHkpPcmdDHxc16JC",
          "width": 2021
        },
        "s": {
          "extension": "jpg",
          "height": 320,
          "mimetype": "image/jpeg",
          "secret": "jLfTtMfQZJNiB0afPlp3oFn6tEGQFRxT",
          "width": 320
        },
        "z": {
          "extension": "jpg",
          "height": 370,
          "mimetype": "image/jpeg",
          "secret": "jLfTtMfQZJNiB0afPlp3oFn6tEGQFRxT",
          "width": 640
        }
      }
    },
    "media:source": "sfomuseum",
    "media:status_id": 1,
    "media:uri_template": "https://static.sfomuseum.org/media/152/783/002/9/1527830029_{secret}_{label}.{extension}",
    "millsfield:airline_id": [
      1159285393
    ],
    "millsfield:category_id": 1511214215,
    "millsfield:collection_id": 1511214207,
    "millsfield:company_id": [
      1159287531
    ],
    "millsfield:images_colors": [
      {
        "hex": "#f3ebdc",
        "name": "#f3ebdc",
        "reference": "marekm4"
      },
      {
        "hex": "#faebd7",
        "name": "antiquewhite",
        "reference": "css4"
      },
      {
        "hex": "#fddde6",
        "name": "Piggy Pink",
        "reference": "crayola"
      },
      {
        "hex": "#1b2c5e",
        "name": "#1b2c5e",
        "reference": "marekm4"
      },
      {
        "hex": "#191970",
        "name": "midnightblue",
        "reference": "css4"
      },
      {
        "hex": "#1a4876",
        "name": "Midnight Blue",
        "reference": "crayola"
      },
      {
        "hex": "#ec4e37",
        "name": "#ec4e37",
        "reference": "marekm4"
      },
      {
        "hex": "#ff6347",
        "name": "tomato",
        "reference": "css4"
      },
      {
        "hex": "#ff5349",
        "name": "Red Orange",
        "reference": "crayola"
      }
    ],
    "millsfield:images_texts": [
      "PHILADELPHIA,PENNA.\nU.S.A. D\nTO G\nFRANKFURT.\nGERMANY\nFIRST\nFLIGHT\nTWA\nFAM\n27\nAIR\nS\n1130-M\n1950\nA.M.F\nAIR MAIL\n15%\nUNITED STATES POSTAGE\nVIA AIR MAIL\nMR. JOHN Zukowsky\n65E. 7% ST\nW. 4. 3, N.Y.",
      "FRAN\n19\n30.\n- 13\n2000.054.090"
    ],
    "millsfield:images_texts_ids": [
      1527830027,
      1527830029
    ],
    "millsfield:similar": {
      "apple/mobileclip_s0": [
        {
          "distance": 0.33247724,
          "id": 1527833587
        },
        {
          "distance": 0.36749506,
          "id": 1527834001
        },
        {
          "distance": 0.3694415,
          "id": 1527820575
        },
        {
          "distance": 0.3784561,
          "id": 1527820657
        },
        {
          "distance": 0.38103813,
          "id": 1527833037
        },
        {
          "distance": 0.38280702,
          "id": 1527830209
        },
        {
          "distance": 0.39258328,
          "id": 1527828863
        },
        {
          "distance": 0.39270514,
          "id": 1527828985
        },
        {
          "distance": 0.39398924,
          "id": 1527819725
        },
        {
          "distance": 0.39525616,
          "id": 1527820107
        }
      ],
      "apple/mobileclip_s1": [
        {
          "distance": 0.22651634,
          "id": 1527829969
        },
        {
          "distance": 0.22820492,
          "id": 1527833197
        },
        {
          "distance": 0.23462601,
          "id": 1527833037
        },
        {
          "distance": 0.2365259,
          "id": 1527829977
        },
        {
          "distance": 0.23808627,
          "id": 1527834001
        },
        {
          "distance": 0.24128577,
          "id": 1527819899
        },
        {
          "distance": 0.24274346,
          "id": 1527829799
        },
        {
          "distance": 0.24311487,
          "id": 1527833555
        },
        {
          "distance": 0.24483775,
          "id": 1527833237
        },
        {
          "distance": 0.24519226,
          "id": 1527819725
        }
      ],
      "apple/mobileclip_s2": [
        {
          "distance": 0.3002334,
          "id": 1527829813
        },
        {
          "distance": 0.31677896,
          "id": 1527829909
        },
        {
          "distance": 0.3202262,
          "id": 1527829595
        },
        {
          "distance": 0.32609835,
          "id": 1527819725
        },
        {
          "distance": 0.3326569,
          "id": 1527833555
        },
        {
          "distance": 0.33560902,
          "id": 1527828949
        },
        {
          "distance": 0.33993596,
          "id": 1527829591
        },
        {
          "distance": 0.34032556,
          "id": 1527833579
        },
        {
          "distance": 0.34130615,
          "id": 1527828923
        },
        {
          "distance": 0.34165132,
          "id": 1527833139
        }
      ]
    },
    "millsfield:subcategory_id": 1511213159,
    "mz:hierarchy_label": 1,
    "mz:is_current": -1,
    "sfomuseum:filename": "48828.tif",
    "sfomuseum:image_id": 48828,
    "sfomuseum:image_index": 5,
    "sfomuseum:image_type": "studio",
    "sfomuseum:object_id": 49833,
    "sfomuseum:placetype": "image",
    "sfomuseum:primary_image": 0,
    "src:geom": "sfomuseum",
    "wof:belongsto": [
      1511214215,
      1511909787,
      102527513,
      102191575,
      85633793,
      1511213159,
      85922583,
      102087579,
      1511214277,
      1511214203,
      85688637
    ],
    "wof:breaches": [],
    "wof:country": "XX",
    "wof:created": 1578950929,
    "wof:depicts": [
      1159285393,
      1511909787,
      1159287531
    ],
    "wof:geomhash": "bd906905ce4be6c0651c90b0fc24804c",
    "wof:hierarchy": [
      {
        "arcade_id": 1511213159,
        "building_id": 1511214277,
        "campus_id": 102527513,
        "concourse_id": 1511214215,
        "continent_id": 102191575,
        "country_id": 85633793,
        "county_id": 102087579,
        "custom_id": 1527830029,
        "image_id": 1527830029,
        "locality_id": 85922583,
        "media_id": 1527830029,
        "neighbourhood_id": -1,
        "region_id": 85688637,
        "venue_id": 1511909787,
        "wing_id": 1511214203
      }
    ],
    "wof:id": 1527830029,
    "wof:lastmodified": 1788449868,
    "wof:name": "airmail flight cover: TWA (Trans World Airlines), FAM-27, Philadelphia - Frankfurt route",
    "wof:parent_id": 1511909787,
    "wof:placetype": "custom",
    "wof:placetype_alt": [
      "image"
    ],
    "wof:repo": "sfomuseum-data-media-collection",
    "wof:superseded_by": [],
    "wof:supersedes": [],
    "wof:tags": []
  },
  "bbox": [
    -122.386155,
    37.616358,
    -122.386155,
    37.616358
  ],
  "geometry": {"type":"Point","coordinates":[-122.386155,37.616358]}
}
