{
  "id": 1897212459,
  "type": "Feature",
  "properties": {
    "date:cessation_lower": "1980-01-01",
    "date:cessation_upper": "1989-12-31",
    "date:inception_lower": "1980-01-01",
    "date:inception_upper": "1989-12-31",
    "edtf:cessation": "198X",
    "edtf:inception": "198X",
    "geom:area": 2.477324999997507e-7,
    "geom:bbox": "-122.386472,37.616105,-122.385834,37.616611",
    "geom:latitude": 37.61635756125121,
    "geom:longitude": -122.38615532866096,
    "media:fingerprint": "9011a13e09b1f0fd9735957909916f05c8c0fd0a",
    "media:imagehash_avg": "a:ffff631101e7ffff",
    "media:imagehash_diff": "d:f0cc8e232fceecf0",
    "media:imagetext": "",
    "media:mimetype": "image/tiff",
    "media:properties": {
      "sizes": {
        "b": {
          "extension": "jpg",
          "height": 768,
          "mimetype": "image/jpeg",
          "secret": "jF9NqDjv3lc7iIXZLxo417gFu6QIuqjQ",
          "width": 965
        },
        "c": {
          "extension": "jpg",
          "height": 600,
          "mimetype": "image/jpeg",
          "secret": "jF9NqDjv3lc7iIXZLxo417gFu6QIuqjQ",
          "width": 754
        },
        "dc": {
          "extension": "jpg",
          "height": 600,
          "mimetype": "image/jpeg",
          "secret": "jF9NqDjv3lc7iIXZLxo417gFu6QIuqjQ",
          "width": 754
        },
        "ds": {
          "extension": "jpg",
          "height": 320,
          "mimetype": "image/jpeg",
          "secret": "jF9NqDjv3lc7iIXZLxo417gFu6QIuqjQ",
          "width": 320
        },
        "k": {
          "extension": "jpg",
          "height": 1536,
          "mimetype": "image/jpeg",
          "secret": "jF9NqDjv3lc7iIXZLxo417gFu6QIuqjQ",
          "width": 1931
        },
        "n": {
          "extension": "jpg",
          "height": 240,
          "mimetype": "image/jpeg",
          "secret": "jF9NqDjv3lc7iIXZLxo417gFu6QIuqjQ",
          "width": 301
        },
        "o": {
          "extension": "jpg",
          "height": 1667,
          "mimetype": "image/jpeg",
          "secret": "XYWsIT9MqDuylBMPS6FS8CFJA7jhRsg6",
          "width": 2096
        },
        "s": {
          "extension": "jpg",
          "height": 320,
          "mimetype": "image/jpeg",
          "secret": "jF9NqDjv3lc7iIXZLxo417gFu6QIuqjQ",
          "width": 320
        },
        "z": {
          "extension": "jpg",
          "height": 480,
          "mimetype": "image/jpeg",
          "secret": "jF9NqDjv3lc7iIXZLxo417gFu6QIuqjQ",
          "width": 603
        }
      }
    },
    "media:source": "sfomuseum",
    "media:status_id": 1,
    "media:uri_template": "https://static.sfomuseum.org/media/189/721/245/9/1897212459_{secret}_{label}.{extension}",
    "millsfield:airline_id": [
      1159285785
    ],
    "millsfield:category_id": 1762679663,
    "millsfield:collection_id": 1511214203,
    "millsfield:company_id": [
      1159288505
    ],
    "millsfield:images_colors": [
      {
        "hex": "#b4b4b2",
        "name": "#b4b4b2",
        "reference": "marekm4"
      },
      {
        "hex": "#a9a9a9",
        "name": "darkgrey",
        "reference": "css4"
      },
      {
        "hex": "#b0b7c6",
        "name": "Cadet Blue",
        "reference": "crayola"
      },
      {
        "hex": "#c09c61",
        "name": "#c09c61",
        "reference": "marekm4"
      },
      {
        "hex": "#bdb76b",
        "name": "darkkhaki",
        "reference": "css4"
      },
      {
        "hex": "#cd9575",
        "name": "Antique Brass",
        "reference": "crayola"
      },
      {
        "hex": "#4b473d",
        "name": "#4b473d",
        "reference": "marekm4"
      },
      {
        "hex": "#2f4f4f",
        "name": "darkslategrey",
        "reference": "css4"
      },
      {
        "hex": "#414a4c",
        "name": "Outer Space",
        "reference": "crayola"
      }
    ],
    "millsfield:images_texts": [
      "JAPAN AIR LINES",
      "\" by Mataz\no Kayama (1929 ~\nMatazo Kayama is one of Japan's leading painters. He has succeeded in\nproducing a decorative painting, demonstrating the technique of \"Yamato e\"\nWE t0283(1929~)\nC02. B*R20*-\n1277472802807-210032.39\nDUCTSAERO-BERLEOTT."
    ],
    "millsfield:images_texts_ids": [
      1897212461,
      1897212547
    ],
    "millsfield:similar": {
      "apple/mobileclip_s0": [
        {
          "distance": 0.17181529,
          "id": 1897212463
        },
        {
          "distance": 0.17613298,
          "id": 1897212449
        },
        {
          "distance": 0.18605454,
          "id": 1897212469
        },
        {
          "distance": 0.22517633,
          "id": 1931110161
        },
        {
          "distance": 0.30517823,
          "id": 1897212451
        },
        {
          "distance": 0.31713185,
          "id": 1931110167
        },
        {
          "distance": 0.32962096,
          "id": 1931110163
        },
        {
          "distance": 0.34003425,
          "id": 1931132053
        },
        {
          "distance": 0.34054253,
          "id": 1931110171
        },
        {
          "distance": 0.36129892,
          "id": 1931132051
        }
      ],
      "apple/mobileclip_s1": [
        {
          "distance": 0.11831298,
          "id": 1897212469
        },
        {
          "distance": 0.12413795,
          "id": 1897212449
        },
        {
          "distance": 0.13368037,
          "id": 1897212463
        },
        {
          "distance": 0.1558935,
          "id": 1931110161
        },
        {
          "distance": 0.2740897,
          "id": 1931110167
        },
        {
          "distance": 0.28070572,
          "id": 2015183615
        },
        {
          "distance": 0.28884852,
          "id": 2015183627
        },
        {
          "distance": 0.2946042,
          "id": 1931132053
        },
        {
          "distance": 0.2957961,
          "id": 2015183621
        },
        {
          "distance": 0.2961692,
          "id": 1897212451
        }
      ],
      "apple/mobileclip_s2": [
        {
          "distance": 0.116784364,
          "id": 1897212469
        },
        {
          "distance": 0.1471966,
          "id": 1931110161
        },
        {
          "distance": 0.15555936,
          "id": 1897212449
        },
        {
          "distance": 0.1826306,
          "id": 1897212463
        },
        {
          "distance": 0.35065284,
          "id": 1931132053
        },
        {
          "distance": 0.35080576,
          "id": 2014821629
        },
        {
          "distance": 0.36176926,
          "id": 1931132051
        },
        {
          "distance": 0.36280668,
          "id": 1897212451
        },
        {
          "distance": 0.36321282,
          "id": 1931110163
        },
        {
          "distance": 0.36777338,
          "id": 1897212487
        }
      ]
    },
    "millsfield:subcategory_id": 1511213257,
    "mz:is_current": 1,
    "sfomuseum:filename": "109291.tif",
    "sfomuseum:image_id": 109291,
    "sfomuseum:image_index": 5,
    "sfomuseum:image_type": "studio",
    "sfomuseum:object_id": 65794,
    "sfomuseum:placetype": "image",
    "sfomuseum:primary_image": 1,
    "src:geom": "sfomuseum",
    "wof:belongsto": [
      102527513,
      1159162825,
      102191575,
      85633793,
      102087579,
      85922583,
      1897212299,
      85688637,
      1159160869
    ],
    "wof:country": "XY",
    "wof:created": 1706344394,
    "wof:depicts": [
      1897212299,
      1159285785,
      1159288505
    ],
    "wof:geomhash": "ed7c2ab3547fc3916b5edc33488deaa7",
    "wof:hierarchy": [
      {
        "building_id": -1,
        "campus_id": 102527513,
        "collection_id": 1159162825,
        "concourse_id": 1159162825,
        "continent_id": 102191575,
        "country_id": 85633793,
        "county_id": 102087579,
        "custom_id": 1897212459,
        "image_id": 1897212459,
        "locality_id": 85922583,
        "neighbourhood_id": -1,
        "object_id": 1897212299,
        "region_id": 85688637,
        "wing_id": 1159160869
      }
    ],
    "wof:id": 1897212459,
    "wof:lastmodified": 1788452039,
    "wof:name": "folding fan: Japan Air Lines",
    "wof:parent_id": 1897212299,
    "wof:placetype": "custom",
    "wof:placetype_alt": [
      "image"
    ],
    "wof:repo": "sfomuseum-data-media-collection",
    "wof:superseded_by": [],
    "wof:supersedes": []
  },
  "bbox": [
    -122.386472,
    37.616105,
    -122.385834,
    37.616611
  ],
  "geometry": {"type":"Polygon","coordinates":[[[-122.386472,37.616318],[-122.386435,37.616233],[-122.386376,37.616178],[-122.386301,37.616131],[-122.386161,37.616105],[-122.386022,37.616131],[-122.385914,37.616186],[-122.385855,37.616267],[-122.385834,37.616369],[-122.385871,37.616467],[-122.385941,37.616543],[-122.386054,37.616603],[-122.386183,37.616611],[-122.386306,37.616573],[-122.386419,37.616509],[-122.386467,37.616411],[-122.386472,37.616318]]]}
}
