{
  "id": 1913796767,
  "type": "Feature",
  "properties": {
    "date:cessation_lower": "1952-11-04",
    "date:cessation_upper": "1952-11-04",
    "date:inception_lower": "1952-11-04",
    "date:inception_upper": "1952-11-04",
    "edtf:cessation": "1952-11-04",
    "edtf:inception": "1952-11-04",
    "geom:area": 2.477324999997507e-7,
    "geom:bbox": "-122.386472,37.616105,-122.385834,37.616611",
    "geom:latitude": 37.61635756125121,
    "geom:longitude": -122.38615532866096,
    "media:fingerprint": "ed1a6e68dd673377dc96ee2207f47c7970f7f60e",
    "media:imagehash_avg": "a:ff818181818383ff",
    "media:imagehash_diff": "d:030f1f1f1f1f1f1f",
    "media:imagetext": "e bend in = hi h mountein pess the lest mys of the setting sun\ntouched the cloudless top of fuji shile the surroundinz hills vere\nclother in purple end the vlleys : shacory o rk biue-green.\nThe dirk weter of the Lake dotted with tiny lights alon, the shore.\nIt mes : shor of such negnificence as to stay\nith you the rest\nof your lice.\nis hd siki ki for cinner.\nArisin: rith some cif-\nficulty me rilked our cromped legs down the Like sore in the soit\nlight of c ull noon to : much photographed scot where re could\nc-tch thr fuli reflection of Fuji in the\nuiet aters of the Like.\nThe following day, Sunday November 2nd -: very importent dey-\n-e ther reports being what they usuelly are et home, i.e. 100%\nrong - we had s \"typical Lake George day\" with nary e clouc in\nWe érove slone the edge of Lake Hakone or e n rrow dirt\nroad, which would hive delighted\nother, through trll cee rs,\numbrr geous bimboo groves with sc ttered bright rer Ji ponese m ples.\nAt the\nend of the Laxe our dirt rond joined up rith better road\nand\non th t climbed up : bove the laue, ever hicher nd higher on\nthe steeg, sloping hillsides until \"e\ncone to a tunnel through\nthe mountrin range.\nEnerging fron th t on to\nI ree piriing\neres\nwhich affords\na meanificent close-up view of fuji enc the\ncountry round ebout. From there our road led down into • brotd\nv lley and the little town of Cotemba. It was fron this plece\nforty-three yers peo that ve boys sturted our clinb up Fuji. This\ntime we coulen't climb it because amons other rerso is\ni the serson\nfor the ascent is July end Au ust only.\nHe hud lunch at on Officer's\nClub to which we were directed by e couple of G.I.'s tho assurer\nus thrt civilisns were welcone.\nAlter Lanch -\nwe drove beck to Hakone by mother nc\nfermands insterd of woods nc rocks.\nterd os no a\nvery eood one -\nbetter road throuch rich\nFarmers hed h rested their\nrice and\nthe rice-straw wes hen ing fron lons poles to ory• uch\nlittle farn had ita garden of chrysonthemums mith obre and there\npersimmon tree witn its orange colored irult showing prominentej\namid tre : Imost leefless limbs of the trees.\nWe got beck without\nincident end the next dey, Mondey, drove back to Tokyo.\nWednesday, November 5th.\nYesterday was s big day for Debby.\nShe drove down to\nEnoshima near Kamakura with Mrs. Shermen, the latter's Mother end\ne Japanese who is one of the staff of the Imperial Household and\nects as interpreter for Hirohito.\nThey colled on an old shell\nexpert who is so femous and revered in his little town thet the\ncitizens have erected \u0026 wooden statue of him in the middle of the\nAlso he hes the keys of the city which me ns something in\nEnoshime, because he rides free on municipally owned conveyances.\nHe put out an enormous quantity of shells and Debby come home with\nseverol shoe boxes full.\nToday was e big day except that I had to go to a meeting\nwith our Japanese Hotel associates at 1:00 P.N. and couldn't get\nthe election returns which started coming in about noon, Tokyo tine.\nHowever, there wes distinctly a silver lining in thet cloud as we\ngot complete agreement on every point and now the Hotel project\nshoulå go forward full speed ahend. Hiatt will stay here to complete",
    "media:imagetext_created": 1787971893,
    "media:imagetext_source": "com.apple.visionkit.VNImageRequestHandler#Version 26.6.2 (Build 25G83)",
    "media:mimetype": "image/tiff",
    "media:properties": {
      "sizes": {
        "b": {
          "extension": "jpg",
          "height": 768,
          "mimetype": "image/jpeg",
          "secret": "57d3q35iNgxapiIhyapIRc4mQ6fSLO6O",
          "width": 604
        },
        "c": {
          "extension": "jpg",
          "height": 600,
          "mimetype": "image/jpeg",
          "secret": "57d3q35iNgxapiIhyapIRc4mQ6fSLO6O",
          "width": 471
        },
        "dc": {
          "extension": "jpg",
          "height": 600,
          "mimetype": "image/jpeg",
          "secret": "57d3q35iNgxapiIhyapIRc4mQ6fSLO6O",
          "width": 471
        },
        "ds": {
          "extension": "jpg",
          "height": 320,
          "mimetype": "image/jpeg",
          "secret": "57d3q35iNgxapiIhyapIRc4mQ6fSLO6O",
          "width": 320
        },
        "k": {
          "extension": "jpg",
          "height": 1536,
          "mimetype": "image/jpeg",
          "secret": "57d3q35iNgxapiIhyapIRc4mQ6fSLO6O",
          "width": 1208
        },
        "n": {
          "extension": "jpg",
          "height": 240,
          "mimetype": "image/jpeg",
          "secret": "57d3q35iNgxapiIhyapIRc4mQ6fSLO6O",
          "width": 188
        },
        "o": {
          "extension": "jpg",
          "height": 2000,
          "mimetype": "image/jpeg",
          "secret": "yCklPpcb1bs0T7ANbUiRGLdBPAcNFY6u",
          "width": 1573
        },
        "s": {
          "extension": "jpg",
          "height": 320,
          "mimetype": "image/jpeg",
          "secret": "57d3q35iNgxapiIhyapIRc4mQ6fSLO6O",
          "width": 320
        },
        "z": {
          "extension": "jpg",
          "height": 480,
          "mimetype": "image/jpeg",
          "secret": "57d3q35iNgxapiIhyapIRc4mQ6fSLO6O",
          "width": 377
        }
      }
    },
    "media:source": "sfomuseum",
    "media:status_id": 1,
    "media:uri_template": "https://static.sfomuseum.org/media/191/379/676/7/1913796767_{secret}_{label}.{extension}",
    "millsfield:airline_id": [
      1159284989
    ],
    "millsfield:category_id": 1511214251,
    "millsfield:collection_id": 1511214207,
    "millsfield:company_id": [
      1159286839
    ],
    "millsfield:images_colors": [
      {
        "hex": "#e3d7c1",
        "name": "#e3d7c1",
        "reference": "marekm4"
      },
      {
        "hex": "#f5deb3",
        "name": "wheat",
        "reference": "css4"
      },
      {
        "hex": "#efcdb8",
        "name": "Desert Sand",
        "reference": "crayola"
      },
      {
        "hex": "#4a4631",
        "name": "#4a4631",
        "reference": "marekm4"
      },
      {
        "hex": "#556b2f",
        "name": "darkolivegreen",
        "reference": "css4"
      },
      {
        "hex": "#414a4c",
        "name": "Outer Space",
        "reference": "crayola"
      },
      {
        "hex": "#968d73",
        "name": "#968d73",
        "reference": "marekm4"
      },
      {
        "hex": "#808080",
        "name": "grey",
        "reference": "css4"
      },
      {
        "hex": "#9f8170",
        "name": "Beaver",
        "reference": "crayola"
      }
    ],
    "millsfield:similar": {
      "apple/mobileclip_s0": [
        {
          "distance": 0.13866253,
          "id": 1913796737
        },
        {
          "distance": 0.17383619,
          "id": 1913796723
        },
        {
          "distance": 0.18866822,
          "id": 1913799665
        },
        {
          "distance": 0.19548595,
          "id": 1913796719
        },
        {
          "distance": 0.20354491,
          "id": 1913796727
        },
        {
          "distance": 0.2050237,
          "id": 1913799655
        },
        {
          "distance": 0.20520085,
          "id": 1913796713
        },
        {
          "distance": 0.2206689,
          "id": 1913797067
        },
        {
          "distance": 0.22293206,
          "id": 1913796725
        },
        {
          "distance": 0.22374299,
          "id": 1913799811
        }
      ],
      "apple/mobileclip_s1": [
        {
          "distance": 0.11285885,
          "id": 1913796737
        },
        {
          "distance": 0.12911817,
          "id": 1913796707
        },
        {
          "distance": 0.1303074,
          "id": 1913796723
        },
        {
          "distance": 0.13169616,
          "id": 1913799655
        },
        {
          "distance": 0.13465689,
          "id": 1913799665
        },
        {
          "distance": 0.15228574,
          "id": 1913796719
        },
        {
          "distance": 0.15295722,
          "id": 1527830365
        },
        {
          "distance": 0.1593157,
          "id": 1913800009
        },
        {
          "distance": 0.15954778,
          "id": 1913802029
        },
        {
          "distance": 0.16063781,
          "id": 1913796717
        }
      ],
      "apple/mobileclip_s2": [
        {
          "distance": 0.16592391,
          "id": 1913796737
        },
        {
          "distance": 0.17899503,
          "id": 1913796723
        },
        {
          "distance": 0.18938288,
          "id": 1913796707
        },
        {
          "distance": 0.20971344,
          "id": 1913799665
        },
        {
          "distance": 0.21526937,
          "id": 1913796739
        },
        {
          "distance": 0.21689945,
          "id": 1913796719
        },
        {
          "distance": 0.21887939,
          "id": 1913796717
        },
        {
          "distance": 0.22090238,
          "id": 1913799695
        },
        {
          "distance": 0.23393449,
          "id": 1913799653
        },
        {
          "distance": 0.24063686,
          "id": 1913799667
        }
      ]
    },
    "millsfield:subcategory_id": 1511213489,
    "mz:is_current": 1,
    "sfomuseum:filename": "2019.121.1176b.tif",
    "sfomuseum:image_id": 219305,
    "sfomuseum:image_index": 5,
    "sfomuseum:image_type": "studio",
    "sfomuseum:object_id": 211539,
    "sfomuseum:placetype": "image",
    "sfomuseum:primary_image": 0,
    "src:geom": "sfomuseum",
    "wof:belongsto": [
      102527513,
      1159162825,
      102191575,
      85633793,
      102087579,
      85922583,
      1913795257,
      85688637,
      1159160869
    ],
    "wof:country": "XY",
    "wof:created": 1714549287,
    "wof:depicts": [
      1159284989,
      1159286839,
      1913795257
    ],
    "wof:geomhash": "ed7c2ab3547fc3916b5edc33488deaa7",
    "wof:hierarchy": [
      {
        "building_id": -1,
        "campus_id": 102527513,
        "collection_id": 1159162825,
        "concourse_id": 1159162825,
        "continent_id": 102191575,
        "country_id": 85633793,
        "county_id": 102087579,
        "custom_id": 1913796767,
        "image_id": 1913796767,
        "locality_id": 85922583,
        "neighbourhood_id": -1,
        "object_id": 1913795257,
        "region_id": 85688637,
        "wing_id": 1159160869
      }
    ],
    "wof:id": 1913796767,
    "wof:lastmodified": 1787971946,
    "wof:name": "correspondence: Harold M. Bixby, family circular letter",
    "wof:parent_id": 1913795257,
    "wof:placetype": "custom",
    "wof:placetype_alt": [
      "image"
    ],
    "wof:repo": "sfomuseum-data-media-collection",
    "wof:superseded_by": [],
    "wof:supersedes": []
  },
  "bbox": [
    -122.386472,
    37.616105,
    -122.385834,
    37.616611
  ],
  "geometry": {"type":"Polygon","coordinates":[[[-122.386472,37.616318],[-122.386435,37.616233],[-122.386376,37.616178],[-122.386301,37.616131],[-122.386161,37.616105],[-122.386022,37.616131],[-122.385914,37.616186],[-122.385855,37.616267],[-122.385834,37.616369],[-122.385871,37.616467],[-122.385941,37.616543],[-122.386054,37.616603],[-122.386183,37.616611],[-122.386306,37.616573],[-122.386419,37.616509],[-122.386467,37.616411],[-122.386472,37.616318]]]}
}
