{
  "id": 1763205431,
  "type": "Feature",
  "properties": {
    "date:cessation_lower": "2010-01-01",
    "date:cessation_upper": "2019-12-31",
    "date:inception_lower": "2010-01-01",
    "date:inception_upper": "2019-12-31",
    "edtf:cessation": "201X",
    "edtf:inception": "201X",
    "geom:area": 2.477324999997507e-7,
    "geom:bbox": "-122.386472,37.616105,-122.385834,37.616611",
    "geom:latitude": 37.61635756125121,
    "geom:longitude": -122.38615532866096,
    "media:fingerprint": "ba88df8ff8b6237feced15639ccbc8f831cb9773",
    "media:imagehash_avg": "a:ffffefc3c3ff0101",
    "media:imagehash_diff": "d:f86d0f0f0717692b",
    "media:imagetext": "AIR KBZ\nFLYING BEYOND EXPECTATIONS\nAIR KBZ\nFLYING BEYOND EXPECTATIONS\nwww.airkbz.com",
    "media:imagetext_created": 1787961351,
    "media:imagetext_source": "com.apple.visionkit.VNImageRequestHandler#Version 26.6.2 (Build 25G83)",
    "media:mimetype": "image/tiff",
    "media:properties": {
      "sizes": {
        "b": {
          "extension": "jpg",
          "height": 768,
          "mimetype": "image/jpeg",
          "secret": "1lIaC9Uy5Tv970kDGgAc14SAFyrt4opU",
          "width": 423
        },
        "c": {
          "extension": "jpg",
          "height": 600,
          "mimetype": "image/jpeg",
          "secret": "1lIaC9Uy5Tv970kDGgAc14SAFyrt4opU",
          "width": 330
        },
        "dc": {
          "extension": "jpg",
          "height": 600,
          "mimetype": "image/jpeg",
          "secret": "1lIaC9Uy5Tv970kDGgAc14SAFyrt4opU",
          "width": 330
        },
        "ds": {
          "extension": "jpg",
          "height": 320,
          "mimetype": "image/jpeg",
          "secret": "1lIaC9Uy5Tv970kDGgAc14SAFyrt4opU",
          "width": 320
        },
        "k": {
          "extension": "jpg",
          "height": 1536,
          "mimetype": "image/jpeg",
          "secret": "1lIaC9Uy5Tv970kDGgAc14SAFyrt4opU",
          "width": 847
        },
        "n": {
          "extension": "jpg",
          "height": 240,
          "mimetype": "image/jpeg",
          "secret": "1lIaC9Uy5Tv970kDGgAc14SAFyrt4opU",
          "width": 132
        },
        "o": {
          "extension": "jpg",
          "height": 2000,
          "mimetype": "image/jpeg",
          "secret": "8oEJwC8bjpyCwhqFdaSf1uQnyV1a6fMP",
          "width": 1103
        },
        "s": {
          "extension": "jpg",
          "height": 320,
          "mimetype": "image/jpeg",
          "secret": "1lIaC9Uy5Tv970kDGgAc14SAFyrt4opU",
          "width": 320
        },
        "z": {
          "extension": "jpg",
          "height": 480,
          "mimetype": "image/jpeg",
          "secret": "1lIaC9Uy5Tv970kDGgAc14SAFyrt4opU",
          "width": 264
        }
      }
    },
    "media:source": "sfomuseum",
    "media:status_id": 1,
    "media:uri_template": "https://static.sfomuseum.org/media/176/320/543/1/1763205431_{secret}_{label}.{extension}",
    "millsfield:airline_id": [
      1729557767
    ],
    "millsfield:category_id": 1762671311,
    "millsfield:collection_id": 1511214207,
    "millsfield:images_colors": [
      {
        "hex": "#ebeceb",
        "name": "#ebeceb",
        "reference": "marekm4"
      },
      {
        "hex": "#faf0e6",
        "name": "linen",
        "reference": "css4"
      },
      {
        "hex": "#fddde6",
        "name": "Piggy Pink",
        "reference": "crayola"
      },
      {
        "hex": "#2d1d49",
        "name": "#2d1d49",
        "reference": "marekm4"
      },
      {
        "hex": "#191970",
        "name": "midnightblue",
        "reference": "css4"
      },
      {
        "hex": "#414a4c",
        "name": "Outer Space",
        "reference": "crayola"
      },
      {
        "hex": "#e3cd13",
        "name": "#e3cd13",
        "reference": "marekm4"
      },
      {
        "hex": "#ffd700",
        "name": "gold",
        "reference": "css4"
      },
      {
        "hex": "#ceff1d",
        "name": "Electric Lime",
        "reference": "crayola"
      }
    ],
    "millsfield:images_texts": [
      "AIR KBZ\nFLYING BEYOND EXPECTATIONS\nAIR KBZ\nFLYING BEYOND EXPECTATIONS\nwww.airkbz.com"
    ],
    "millsfield:images_texts_ids": [
      1763205431
    ],
    "millsfield:similar": {
      "apple/mobileclip_s0": [
        {
          "distance": 0.7176352,
          "id": 1796455187
        },
        {
          "distance": 0.7322682,
          "id": 1796454965
        },
        {
          "distance": 0.732556,
          "id": 1527823495
        },
        {
          "distance": 0.73798347,
          "id": 2048167213
        },
        {
          "distance": 0.7461155,
          "id": 1763204825
        },
        {
          "distance": 0.75287116,
          "id": 2015174485
        },
        {
          "distance": 0.7548252,
          "id": 1779946527
        },
        {
          "distance": 0.755225,
          "id": 2014887017
        },
        {
          "distance": 0.75679743,
          "id": 1763205205
        },
        {
          "distance": 0.75938314,
          "id": 1779946463
        }
      ],
      "apple/mobileclip_s1": [
        {
          "distance": 0.45506015,
          "id": 2015174485
        },
        {
          "distance": 0.5055521,
          "id": 1763204825
        },
        {
          "distance": 0.50882995,
          "id": 1779946527
        },
        {
          "distance": 0.52573466,
          "id": 2048167209
        },
        {
          "distance": 0.52623034,
          "id": 2048167213
        },
        {
          "distance": 0.5298885,
          "id": 1779914785
        },
        {
          "distance": 0.53184545,
          "id": 1527842067
        },
        {
          "distance": 0.531846,
          "id": 2048166749
        },
        {
          "distance": 0.53334296,
          "id": 1779946541
        },
        {
          "distance": 0.5345807,
          "id": 2014778217
        }
      ],
      "apple/mobileclip_s2": [
        {
          "distance": 0.69935447,
          "id": 2015174485
        },
        {
          "distance": 0.75116473,
          "id": 1779946541
        },
        {
          "distance": 0.76147467,
          "id": 1779946527
        },
        {
          "distance": 0.77011174,
          "id": 1779946529
        },
        {
          "distance": 0.7945391,
          "id": 2048167469
        },
        {
          "distance": 0.79847306,
          "id": 2048166749
        },
        {
          "distance": 0.8028716,
          "id": 1880246329
        },
        {
          "distance": 0.8032886,
          "id": 2048167207
        },
        {
          "distance": 0.8051267,
          "id": 2014778319
        },
        {
          "distance": 0.81178844,
          "id": 1964106847
        }
      ]
    },
    "millsfield:subcategory_id": 1511213185,
    "mz:is_current": 1,
    "sfomuseum:filename": "2021.020.0579.tif",
    "sfomuseum:image_id": 251194,
    "sfomuseum:image_index": 5,
    "sfomuseum:image_type": "studio",
    "sfomuseum:object_id": 222144,
    "sfomuseum:placetype": "image",
    "sfomuseum:primary_image": 1,
    "src:geom": "sfomuseum",
    "wof:belongsto": [
      102527513,
      1159162825,
      102191575,
      85633793,
      102087579,
      85922583,
      1763204423,
      85688637,
      1159160869
    ],
    "wof:country": "XY",
    "wof:created": 1646469592,
    "wof:depicts": [
      1763204423,
      1729557767
    ],
    "wof:geomhash": "ed7c2ab3547fc3916b5edc33488deaa7",
    "wof:hierarchy": [
      {
        "building_id": -1,
        "campus_id": 102527513,
        "collection_id": 1159162825,
        "concourse_id": 1159162825,
        "continent_id": 102191575,
        "country_id": 85633793,
        "county_id": 102087579,
        "custom_id": 1763205431,
        "image_id": 1763205431,
        "locality_id": 85922583,
        "neighbourhood_id": -1,
        "object_id": 1763204423,
        "region_id": 85688637,
        "wing_id": 1159160869
      }
    ],
    "wof:id": 1763205431,
    "wof:lastmodified": 1788450993,
    "wof:name": "airsickness bag: Air Kanbawza (Air KBZ)",
    "wof:parent_id": 1763204423,
    "wof:placetype": "custom",
    "wof:placetype_alt": [
      "image"
    ],
    "wof:repo": "sfomuseum-data-media-collection",
    "wof:superseded_by": [],
    "wof:supersedes": []
  },
  "bbox": [
    -122.386472,
    37.616105,
    -122.385834,
    37.616611
  ],
  "geometry": {"type":"Polygon","coordinates":[[[-122.386472,37.616318],[-122.386435,37.616233],[-122.386376,37.616178],[-122.386301,37.616131],[-122.386161,37.616105],[-122.386022,37.616131],[-122.385914,37.616186],[-122.385855,37.616267],[-122.385834,37.616369],[-122.385871,37.616467],[-122.385941,37.616543],[-122.386054,37.616603],[-122.386183,37.616611],[-122.386306,37.616573],[-122.386419,37.616509],[-122.386467,37.616411],[-122.386472,37.616318]]]}
}
