{
  "id": 1527846995,
  "type": "Feature",
  "properties": {
    "date:cessation_lower": "1986-01-01",
    "date:cessation_upper": "1986-12-31",
    "date:inception_lower": "1986-01-01",
    "date:inception_upper": "1986-12-31",
    "edtf:cessation": "1986",
    "edtf:date": "1986",
    "edtf:inception": "1986",
    "geom:area": 0,
    "geom:bbox": "-122.386155,37.616358,-122.386155,37.616358",
    "geom:latitude": 37.616358,
    "geom:longitude": -122.386155,
    "iso:country": "XX",
    "media:fingerprint": "9f198e1c1ade62f893d38a815d7e2a503c2bcbe5",
    "media:imagehash_avg": "a:ffc7ff003f3f0000",
    "media:imagehash_diff": "d:372f2f4978726313",
    "media:imagetext": "I MET ABLE\nAlaska\nAirlines\nEFFECTIVE DECEMBER 1, 1986\nINTRODUCING SERVICE TO SAN DIEGO, CA\nMission San Diego de Alcala",
    "media:imagetext_created": 1787952236,
    "media:imagetext_source": "com.apple.visionkit.VNImageRequestHandler#Version 26.6.2 (Build 25G83)",
    "media:medium": "image",
    "media:mimetype": "image/tiff",
    "media:properties": {
      "sizes": {
        "b": {
          "extension": "jpg",
          "height": 768,
          "mimetype": "image/jpeg",
          "secret": "AjZAUKoUOT5n2EL562ptPXwl7qNLFKfx",
          "width": 373
        },
        "c": {
          "extension": "jpg",
          "height": 600,
          "mimetype": "image/jpeg",
          "secret": "AjZAUKoUOT5n2EL562ptPXwl7qNLFKfx",
          "width": 291
        },
        "dc": {
          "extension": "jpg",
          "height": 600,
          "mimetype": "image/jpeg",
          "secret": "AjZAUKoUOT5n2EL562ptPXwl7qNLFKfx",
          "width": 291
        },
        "ds": {
          "extension": "jpg",
          "height": 320,
          "mimetype": "image/jpeg",
          "secret": "AjZAUKoUOT5n2EL562ptPXwl7qNLFKfx",
          "width": 320
        },
        "k": {
          "extension": "jpg",
          "height": 1536,
          "mimetype": "image/jpeg",
          "secret": "AjZAUKoUOT5n2EL562ptPXwl7qNLFKfx",
          "width": 746
        },
        "n": {
          "extension": "jpg",
          "height": 240,
          "mimetype": "image/jpeg",
          "secret": "AjZAUKoUOT5n2EL562ptPXwl7qNLFKfx",
          "width": 116
        },
        "o": {
          "extension": "jpg",
          "height": 2569,
          "mimetype": "image/jpeg",
          "secret": "ArnLGjeliJhKG7QdtsPodpwRoxq4xa6V",
          "width": 1248
        },
        "s": {
          "extension": "jpg",
          "height": 320,
          "mimetype": "image/jpeg",
          "secret": "AjZAUKoUOT5n2EL562ptPXwl7qNLFKfx",
          "width": 320
        },
        "z": {
          "extension": "jpg",
          "height": 480,
          "mimetype": "image/jpeg",
          "secret": "AjZAUKoUOT5n2EL562ptPXwl7qNLFKfx",
          "width": 233
        }
      }
    },
    "media:source": "sfomuseum",
    "media:status_id": 1,
    "media:uri_template": "https://static.sfomuseum.org/media/152/784/699/5/1527846995_{secret}_{label}.{extension}",
    "millsfield:airline_id": [
      1159283813
    ],
    "millsfield:category_id": 1511214223,
    "millsfield:collection_id": 1511214207,
    "millsfield:company_id": [
      1159288915
    ],
    "millsfield:images_colors": [
      {
        "hex": "#dbddde",
        "name": "#dbddde",
        "reference": "marekm4"
      },
      {
        "hex": "#dcdcdc",
        "name": "gainsboro",
        "reference": "css4"
      },
      {
        "hex": "#dbd7d2",
        "name": "Timberwolf",
        "reference": "crayola"
      },
      {
        "hex": "#26291b",
        "name": "#26291b",
        "reference": "marekm4"
      },
      {
        "hex": "#000000",
        "name": "black",
        "reference": "css4"
      },
      {
        "hex": "#000000",
        "name": "Black",
        "reference": "crayola"
      },
      {
        "hex": "#082ca8",
        "name": "#082ca8",
        "reference": "marekm4"
      },
      {
        "hex": "#00008b",
        "name": "darkblue",
        "reference": "css4"
      },
      {
        "hex": "#324ab2",
        "name": "Violet Blue",
        "reference": "crayola"
      },
      {
        "hex": "#97342b",
        "name": "#97342b",
        "reference": "marekm4"
      },
      {
        "hex": "#a52a2a",
        "name": "brown",
        "reference": "css4"
      },
      {
        "hex": "#9c2542",
        "name": "Big Dip O' Ruby",
        "reference": "crayola"
      }
    ],
    "millsfield:images_texts": [
      "I MET ABLE\nAlaska\nAirlines\nEFFECTIVE DECEMBER 1, 1986\nINTRODUCING SERVICE TO SAN DIEGO, CA\nMission San Diego de Alcala"
    ],
    "millsfield:images_texts_ids": [
      1527846995
    ],
    "millsfield:similar": {
      "apple/mobileclip_s0": [
        {
          "distance": 0.593423,
          "id": 1527847025
        },
        {
          "distance": 0.6626113,
          "id": 1527838969
        },
        {
          "distance": 0.6768309,
          "id": 1527838887
        },
        {
          "distance": 0.6918595,
          "id": 1527838889
        },
        {
          "distance": 0.7222571,
          "id": 1527847267
        },
        {
          "distance": 0.7298451,
          "id": 1527839017
        },
        {
          "distance": 0.739335,
          "id": 1762702187
        },
        {
          "distance": 0.74456316,
          "id": 1527840773
        },
        {
          "distance": 0.7450525,
          "id": 1762714927
        },
        {
          "distance": 0.74550253,
          "id": 1527845747
        }
      ],
      "apple/mobileclip_s1": [
        {
          "distance": 0.46488416,
          "id": 1527847025
        },
        {
          "distance": 0.47145522,
          "id": 1527847017
        },
        {
          "distance": 0.4766696,
          "id": 1527846985
        },
        {
          "distance": 0.5357063,
          "id": 1527838889
        },
        {
          "distance": 0.53629625,
          "id": 1527838969
        },
        {
          "distance": 0.5410683,
          "id": 1527839017
        },
        {
          "distance": 0.5425499,
          "id": 1527836215
        },
        {
          "distance": 0.5466174,
          "id": 1527838887
        },
        {
          "distance": 0.5537106,
          "id": 1527840879
        },
        {
          "distance": 0.5560747,
          "id": 1527839121
        }
      ],
      "apple/mobileclip_s2": [
        {
          "distance": 0.595329,
          "id": 1527847025
        },
        {
          "distance": 0.6148169,
          "id": 1527847017
        },
        {
          "distance": 0.61970633,
          "id": 1527846985
        },
        {
          "distance": 0.6799563,
          "id": 1527839017
        },
        {
          "distance": 0.6850581,
          "id": 1527838887
        },
        {
          "distance": 0.69559115,
          "id": 1527838969
        },
        {
          "distance": 0.7054638,
          "id": 1527838889
        },
        {
          "distance": 0.71887577,
          "id": 1527836215
        },
        {
          "distance": 0.71919924,
          "id": 1527849557
        },
        {
          "distance": 0.73716104,
          "id": 1762715539
        }
      ]
    },
    "millsfield:subcategory_id": 1511213425,
    "mz:hierarchy_label": 1,
    "mz:is_current": -1,
    "sfomuseum:filename": "2002.135.037.023.tif",
    "sfomuseum:image_id": 71283,
    "sfomuseum:image_index": 5,
    "sfomuseum:image_type": "studio",
    "sfomuseum:object_id": 92582,
    "sfomuseum:placetype": "image",
    "sfomuseum:primary_image": 1,
    "src:geom": "sfomuseum",
    "wof:belongsto": [
      1511214223,
      1511932683,
      102527513,
      102191575,
      85633793,
      1511213425,
      85922583,
      102087579,
      1511214277,
      1511214203,
      85688637
    ],
    "wof:breaches": [],
    "wof:country": "XX",
    "wof:created": 1578953598,
    "wof:depicts": [
      1159283813,
      1511932683,
      1159288915
    ],
    "wof:geomhash": "bd906905ce4be6c0651c90b0fc24804c",
    "wof:hierarchy": [
      {
        "arcade_id": 1511213425,
        "building_id": 1511214277,
        "campus_id": 102527513,
        "concourse_id": 1511214223,
        "continent_id": 102191575,
        "country_id": 85633793,
        "county_id": 102087579,
        "custom_id": 1527846995,
        "image_id": 1527846995,
        "locality_id": 85922583,
        "media_id": 1527846995,
        "neighbourhood_id": -1,
        "region_id": 85688637,
        "venue_id": 1511932683,
        "wing_id": 1511214203
      }
    ],
    "wof:id": 1527846995,
    "wof:lastmodified": 1788450122,
    "wof:name": "timetable: Alaska Airlines",
    "wof:parent_id": 1511932683,
    "wof:placetype": "custom",
    "wof:placetype_alt": [
      "image"
    ],
    "wof:repo": "sfomuseum-data-media-collection",
    "wof:superseded_by": [],
    "wof:supersedes": [],
    "wof:tags": []
  },
  "bbox": [
    -122.386155,
    37.616358,
    -122.386155,
    37.616358
  ],
  "geometry": {"type":"Point","coordinates":[-122.386155,37.616358]}
}
