{
  "id": 1914622989,
  "type": "Feature",
  "properties": {
    "date:cessation_lower": "1972-01-01",
    "date:cessation_upper": "1972-12-31",
    "date:inception_lower": "1972-01-01",
    "date:inception_upper": "1972-12-31",
    "edtf:cessation": "1972",
    "edtf:inception": "1972",
    "geom:area": 2.477324999997507e-7,
    "geom:bbox": "-122.386472,37.616105,-122.385834,37.616611",
    "geom:latitude": 37.61635756125121,
    "geom:longitude": -122.38615532866096,
    "media:fingerprint": "6194c11781a8b5a3920747ae06b3667ff01933ce",
    "media:imagehash_avg": "a:ff91f1f1f1f0f1f1",
    "media:imagehash_diff": "d:0763616363634303",
    "media:imagetext": "HOW TO USE THE OXYGEN MASK\nJet aircraft fly at high altitude and the cabin is pressurized for your comfort. If cabin\npressure ever was lost, you would be breathing high altitude \"thin\" air... so it is\nimperative that cigars and cigarettes be extinguished immediately and oxygen masks\nbe put on as shown below.\n1. WHERE TO LOCATE MASKS. Oxygen masks\nare in a compartment above each row of passenger\nseats. If oxygen is ever required, compartment door\nopens automatically. Remain seated. Grasp nearest\nmask and pull it to your face.\n2. HOW TO USE MASKS. Promptly place the\nmask over nose and mouth. The oxygen supply tube\nis long enough to permit you to relax comfortably\nin your seat. For childrens' use, a spare mask is\navailable at each row.\n3. HOW TO ADJUST MASKS FOR COM-\nFORT. Once mask is in position, it may be easily\nadjusted for comfortable fit. If too tight, hold mask\nin position and pull gently\non elastic head band\nwith free hand. If too loose, pull tabs located where\nhead band connects to mask. Do not overtighten,\nas this may misshape mask and cause discomfort.\n00\nFEDERAL AVIATION REGULATIONS REQUIRE\nDURING TAKE OFF AND LANDING YOUR SEAT BACK AND TRAY TABLE MUST BE\nIN THE UPRIGHT POSITION AND YOUR CARRY-ON LUGGAGE PLACED UNDER A SEAT\n2002.127.611",
    "media:imagetext_created": 1787973882,
    "media:imagetext_source": "com.apple.visionkit.VNImageRequestHandler#Version 26.6.2 (Build 25G83)",
    "media:mimetype": "image/tiff",
    "media:properties": {
      "sizes": {
        "b": {
          "extension": "jpg",
          "height": 768,
          "mimetype": "image/jpeg",
          "secret": "WdvGS8cKds3590IQIiL7hlYSHpCGLkO3",
          "width": 464
        },
        "c": {
          "extension": "jpg",
          "height": 600,
          "mimetype": "image/jpeg",
          "secret": "WdvGS8cKds3590IQIiL7hlYSHpCGLkO3",
          "width": 362
        },
        "dc": {
          "extension": "jpg",
          "height": 600,
          "mimetype": "image/jpeg",
          "secret": "WdvGS8cKds3590IQIiL7hlYSHpCGLkO3",
          "width": 362
        },
        "ds": {
          "extension": "jpg",
          "height": 320,
          "mimetype": "image/jpeg",
          "secret": "WdvGS8cKds3590IQIiL7hlYSHpCGLkO3",
          "width": 320
        },
        "k": {
          "extension": "jpg",
          "height": 1536,
          "mimetype": "image/jpeg",
          "secret": "WdvGS8cKds3590IQIiL7hlYSHpCGLkO3",
          "width": 928
        },
        "n": {
          "extension": "jpg",
          "height": 240,
          "mimetype": "image/jpeg",
          "secret": "WdvGS8cKds3590IQIiL7hlYSHpCGLkO3",
          "width": 145
        },
        "o": {
          "extension": "jpg",
          "height": 2000,
          "mimetype": "image/jpeg",
          "secret": "u7shlh6eFmEJ9uIEZs5rt9bm3ZsqZDFd",
          "width": 1209
        },
        "s": {
          "extension": "jpg",
          "height": 320,
          "mimetype": "image/jpeg",
          "secret": "WdvGS8cKds3590IQIiL7hlYSHpCGLkO3",
          "width": 320
        },
        "z": {
          "extension": "jpg",
          "height": 480,
          "mimetype": "image/jpeg",
          "secret": "WdvGS8cKds3590IQIiL7hlYSHpCGLkO3",
          "width": 290
        }
      }
    },
    "media:source": "sfomuseum",
    "media:status_id": 1,
    "media:uri_template": "https://static.sfomuseum.org/media/191/462/298/9/1914622989_{secret}_{label}.{extention}",
    "millsfield:aircraft_id": [
      1159289873
    ],
    "millsfield:airline_id": [
      1159285415
    ],
    "millsfield:category_id": 1762671311,
    "millsfield:collection_id": 1511214207,
    "millsfield:company_id": [
      1159293593
    ],
    "millsfield:images_colors": [
      {
        "hex": "#8fc1c4",
        "name": "#8fc1c4",
        "reference": "marekm4"
      },
      {
        "hex": "#87ceeb",
        "name": "skyblue",
        "reference": "css4"
      },
      {
        "hex": "#a2add0",
        "name": "Wild Blue Yonder",
        "reference": "crayola"
      },
      {
        "hex": "#75a1a5",
        "name": "#75a1a5",
        "reference": "marekm4"
      },
      {
        "hex": "#5f9ea0",
        "name": "cadetblue",
        "reference": "css4"
      },
      {
        "hex": "#979aaa",
        "name": "Manatee",
        "reference": "crayola"
      },
      {
        "hex": "#131a1c",
        "name": "#131a1c",
        "reference": "marekm4"
      },
      {
        "hex": "#000000",
        "name": "black",
        "reference": "css4"
      },
      {
        "hex": "#000000",
        "name": "Black",
        "reference": "crayola"
      }
    ],
    "millsfield:images_texts": [
      "FOR YOUR SAFETY. Know how to move\nB-747\nout of this airplane fast. There is fire-danger\nany time a landing is other than normal—partic-\nularly when the airplane structure is damaged.\nBelow is a floor plan of the plane you are in. Familiarize yourself with the location of\nthe exits. Note particularly the exits nearest you. Study how they are opened and also\nthe protective position you should assume during an emergency landing. When leav-\ning, do not take coats, purses or baggage with you. Move to the exits immediately.\nA WORD ABOUT YOUR SEAT BELT-Rough air (turbulence) at high altitudes,\nalthough infrequent, can be severe. When seat belt sign is lighted in-flight, please\ncomply with the sign to prevent possible injury. Experienced air travelers usually\nleave their seat belts fastened all the time and pull them up snug when the seat belt\nsign is lighted.\nHOW TO OPEN EXITS\nCA 325\n8-72\nPRINTED IN U.S.A.\nRotate door handle up and\nover. Door moves slightly\ninward and then is auto-\nmatically powered outward\nto a fully open position.\nEscape slide automatically\ndrops and begins inflating\nwhile door is opening.\nUNITED\nThe slide is fully inflated\nand ready for use in a few\nseconds.\nDOUBLE•\nLANE\nSLIDES\nOVERWING\nRAMP AND\n3-LANE\nSLIDES\nJump onto the slide in a sitting position\nusing the closest of the two slide lanes.\nDo not sit down in the doorway. Do not\ntry to slow yourself; special pads at the\nbottom will reduce your speed. Move away\nfrom the bottom of the slide quickly.\nOver-wing door is equipped with inflat-\nable ramp and slide. They inflate auto-\nmatically when the dooris opened. Pro-\nceed along ramp and jump onto slide as\nshown.\n0000\n- JUMF\nONTO\nSLIDE\nHERE\n0000000000\n0000000\nPROCEED\nJUMr\n• ONTO SLIDE\nHERE\nDECELARATION\nDOUBLE-\nLANE\nSLIDES\nDECELERATION PADS\nRUN TO→\nCLEAR AREA\nTO\nAREA",
      "HOW TO LAUNCH AND INFLATE RAFTS\nCEILING RAFT COMPARTMENTS\n1. To open ceiling raft compart-\n2. Release buckles and lift raft off\nment, pull this handle down.\ndoor. Launch out nearest exit.\nHOW TO INFLATE RAFTS\nWhen raft is launched into waterit is\nsecured to the airplane by a cord.\nTo avoid inflating the raft inside\nthe airplane do not lift or drag the\nraft by this cord.\nINFLATED RAFT\nAutomatic life raft radio beacon. Rescue units can\nlocate your raft hundreds of miles away by means\nof this radio.\nA boarding\nramp can be\nextended by\npulling this\nRED tab.\nSURVIVAL\nZOUIPMENT\nIN HERE\nWHAT TO DO IN CASE AN\nEMERGENCY WATER LANDING\nIS NECESSARY\n1. No smoking. Put out cigarettes and close cover on\nash tray. Adjust your seat back to upright position.\n2. Remove shoes and all cumbersome, restrictive\nclothing. Loosen your collar and tie. Remove things\nthat obviously could hurt you, such as glasses and\nfalse teeth; sharp objects such as pens, pencils and\nbrooches.\n3. Put on your life vest. It is stowed under your seat.\n(Exhibit 1).\n4. Sit down and fasten your seat belt. Pull it up good\nand tight; this is important. Locate the emergency\nexits nearest you.\n5. Before landing, your Captain will issue a \"Brace\nfor Ditching\" order. Sit well back in seat-pull seat\nbelt tight-lean forward with shoulders on lap and\nhead down and grasp ankles. (Exhibit 2) This position\nwill reduce the shock of sudden deceleration.\n6. After all forward motion has stopped, not before,\nunfasten your seat belt and proceed immediately to\nnearest exit.\nPROTECTIVE POSITION\n25 MAN RAFT\non anor von Vote unn\nmanus comes\nLaunch raft down slide then inflate\nby pulling on the cord.\nPATHS OF ESCAPE AND\nRAFT BOARDING POINTS\nKNIFE\nHeaving line. Quickly throw this lifeline to people\nin the water who need help to reach the raft.\nExhibit 2\n00000\n000\n00000000000000\n0000\n000000000000000\n0Q0000000000 0 0 O0\n00000000000000\n00000000000000000000000D\n00000000000 0 • ••0\n000000000000\n0000000000000\nExhibit I\nYOUR LIFE VEST\nIndividual life vest under\neach seat.\nPull tab for vest.\n2. Pull waist straps from\nback and fasten hooks\ninto rings.\nOne on each\nside.\n4. Inflate vest by down-\nward pull on only ONE of\ntwo red knobs at lower\nfront of vest. In water, if\nadditional flotation is\nnecessary, pull second\nred knob. Oral inflation\nis accomplished by\nblowing into tubes loca-\nted at upper sides of vest.\n1. Put on life vest over\nyour head.\n(Crew members wear red\n3. Pull straps until they\nare very snug around\nwaist.",
      "HOW TO USE THE OXYGEN MASK\nJet aircraft fly at high altitude and the cabin is pressurized for your comfort. If cabin\npressure ever was lost, you would be breathing high altitude \"thin\" air... so it is\nimperative that cigars and cigarettes be extinguished immediately and oxygen masks\nbe put on as shown below.\n1. WHERE TO LOCATE MASKS. Oxygen masks\nare in a compartment above each row of passenger\nseats. If oxygen is ever required, compartment door\nopens automatically. Remain seated. Grasp nearest\nmask and pull it to your face.\n2. HOW TO USE MASKS. Promptly place the\nmask over nose and mouth. The oxygen supply tube\nis long enough to permit you to relax comfortably\nin your seat. For childrens' use, a spare mask is\navailable at each row.\n3. HOW TO ADJUST MASKS FOR COM-\nFORT. Once mask is in position, it may be easily\nadjusted for comfortable fit. If too tight, hold mask\nin position and pull gently\non elastic head band\nwith free hand. If too loose, pull tabs located where\nhead band connects to mask. Do not overtighten,\nas this may misshape mask and cause discomfort.\n00\nFEDERAL AVIATION REGULATIONS REQUIRE\nDURING TAKE OFF AND LANDING YOUR SEAT BACK AND TRAY TABLE MUST BE\nIN THE UPRIGHT POSITION AND YOUR CARRY-ON LUGGAGE PLACED UNDER A SEAT\n2002.127.611"
    ],
    "millsfield:images_texts_ids": [
      1914622985,
      1914622987,
      1914622989
    ],
    "millsfield:similar": {
      "apple/mobileclip_s0": [
        {
          "distance": 0.45377132,
          "id": 1914622959
        },
        {
          "distance": 0.45925525,
          "id": 1914622955
        },
        {
          "distance": 0.4709327,
          "id": 1914622963
        },
        {
          "distance": 0.48329982,
          "id": 1914622969
        },
        {
          "distance": 0.48509774,
          "id": 1914622951
        },
        {
          "distance": 0.5057399,
          "id": 1914622915
        },
        {
          "distance": 0.5089012,
          "id": 1931122635
        },
        {
          "distance": 0.52956563,
          "id": 1931096689
        },
        {
          "distance": 0.5441257,
          "id": 1762894423
        },
        {
          "distance": 0.5522116,
          "id": 1914622975
        }
      ],
      "apple/mobileclip_s1": [
        {
          "distance": 0.3187928,
          "id": 1914622955
        },
        {
          "distance": 0.34439796,
          "id": 1762894423
        },
        {
          "distance": 0.3713088,
          "id": 1914622951
        },
        {
          "distance": 0.39148715,
          "id": 1762894363
        },
        {
          "distance": 0.40158275,
          "id": 1914622969
        },
        {
          "distance": 0.40819967,
          "id": 1914622675
        },
        {
          "distance": 0.42079005,
          "id": 1931109863
        },
        {
          "distance": 0.43443066,
          "id": 1914556397
        },
        {
          "distance": 0.43457693,
          "id": 1931109979
        },
        {
          "distance": 0.43621936,
          "id": 1914580003
        }
      ],
      "apple/mobileclip_s2": [
        {
          "distance": 0.5129302,
          "id": 1762894363
        },
        {
          "distance": 0.51302207,
          "id": 1762894423
        },
        {
          "distance": 0.5240152,
          "id": 1914622951
        },
        {
          "distance": 0.5247168,
          "id": 1914622955
        },
        {
          "distance": 0.53220266,
          "id": 1930979931
        },
        {
          "distance": 0.5360072,
          "id": 1914622969
        },
        {
          "distance": 0.5434144,
          "id": 1914580003
        },
        {
          "distance": 0.5646462,
          "id": 1914622963
        },
        {
          "distance": 0.57862145,
          "id": 1931096689
        },
        {
          "distance": 0.5786415,
          "id": 1913872247
        }
      ]
    },
    "millsfield:subcategory_id": 1511213703,
    "mz:is_current": 1,
    "sfomuseum:filename": "80811.tif",
    "sfomuseum:image_id": 80811,
    "sfomuseum:image_index": 5,
    "sfomuseum:image_type": "studio",
    "sfomuseum:object_id": 70055,
    "sfomuseum:placetype": "image",
    "sfomuseum:primary_image": 0,
    "src:geom": "sfomuseum",
    "wof:belongsto": [
      102527513,
      1159162825,
      102191575,
      85633793,
      102087579,
      85922583,
      1914622477,
      85688637,
      1159160869
    ],
    "wof:country": "XY",
    "wof:created": 1721029242,
    "wof:depicts": [
      1159289873,
      1159293593,
      1914622477,
      1159285415
    ],
    "wof:geomhash": "ed7c2ab3547fc3916b5edc33488deaa7",
    "wof:hierarchy": [
      {
        "building_id": -1,
        "campus_id": 102527513,
        "collection_id": 1159162825,
        "concourse_id": 1159162825,
        "continent_id": 102191575,
        "country_id": 85633793,
        "county_id": 102087579,
        "custom_id": 1914622989,
        "locality_id": 85922583,
        "neighbourhood_id": -1,
        "object_id": 1914622477,
        "region_id": 85688637,
        "wing_id": 1159160869
      }
    ],
    "wof:id": 1914622989,
    "wof:lastmodified": 1788160825,
    "wof:name": "safety information card: United Air Lines, Boeing 747",
    "wof:parent_id": 1914622477,
    "wof:placetype": "custom",
    "wof:repo": "sfomuseum-data-media-collection",
    "wof:superseded_by": [],
    "wof:supersedes": []
  },
  "bbox": [
    -122.386472,
    37.616105,
    -122.385834,
    37.616611
  ],
  "geometry": {"type":"Polygon","coordinates":[[[-122.386472,37.616318],[-122.386435,37.616233],[-122.386376,37.616178],[-122.386301,37.616131],[-122.386161,37.616105],[-122.386022,37.616131],[-122.385914,37.616186],[-122.385855,37.616267],[-122.385834,37.616369],[-122.385871,37.616467],[-122.385941,37.616543],[-122.386054,37.616603],[-122.386183,37.616611],[-122.386306,37.616573],[-122.386419,37.616509],[-122.386467,37.616411],[-122.386472,37.616318]]]}
}
