{
  "id": 1762924585,
  "type": "Feature",
  "properties": {
    "date:cessation_lower": "2000-01-01",
    "date:cessation_upper": "2009-12-31",
    "date:inception_lower": "2000-01-01",
    "date:inception_upper": "2009-12-31",
    "edtf:cessation": "200X",
    "edtf:inception": "200X",
    "geom:area": 2.477324999997507e-7,
    "geom:bbox": "-122.386472,37.616105,-122.385834,37.616611",
    "geom:latitude": 37.61635756125121,
    "geom:longitude": -122.38615532866096,
    "media:fingerprint": "e525e01d3a3175edc829699f7b0d5b051f85eef8",
    "media:imagehash_avg": "a:ffffe7c3c3c3c3c7",
    "media:imagehash_diff": "d:4ccc0c0e8e8e1e1e",
    "media:mimetype": "image/tiff",
    "media:properties": {
      "sizes": {
        "b": {
          "extension": "jpg",
          "height": 768,
          "mimetype": "image/jpeg",
          "secret": "7HQ0EhWxWkHkVDMWV3i4iQgmf6VF4chw",
          "width": 965
        },
        "c": {
          "extension": "jpg",
          "height": 600,
          "mimetype": "image/jpeg",
          "secret": "7HQ0EhWxWkHkVDMWV3i4iQgmf6VF4chw",
          "width": 754
        },
        "dc": {
          "extension": "jpg",
          "height": 600,
          "mimetype": "image/jpeg",
          "secret": "7HQ0EhWxWkHkVDMWV3i4iQgmf6VF4chw",
          "width": 754
        },
        "ds": {
          "extension": "jpg",
          "height": 320,
          "mimetype": "image/jpeg",
          "secret": "7HQ0EhWxWkHkVDMWV3i4iQgmf6VF4chw",
          "width": 320
        },
        "k": {
          "extension": "jpg",
          "height": 1536,
          "mimetype": "image/jpeg",
          "secret": "7HQ0EhWxWkHkVDMWV3i4iQgmf6VF4chw",
          "width": 1931
        },
        "n": {
          "extension": "jpg",
          "height": 240,
          "mimetype": "image/jpeg",
          "secret": "7HQ0EhWxWkHkVDMWV3i4iQgmf6VF4chw",
          "width": 301
        },
        "o": {
          "extension": "jpg",
          "height": 1667,
          "mimetype": "image/jpeg",
          "secret": "5huRwsS5HwqHmrISuMuYxlFNOeuEPg1D",
          "width": 2096
        },
        "s": {
          "extension": "jpg",
          "height": 320,
          "mimetype": "image/jpeg",
          "secret": "7HQ0EhWxWkHkVDMWV3i4iQgmf6VF4chw",
          "width": 320
        },
        "z": {
          "extension": "jpg",
          "height": 480,
          "mimetype": "image/jpeg",
          "secret": "7HQ0EhWxWkHkVDMWV3i4iQgmf6VF4chw",
          "width": 603
        }
      }
    },
    "media:source": "sfomuseum",
    "media:status_id": 1,
    "media:uri_template": "https://static.sfomuseum.org/media/176/292/458/5/1762924585_{secret}_{label}.{extension}",
    "millsfield:airline_id": [
      1159285043
    ],
    "millsfield:category_id": 1763416393,
    "millsfield:collection_id": 1511214203,
    "millsfield:company_id": [
      1159287479
    ],
    "millsfield:images_colors": [
      {
        "hex": "#b3b2b2",
        "name": "#b3b2b2",
        "reference": "marekm4"
      },
      {
        "hex": "#a9a9a9",
        "name": "darkgrey",
        "reference": "css4"
      },
      {
        "hex": "#b0b7c6",
        "name": "Cadet Blue",
        "reference": "crayola"
      },
      {
        "hex": "#242121",
        "name": "#242121",
        "reference": "marekm4"
      },
      {
        "hex": "#000000",
        "name": "black",
        "reference": "css4"
      },
      {
        "hex": "#000000",
        "name": "Black",
        "reference": "crayola"
      }
    ],
    "millsfield:similar": {
      "apple/mobileclip_s0": [
        {
          "distance": 0.19996852,
          "id": 1762924591
        },
        {
          "distance": 0.3847411,
          "id": 1762925081
        },
        {
          "distance": 0.40056536,
          "id": 1762925083
        },
        {
          "distance": 0.4213477,
          "id": 1762924553
        },
        {
          "distance": 0.43121272,
          "id": 1762924505
        },
        {
          "distance": 0.4368446,
          "id": 1762924877
        },
        {
          "distance": 0.45151007,
          "id": 1762924961
        },
        {
          "distance": 0.4556843,
          "id": 2048163937
        },
        {
          "distance": 0.45618334,
          "id": 1762924561
        },
        {
          "distance": 0.4639155,
          "id": 1762925093
        }
      ],
      "apple/mobileclip_s1": [
        {
          "distance": 0.15336251,
          "id": 1762924591
        },
        {
          "distance": 0.29958817,
          "id": 1762924553
        },
        {
          "distance": 0.33051142,
          "id": 1762924505
        },
        {
          "distance": 0.3388237,
          "id": 1762925081
        },
        {
          "distance": 0.34951717,
          "id": 1762924477
        },
        {
          "distance": 0.35114932,
          "id": 1762925083
        },
        {
          "distance": 0.3516056,
          "id": 1762924169
        },
        {
          "distance": 0.36327767,
          "id": 1762924171
        },
        {
          "distance": 0.36357057,
          "id": 1762924561
        },
        {
          "distance": 0.36929345,
          "id": 1763446629
        }
      ],
      "apple/mobileclip_s2": [
        {
          "distance": 0.1528761,
          "id": 1762924591
        },
        {
          "distance": 0.43580255,
          "id": 1762925081
        },
        {
          "distance": 0.4396343,
          "id": 1762924477
        },
        {
          "distance": 0.44378543,
          "id": 1762924553
        },
        {
          "distance": 0.44516966,
          "id": 1762924505
        },
        {
          "distance": 0.46506894,
          "id": 1762924541
        },
        {
          "distance": 0.4670389,
          "id": 1762924561
        },
        {
          "distance": 0.47372946,
          "id": 1762925083
        },
        {
          "distance": 0.47597793,
          "id": 1762925019
        },
        {
          "distance": 0.5017872,
          "id": 1762924877
        }
      ]
    },
    "millsfield:subcategory_id": 1511213477,
    "mz:is_current": 1,
    "sfomuseum:filename": "2013.150.005.tif",
    "sfomuseum:image_id": 147633,
    "sfomuseum:image_index": 5,
    "sfomuseum:image_type": "studio",
    "sfomuseum:object_id": 152881,
    "sfomuseum:placetype": "image",
    "sfomuseum:primary_image": 1,
    "src:geom": "sfomuseum",
    "wof:belongsto": [
      102527513,
      1159162825,
      102191575,
      85633793,
      102087579,
      85922583,
      1762923445,
      85688637,
      1159160869
    ],
    "wof:country": "XY",
    "wof:created": 1643762329,
    "wof:depicts": [
      1159285043,
      1159287479,
      1762923445
    ],
    "wof:geomhash": "ed7c2ab3547fc3916b5edc33488deaa7",
    "wof:hierarchy": [
      {
        "building_id": -1,
        "campus_id": 102527513,
        "collection_id": 1159162825,
        "concourse_id": 1159162825,
        "continent_id": 102191575,
        "country_id": 85633793,
        "county_id": 102087579,
        "custom_id": 1762924585,
        "image_id": 1762924585,
        "locality_id": 85922583,
        "neighbourhood_id": -1,
        "object_id": 1762923445,
        "region_id": 85688637,
        "wing_id": 1159160869
      }
    ],
    "wof:id": 1762924585,
    "wof:lastmodified": 1788450864,
    "wof:name": "flight attendant apron: Qantas Airways",
    "wof:parent_id": 1762923445,
    "wof:placetype": "custom",
    "wof:placetype_alt": [
      "image"
    ],
    "wof:repo": "sfomuseum-data-media-collection",
    "wof:superseded_by": [],
    "wof:supersedes": []
  },
  "bbox": [
    -122.386472,
    37.616105,
    -122.385834,
    37.616611
  ],
  "geometry": {"type":"Polygon","coordinates":[[[-122.386472,37.616318],[-122.386435,37.616233],[-122.386376,37.616178],[-122.386301,37.616131],[-122.386161,37.616105],[-122.386022,37.616131],[-122.385914,37.616186],[-122.385855,37.616267],[-122.385834,37.616369],[-122.385871,37.616467],[-122.385941,37.616543],[-122.386054,37.616603],[-122.386183,37.616611],[-122.386306,37.616573],[-122.386419,37.616509],[-122.386467,37.616411],[-122.386472,37.616318]]]}
}
