{
  "id": 1527841907,
  "type": "Feature",
  "properties": {
    "date:cessation_lower": "1987-01-01",
    "date:cessation_upper": "1987-12-31",
    "date:inception_lower": "1987-01-01",
    "date:inception_upper": "1987-12-31",
    "edtf:cessation": "1987",
    "edtf:date": "1987",
    "edtf:inception": "1987",
    "geom:area": 0,
    "geom:bbox": "-122.386155,37.616358,-122.386155,37.616358",
    "geom:latitude": 37.616358,
    "geom:longitude": -122.386155,
    "iso:country": "XX",
    "media:fingerprint": "66867b008f654cd9953c3e8f1acf0dcd6135143d",
    "media:imagehash_avg": "a:ffff9999818181ff",
    "media:imagehash_diff": "d:5165717101011159",
    "media:imagetext": "PSA\nFlights\nPSA\nNow our smile is even wider.\nUSAIR\nYour smile will be wider, too.\nTurn over for important news!",
    "media:imagetext_created": 1787951183,
    "media:imagetext_source": "com.apple.visionkit.VNImageRequestHandler#Version 26.6.2 (Build 25G83)",
    "media:medium": "image",
    "media:mimetype": "image/tiff",
    "media:properties": {
      "sizes": {
        "b": {
          "extension": "jpg",
          "height": 768,
          "mimetype": "image/jpeg",
          "secret": "uiCq70NHaYpVcGNx0GT2MyhqbdkTCBvi",
          "width": 337
        },
        "c": {
          "extension": "jpg",
          "height": 600,
          "mimetype": "image/jpeg",
          "secret": "uiCq70NHaYpVcGNx0GT2MyhqbdkTCBvi",
          "width": 263
        },
        "dc": {
          "extension": "jpg",
          "height": 600,
          "mimetype": "image/jpeg",
          "secret": "uiCq70NHaYpVcGNx0GT2MyhqbdkTCBvi",
          "width": 263
        },
        "ds": {
          "extension": "jpg",
          "height": 320,
          "mimetype": "image/jpeg",
          "secret": "uiCq70NHaYpVcGNx0GT2MyhqbdkTCBvi",
          "width": 320
        },
        "k": {
          "extension": "jpg",
          "height": 1536,
          "mimetype": "image/jpeg",
          "secret": "uiCq70NHaYpVcGNx0GT2MyhqbdkTCBvi",
          "width": 674
        },
        "n": {
          "extension": "jpg",
          "height": 240,
          "mimetype": "image/jpeg",
          "secret": "uiCq70NHaYpVcGNx0GT2MyhqbdkTCBvi",
          "width": 105
        },
        "o": {
          "extension": "jpg",
          "height": 2697,
          "mimetype": "image/jpeg",
          "secret": "tfpqQyR9oJsf5XasysyMA7oWdGUmXnve",
          "width": 1185
        },
        "s": {
          "extension": "jpg",
          "height": 320,
          "mimetype": "image/jpeg",
          "secret": "uiCq70NHaYpVcGNx0GT2MyhqbdkTCBvi",
          "width": 320
        },
        "z": {
          "extension": "jpg",
          "height": 480,
          "mimetype": "image/jpeg",
          "secret": "uiCq70NHaYpVcGNx0GT2MyhqbdkTCBvi",
          "width": 210
        }
      }
    },
    "media:source": "sfomuseum",
    "media:status_id": 1,
    "media:uri_template": "https://static.sfomuseum.org/media/152/784/190/7/1527841907_{secret}_{label}.{extension}",
    "millsfield:airline_id": [
      1159284973
    ],
    "millsfield:category_id": 1511214223,
    "millsfield:collection_id": 1511214207,
    "millsfield:company_id": [
      1159286629
    ],
    "millsfield:images_colors": [
      {
        "hex": "#040c3a",
        "name": "#040c3a",
        "reference": "marekm4"
      },
      {
        "hex": "#000000",
        "name": "black",
        "reference": "css4"
      },
      {
        "hex": "#000000",
        "name": "Black",
        "reference": "crayola"
      },
      {
        "hex": "#cfcabd",
        "name": "#cfcabd",
        "reference": "marekm4"
      },
      {
        "hex": "#c0c0c0",
        "name": "silver",
        "reference": "css4"
      },
      {
        "hex": "#cdc5c2",
        "name": "Silver",
        "reference": "crayola"
      }
    ],
    "millsfield:images_texts": [
      "PSA\nFlights\nPSA\nNow our smile is even wider.\nUSAIR\nYour smile will be wider, too.\nTurn over for important news!"
    ],
    "millsfield:images_texts_ids": [
      1527841907
    ],
    "millsfield:similar": {
      "apple/mobileclip_s0": [
        {
          "distance": 0.18019089,
          "id": 1527835841
        },
        {
          "distance": 0.2632257,
          "id": 1527841909
        },
        {
          "distance": 0.28572547,
          "id": 1527835723
        },
        {
          "distance": 0.32783717,
          "id": 1527841883
        },
        {
          "distance": 0.5615923,
          "id": 1763257857
        },
        {
          "distance": 0.60646355,
          "id": 1763301209
        },
        {
          "distance": 0.6405992,
          "id": 1763456251
        },
        {
          "distance": 0.6454093,
          "id": 2014778717
        },
        {
          "distance": 0.6462336,
          "id": 1763615123
        },
        {
          "distance": 0.6468488,
          "id": 2014778359
        }
      ],
      "apple/mobileclip_s1": [
        {
          "distance": 0.13226108,
          "id": 1527835841
        },
        {
          "distance": 0.17094833,
          "id": 1527841909
        },
        {
          "distance": 0.19649585,
          "id": 1527835723
        },
        {
          "distance": 0.20950344,
          "id": 1527841883
        },
        {
          "distance": 0.400291,
          "id": 1763257857
        },
        {
          "distance": 0.4768387,
          "id": 1527835643
        },
        {
          "distance": 0.48231936,
          "id": 1527835645
        },
        {
          "distance": 0.48280817,
          "id": 1527835647
        },
        {
          "distance": 0.4849583,
          "id": 1527835641
        },
        {
          "distance": 0.50225043,
          "id": 1527843221
        }
      ],
      "apple/mobileclip_s2": [
        {
          "distance": 0.15597346,
          "id": 1527835841
        },
        {
          "distance": 0.24314491,
          "id": 1527835723
        },
        {
          "distance": 0.24906987,
          "id": 1527841909
        },
        {
          "distance": 0.26185983,
          "id": 1527841883
        },
        {
          "distance": 0.5876569,
          "id": 1763257857
        },
        {
          "distance": 0.6478338,
          "id": 1527835643
        },
        {
          "distance": 0.6508052,
          "id": 1527835641
        },
        {
          "distance": 0.65466064,
          "id": 1527835645
        },
        {
          "distance": 0.6647556,
          "id": 1527835647
        },
        {
          "distance": 0.677778,
          "id": 1762698963
        }
      ]
    },
    "millsfield:subcategory_id": 1511213425,
    "mz:hierarchy_label": 1,
    "mz:is_current": -1,
    "sfomuseum:filename": "2005.132.042.120.tif",
    "sfomuseum:image_id": 67309,
    "sfomuseum:image_index": 5,
    "sfomuseum:image_type": "studio",
    "sfomuseum:object_id": 98155,
    "sfomuseum:placetype": "image",
    "sfomuseum:primary_image": 1,
    "src:geom": "sfomuseum",
    "wof:belongsto": [
      1511214223,
      1511937175,
      102527513,
      102191575,
      85633793,
      1511213425,
      85922583,
      102087579,
      1511214277,
      1511214203,
      85688637
    ],
    "wof:breaches": [],
    "wof:country": "XX",
    "wof:created": 1578952781,
    "wof:depicts": [
      1511937175,
      1159286629,
      1159284973
    ],
    "wof:geomhash": "bd906905ce4be6c0651c90b0fc24804c",
    "wof:hierarchy": [
      {
        "arcade_id": 1511213425,
        "building_id": 1511214277,
        "campus_id": 102527513,
        "concourse_id": 1511214223,
        "continent_id": 102191575,
        "country_id": 85633793,
        "county_id": 102087579,
        "custom_id": 1527841907,
        "image_id": 1527841907,
        "locality_id": 85922583,
        "media_id": 1527841907,
        "neighbourhood_id": -1,
        "region_id": 85688637,
        "venue_id": 1511937175,
        "wing_id": 1511214203
      }
    ],
    "wof:id": 1527841907,
    "wof:lastmodified": 1788450042,
    "wof:name": "timetable: Pacific Southwest Airlines (PSA)",
    "wof:parent_id": 1511937175,
    "wof:placetype": "custom",
    "wof:placetype_alt": [
      "image"
    ],
    "wof:repo": "sfomuseum-data-media-collection",
    "wof:superseded_by": [],
    "wof:supersedes": [],
    "wof:tags": []
  },
  "bbox": [
    -122.386155,
    37.616358,
    -122.386155,
    37.616358
  ],
  "geometry": {"type":"Point","coordinates":[-122.386155,37.616358]}
}
