{
  "id": 1913800645,
  "type": "Feature",
  "properties": {
    "date:cessation_lower": "1933-07-03",
    "date:cessation_upper": "1933-07-03",
    "date:inception_lower": "1933-07-03",
    "date:inception_upper": "1933-07-03",
    "edtf:cessation": "1933-07-03",
    "edtf:inception": "1933-07-03",
    "geom:area": 2.477324999997507e-7,
    "geom:bbox": "-122.386472,37.616105,-122.385834,37.616611",
    "geom:latitude": 37.61635756125121,
    "geom:longitude": -122.38615532866096,
    "media:fingerprint": "d9c47436547622afa49f31d5c4ff5a5ebba1987b",
    "media:imagehash_avg": "a:fd818181818181ff",
    "media:imagehash_diff": "d:4151515151552169",
    "media:imagetext": "I saw\nwhich I thought shant\nbuying to replacs that\nwagon rim whick did\nnot work so will, but\nthe cast of sinding it\nhome world be too much.\nNothing Iss in the shops\nthat\nyou world hor\ntakrn\naway as a git.\nNo plane had eve\nlanded there irfore and\nthe maturs came out te\nthe ship in droves of\nsampans - it was a fres.\nday for the sam pan\nprators as they world\nCharge a copper or two to\n2019.121.06720",
    "media:imagetext_created": 1787972412,
    "media:imagetext_source": "com.apple.visionkit.VNImageRequestHandler#Version 26.6.2 (Build 25G83)",
    "media:mimetype": "image/tiff",
    "media:properties": {
      "sizes": {
        "b": {
          "extension": "jpg",
          "height": 768,
          "mimetype": "image/jpeg",
          "secret": "Cjfkt5bgwUbXOGjgWVg8S131lQ4oGDYH",
          "width": 498
        },
        "c": {
          "extension": "jpg",
          "height": 600,
          "mimetype": "image/jpeg",
          "secret": "Cjfkt5bgwUbXOGjgWVg8S131lQ4oGDYH",
          "width": 389
        },
        "dc": {
          "extension": "jpg",
          "height": 600,
          "mimetype": "image/jpeg",
          "secret": "Cjfkt5bgwUbXOGjgWVg8S131lQ4oGDYH",
          "width": 389
        },
        "ds": {
          "extension": "jpg",
          "height": 320,
          "mimetype": "image/jpeg",
          "secret": "Cjfkt5bgwUbXOGjgWVg8S131lQ4oGDYH",
          "width": 320
        },
        "k": {
          "extension": "jpg",
          "height": 1536,
          "mimetype": "image/jpeg",
          "secret": "Cjfkt5bgwUbXOGjgWVg8S131lQ4oGDYH",
          "width": 997
        },
        "n": {
          "extension": "jpg",
          "height": 240,
          "mimetype": "image/jpeg",
          "secret": "Cjfkt5bgwUbXOGjgWVg8S131lQ4oGDYH",
          "width": 155
        },
        "o": {
          "extension": "jpg",
          "height": 2356,
          "mimetype": "image/jpeg",
          "secret": "SZkAsu0uNzvXvyClW3VTMUJGBiqeygtb",
          "width": 1530
        },
        "s": {
          "extension": "jpg",
          "height": 320,
          "mimetype": "image/jpeg",
          "secret": "Cjfkt5bgwUbXOGjgWVg8S131lQ4oGDYH",
          "width": 320
        },
        "z": {
          "extension": "jpg",
          "height": 480,
          "mimetype": "image/jpeg",
          "secret": "Cjfkt5bgwUbXOGjgWVg8S131lQ4oGDYH",
          "width": 311
        }
      }
    },
    "media:source": "sfomuseum",
    "media:status_id": 1,
    "media:uri_template": "https://static.sfomuseum.org/media/191/380/064/5/1913800645_{secret}_{label}.{extension}",
    "millsfield:airline_id": [
      1159284991,
      1159285931
    ],
    "millsfield:category_id": 1511214251,
    "millsfield:collection_id": 1511214207,
    "millsfield:company_id": [
      1159286721
    ],
    "millsfield:images_colors": [
      {
        "hex": "#e4d3a9",
        "name": "#e4d3a9",
        "reference": "marekm4"
      },
      {
        "hex": "#f5deb3",
        "name": "wheat",
        "reference": "css4"
      },
      {
        "hex": "#edd19c",
        "name": "Maize",
        "reference": "crayola"
      },
      {
        "hex": "#a59872",
        "name": "#a59872",
        "reference": "marekm4"
      },
      {
        "hex": "#bc8f8f",
        "name": "rosybrown",
        "reference": "css4"
      },
      {
        "hex": "#9f8170",
        "name": "Beaver",
        "reference": "crayola"
      }
    ],
    "millsfield:images_texts": [
      "HOTELSTID\n' 33\nSikorsky tetween\nMETROPOLE HOTEL\nSHANGHAI, CHINA. Wrachon t\nFoochow\nMonday fue, 3\neir left shanghai at\n8 oclock arwing Winchow\nat 10:30. Ther an on, two\nforegners in the town - no\nautomobiles at all and no\nChane for any. because the\nedest strit will frot lit\ntwo recterhas pass.\nIt is\nnot an interesting city\nand is noted one as\na large matir city the\nsutstanding -\nCharacterialic\nof whos is dirt. You ir\nnear sun such fett",
      "I saw\nwhich I thought shant\nbuying to replacs that\nwagon rim whick did\nnot work so will, but\nthe cast of sinding it\nhome world be too much.\nNothing Iss in the shops\nthat\nyou world hor\ntakrn\naway as a git.\nNo plane had eve\nlanded there irfore and\nthe maturs came out te\nthe ship in droves of\nsampans - it was a fres.\nday for the sam pan\nprators as they world\nCharge a copper or two to\n2019.121.06720",
      "YHOTELS\nMETROPOLE HOTEL\nSHANGHAI, CHINA.\nferen\nthe curiom. us\nhad lunes at a Chiness\nplace which was reportrel\n+ be dean and it really\nwas fans.\nHad the wound\nshark fin soup, fish, reer,\nChicken etc. Im getting ao\ngood with min chop sticks\nthat I can peck up the\nmost defficult thep likes\nDedyion eggo.\nNow ur re approachint\nJuchow and I'll clon this\ney so as to mail from\nthere. The Sikorsky is very\ncomfatable - ur har radio",
      "on board and tir good\npilots to fey. Speaking o\nradio. the in clone camo\nto us in the air tr\nhair it man the steps\nLoto and loto T\nBir\n2\n72ь"
    ],
    "millsfield:images_texts_ids": [
      1913800643,
      1913800645,
      1913800647,
      1913800649
    ],
    "millsfield:similar": {
      "apple/mobileclip_s0": [
        {
          "distance": 0.28421465,
          "id": 1913800211
        },
        {
          "distance": 0.28422666,
          "id": 1913802601
        },
        {
          "distance": 0.28690088,
          "id": 1913801899
        },
        {
          "distance": 0.28836912,
          "id": 1913801801
        },
        {
          "distance": 0.29014462,
          "id": 1913802711
        },
        {
          "distance": 0.2903289,
          "id": 1913802707
        },
        {
          "distance": 0.29153186,
          "id": 1913800103
        },
        {
          "distance": 0.29591435,
          "id": 1913800119
        },
        {
          "distance": 0.297518,
          "id": 1913800265
        },
        {
          "distance": 0.29790902,
          "id": 1913801231
        }
      ],
      "apple/mobileclip_s1": [
        {
          "distance": 0.23450279,
          "id": 1913800103
        },
        {
          "distance": 0.2362999,
          "id": 1913800961
        },
        {
          "distance": 0.24510667,
          "id": 1913800121
        },
        {
          "distance": 0.24514057,
          "id": 1913800271
        },
        {
          "distance": 0.24600995,
          "id": 1913800865
        },
        {
          "distance": 0.24607553,
          "id": 1913802683
        },
        {
          "distance": 0.25176984,
          "id": 1913768911
        },
        {
          "distance": 0.25232396,
          "id": 1913768907
        },
        {
          "distance": 0.25251848,
          "id": 1913801041
        },
        {
          "distance": 0.25321016,
          "id": 1913800607
        }
      ],
      "apple/mobileclip_s2": [
        {
          "distance": 0.2852982,
          "id": 1913801899
        },
        {
          "distance": 0.2934259,
          "id": 1913800119
        },
        {
          "distance": 0.29993263,
          "id": 1913801249
        },
        {
          "distance": 0.3013349,
          "id": 1913800151
        },
        {
          "distance": 0.30722228,
          "id": 1913799739
        },
        {
          "distance": 0.30778348,
          "id": 1913800197
        },
        {
          "distance": 0.30937773,
          "id": 1913768911
        },
        {
          "distance": 0.3102645,
          "id": 1913800999
        },
        {
          "distance": 0.3110667,
          "id": 1913801393
        },
        {
          "distance": 0.31495732,
          "id": 1913800269
        }
      ]
    },
    "millsfield:subcategory_id": 1511213489,
    "mz:is_current": 1,
    "sfomuseum:filename": "2019.121.0672a_reverse.tif",
    "sfomuseum:image_id": 225139,
    "sfomuseum:image_index": 5,
    "sfomuseum:image_type": "studio",
    "sfomuseum:object_id": 211010,
    "sfomuseum:placetype": "image",
    "sfomuseum:primary_image": 0,
    "src:geom": "sfomuseum",
    "wof:belongsto": [
      102527513,
      1159162825,
      102191575,
      85633793,
      102087579,
      85922583,
      1913796181,
      85688637,
      1159160869
    ],
    "wof:country": "XY",
    "wof:created": 1714550718,
    "wof:depicts": [
      1159284991,
      1159285931,
      1159286721,
      1913796181
    ],
    "wof:geomhash": "ed7c2ab3547fc3916b5edc33488deaa7",
    "wof:hierarchy": [
      {
        "building_id": -1,
        "campus_id": 102527513,
        "collection_id": 1159162825,
        "concourse_id": 1159162825,
        "continent_id": 102191575,
        "country_id": 85633793,
        "county_id": 102087579,
        "custom_id": 1913800645,
        "image_id": 1913800645,
        "locality_id": 85922583,
        "neighbourhood_id": -1,
        "object_id": 1913796181,
        "region_id": 85688637,
        "wing_id": 1159160869
      }
    ],
    "wof:id": 1913800645,
    "wof:lastmodified": 1788160873,
    "wof:name": "correspondence: Harold M. Bixby to Debby Bixby",
    "wof:parent_id": 1913796181,
    "wof:placetype": "custom",
    "wof:placetype_alt": [
      "image"
    ],
    "wof:repo": "sfomuseum-data-media-collection",
    "wof:superseded_by": [],
    "wof:supersedes": []
  },
  "bbox": [
    -122.386472,
    37.616105,
    -122.385834,
    37.616611
  ],
  "geometry": {"type":"Polygon","coordinates":[[[-122.386472,37.616318],[-122.386435,37.616233],[-122.386376,37.616178],[-122.386301,37.616131],[-122.386161,37.616105],[-122.386022,37.616131],[-122.385914,37.616186],[-122.385855,37.616267],[-122.385834,37.616369],[-122.385871,37.616467],[-122.385941,37.616543],[-122.386054,37.616603],[-122.386183,37.616611],[-122.386306,37.616573],[-122.386419,37.616509],[-122.386467,37.616411],[-122.386472,37.616318]]]}
}
