{
  "id": 1527848297,
  "type": "Feature",
  "properties": {
    "date:cessation_lower": "1959-01-01",
    "date:cessation_upper": "1959-12-31",
    "date:inception_lower": "1959-01-01",
    "date:inception_upper": "1959-12-31",
    "edtf:cessation": "1959",
    "edtf:date": "1959",
    "edtf:inception": "1959",
    "geom:area": 0,
    "geom:bbox": "-122.386155,37.616358,-122.386155,37.616358",
    "geom:latitude": 37.616358,
    "geom:longitude": -122.386155,
    "iso:country": "XX",
    "media:fingerprint": "b26a3ac6ff46f8c836d784c9d55538fa13f6e925",
    "media:imagehash_avg": "a:7e3e3e3e3e3e3e7e",
    "media:imagehash_diff": "d:f2d0d8c8c8c8d8d8",
    "media:imagetext": "Effective\nSeptember 8, 1959\nRead Down\nKAUAI ....\nHONOLULU....\nHONOLULU.\nMOLOKAI..\nMOLOKAI\nMAUI.\nMAUI.\nKONA\nHILO.\nAr\nAr\nEffective\nSeptember 8, 1959\nRead Down\nHILO\nKONA\nMAUI\nMAUL\nMOLOKAI.\nMOLOKAI..\nHONOLULU\nLv\nAr\nLv\nHONOLULU\nKAUAI\n750\nEx: Sun\nAM\n7:05\n7:29\n7:40\n8:00\nAM\n721\nDaily\nAM\n7:30\n8:04\nAM\nALOHA AIRLINES for MORE THAN JUST TRANSPORTATION\nCOMPLETE EASTBOUND SCHEDULES\n354\nSun.\nOnly\nAM\n740\nDaily\nAM\n360\n722\n790\n764\n726\n792\n744\n762\nEx. Sun\nDaily\nDaily\nDaily\nDaily\nDaily\nDaily\nDaily\nAM\nAM\nAM\nAM\nAM\nPM\nPM\nPM\n8:20\n11:35\n8:56\n12:11\n328\nDaily\nPM\n3:45\n4:33\n352\nDaily\nPM\n746\nDaily\nPM\n374\nSat.\nOnly\nPM\n8:30\n9:02\n9:10\n9:37\nAM\n351\nEx. Sun\n8:00\n8:52\n9:00\n9:25\n9:30\n9:56\n7:50\n8:55\nAM\n355\nSun.\nOnly\nAM\n9:45\n10:10\n10:15\n10:41\n364\n732\n730\nEx. Sat.\nEx.\nFri., Sun. Fri., Sun.\nPM\nPM\nPM\n5:20\n5:45\n5:56\n6:21\n8:00\n9:20\n9:40\n1:25\n1:20\n3:20\n4:05\n4:37\n4:45\n5:12\n4:50\n5:00\n5:00\n8:50\n9:00\n9:57\nAM\nAM\n771\n741\nEx. Sun\nDaily\nAM\nAM\n9:20\n9:58\n10:18\n10:20\n10:35\n10:54\n2:03\n2:25\n2:59\n3:58\n4:15\n11:18\n2:25\n4:58\nAM\nAM\nAM\nPM\nPM\nPM\nPM\nPM\nCOMPLETE WESTBOUND SCHEDULES\n725\n791\n743\n327\n763\n785\n729\n357\nDaily\nDaily\nAM\nAM\nDaily\nAM\n11:40\nDaily\nPM\n8:30\n11:10\n11:42\n12:00\nDaily\nPM\n2:50\n3:30\n3:45\nDaily\nDaily\nEx. Sun\nPM\nPM\nPM\n3:30\n3:15\n4:22\n4:30\n4:55\n5:00\n9:03\n10:19\n12:33\n12:39\n4:18\n4:03\n5:26\n5:50\n5:55\nPM\nPM\n5:50\n6:00\n6:57\nPM\n353\nSun.\nOnly\nPM\n745\nDaily\nPM\n5:15\n4:30\n4:55\n5:00\n5:26\n6:14\n10:45\n11:19\nAM\n2:30\n3:13\nPM\n4:30\n5:04\nPM\n734\nFri. Sun.\nPM\n7:10\n7:46\nPM\nPM\n375\nDaily\nPM\n749\nDaily\nPM\n6:20\n5:30\n6:12\n7:19\nAM\nAM\nAM\nAM\nAM\nPM\nPM\nPM\nPM\nPM\nPM\nALOHA AIRLINES HALF-FARE FAMILY PLAN MON., TUES., WED., THURS.\nPM\nPM\n733\nFri. Sun.\nPM\n6:20\n6:54\nPM\nRED INDICATES JETPROP F-27 FLIGHTS\nGREEN INDICATES VISTALINER/DC-3 FLIGHTS",
    "media:imagetext_created": 1787952544,
    "media:imagetext_source": "com.apple.visionkit.VNImageRequestHandler#Version 26.6.2 (Build 25G83)",
    "media:medium": "image",
    "media:mimetype": "image/tiff",
    "media:properties": {
      "sizes": {
        "b": {
          "extension": "jpg",
          "height": 768,
          "mimetype": "image/jpeg",
          "secret": "i0x6iyj4evT0OKCM48RqDmi6ZoDUKEKL",
          "width": 478
        },
        "c": {
          "extension": "jpg",
          "height": 600,
          "mimetype": "image/jpeg",
          "secret": "i0x6iyj4evT0OKCM48RqDmi6ZoDUKEKL",
          "width": 374
        },
        "dc": {
          "extension": "jpg",
          "height": 600,
          "mimetype": "image/jpeg",
          "secret": "i0x6iyj4evT0OKCM48RqDmi6ZoDUKEKL",
          "width": 374
        },
        "ds": {
          "extension": "jpg",
          "height": 320,
          "mimetype": "image/jpeg",
          "secret": "i0x6iyj4evT0OKCM48RqDmi6ZoDUKEKL",
          "width": 320
        },
        "k": {
          "extension": "jpg",
          "height": 1536,
          "mimetype": "image/jpeg",
          "secret": "i0x6iyj4evT0OKCM48RqDmi6ZoDUKEKL",
          "width": 957
        },
        "n": {
          "extension": "jpg",
          "height": 240,
          "mimetype": "image/jpeg",
          "secret": "i0x6iyj4evT0OKCM48RqDmi6ZoDUKEKL",
          "width": 149
        },
        "o": {
          "extension": "jpg",
          "height": 1953,
          "mimetype": "image/jpeg",
          "secret": "mUTz0po1u0iXhWPXO9cbjJvpKy1gpFZ5",
          "width": 1218
        },
        "s": {
          "extension": "jpg",
          "height": 320,
          "mimetype": "image/jpeg",
          "secret": "i0x6iyj4evT0OKCM48RqDmi6ZoDUKEKL",
          "width": 320
        },
        "z": {
          "extension": "jpg",
          "height": 480,
          "mimetype": "image/jpeg",
          "secret": "i0x6iyj4evT0OKCM48RqDmi6ZoDUKEKL",
          "width": 299
        }
      }
    },
    "media:source": "sfomuseum",
    "media:status_id": 1,
    "media:uri_template": "https://static.sfomuseum.org/media/152/784/829/7/1527848297_{secret}_{label}.{extension}",
    "millsfield:airline_id": [
      1159283845
    ],
    "millsfield:category_id": 1511214223,
    "millsfield:collection_id": 1511214207,
    "millsfield:company_id": [
      1159286909
    ],
    "millsfield:images_colors": [
      {
        "hex": "#e4d8c7",
        "name": "#e4d8c7",
        "reference": "marekm4"
      },
      {
        "hex": "#d3d3d3",
        "name": "lightgrey",
        "reference": "css4"
      },
      {
        "hex": "#efdecd",
        "name": "Almond",
        "reference": "crayola"
      },
      {
        "hex": "#1b364f",
        "name": "#1b364f",
        "reference": "marekm4"
      },
      {
        "hex": "#2f4f4f",
        "name": "darkslategrey",
        "reference": "css4"
      },
      {
        "hex": "#1a4876",
        "name": "Midnight Blue",
        "reference": "crayola"
      },
      {
        "hex": "#dc2e2e",
        "name": "#dc2e2e",
        "reference": "marekm4"
      },
      {
        "hex": "#dc143c",
        "name": "crimson",
        "reference": "css4"
      },
      {
        "hex": "#ff2b2b",
        "name": "Orange Red",
        "reference": "crayola"
      }
    ],
    "millsfield:images_texts": [
      "EFFECTIVE\nSEPTEMBER 8, 1959\nALOHA AIRLINES\nBETWEEN ISLANDS\nN5093A\nFIRST IN HAWAII\nWITH\nJET POWER",
      "ONLY\nALOHA\nAIRLINES\nPROVIDES THE\nMODERN CONVENIENCE OF\nALL JET POWER FOR HAWAII\nFLY ALOHA'S JETPROP VISCOUNTS AND F-27S\n..... AT NO EXTRA FARE\n• AIR-CONDITIONED on the ground and in the air\n• SMOOTH, QUIETER, vibration-free flying comfort\n• ROLLS-ROYCE dependability\nNow you can fly between the Islands on the planes specifically designed\nto meet Jet Age requirements for short distance flights-Aloha Airlines\nJETPROP FOUR-ENGINE VISCOUNTS\nand JETPROP F-27s. They were\ndesigned and created to provide the best in JET POWER. Both aircraft\nare powered by the famed, smooth-running ROLLS-ROYCE engines, perfect\nfor just such flights as Aloha's between-the-islands routes. Inside the\npressurized, air-conditioned-refrigerated cabin, you enjoy quieter, smooth.\nriding luxury.\nYour Aloha stewardess serves you with warm, friendly\ncourtesy-truly\n\"Island-style\" hospitality.\nRefreshments\nare served on\nevery flight and there are many Aloha \"extras\" to make your flight more\nenjoyable. Whether your Neighbor Island trip is for business or pleasure,\nfly the finest-and fastest-Aloha Airlines, Hawaii's only ALL JET\nPOWER service!\nEASTBOUND\nWESTBOUND\nFLIGHT NO.\nRead Down\nKAUAI\nHONOLULU\nHONOLULU\nMOLOKAI\nMOLOKAI\nMAUT\nMAUI\nKONA\nKONA\nHILO\nLv\nAr\nLv\nLv\nAr\nLv\nLV\nAr\nALOHA AIRLINES SCHEDULES\n540\nDaily\nAM\n8:00\nV\n9:02\n560\nDaily\nAM\n8:10\n9:30\n9:56\n10:10\n8:47\n10:00\n10:30\n9:10\n10:15\n10:49\n9:50\n722\nDaily\nAM\n8:25\n9:05\n9:20\nFLIGHT NO.\nRead Down\n721\nDaily\nAM\n723\nDaily\nAM\n761\nDaily\nAM\nHILO\nLv\n7:30\nKONA\nKONA\nLv\nMAUI\nMAUI\nLv\n8:12\n8:30\nMOLOKAI\nAr\nMOLOKAI\nLv\nHONOLULU\nAr\n9:07\nHONOLULU\nLv\n7:30\n9:00\nKAUAI\nAr\n8:07\n9:37\nALL\nFLIGHTS\nROLLS-ROYCE\nPOWERED\nJETPROPS\n752\nDaily\nAM\n541\nDaily\nAM\n9:25\n10:20\n=10:40\n11:13\n724\nDaily\nAM\n10:00\n10:40\n11:00\nV\n11:40\n11:55\n12:38\n753\nDaily\nAM\n10:45\n11:04\n11:20\n11:43\n526\nDaily\nAM\n11:35\n12:12\n1:00\n2:02\n791\nDaily\nAM\n563\nDaily\nPM\n12:45\n783\n565\n785\n545\n775\n531\n757\n733*\n789\nDaily\nDaily\nDaily\nDaily\nDaily\nFri, Sun.\nDaily\nFri, Sun.\nDaily\nPM\nPM\nPM\nPM\nPM\nPM\nPM\nPM\nPM\n2:00\n3:00\n5:25\n6:25\n2:35\n7:00\n11:10\n3:00\n3:30\n7:10\n11:42\n12:00\n1:22\n1:45\n3:37\n4:00\n5:40\n12:37\n→ 1:00\n1:37\nV VISCOUNT\n745\n782\nDaily\nPM\n2:15\n3:07\n728\nDaily\nPM\n2:00\n2:40\n564\nDaily\nPM\n3:20\n3:57\n4:15\n4:55\n4:33\n774\nDaily\nPM\n4:45\n5:25\n2:18\n3:53\n\u003e 4:15\n4:52\nFairchild F-27\n746\nDaily\nPM\n5:00\n6:09\n4:23\n6:20\n=4:50\n5:23\n* Off Hours Fare\n730\nDaily\nPM\n5:10\n5:50\nV\n6:17\n756\nDaily\nPM\n6:10\n6:36\nSCHEDULE NO. 79\n532\nDaily\nPM\n5:45\n6:22\n6:50\n7:13\n776\nOnly\nFri., Sun.\nPM\n6:35\nV\n7:15\n536\nOnly\nFri., Sun.\nPM\n7:35\n8:12\n8:03\n\u003e6:40\n\u003e8:00\n7:13\n8:37\n• A.M. Light Face Type\nP.M. Bold Face Type\n738*\nEx.\nFri., Sun.\nPM\n9:45\n10:25\nFri, Sun.\nPM\n7:30\n8:07",
      "It's ALOHA AIRLINES in\nthe ALOHA STATE!\nJET POWER FOR HAWAII\nBY ALOHA AIRLINES\nALOHA\nROLLS-ROYCE POWERED JETPROP F-27s\n• 44 Passengers\n• Quiet Vibration-free comfort\n• Rolls-Royce Dart engines\n• 280 mph speed\n• Pressurized\n• Air-conditioned in flight,\non the ground\n• Exclusive high wing\nfor flightseeing\nPerfect\nsafety record\nALOHA\nAIRLINES\nCALENDAR FOR ½ FARE FAMILY TRAVEL\nSEPTEMBER 1959\nSM T W T FS\n1\n2 3 4 5\n6 7 8\n9 10 11 12\n13 14 15 16 17\n18 19\n20 21 22 23 24 25 26\n27 28 29 30\nOCTOBER 1959\nSM T W\nF S\n2\n3\n4\n5 6 7\n8\n9 10\n11 12 13 14 15 16 17\n18 19 20 21 22 23 24\n25 26 27 28 29 30 31\nNote days that are shaded. On these days, full fare ticket for one parent entitles the\nother parent and all children under 22 years old to travel on one-half fare tickets on\nall flights departing Honolulu Airport at 11:00 a.m.\nor later, and on all flights depart-\ning Neighbor Island airports at any time prior to 2:00 p.m. This is the popular one-\nhalf fare family plan, featured by the Aloha Airlines.\nFULL FARES\nHonolulu\nKauai\nMolokai\nMaui\nKona\nHilo\nHonolulu\nKauai\nMolokai\nMaui\nKona\nHilo\n11.20\n8.00\n11.20\n15.40\n17.60\n11.20\n8.00\n15.40\n11.20\n15.40\n17.60\n18.60\n22.80\n25.00\n15.40\n7.40\n12.80\n15.40\n18.60\n7.40\n10.20\n13.60\n22.80\n12.80\n25.00\n15.40\n10.20\n13:60\nA roundtrip fare is twice the one-way fare; add 10 per cent\nU.S. tax to all rates\nFOR RESERVATIONS CALL...\nOFFICES\nTERMINALS\nHONOŁULU\nKing and, Bethel\n56727\nWAIKIKI\n2235 Kalakava Ave. 994121\nHILO\n116 Kam.\nHONOLULU\nKAUAI\nMOLOKAI\nMAUL\nKONA\n53717 | HILO\nOR SEE YOUR TRAVEL AGENT\n83911\n2068\n37185\n7541\n25-7371\n53717\nTERMINAL REPORTING TIME-Passengers holding tickets are asked to\ncheck in at the airport at least 10 minutes before fight departure time\nPassengers\nwith reservations,\nbut no tickets, who plan to pick up their\ntickets at the airport, are asted to do so at least 20 minutes before pub-\nlished Right time.\n2005.132,006.001\nEFFECTIVE\nSEPTEMBER 8, 1959\nALOHA AIRLINES\nBETWEEN ISLANDS\nN5093A\nFIRST IN HAWAII\nWITH JET POWER",
      "Effective\nSeptember 8, 1959\nRead Down\nKAUAI ....\nHONOLULU....\nHONOLULU.\nMOLOKAI..\nMOLOKAI\nMAUI.\nMAUI.\nKONA\nHILO.\nAr\nAr\nEffective\nSeptember 8, 1959\nRead Down\nHILO\nKONA\nMAUI\nMAUL\nMOLOKAI.\nMOLOKAI..\nHONOLULU\nLv\nAr\nLv\nHONOLULU\nKAUAI\n750\nEx: Sun\nAM\n7:05\n7:29\n7:40\n8:00\nAM\n721\nDaily\nAM\n7:30\n8:04\nAM\nALOHA AIRLINES for MORE THAN JUST TRANSPORTATION\nCOMPLETE EASTBOUND SCHEDULES\n354\nSun.\nOnly\nAM\n740\nDaily\nAM\n360\n722\n790\n764\n726\n792\n744\n762\nEx. Sun\nDaily\nDaily\nDaily\nDaily\nDaily\nDaily\nDaily\nAM\nAM\nAM\nAM\nAM\nPM\nPM\nPM\n8:20\n11:35\n8:56\n12:11\n328\nDaily\nPM\n3:45\n4:33\n352\nDaily\nPM\n746\nDaily\nPM\n374\nSat.\nOnly\nPM\n8:30\n9:02\n9:10\n9:37\nAM\n351\nEx. Sun\n8:00\n8:52\n9:00\n9:25\n9:30\n9:56\n7:50\n8:55\nAM\n355\nSun.\nOnly\nAM\n9:45\n10:10\n10:15\n10:41\n364\n732\n730\nEx. Sat.\nEx.\nFri., Sun. Fri., Sun.\nPM\nPM\nPM\n5:20\n5:45\n5:56\n6:21\n8:00\n9:20\n9:40\n1:25\n1:20\n3:20\n4:05\n4:37\n4:45\n5:12\n4:50\n5:00\n5:00\n8:50\n9:00\n9:57\nAM\nAM\n771\n741\nEx. Sun\nDaily\nAM\nAM\n9:20\n9:58\n10:18\n10:20\n10:35\n10:54\n2:03\n2:25\n2:59\n3:58\n4:15\n11:18\n2:25\n4:58\nAM\nAM\nAM\nPM\nPM\nPM\nPM\nPM\nCOMPLETE WESTBOUND SCHEDULES\n725\n791\n743\n327\n763\n785\n729\n357\nDaily\nDaily\nAM\nAM\nDaily\nAM\n11:40\nDaily\nPM\n8:30\n11:10\n11:42\n12:00\nDaily\nPM\n2:50\n3:30\n3:45\nDaily\nDaily\nEx. Sun\nPM\nPM\nPM\n3:30\n3:15\n4:22\n4:30\n4:55\n5:00\n9:03\n10:19\n12:33\n12:39\n4:18\n4:03\n5:26\n5:50\n5:55\nPM\nPM\n5:50\n6:00\n6:57\nPM\n353\nSun.\nOnly\nPM\n745\nDaily\nPM\n5:15\n4:30\n4:55\n5:00\n5:26\n6:14\n10:45\n11:19\nAM\n2:30\n3:13\nPM\n4:30\n5:04\nPM\n734\nFri. Sun.\nPM\n7:10\n7:46\nPM\nPM\n375\nDaily\nPM\n749\nDaily\nPM\n6:20\n5:30\n6:12\n7:19\nAM\nAM\nAM\nAM\nAM\nPM\nPM\nPM\nPM\nPM\nPM\nALOHA AIRLINES HALF-FARE FAMILY PLAN MON., TUES., WED., THURS.\nPM\nPM\n733\nFri. Sun.\nPM\n6:20\n6:54\nPM\nRED INDICATES JETPROP F-27 FLIGHTS\nGREEN INDICATES VISTALINER/DC-3 FLIGHTS"
    ],
    "millsfield:images_texts_ids": [
      1527841651,
      1527847807,
      1527848295,
      1527848297
    ],
    "millsfield:similar": {
      "apple/mobileclip_s0": [
        {
          "distance": 0.506609,
          "id": 1763196539
        },
        {
          "distance": 0.5102517,
          "id": 1763196509
        },
        {
          "distance": 0.5272651,
          "id": 1746680725
        },
        {
          "distance": 0.5286212,
          "id": 1763196501
        },
        {
          "distance": 0.54153913,
          "id": 1763196505
        },
        {
          "distance": 0.5415665,
          "id": 1763504171
        },
        {
          "distance": 0.5599197,
          "id": 1763196499
        },
        {
          "distance": 0.5616597,
          "id": 1746680735
        },
        {
          "distance": 0.5688102,
          "id": 1763196503
        },
        {
          "distance": 0.5703604,
          "id": 1763196511
        }
      ],
      "apple/mobileclip_s1": [
        {
          "distance": 0.31938675,
          "id": 1763196501
        },
        {
          "distance": 0.366155,
          "id": 1762715265
        },
        {
          "distance": 0.37498918,
          "id": 1763196503
        },
        {
          "distance": 0.38082486,
          "id": 1763504171
        },
        {
          "distance": 0.38101476,
          "id": 1763196505
        },
        {
          "distance": 0.3848226,
          "id": 1762701281
        },
        {
          "distance": 0.40817875,
          "id": 1763196511
        },
        {
          "distance": 0.42237282,
          "id": 1762698373
        },
        {
          "distance": 0.42580605,
          "id": 1763196539
        },
        {
          "distance": 0.4289383,
          "id": 1762701037
        }
      ],
      "apple/mobileclip_s2": [
        {
          "distance": 0.48853335,
          "id": 1763196501
        },
        {
          "distance": 0.5080629,
          "id": 1763196505
        },
        {
          "distance": 0.5132102,
          "id": 1763196503
        },
        {
          "distance": 0.5229885,
          "id": 1762698367
        },
        {
          "distance": 0.52825576,
          "id": 1746680725
        },
        {
          "distance": 0.5354206,
          "id": 1527845317
        },
        {
          "distance": 0.5534342,
          "id": 1762698373
        },
        {
          "distance": 0.55780107,
          "id": 1762715265
        },
        {
          "distance": 0.5613794,
          "id": 1763196499
        },
        {
          "distance": 0.5746454,
          "id": 1763196511
        }
      ]
    },
    "millsfield:subcategory_id": 1511213425,
    "mz:hierarchy_label": 1,
    "mz:is_current": -1,
    "sfomuseum:filename": "2005.132.006.001-ins1.tif",
    "sfomuseum:image_id": 72376,
    "sfomuseum:image_index": 5,
    "sfomuseum:image_type": "studio",
    "sfomuseum:object_id": 97567,
    "sfomuseum:placetype": "image",
    "sfomuseum:primary_image": 0,
    "src:geom": "sfomuseum",
    "wof:belongsto": [
      1511214223,
      1511935871,
      102527513,
      102191575,
      85633793,
      1511213425,
      85922583,
      102087579,
      1511214277,
      1511214203,
      85688637
    ],
    "wof:breaches": [],
    "wof:country": "XX",
    "wof:created": 1578953823,
    "wof:depicts": [
      1159286909,
      1159283845,
      1511935871
    ],
    "wof:geomhash": "bd906905ce4be6c0651c90b0fc24804c",
    "wof:hierarchy": [
      {
        "arcade_id": 1511213425,
        "building_id": 1511214277,
        "campus_id": 102527513,
        "concourse_id": 1511214223,
        "continent_id": 102191575,
        "country_id": 85633793,
        "county_id": 102087579,
        "custom_id": 1527848297,
        "image_id": 1527848297,
        "locality_id": 85922583,
        "media_id": 1527848297,
        "neighbourhood_id": -1,
        "region_id": 85688637,
        "venue_id": 1511935871,
        "wing_id": 1511214203
      }
    ],
    "wof:id": 1527848297,
    "wof:lastmodified": 1788160819,
    "wof:name": "timetable: Aloha Airlines",
    "wof:parent_id": 1511935871,
    "wof:placetype": "custom",
    "wof:placetype_alt": [
      "image"
    ],
    "wof:repo": "sfomuseum-data-media-collection",
    "wof:superseded_by": [],
    "wof:supersedes": [],
    "wof:tags": []
  },
  "bbox": [
    -122.386155,
    37.616358,
    -122.386155,
    37.616358
  ],
  "geometry": {"type":"Point","coordinates":[-122.386155,37.616358]}
}
