{
  "id": 1527858659,
  "type": "Feature",
  "properties": {
    "date:cessation_lower": "1955-08-17",
    "date:cessation_upper": "1955-08-17",
    "date:inception_lower": "1955-08-17",
    "date:inception_upper": "1955-08-17",
    "edtf:cessation": "1955-08-17",
    "edtf:date": "1955-08-17",
    "edtf:inception": "1955-08-17",
    "geom:area": 0,
    "geom:bbox": "-122.386155,37.616358,-122.386155,37.616358",
    "geom:latitude": 37.616358,
    "geom:longitude": -122.386155,
    "iso:country": "XX",
    "media:fingerprint": "6378f0356a1467b2d45eb67ebab619995865640d",
    "media:imagehash_avg": "a:ff7f7f7f7f7f1f00",
    "media:imagehash_diff": "d:68fcceccd8d8f879",
    "media:imagetext": "5 0.\n50\n• Lester apologizing for delay\n2000.058.1115",
    "media:imagetext_created": 1787954398,
    "media:imagetext_source": "com.apple.visionkit.VNImageRequestHandler#Version 26.6.2 (Build 25G83)",
    "media:medium": "image",
    "media:mimetype": "image/tiff",
    "media:properties": {
      "sizes": {
        "b": {
          "extension": "jpg",
          "height": 460,
          "mimetype": "image/jpeg",
          "secret": "opHgu6mJAlmYuCq127SAiHkgMmGLeXzd",
          "width": 1024
        },
        "c": {
          "extension": "jpg",
          "height": 359,
          "mimetype": "image/jpeg",
          "secret": "opHgu6mJAlmYuCq127SAiHkgMmGLeXzd",
          "width": 800
        },
        "dc": {
          "extension": "jpg",
          "height": 359,
          "mimetype": "image/jpeg",
          "secret": "opHgu6mJAlmYuCq127SAiHkgMmGLeXzd",
          "width": 800
        },
        "ds": {
          "extension": "jpg",
          "height": 320,
          "mimetype": "image/jpeg",
          "secret": "opHgu6mJAlmYuCq127SAiHkgMmGLeXzd",
          "width": 320
        },
        "k": {
          "extension": "jpg",
          "height": 921,
          "mimetype": "image/jpeg",
          "secret": "opHgu6mJAlmYuCq127SAiHkgMmGLeXzd",
          "width": 2048
        },
        "n": {
          "extension": "jpg",
          "height": 143,
          "mimetype": "image/jpeg",
          "secret": "opHgu6mJAlmYuCq127SAiHkgMmGLeXzd",
          "width": 320
        },
        "o": {
          "extension": "jpg",
          "height": 1338,
          "mimetype": "image/jpeg",
          "secret": "7oRtmcsXdhcT2Gh7oRILadqgqHtwrE6m",
          "width": 2975
        },
        "s": {
          "extension": "jpg",
          "height": 320,
          "mimetype": "image/jpeg",
          "secret": "opHgu6mJAlmYuCq127SAiHkgMmGLeXzd",
          "width": 320
        },
        "z": {
          "extension": "jpg",
          "height": 287,
          "mimetype": "image/jpeg",
          "secret": "opHgu6mJAlmYuCq127SAiHkgMmGLeXzd",
          "width": 640
        }
      }
    },
    "media:source": "sfomuseum",
    "media:status_id": 1,
    "media:uri_template": "https://static.sfomuseum.org/media/152/785/865/9/1527858659_{secret}_{label}.{extension}",
    "millsfield:aircraft_id": [
      1159289617
    ],
    "millsfield:airline_id": [
      1159284989
    ],
    "millsfield:category_id": 1511214215,
    "millsfield:collection_id": 1511214207,
    "millsfield:company_id": [
      1159293593
    ],
    "millsfield:images_colors": [
      {
        "hex": "#ebe0c4",
        "name": "#ebe0c4",
        "reference": "marekm4"
      },
      {
        "hex": "#f5deb3",
        "name": "wheat",
        "reference": "css4"
      },
      {
        "hex": "#efdecd",
        "name": "Almond",
        "reference": "crayola"
      },
      {
        "hex": "#ce280d",
        "name": "#ce280d",
        "reference": "marekm4"
      },
      {
        "hex": "#b22222",
        "name": "firebrick",
        "reference": "css4"
      },
      {
        "hex": "#ff2b2b",
        "name": "Orange Red",
        "reference": "crayola"
      },
      {
        "hex": "#183163",
        "name": "#183163",
        "reference": "marekm4"
      },
      {
        "hex": "#191970",
        "name": "midnightblue",
        "reference": "css4"
      },
      {
        "hex": "#1a4876",
        "name": "Midnight Blue",
        "reference": "crayola"
      }
    ],
    "millsfield:images_texts": [
      "PAN AMERICAN WORLD AIRWAYS SYSTEM\nINTERNATIONAL AIRPORT, SAN FRANCISCO, CALIFORNIA\nPAR AVION • VIA AIR MAIL • CORREO AEREO\nPAA\nSAVE!—\nRainbow SERVICE\nCadA and all-Round-the-World\n**PAN AMERICAN **\nFRANCIS\nAUG 1 7 55\nCALIF\nMiss Phyllis Herman\n660-1/2 Marlow Street\nApartment B\nSalem, Oregon\nU.S. POSTAGE\nCC-50259",
      "5 0.\n50\n• Lester apologizing for delay\n2000.058.1115"
    ],
    "millsfield:images_texts_ids": [
      1527858655,
      1527858659
    ],
    "millsfield:similar": {
      "apple/mobileclip_s0": [
        {
          "distance": 0.45788577,
          "id": 1527856519
        },
        {
          "distance": 0.46283346,
          "id": 1527854293
        },
        {
          "distance": 0.46873656,
          "id": 1746281467
        },
        {
          "distance": 0.48002166,
          "id": 1527856523
        },
        {
          "distance": 0.48486558,
          "id": 1527854383
        },
        {
          "distance": 0.48832402,
          "id": 1527829327
        },
        {
          "distance": 0.49017298,
          "id": 1527854291
        },
        {
          "distance": 0.49401096,
          "id": 1527856545
        },
        {
          "distance": 0.4945665,
          "id": 1527856495
        },
        {
          "distance": 0.503574,
          "id": 1527854343
        }
      ],
      "apple/mobileclip_s1": [
        {
          "distance": 0.26392987,
          "id": 1527828859
        },
        {
          "distance": 0.26401615,
          "id": 1527856531
        },
        {
          "distance": 0.26632965,
          "id": 1527854291
        },
        {
          "distance": 0.27005446,
          "id": 1527856523
        },
        {
          "distance": 0.27852935,
          "id": 1527856473
        },
        {
          "distance": 0.2802407,
          "id": 1527854383
        },
        {
          "distance": 0.28084263,
          "id": 1527854307
        },
        {
          "distance": 0.28311694,
          "id": 1527828913
        },
        {
          "distance": 0.2832052,
          "id": 1527828953
        },
        {
          "distance": 0.2840737,
          "id": 1527854341
        }
      ],
      "apple/mobileclip_s2": [
        {
          "distance": 0.4449672,
          "id": 1527854291
        },
        {
          "distance": 0.45162278,
          "id": 1527820457
        },
        {
          "distance": 0.45164654,
          "id": 1527854383
        },
        {
          "distance": 0.45259732,
          "id": 1527854343
        },
        {
          "distance": 0.45775756,
          "id": 1527854293
        },
        {
          "distance": 0.4580025,
          "id": 1527834815
        },
        {
          "distance": 0.45834076,
          "id": 1527833723
        },
        {
          "distance": 0.46193445,
          "id": 1527828913
        },
        {
          "distance": 0.46434405,
          "id": 1527829327
        },
        {
          "distance": 0.4678498,
          "id": 1527856473
        }
      ]
    },
    "millsfield:subcategory_id": 1511213159,
    "mz:hierarchy_label": 1,
    "mz:is_current": -1,
    "sfomuseum:filename": "2000.058.1175_bk.tif",
    "sfomuseum:image_id": 197412,
    "sfomuseum:image_index": 5,
    "sfomuseum:image_type": "studio",
    "sfomuseum:object_id": 63784,
    "sfomuseum:placetype": "image",
    "sfomuseum:primary_image": 0,
    "src:geom": "sfomuseum",
    "wof:belongsto": [
      1511214215,
      1511922397,
      102527513,
      102191575,
      85633793,
      1511213159,
      85922583,
      102087579,
      1511214277,
      1511214203,
      85688637
    ],
    "wof:breaches": [],
    "wof:country": "XX",
    "wof:created": 1578955482,
    "wof:depicts": [
      1159289617,
      1159293593,
      1159284989,
      1511922397
    ],
    "wof:geomhash": "bd906905ce4be6c0651c90b0fc24804c",
    "wof:hierarchy": [
      {
        "arcade_id": 1511213159,
        "building_id": 1511214277,
        "campus_id": 102527513,
        "concourse_id": 1511214215,
        "continent_id": 102191575,
        "country_id": 85633793,
        "county_id": 102087579,
        "custom_id": 1527858659,
        "image_id": 1527858659,
        "locality_id": 85922583,
        "media_id": 1527858659,
        "neighbourhood_id": -1,
        "region_id": 85688637,
        "venue_id": 1511922397,
        "wing_id": 1511214203
      }
    ],
    "wof:id": 1527858659,
    "wof:lastmodified": 1788450287,
    "wof:name": "airmail flight cover: Pan American World Airways, Boeing 307 Stratoliner",
    "wof:parent_id": 1511922397,
    "wof:placetype": "custom",
    "wof:placetype_alt": [
      "image"
    ],
    "wof:repo": "sfomuseum-data-media-collection",
    "wof:superseded_by": [],
    "wof:supersedes": [],
    "wof:tags": []
  },
  "bbox": [
    -122.386155,
    37.616358,
    -122.386155,
    37.616358
  ],
  "geometry": {"type":"Point","coordinates":[-122.386155,37.616358]}
}
