{
  "id": 1796527785,
  "type": "Feature",
  "properties": {
    "date:cessation_lower": "1980-01-01",
    "date:cessation_upper": "1989-12-31",
    "date:inception_lower": "1980-01-01",
    "date:inception_upper": "1989-12-31",
    "edtf:cessation": "198X",
    "edtf:inception": "198X",
    "geom:area": 2.477324999997507e-7,
    "geom:bbox": "-122.386472,37.616105,-122.385834,37.616611",
    "geom:latitude": 37.61635756125121,
    "geom:longitude": -122.38615532866096,
    "media:fingerprint": "6e540eb37a8de20ecaaf48319dd93b0db0c21212",
    "media:imagehash_avg": "a:fffffffc48040000",
    "media:imagehash_diff": "d:f080c0e098ccc4e0",
    "media:mimetype": "image/tiff",
    "media:properties": {
      "sizes": {
        "b": {
          "extension": "jpg",
          "height": 768,
          "mimetype": "image/jpeg",
          "secret": "KjmtxuCvrnRQ1yJz5Ybd1PwNgUPCGlFw",
          "width": 966
        },
        "c": {
          "extension": "jpg",
          "height": 600,
          "mimetype": "image/jpeg",
          "secret": "KjmtxuCvrnRQ1yJz5Ybd1PwNgUPCGlFw",
          "width": 754
        },
        "dc": {
          "extension": "jpg",
          "height": 600,
          "mimetype": "image/jpeg",
          "secret": "KjmtxuCvrnRQ1yJz5Ybd1PwNgUPCGlFw",
          "width": 754
        },
        "ds": {
          "extension": "jpg",
          "height": 320,
          "mimetype": "image/jpeg",
          "secret": "KjmtxuCvrnRQ1yJz5Ybd1PwNgUPCGlFw",
          "width": 320
        },
        "k": {
          "extension": "jpg",
          "height": 1536,
          "mimetype": "image/jpeg",
          "secret": "KjmtxuCvrnRQ1yJz5Ybd1PwNgUPCGlFw",
          "width": 1932
        },
        "n": {
          "extension": "jpg",
          "height": 240,
          "mimetype": "image/jpeg",
          "secret": "KjmtxuCvrnRQ1yJz5Ybd1PwNgUPCGlFw",
          "width": 301
        },
        "o": {
          "extension": "jpg",
          "height": 1667,
          "mimetype": "image/jpeg",
          "secret": "coNStvloBZlPZqnVdwlChdyk8BNmB0Ve",
          "width": 2097
        },
        "s": {
          "extension": "jpg",
          "height": 320,
          "mimetype": "image/jpeg",
          "secret": "KjmtxuCvrnRQ1yJz5Ybd1PwNgUPCGlFw",
          "width": 320
        },
        "z": {
          "extension": "jpg",
          "height": 480,
          "mimetype": "image/jpeg",
          "secret": "KjmtxuCvrnRQ1yJz5Ybd1PwNgUPCGlFw",
          "width": 603
        }
      }
    },
    "media:source": "sfomuseum",
    "media:status_id": 1,
    "media:uri_template": "https://static.sfomuseum.org/media/179/652/778/5/1796527785_{secret}_{label}.{extension}",
    "millsfield:airline_id": [
      1159285345
    ],
    "millsfield:category_id": 1746152551,
    "millsfield:collection_id": 1511214203,
    "millsfield:company_id": [
      1159288387
    ],
    "millsfield:images_colors": [
      {
        "hex": "#a2a2a4",
        "name": "#a2a2a4",
        "reference": "marekm4"
      },
      {
        "hex": "#a9a9a9",
        "name": "darkgrey",
        "reference": "css4"
      },
      {
        "hex": "#979aaa",
        "name": "Manatee",
        "reference": "crayola"
      },
      {
        "hex": "#585656",
        "name": "#585656",
        "reference": "marekm4"
      },
      {
        "hex": "#696969",
        "name": "dimgrey",
        "reference": "css4"
      },
      {
        "hex": "#6e5160",
        "name": "Eggplant",
        "reference": "crayola"
      }
    ],
    "millsfield:similar": {
      "apple/mobileclip_s0": [
        {
          "distance": 0.117190026,
          "id": 1796527783
        },
        {
          "distance": 0.14675093,
          "id": 1796527789
        },
        {
          "distance": 0.17364664,
          "id": 1796527793
        },
        {
          "distance": 0.20833997,
          "id": 1796527787
        },
        {
          "distance": 0.23818529,
          "id": 1796472265
        },
        {
          "distance": 0.23849258,
          "id": 1796476685
        },
        {
          "distance": 0.2429445,
          "id": 1897762441
        },
        {
          "distance": 0.24562725,
          "id": 1897762435
        },
        {
          "distance": 0.24810667,
          "id": 1796506417
        },
        {
          "distance": 0.24901302,
          "id": 1897762415
        }
      ],
      "apple/mobileclip_s1": [
        {
          "distance": 0.074377425,
          "id": 1796527783
        },
        {
          "distance": 0.09975266,
          "id": 1796527789
        },
        {
          "distance": 0.120764874,
          "id": 1796527793
        },
        {
          "distance": 0.1963059,
          "id": 1897762441
        },
        {
          "distance": 0.198777,
          "id": 1796527747
        },
        {
          "distance": 0.20196496,
          "id": 1897762445
        },
        {
          "distance": 0.20225802,
          "id": 1796465111
        },
        {
          "distance": 0.20456456,
          "id": 1796509633
        },
        {
          "distance": 0.21081212,
          "id": 1796527787
        },
        {
          "distance": 0.21178178,
          "id": 1796472383
        }
      ],
      "apple/mobileclip_s2": [
        {
          "distance": 0.13080543,
          "id": 1796527783
        },
        {
          "distance": 0.14860873,
          "id": 1796527789
        },
        {
          "distance": 0.15479441,
          "id": 1796527793
        },
        {
          "distance": 0.2382691,
          "id": 1796465111
        },
        {
          "distance": 0.23963529,
          "id": 1897762441
        },
        {
          "distance": 0.24822156,
          "id": 1897762445
        },
        {
          "distance": 0.24998653,
          "id": 1796527787
        },
        {
          "distance": 0.26411438,
          "id": 1796454735
        },
        {
          "distance": 0.26484987,
          "id": 1796509635
        },
        {
          "distance": 0.26538408,
          "id": 1763513077
        }
      ]
    },
    "millsfield:subcategory_id": 1511213417,
    "mz:is_current": 1,
    "sfomuseum:filename": "108606.tif",
    "sfomuseum:image_id": 108606,
    "sfomuseum:image_index": 5,
    "sfomuseum:image_type": "studio",
    "sfomuseum:object_id": 153034,
    "sfomuseum:placetype": "image",
    "sfomuseum:primary_image": 1,
    "src:geom": "sfomuseum",
    "wof:belongsto": [
      102527513,
      1159162825,
      102191575,
      85633793,
      102087579,
      85922583,
      1796527615,
      85688637,
      1159160869
    ],
    "wof:country": "XY",
    "wof:created": 1667289058,
    "wof:depicts": [
      1159285345,
      1159288387,
      1796527615
    ],
    "wof:geomhash": "ed7c2ab3547fc3916b5edc33488deaa7",
    "wof:hierarchy": [
      {
        "building_id": -1,
        "campus_id": 102527513,
        "collection_id": 1159162825,
        "concourse_id": 1159162825,
        "continent_id": 102191575,
        "country_id": 85633793,
        "county_id": 102087579,
        "custom_id": 1796527785,
        "image_id": 1796527785,
        "locality_id": 85922583,
        "neighbourhood_id": -1,
        "object_id": 1796527615,
        "region_id": 85688637,
        "wing_id": 1159160869
      }
    ],
    "wof:id": 1796527785,
    "wof:lastmodified": 1788451565,
    "wof:name": "knife: Trans Australia Airlines",
    "wof:parent_id": 1796527615,
    "wof:placetype": "custom",
    "wof:placetype_alt": [
      "image"
    ],
    "wof:repo": "sfomuseum-data-media-collection",
    "wof:superseded_by": [],
    "wof:supersedes": []
  },
  "bbox": [
    -122.386472,
    37.616105,
    -122.385834,
    37.616611
  ],
  "geometry": {"type":"Polygon","coordinates":[[[-122.386472,37.616318],[-122.386435,37.616233],[-122.386376,37.616178],[-122.386301,37.616131],[-122.386161,37.616105],[-122.386022,37.616131],[-122.385914,37.616186],[-122.385855,37.616267],[-122.385834,37.616369],[-122.385871,37.616467],[-122.385941,37.616543],[-122.386054,37.616603],[-122.386183,37.616611],[-122.386306,37.616573],[-122.386419,37.616509],[-122.386467,37.616411],[-122.386472,37.616318]]]}
}
