{
  "id": 2048163429,
  "type": "Feature",
  "properties": {
    "date:cessation_lower": "1980-01-01",
    "date:cessation_upper": "1989-12-31",
    "date:inception_lower": "1980-01-01",
    "date:inception_upper": "1989-12-31",
    "edtf:cessation": "198X",
    "edtf:inception": "198X",
    "geom:area": 2.475047457570636e-7,
    "geom:bbox": "-122.386472,37.616105,-122.385834,37.616611",
    "geom:latitude": 37.61635747477365,
    "geom:longitude": -122.38615540108617,
    "media:fingerprint": "d4486d18256d98cf58212ed16f3db6bb6188426b",
    "media:imagehash_avg": "a:0000183c3c180000",
    "media:imagehash_diff": "d:060e307073331e0d",
    "media:imagetext": "",
    "media:mimetype": "image/tiff",
    "media:properties": {
      "colours": null,
      "sizes": {
        "b": {
          "extension": "jpg",
          "height": 768,
          "mimetype": "image/jpeg",
          "secret": "dfP01by0kvhf8b54Ac9PzISLpAH2rUqY",
          "width": 965
        },
        "c": {
          "extension": "jpg",
          "height": 600,
          "mimetype": "image/jpeg",
          "secret": "dfP01by0kvhf8b54Ac9PzISLpAH2rUqY",
          "width": 754
        },
        "dc": {
          "extension": "jpg",
          "height": 320,
          "mimetype": "image/jpeg",
          "secret": "dfP01by0kvhf8b54Ac9PzISLpAH2rUqY",
          "width": 320
        },
        "ds": {
          "extension": "jpg",
          "height": 320,
          "mimetype": "image/jpeg",
          "secret": "dfP01by0kvhf8b54Ac9PzISLpAH2rUqY",
          "width": 320
        },
        "k": {
          "extension": "jpg",
          "height": 1536,
          "mimetype": "image/jpeg",
          "secret": "dfP01by0kvhf8b54Ac9PzISLpAH2rUqY",
          "width": 1931
        },
        "n": {
          "extension": "jpg",
          "height": 240,
          "mimetype": "image/jpeg",
          "secret": "dfP01by0kvhf8b54Ac9PzISLpAH2rUqY",
          "width": 301
        },
        "o": {
          "extension": "jpg",
          "height": 1667,
          "mimetype": "image/jpeg",
          "secret": "eSHkw4lgR2qr96UyRk15x6TjzXYvik5H",
          "width": 2096
        },
        "s": {
          "extension": "jpg",
          "height": 320,
          "mimetype": "image/jpeg",
          "secret": "dfP01by0kvhf8b54Ac9PzISLpAH2rUqY",
          "width": 320
        },
        "z": {
          "extension": "jpg",
          "height": 480,
          "mimetype": "image/jpeg",
          "secret": "dfP01by0kvhf8b54Ac9PzISLpAH2rUqY",
          "width": 603
        }
      }
    },
    "media:source": "sfomuseum",
    "media:status_id": 1,
    "media:uri_template": "https://static.sfomuseum.org/media/204/816/342/9/2048163429_{secret}_{label}.{extention}",
    "millsfield:airline_id": [
      1159284989
    ],
    "millsfield:category_id": 1763416381,
    "millsfield:collection_id": 1511214203,
    "millsfield:company_id": [
      1159286839
    ],
    "millsfield:images_colors": [
      {
        "hex": "#b0aba7",
        "name": "#b0aba7",
        "reference": "marekm4"
      },
      {
        "hex": "#a9a9a9",
        "name": "darkgrey",
        "reference": "css4"
      },
      {
        "hex": "#979aaa",
        "name": "Manatee",
        "reference": "crayola"
      },
      {
        "hex": "#b69874",
        "name": "#b69874",
        "reference": "marekm4"
      },
      {
        "hex": "#bc8f8f",
        "name": "rosybrown",
        "reference": "css4"
      },
      {
        "hex": "#cd9575",
        "name": "Antique Brass",
        "reference": "crayola"
      },
      {
        "hex": "#dec8a5",
        "name": "#dec8a5",
        "reference": "marekm4"
      },
      {
        "hex": "#deb887",
        "name": "burlywood",
        "reference": "css4"
      },
      {
        "hex": "#e7c697",
        "name": "Gold",
        "reference": "crayola"
      },
      {
        "hex": "#bb9b74",
        "name": "#bb9b74",
        "reference": "marekm4"
      },
      {
        "hex": "#bdb76b",
        "name": "darkkhaki",
        "reference": "css4"
      },
      {
        "hex": "#554a40",
        "name": "#554a40",
        "reference": "marekm4"
      },
      {
        "hex": "#556b2f",
        "name": "darkolivegreen",
        "reference": "css4"
      },
      {
        "hex": "#414a4c",
        "name": "Outer Space",
        "reference": "crayola"
      }
    ],
    "millsfield:similar": {
      "apple/mobileclip_s0": [
        {
          "distance": 0.17839186,
          "id": 2048163423
        },
        {
          "distance": 0.3519017,
          "id": 2048163439
        },
        {
          "distance": 0.4003319,
          "id": 2048163475
        },
        {
          "distance": 0.4039826,
          "id": 1881026803
        },
        {
          "distance": 0.42311537,
          "id": 1881026799
        },
        {
          "distance": 0.43388247,
          "id": 1896966221
        },
        {
          "distance": 0.44634724,
          "id": 1896966213
        },
        {
          "distance": 0.4619836,
          "id": 1896966217
        },
        {
          "distance": 0.46524978,
          "id": 1763372975
        },
        {
          "distance": 0.4712951,
          "id": 1896966211
        }
      ],
      "apple/mobileclip_s1": [
        {
          "distance": 0.1510274,
          "id": 2048163423
        },
        {
          "distance": 0.30532193,
          "id": 2048163475
        },
        {
          "distance": 0.32194665,
          "id": 2048163439
        },
        {
          "distance": 0.3758748,
          "id": 2048163431
        },
        {
          "distance": 0.3762064,
          "id": 1881026807
        },
        {
          "distance": 0.38218826,
          "id": 1881026799
        },
        {
          "distance": 0.38481474,
          "id": 1881026835
        },
        {
          "distance": 0.39010718,
          "id": 1896966211
        },
        {
          "distance": 0.39463404,
          "id": 1896966221
        },
        {
          "distance": 0.39779255,
          "id": 1881026803
        }
      ],
      "apple/mobileclip_s2": [
        {
          "distance": 0.23658113,
          "id": 2048163423
        },
        {
          "distance": 0.36645666,
          "id": 2048163475
        },
        {
          "distance": 0.40750095,
          "id": 2048163439
        },
        {
          "distance": 0.41658366,
          "id": 2048163431
        },
        {
          "distance": 0.42587742,
          "id": 1881026799
        },
        {
          "distance": 0.4310964,
          "id": 1881026803
        },
        {
          "distance": 0.45499927,
          "id": 1896966211
        },
        {
          "distance": 0.47848925,
          "id": 1896966221
        },
        {
          "distance": 0.47871512,
          "id": 1881026835
        },
        {
          "distance": 0.48145595,
          "id": 1896966213
        }
      ]
    },
    "millsfield:subcategory_id": 1511213757,
    "mz:is_current": 1,
    "sfomuseum:filename": "112271.tif",
    "sfomuseum:image_id": 112271,
    "sfomuseum:image_index": 5,
    "sfomuseum:image_type": "studio",
    "sfomuseum:object_id": 67512,
    "sfomuseum:placetype": "image",
    "sfomuseum:primary_image": 1,
    "src:geom": "sfomuseum",
    "wof:belongsto": [
      102527513,
      1159162825,
      102191575,
      85633793,
      102087579,
      85922583,
      2048162637,
      85688637,
      1159160869
    ],
    "wof:country": "XY",
    "wof:created": 1787792275,
    "wof:depicts": [
      2048162637,
      1159284989,
      1159286839
    ],
    "wof:geomhash": "c281b9d9eefc83b5710e64b9d646067d",
    "wof:hierarchy": [
      {
        "building_id": -1,
        "campus_id": 102527513,
        "collection_id": 1159162825,
        "concourse_id": 1159162825,
        "continent_id": 102191575,
        "country_id": 85633793,
        "county_id": 102087579,
        "custom_id": 2048163429,
        "locality_id": 85922583,
        "neighbourhood_id": -1,
        "object_id": 2048162637,
        "region_id": 85688637,
        "wing_id": 1159160869
      }
    ],
    "wof:id": 2048163429,
    "wof:lastmodified": 1788452714,
    "wof:name": "chin strap button: Pan American World Airways",
    "wof:parent_id": 2048162637,
    "wof:placetype": "custom",
    "wof:repo": "sfomuseum-data-media-collection",
    "wof:superseded_by": [],
    "wof:supersedes": []
  },
  "bbox": [
    -122.38647222518921,
    37.6161053594541,
    -122.38583385944366,
    37.61661101879963
  ],
  "geometry": {"type":"Polygon","coordinates":[[[-122.38647222518921,37.61631782178288],[-122.386434674263,37.61623283692423],[-122.38637566566466,37.61617759671399],[-122.38630056381224,37.6161308549656],[-122.38616108894348,37.6161053594541],[-122.38602161407469,37.6161308549656],[-122.38591432571411,37.61618609521055],[-122.38585531711577,37.61626683087935],[-122.38583385944366,37.61636881265146],[-122.38587141036987,37.61646654505181],[-122.38594114780425,37.61654303118856],[-122.38605380058287,37.61660252035167],[-122.38618254661559,37.61661101879963],[-122.3863059282303,37.61657277577607],[-122.3864185810089,37.61650903735973],[-122.3864668607712,37.61641130501523],[-122.38647222518921,37.61631782178288]]]}
}
