{
  "id": 1527821083,
  "type": "Feature",
  "properties": {
    "date:cessation_lower": "1929-01-01",
    "date:cessation_upper": "1929-12-31",
    "date:inception_lower": "1929-01-01",
    "date:inception_upper": "1929-12-31",
    "edtf:cessation": "1929",
    "edtf:date": "1929",
    "edtf:inception": "1929",
    "geom:area": 0,
    "geom:bbox": "-122.386155,37.616358,-122.386155,37.616358",
    "geom:latitude": 37.616358,
    "geom:longitude": -122.386155,
    "iso:country": "US",
    "media:fingerprint": "500bdb4c98e8a354a608f90fcf3538d4fa30528e",
    "media:imagehash_avg": "a:ffe1e0e0e0e0e0ff",
    "media:imagehash_diff": "d:4747470d09074d4d",
    "media:imagetext": "General Offices\nGRAND CENTRAL AIR TERMINAL\nGLENDALE, CALIFORNIA\nCApitol 3173\nExecutive Offices\n510 WEST SIXTH STREET\nLOs ANGELES, CALIFORNIA\nTUcker 5211\nDistrict Traffc Agents\nSan Francisco.\n_S. A. Stimpson\n672 Market St.—Sutter 5047\nOakland.\nG. P. DuBois\n1621 Broadway-Lakeside 3374\nHollywood\nH. W. Smith\n6407 Hollywood Blvd., HOllywood 7123\nLos Angeles.\n_.___R. A. Deininger\n636 So. Olive St.—TRinity 0317\nPasadena.\nE. A. Henderson\n2373 N. Holliston Ave.—Sterling 8830\nLong Beach.\nE. I. Glatte\n116 East Ocean Ave.\nSan Diego\nBruce McKay\n316 C St.-Main 8144\nPhoenix -..\n_T. E. Free\n238 N. Central Ave.-Phone 3-2462\nImperial Valley.\n_J. R. Puckett\nBarbara Worth Hotel—E1 Centro 99\nBakersfield\nHarry H. Glumm\nEl Tejon Hotel-Phone 3200\nFresno\nV. C. Jones\nMaddux Airport-Phone 2-1312\n2000.042.001\nMADDUX AIR LINES\nTime Table ond Tariff\nMADDUX\nAIR - LINES\nLOS ANCELES -SANFRANCISCO\nGRAND CENTRAL AIR TERMINAL\nGLENDALE, CALIFORNIA",
    "media:imagetext_created": 1787948002,
    "media:imagetext_source": "com.apple.visionkit.VNImageRequestHandler#Version 26.6.2 (Build 25G83)",
    "media:medium": "image",
    "media:mimetype": "image/tiff",
    "media:properties": {
      "sizes": {
        "b": {
          "extension": "jpg",
          "height": 646,
          "mimetype": "image/jpeg",
          "secret": "Hqzv7Tyav7jKP7rPc7Xew1rQfl0bv0Zb",
          "width": 1024
        },
        "c": {
          "extension": "jpg",
          "height": 505,
          "mimetype": "image/jpeg",
          "secret": "Hqzv7Tyav7jKP7rPc7Xew1rQfl0bv0Zb",
          "width": 800
        },
        "dc": {
          "extension": "jpg",
          "height": 505,
          "mimetype": "image/jpeg",
          "secret": "Hqzv7Tyav7jKP7rPc7Xew1rQfl0bv0Zb",
          "width": 800
        },
        "ds": {
          "extension": "jpg",
          "height": 320,
          "mimetype": "image/jpeg",
          "secret": "Hqzv7Tyav7jKP7rPc7Xew1rQfl0bv0Zb",
          "width": 320
        },
        "k": {
          "extension": "jpg",
          "height": 1293,
          "mimetype": "image/jpeg",
          "secret": "Hqzv7Tyav7jKP7rPc7Xew1rQfl0bv0Zb",
          "width": 2048
        },
        "n": {
          "extension": "jpg",
          "height": 202,
          "mimetype": "image/jpeg",
          "secret": "Hqzv7Tyav7jKP7rPc7Xew1rQfl0bv0Zb",
          "width": 320
        },
        "o": {
          "extension": "jpg",
          "height": 1958,
          "mimetype": "image/jpeg",
          "secret": "wt6mYstjIVvWuDBbxJIas07JZlC4qdFe",
          "width": 3099
        },
        "s": {
          "extension": "jpg",
          "height": 320,
          "mimetype": "image/jpeg",
          "secret": "Hqzv7Tyav7jKP7rPc7Xew1rQfl0bv0Zb",
          "width": 320
        },
        "z": {
          "extension": "jpg",
          "height": 404,
          "mimetype": "image/jpeg",
          "secret": "Hqzv7Tyav7jKP7rPc7Xew1rQfl0bv0Zb",
          "width": 640
        }
      }
    },
    "media:source": "sfomuseum",
    "media:status_id": 1,
    "media:uri_template": "https://static.sfomuseum.org/media/152/782/108/3/1527821083_{secret}_{label}.{extension}",
    "millsfield:airline_id": [
      1159284723
    ],
    "millsfield:category_id": 1511214223,
    "millsfield:collection_id": 1511214207,
    "millsfield:company_id": [
      1159287157
    ],
    "millsfield:images_colors": [
      {
        "hex": "#e5d8b0",
        "name": "#e5d8b0",
        "reference": "marekm4"
      },
      {
        "hex": "#f5deb3",
        "name": "wheat",
        "reference": "css4"
      },
      {
        "hex": "#efcdb8",
        "name": "Desert Sand",
        "reference": "crayola"
      },
      {
        "hex": "#615043",
        "name": "#615043",
        "reference": "marekm4"
      },
      {
        "hex": "#556b2f",
        "name": "darkolivegreen",
        "reference": "css4"
      },
      {
        "hex": "#6e5160",
        "name": "Eggplant",
        "reference": "crayola"
      },
      {
        "hex": "#88755e",
        "name": "#88755e",
        "reference": "marekm4"
      },
      {
        "hex": "#696969",
        "name": "dimgrey",
        "reference": "css4"
      },
      {
        "hex": "#8a795d",
        "name": "Shadow",
        "reference": "crayola"
      },
      {
        "hex": "#9f8e71",
        "name": "#9f8e71",
        "reference": "marekm4"
      },
      {
        "hex": "#808080",
        "name": "grey",
        "reference": "css4"
      },
      {
        "hex": "#9f8170",
        "name": "Beaver",
        "reference": "crayola"
      }
    ],
    "millsfield:images_texts": [
      "General Offices\nGRAND CENTRAL AIR TERMINAL\nGLENDALE, CALIFORNIA\nCApitol 3173\nExecutive Offices\n510 WEST SIXTH STREET\nLOs ANGELES, CALIFORNIA\nTUcker 5211\nDistrict Traffc Agents\nSan Francisco.\n_S. A. Stimpson\n672 Market St.—Sutter 5047\nOakland.\nG. P. DuBois\n1621 Broadway-Lakeside 3374\nHollywood\nH. W. Smith\n6407 Hollywood Blvd., HOllywood 7123\nLos Angeles.\n_.___R. A. Deininger\n636 So. Olive St.—TRinity 0317\nPasadena.\nE. A. Henderson\n2373 N. Holliston Ave.—Sterling 8830\nLong Beach.\nE. I. Glatte\n116 East Ocean Ave.\nSan Diego\nBruce McKay\n316 C St.-Main 8144\nPhoenix -..\n_T. E. Free\n238 N. Central Ave.-Phone 3-2462\nImperial Valley.\n_J. R. Puckett\nBarbara Worth Hotel—E1 Centro 99\nBakersfield\nHarry H. Glumm\nEl Tejon Hotel-Phone 3200\nFresno\nV. C. Jones\nMaddux Airport-Phone 2-1312\n2000.042.001\nMADDUX AIR LINES\nTime Table ond Tariff\nMADDUX\nAIR - LINES\nLOS ANCELES -SANFRANCISCO\nGRAND CENTRAL AIR TERMINAL\nGLENDALE, CALIFORNIA"
    ],
    "millsfield:images_texts_ids": [
      1527821083
    ],
    "millsfield:similar": {
      "apple/mobileclip_s0": [
        {
          "distance": 0.6513235,
          "id": 1763249145
        },
        {
          "distance": 0.679596,
          "id": 1527839567
        },
        {
          "distance": 0.6961469,
          "id": 1762701535
        },
        {
          "distance": 0.69961673,
          "id": 1762701203
        },
        {
          "distance": 0.7059682,
          "id": 1527844381
        },
        {
          "distance": 0.7091142,
          "id": 1762715555
        },
        {
          "distance": 0.7105041,
          "id": 1527839639
        },
        {
          "distance": 0.713355,
          "id": 1763241483
        },
        {
          "distance": 0.71466076,
          "id": 1762701537
        },
        {
          "distance": 0.7198486,
          "id": 1762709795
        }
      ],
      "apple/mobileclip_s1": [
        {
          "distance": 0.46306896,
          "id": 1762701535
        },
        {
          "distance": 0.46929178,
          "id": 1527821085
        },
        {
          "distance": 0.47984827,
          "id": 1527839639
        },
        {
          "distance": 0.48233908,
          "id": 1762698493
        },
        {
          "distance": 0.48789123,
          "id": 1762701537
        },
        {
          "distance": 0.4956364,
          "id": 1763445517
        },
        {
          "distance": 0.49888507,
          "id": 1762701479
        },
        {
          "distance": 0.5007314,
          "id": 1729566415
        },
        {
          "distance": 0.5032259,
          "id": 1762699349
        },
        {
          "distance": 0.5032369,
          "id": 1527839567
        }
      ],
      "apple/mobileclip_s2": [
        {
          "distance": 0.67787224,
          "id": 1527821085
        },
        {
          "distance": 0.68716425,
          "id": 1763445517
        },
        {
          "distance": 0.6993104,
          "id": 1527842069
        },
        {
          "distance": 0.7009549,
          "id": 1763248985
        },
        {
          "distance": 0.70128185,
          "id": 1762715245
        },
        {
          "distance": 0.71157336,
          "id": 1763248983
        },
        {
          "distance": 0.7161068,
          "id": 1527843261
        },
        {
          "distance": 0.7164844,
          "id": 1762701537
        },
        {
          "distance": 0.7192284,
          "id": 1762701535
        },
        {
          "distance": 0.72469,
          "id": 1527839567
        }
      ]
    },
    "millsfield:subcategory_id": 1511213425,
    "mz:hierarchy_label": 1,
    "mz:is_current": -1,
    "sfomuseum:filename": "33797.tif",
    "sfomuseum:image_id": 33797,
    "sfomuseum:image_index": 5,
    "sfomuseum:image_type": "studio",
    "sfomuseum:object_id": 50820,
    "sfomuseum:placetype": "image",
    "sfomuseum:primary_image": 1,
    "src:geom": "sfomuseum",
    "wof:belongsto": [
      102191575,
      1511910215,
      85633793,
      136253057,
      1511214223,
      102527513,
      1511213425,
      85922583,
      102087579,
      1511214277,
      1511214203,
      85688637
    ],
    "wof:breaches": [],
    "wof:country": "US",
    "wof:created": 1578949518,
    "wof:depicts": [
      1159292297,
      1159284723,
      1511910215,
      1159287157
    ],
    "wof:geomhash": "bd906905ce4be6c0651c90b0fc24804c",
    "wof:hierarchy": [
      {
        "continent_id": 102191575,
        "country_id": 85633793,
        "custom_id": 1527821083,
        "empire_id": 136253057,
        "image_id": 1527821083,
        "media_id": 1527821083,
        "venue_id": 1511910215
      },
      {
        "arcade_id": 1511213425,
        "building_id": 1511214277,
        "campus_id": 102527513,
        "concourse_id": 1511214223,
        "continent_id": 102191575,
        "country_id": 85633793,
        "county_id": 102087579,
        "custom_id": 1527821083,
        "image_id": 1527821083,
        "locality_id": 85922583,
        "media_id": 1527821083,
        "neighbourhood_id": -1,
        "region_id": 85688637,
        "venue_id": 1511910215,
        "wing_id": 1511214203
      }
    ],
    "wof:id": 1527821083,
    "wof:lastmodified": 1788449742,
    "wof:name": "timetable: Maddux Air Lines",
    "wof:parent_id": 1511910215,
    "wof:placetype": "custom",
    "wof:placetype_alt": [
      "image"
    ],
    "wof:repo": "sfomuseum-data-media-collection",
    "wof:superseded_by": [],
    "wof:supersedes": [],
    "wof:tags": []
  },
  "bbox": [
    -122.386155,
    37.616358,
    -122.386155,
    37.616358
  ],
  "geometry": {"type":"Point","coordinates":[-122.386155,37.616358]}
}
