{
  "id": 1763372971,
  "type": "Feature",
  "properties": {
    "date:cessation_lower": "1960-01-01",
    "date:cessation_upper": "1969-12-31",
    "date:inception_lower": "1960-01-01",
    "date:inception_upper": "1969-12-31",
    "edtf:cessation": "196X",
    "edtf:date": "196x",
    "edtf:inception": "196X",
    "geom:area": 0,
    "geom:bbox": "-122.386155,37.616357,-122.386155,37.616357",
    "geom:latitude": 37.616357,
    "geom:longitude": -122.386155,
    "iso:country": "XX",
    "media:fingerprint": "24fc9d594e3047dcf73b509c82da80a75677d290",
    "media:imagehash_avg": "a:ff7f43424267ffff",
    "media:imagehash_diff": "d:f0f0ce9686cce8f0",
    "media:mimetype": "image/tiff",
    "media:properties": {
      "sizes": {
        "b": {
          "extension": "jpg",
          "height": 768,
          "mimetype": "image/jpeg",
          "secret": "NtNfSrluzEMtB3X28hoaEaUOm93zEzx7",
          "width": 965
        },
        "c": {
          "extension": "jpg",
          "height": 600,
          "mimetype": "image/jpeg",
          "secret": "NtNfSrluzEMtB3X28hoaEaUOm93zEzx7",
          "width": 754
        },
        "dc": {
          "extension": "jpg",
          "height": 600,
          "mimetype": "image/jpeg",
          "secret": "NtNfSrluzEMtB3X28hoaEaUOm93zEzx7",
          "width": 754
        },
        "ds": {
          "extension": "jpg",
          "height": 320,
          "mimetype": "image/jpeg",
          "secret": "NtNfSrluzEMtB3X28hoaEaUOm93zEzx7",
          "width": 320
        },
        "k": {
          "extension": "jpg",
          "height": 1536,
          "mimetype": "image/jpeg",
          "secret": "NtNfSrluzEMtB3X28hoaEaUOm93zEzx7",
          "width": 1931
        },
        "n": {
          "extension": "jpg",
          "height": 240,
          "mimetype": "image/jpeg",
          "secret": "NtNfSrluzEMtB3X28hoaEaUOm93zEzx7",
          "width": 301
        },
        "o": {
          "extension": "jpg",
          "height": 1667,
          "mimetype": "image/jpeg",
          "secret": "rJgeZMTurR6fIQYi2janAeV0a2sVu6Hi",
          "width": 2096
        },
        "s": {
          "extension": "jpg",
          "height": 320,
          "mimetype": "image/jpeg",
          "secret": "NtNfSrluzEMtB3X28hoaEaUOm93zEzx7",
          "width": 320
        },
        "z": {
          "extension": "jpg",
          "height": 480,
          "mimetype": "image/jpeg",
          "secret": "NtNfSrluzEMtB3X28hoaEaUOm93zEzx7",
          "width": 603
        }
      }
    },
    "media:source": "sfomuseum",
    "media:status_id": 1,
    "media:uri_template": "https://static.sfomuseum.org/media/176/337/297/1/1763372971_{secret}_{label}.{extension}",
    "millsfield:airline_id": [
      1159285785
    ],
    "millsfield:category_id": 1762679663,
    "millsfield:collection_id": 1511214203,
    "millsfield:company_id": [
      1159288505
    ],
    "millsfield:exhibition_ids": [
      1159160109,
      1159160315
    ],
    "millsfield:images_colors": [
      {
        "hex": "#b3b4b2",
        "name": "#b3b4b2",
        "reference": "marekm4"
      },
      {
        "hex": "#a9a9a9",
        "name": "darkgrey",
        "reference": "css4"
      },
      {
        "hex": "#b0b7c6",
        "name": "Cadet Blue",
        "reference": "crayola"
      },
      {
        "hex": "#b9613a",
        "name": "#b9613a",
        "reference": "marekm4"
      },
      {
        "hex": "#a0522d",
        "name": "sienna",
        "reference": "css4"
      },
      {
        "hex": "#b4674d",
        "name": "Brown",
        "reference": "crayola"
      }
    ],
    "millsfield:images_texts": [
      "TSS MANG IN TAPAN",
      "Did you know that Japan Air Lines has Bar\nService aloft? The Cabin Attendant will be\nhappy to serve you any of the following\nselection at the prices listed. Soft Drinks\nare available free of charge.\nJAPAN AIR LINES\nCOCKTAIL\nManhattan\nMartini\nWHISKY\nScotch\nJapanese\nBourbon\nCanadian\nCOGNAC\nWINE\nBEER\nSAKE\nWINE LIST\n712*-\n50c\n· 180\n50.\n·180\nSoc\n25 c\n· 180\n25 c\n* 20\n25 c\n· 90"
    ],
    "millsfield:images_texts_ids": [
      1527819375,
      1880762855
    ],
    "millsfield:on_view": 0,
    "millsfield:similar": {
      "apple/mobileclip_s0": [
        {
          "distance": 0.5173886,
          "id": 2014813001
        },
        {
          "distance": 0.52227885,
          "id": 2015183625
        },
        {
          "distance": 0.5324143,
          "id": 1897212497
        },
        {
          "distance": 0.5330853,
          "id": 1880762855
        },
        {
          "distance": 0.5337735,
          "id": 1931110195
        },
        {
          "distance": 0.5364701,
          "id": 1931110193
        },
        {
          "distance": 0.5378932,
          "id": 1897212445
        },
        {
          "distance": 0.54123193,
          "id": 1931110149
        },
        {
          "distance": 0.5428993,
          "id": 1930466351
        },
        {
          "distance": 0.5497872,
          "id": 1763372983
        }
      ],
      "apple/mobileclip_s1": [
        {
          "distance": 0.3197603,
          "id": 2015300683
        },
        {
          "distance": 0.3541983,
          "id": 1527819375
        },
        {
          "distance": 0.4137433,
          "id": 2015300729
        },
        {
          "distance": 0.41790676,
          "id": 1913842255
        },
        {
          "distance": 0.42742515,
          "id": 2015183641
        },
        {
          "distance": 0.4309119,
          "id": 1897212503
        },
        {
          "distance": 0.43930748,
          "id": 1897212455
        },
        {
          "distance": 0.4398411,
          "id": 1931110163
        },
        {
          "distance": 0.44092748,
          "id": 1897212509
        },
        {
          "distance": 0.44293815,
          "id": 1897212491
        }
      ],
      "apple/mobileclip_s2": [
        {
          "distance": 0.43659556,
          "id": 1527819375
        },
        {
          "distance": 0.45337498,
          "id": 2015300683
        },
        {
          "distance": 0.52600265,
          "id": 2014813001
        },
        {
          "distance": 0.5277041,
          "id": 1897212455
        },
        {
          "distance": 0.52803415,
          "id": 1931110177
        },
        {
          "distance": 0.5284343,
          "id": 1931122699
        },
        {
          "distance": 0.5323819,
          "id": 1964167509
        },
        {
          "distance": 0.5399722,
          "id": 1897212461
        },
        {
          "distance": 0.5419072,
          "id": 1931110149
        },
        {
          "distance": 0.54424256,
          "id": 2015300729
        }
      ]
    },
    "millsfield:subcategory_id": 1511213257,
    "mz:is_current": 1,
    "sfomuseum:filename": "109353.tif",
    "sfomuseum:image_id": 109353,
    "sfomuseum:image_index": 5,
    "sfomuseum:image_type": "studio",
    "sfomuseum:object_id": 88634,
    "sfomuseum:placetype": "image",
    "sfomuseum:primary_image": 1,
    "src:geom": "sfomuseum",
    "wof:belongsto": [
      102527513,
      1159162825,
      102191575,
      85633793,
      102087579,
      85922583,
      1511930825,
      85688637,
      1159160869
    ],
    "wof:country": "XX",
    "wof:created": 1648626243,
    "wof:depicts": [
      1511930825,
      1159285785,
      1159288505
    ],
    "wof:geomhash": "30c8a918561c84bb2daa2b97fc7c5353",
    "wof:hierarchy": [
      {
        "building_id": -1,
        "campus_id": 102527513,
        "concourse_id": 1159162825,
        "continent_id": 102191575,
        "country_id": 85633793,
        "county_id": 102087579,
        "custom_id": 1763372971,
        "image_id": 1763372971,
        "locality_id": 85922583,
        "neighbourhood_id": -1,
        "object_id": 1511930825,
        "region_id": 85688637,
        "venue_id": 1511930825,
        "wing_id": 1159160869
      }
    ],
    "wof:id": 1763372971,
    "wof:lastmodified": 1788451071,
    "wof:name": "folding fan/menu: Japan Air Lines, beverage",
    "wof:parent_id": 1511930825,
    "wof:placetype": "custom",
    "wof:placetype_alt": [
      "image"
    ],
    "wof:repo": "sfomuseum-data-media-collection",
    "wof:superseded_by": [],
    "wof:supersedes": []
  },
  "bbox": [
    -122.386155,
    37.616357,
    -122.386155,
    37.616357
  ],
  "geometry": {"type":"Point","coordinates":[-122.386155,37.616357]}
}
