{
  "id": 1762706001,
  "type": "Feature",
  "properties": {
    "date:cessation_lower": "1980-01-01",
    "date:cessation_upper": "1989-12-31",
    "date:inception_lower": "1980-01-01",
    "date:inception_upper": "1989-12-31",
    "edtf:cessation": "198X",
    "edtf:inception": "198X",
    "geom:area": 2.477324999997507e-7,
    "geom:bbox": "-122.386472,37.616105,-122.385834,37.616611",
    "geom:latitude": 37.61635756125121,
    "geom:longitude": -122.38615532866096,
    "media:fingerprint": "853c655c3670f5b4b21f249ba3031862f3908701",
    "media:imagehash_avg": "a:ffcdbdb901018181",
    "media:imagehash_diff": "d:8a3969511531296b",
    "media:mimetype": "image/tiff",
    "media:properties": {
      "sizes": {
        "b": {
          "extension": "jpg",
          "height": 692,
          "mimetype": "image/jpeg",
          "secret": "tli8RU0tUYVC0V9jivdU38ozV7AhX6JA",
          "width": 1024
        },
        "c": {
          "extension": "jpg",
          "height": 541,
          "mimetype": "image/jpeg",
          "secret": "tli8RU0tUYVC0V9jivdU38ozV7AhX6JA",
          "width": 800
        },
        "dc": {
          "extension": "jpg",
          "height": 541,
          "mimetype": "image/jpeg",
          "secret": "tli8RU0tUYVC0V9jivdU38ozV7AhX6JA",
          "width": 800
        },
        "ds": {
          "extension": "jpg",
          "height": 320,
          "mimetype": "image/jpeg",
          "secret": "tli8RU0tUYVC0V9jivdU38ozV7AhX6JA",
          "width": 320
        },
        "k": {
          "extension": "jpg",
          "height": 1385,
          "mimetype": "image/jpeg",
          "secret": "tli8RU0tUYVC0V9jivdU38ozV7AhX6JA",
          "width": 2048
        },
        "n": {
          "extension": "jpg",
          "height": 216,
          "mimetype": "image/jpeg",
          "secret": "tli8RU0tUYVC0V9jivdU38ozV7AhX6JA",
          "width": 320
        },
        "o": {
          "extension": "jpg",
          "height": 1218,
          "mimetype": "image/jpeg",
          "secret": "j6w23UhugxSDgWbD2o3axpxsvBuSFrWo",
          "width": 1800
        },
        "s": {
          "extension": "jpg",
          "height": 320,
          "mimetype": "image/jpeg",
          "secret": "tli8RU0tUYVC0V9jivdU38ozV7AhX6JA",
          "width": 320
        },
        "z": {
          "extension": "jpg",
          "height": 433,
          "mimetype": "image/jpeg",
          "secret": "tli8RU0tUYVC0V9jivdU38ozV7AhX6JA",
          "width": 640
        }
      }
    },
    "media:source": "sfomuseum",
    "media:status_id": 1,
    "media:uri_template": "https://static.sfomuseum.org/media/176/270/600/1/1762706001_{secret}_{label}.{extension}",
    "millsfield:airline_id": [
      1159285785
    ],
    "millsfield:category_id": 1511214215,
    "millsfield:collection_id": 1511214207,
    "millsfield:company_id": [
      1159288505
    ],
    "millsfield:images_colors": [
      {
        "hex": "#222723",
        "name": "#222723",
        "reference": "marekm4"
      },
      {
        "hex": "#2f4f4f",
        "name": "darkslategrey",
        "reference": "css4"
      },
      {
        "hex": "#414a4c",
        "name": "Outer Space",
        "reference": "crayola"
      },
      {
        "hex": "#ccc8be",
        "name": "#ccc8be",
        "reference": "marekm4"
      },
      {
        "hex": "#c0c0c0",
        "name": "silver",
        "reference": "css4"
      },
      {
        "hex": "#cdc5c2",
        "name": "Silver",
        "reference": "crayola"
      },
      {
        "hex": "#a55b37",
        "name": "#a55b37",
        "reference": "marekm4"
      },
      {
        "hex": "#a0522d",
        "name": "sienna",
        "reference": "css4"
      },
      {
        "hex": "#a5694f",
        "name": "Sepia",
        "reference": "crayola"
      },
      {
        "hex": "#ad9268",
        "name": "#ad9268",
        "reference": "marekm4"
      },
      {
        "hex": "#bdb76b",
        "name": "darkkhaki",
        "reference": "css4"
      },
      {
        "hex": "#9f8170",
        "name": "Beaver",
        "reference": "crayola"
      }
    ],
    "millsfield:images_texts": [
      "POST CARD\nJAL\nJapan Airlines\nPRINTED IN JAPAN\nJD BA BC\n2015.16\n967"
    ],
    "millsfield:images_texts_ids": [
      1762706003
    ],
    "millsfield:similar": {
      "apple/mobileclip_s0": [
        {
          "distance": 0.8169306,
          "id": 1762705997
        },
        {
          "distance": 0.8622249,
          "id": 1527840681
        },
        {
          "distance": 0.8756473,
          "id": 1779436787
        },
        {
          "distance": 0.88023126,
          "id": 1762895239
        },
        {
          "distance": 0.8862316,
          "id": 1527840161
        },
        {
          "distance": 0.8967498,
          "id": 1762892527
        },
        {
          "distance": 0.90841556,
          "id": 1762892585
        },
        {
          "distance": 0.9103962,
          "id": 1779436853
        },
        {
          "distance": 0.9253292,
          "id": 1762892993
        },
        {
          "distance": 0.93388635,
          "id": 1762699867
        }
      ],
      "apple/mobileclip_s1": [
        {
          "distance": 0.51750034,
          "id": 1779436787
        },
        {
          "distance": 0.5217162,
          "id": 1762705699
        },
        {
          "distance": 0.5384156,
          "id": 1762705997
        },
        {
          "distance": 0.54100305,
          "id": 1527840681
        },
        {
          "distance": 0.54108626,
          "id": 1762892585
        },
        {
          "distance": 0.54703814,
          "id": 1863470815
        },
        {
          "distance": 0.5509699,
          "id": 1779436853
        },
        {
          "distance": 0.5618737,
          "id": 1762892527
        },
        {
          "distance": 0.57005495,
          "id": 1762892993
        },
        {
          "distance": 0.57057256,
          "id": 1527858735
        }
      ],
      "apple/mobileclip_s2": [
        {
          "distance": 0.68802434,
          "id": 1762705699
        },
        {
          "distance": 0.7561151,
          "id": 1762892527
        },
        {
          "distance": 0.77223104,
          "id": 1762705997
        },
        {
          "distance": 0.83029056,
          "id": 1762892585
        },
        {
          "distance": 0.8412826,
          "id": 1527840681
        },
        {
          "distance": 0.8460803,
          "id": 1762705695
        },
        {
          "distance": 0.855857,
          "id": 1762892993
        },
        {
          "distance": 0.8667937,
          "id": 1863470815
        },
        {
          "distance": 0.8833888,
          "id": 1779436787
        },
        {
          "distance": 0.8881196,
          "id": 1762892843
        }
      ]
    },
    "millsfield:subcategory_id": 1511213363,
    "mz:is_current": 1,
    "sfomuseum:filename": "2015.166.0867_ft.tif",
    "sfomuseum:image_id": 153892,
    "sfomuseum:image_index": 5,
    "sfomuseum:image_type": "studio",
    "sfomuseum:object_id": 180484,
    "sfomuseum:placetype": "image",
    "sfomuseum:primary_image": 1,
    "src:geom": "sfomuseum",
    "wof:belongsto": [
      102527513,
      1159162825,
      102191575,
      85633793,
      102087579,
      85922583,
      1762688965,
      85688637,
      1159160869
    ],
    "wof:country": "XY",
    "wof:created": 1641348562,
    "wof:depicts": [
      1159285785,
      1159288505,
      1762688965
    ],
    "wof:geomhash": "ed7c2ab3547fc3916b5edc33488deaa7",
    "wof:hierarchy": [
      {
        "building_id": -1,
        "campus_id": 102527513,
        "collection_id": 1159162825,
        "concourse_id": 1159162825,
        "continent_id": 102191575,
        "country_id": 85633793,
        "county_id": 102087579,
        "custom_id": 1762706001,
        "image_id": 1762706001,
        "locality_id": 85922583,
        "neighbourhood_id": -1,
        "object_id": 1762688965,
        "region_id": 85688637,
        "wing_id": 1159160869
      }
    ],
    "wof:id": 1762706001,
    "wof:lastmodified": 1788450542,
    "wof:name": "postcard: JAL (Japan Air Lines)",
    "wof:parent_id": 1762688965,
    "wof:placetype": "custom",
    "wof:placetype_alt": [
      "image"
    ],
    "wof:repo": "sfomuseum-data-media-collection",
    "wof:superseded_by": [],
    "wof:supersedes": []
  },
  "bbox": [
    -122.386472,
    37.616105,
    -122.385834,
    37.616611
  ],
  "geometry": {"type":"Polygon","coordinates":[[[-122.386472,37.616318],[-122.386435,37.616233],[-122.386376,37.616178],[-122.386301,37.616131],[-122.386161,37.616105],[-122.386022,37.616131],[-122.385914,37.616186],[-122.385855,37.616267],[-122.385834,37.616369],[-122.385871,37.616467],[-122.385941,37.616543],[-122.386054,37.616603],[-122.386183,37.616611],[-122.386306,37.616573],[-122.386419,37.616509],[-122.386467,37.616411],[-122.386472,37.616318]]]}
}
