{
  "id": 1897762551,
  "type": "Feature",
  "properties": {
    "date:cessation_lower": "2011-01-01",
    "date:cessation_upper": "2011-12-31",
    "date:inception_lower": "2011-01-01",
    "date:inception_upper": "2011-12-31",
    "edtf:cessation": "2011",
    "edtf:inception": "2011",
    "geom:area": 2.477324999997507e-7,
    "geom:bbox": "-122.386472,37.616105,-122.385834,37.616611",
    "geom:latitude": 37.61635756125121,
    "geom:longitude": -122.38615532866096,
    "media:fingerprint": "b2474704e7a960ff84d4d8c06cc35eb29c9f5ed6",
    "media:imagehash_avg": "a:ffffe0f0cce2e0c0",
    "media:imagehash_diff": "d:1002472318060200",
    "media:imagetext": "EVA AIR\n76/11 SAN",
    "media:imagetext_created": 1787971215,
    "media:imagetext_source": "com.apple.visionkit.VNImageRequestHandler#Version 26.6.2 (Build 25G83)",
    "media:mimetype": "image/jpeg",
    "media:properties": {
      "sizes": {
        "b": {
          "extension": "jpg",
          "height": 768,
          "mimetype": "image/jpeg",
          "secret": "4G4H4oFwUpEfw4on4oCvFLvtgLNPCqjH",
          "width": 1024
        },
        "c": {
          "extension": "jpg",
          "height": 600,
          "mimetype": "image/jpeg",
          "secret": "4G4H4oFwUpEfw4on4oCvFLvtgLNPCqjH",
          "width": 800
        },
        "dc": {
          "extension": "jpg",
          "height": 600,
          "mimetype": "image/jpeg",
          "secret": "4G4H4oFwUpEfw4on4oCvFLvtgLNPCqjH",
          "width": 800
        },
        "ds": {
          "extension": "jpg",
          "height": 320,
          "mimetype": "image/jpeg",
          "secret": "4G4H4oFwUpEfw4on4oCvFLvtgLNPCqjH",
          "width": 320
        },
        "k": {
          "extension": "jpg",
          "height": 1536,
          "mimetype": "image/jpeg",
          "secret": "4G4H4oFwUpEfw4on4oCvFLvtgLNPCqjH",
          "width": 2048
        },
        "n": {
          "extension": "jpg",
          "height": 240,
          "mimetype": "image/jpeg",
          "secret": "4G4H4oFwUpEfw4on4oCvFLvtgLNPCqjH",
          "width": 320
        },
        "o": {
          "extension": "jpg",
          "height": 3024,
          "mimetype": "image/jpeg",
          "secret": "SLrgf1BKr7rjOAXoCDzj6aGehTES6QUG",
          "width": 4032
        },
        "s": {
          "extension": "jpg",
          "height": 320,
          "mimetype": "image/jpeg",
          "secret": "4G4H4oFwUpEfw4on4oCvFLvtgLNPCqjH",
          "width": 320
        },
        "z": {
          "extension": "jpg",
          "height": 480,
          "mimetype": "image/jpeg",
          "secret": "4G4H4oFwUpEfw4on4oCvFLvtgLNPCqjH",
          "width": 640
        }
      }
    },
    "media:source": "sfomuseum",
    "media:status_id": 1,
    "media:uri_template": "https://static.sfomuseum.org/media/189/776/255/1/1897762551_{secret}_{label}.{extension}",
    "millsfield:airline_id": [
      1159284349
    ],
    "millsfield:category_id": 1746152551,
    "millsfield:collection_id": 1511214203,
    "millsfield:company_id": [
      1159288125
    ],
    "millsfield:images_colors": [
      {
        "hex": "#afaaa7",
        "name": "#afaaa7",
        "reference": "marekm4"
      },
      {
        "hex": "#a9a9a9",
        "name": "darkgrey",
        "reference": "css4"
      },
      {
        "hex": "#979aaa",
        "name": "Manatee",
        "reference": "crayola"
      },
      {
        "hex": "#676969",
        "name": "#676969",
        "reference": "marekm4"
      },
      {
        "hex": "#696969",
        "name": "dimgrey",
        "reference": "css4"
      },
      {
        "hex": "#757575",
        "name": "Sonic Silver",
        "reference": "crayola"
      },
      {
        "hex": "#7e8182",
        "name": "#7e8182",
        "reference": "marekm4"
      },
      {
        "hex": "#808080",
        "name": "grey",
        "reference": "css4"
      }
    ],
    "millsfield:images_texts": [
      "EN-HINT",
      "EVA AIR\n76/11 SAN"
    ],
    "millsfield:images_texts_ids": [
      1746681655,
      1897762551
    ],
    "millsfield:similar": {
      "apple/mobileclip_s0": [
        {
          "distance": 0.24438627,
          "id": 1897762549
        },
        {
          "distance": 0.26576185,
          "id": 1897762553
        },
        {
          "distance": 0.29620445,
          "id": 1897762555
        },
        {
          "distance": 0.38927707,
          "id": 1746681653
        },
        {
          "distance": 0.4007915,
          "id": 1746681655
        },
        {
          "distance": 0.40817463,
          "id": 1746681659
        },
        {
          "distance": 0.4137627,
          "id": 1746681657
        },
        {
          "distance": 0.4610639,
          "id": 1897212549
        },
        {
          "distance": 0.46659482,
          "id": 1931110213
        },
        {
          "distance": 0.47924528,
          "id": 1897212553
        }
      ],
      "apple/mobileclip_s1": [
        {
          "distance": 0.15025221,
          "id": 1897762549
        },
        {
          "distance": 0.16556157,
          "id": 1897762553
        },
        {
          "distance": 0.19493932,
          "id": 1897762555
        },
        {
          "distance": 0.32664728,
          "id": 1746681655
        },
        {
          "distance": 0.37921715,
          "id": 1746681653
        },
        {
          "distance": 0.37955734,
          "id": 1746681659
        },
        {
          "distance": 0.38382003,
          "id": 1931110213
        },
        {
          "distance": 0.3903717,
          "id": 1746681657
        },
        {
          "distance": 0.39925727,
          "id": 1897212549
        },
        {
          "distance": 0.40939522,
          "id": 1897212553
        }
      ],
      "apple/mobileclip_s2": [
        {
          "distance": 0.23704255,
          "id": 1897762549
        },
        {
          "distance": 0.25397956,
          "id": 1897762553
        },
        {
          "distance": 0.32857713,
          "id": 1897762555
        },
        {
          "distance": 0.46606293,
          "id": 1746681657
        },
        {
          "distance": 0.47355354,
          "id": 1746681653
        },
        {
          "distance": 0.51485646,
          "id": 1746681655
        },
        {
          "distance": 0.5398938,
          "id": 1897212553
        },
        {
          "distance": 0.54601336,
          "id": 1796506387
        },
        {
          "distance": 0.55509895,
          "id": 1897212549
        },
        {
          "distance": 0.55574006,
          "id": 1746681659
        }
      ]
    },
    "millsfield:subcategory_id": 1511213417,
    "mz:is_current": 1,
    "sfomuseum:filename": "IMG_0357.JPG",
    "sfomuseum:image_id": 226339,
    "sfomuseum:image_index": 0,
    "sfomuseum:image_type": "studio",
    "sfomuseum:object_id": 219708,
    "sfomuseum:placetype": "image",
    "sfomuseum:primary_image": 0,
    "src:geom": "sfomuseum",
    "wof:belongsto": [
      102527513,
      1159162825,
      102191575,
      85633793,
      102087579,
      85922583,
      1746271027,
      85688637,
      1159160869
    ],
    "wof:country": "XY",
    "wof:created": 1711611217,
    "wof:depicts": [
      1159284349,
      1159288125,
      1746271027
    ],
    "wof:geomhash": "ed7c2ab3547fc3916b5edc33488deaa7",
    "wof:hierarchy": [
      {
        "building_id": -1,
        "campus_id": 102527513,
        "collection_id": 1159162825,
        "concourse_id": 1159162825,
        "continent_id": 102191575,
        "country_id": 85633793,
        "county_id": 102087579,
        "custom_id": 1897762551,
        "image_id": 1897762551,
        "locality_id": 85922583,
        "neighbourhood_id": -1,
        "object_id": 1746271027,
        "region_id": 85688637,
        "wing_id": 1159160869
      }
    ],
    "wof:id": 1897762551,
    "wof:lastmodified": 1788452087,
    "wof:name": "chopsticks with sleeve: EVA Air",
    "wof:parent_id": 1746271027,
    "wof:placetype": "custom",
    "wof:placetype_alt": [
      "image"
    ],
    "wof:repo": "sfomuseum-data-media-collection",
    "wof:superseded_by": [],
    "wof:supersedes": []
  },
  "bbox": [
    -122.386472,
    37.616105,
    -122.385834,
    37.616611
  ],
  "geometry": {"type":"Polygon","coordinates":[[[-122.386472,37.616318],[-122.386435,37.616233],[-122.386376,37.616178],[-122.386301,37.616131],[-122.386161,37.616105],[-122.386022,37.616131],[-122.385914,37.616186],[-122.385855,37.616267],[-122.385834,37.616369],[-122.385871,37.616467],[-122.385941,37.616543],[-122.386054,37.616603],[-122.386183,37.616611],[-122.386306,37.616573],[-122.386419,37.616509],[-122.386467,37.616411],[-122.386472,37.616318]]]}
}
