{
  "id": 1527844485,
  "type": "Feature",
  "properties": {
    "date:cessation_lower": "1947-01-01",
    "date:cessation_upper": "1947-12-31",
    "date:inception_lower": "1947-01-01",
    "date:inception_upper": "1947-12-31",
    "edtf:cessation": "1947~",
    "edtf:date": "1947~",
    "edtf:inception": "1947~",
    "geom:area": 0,
    "geom:bbox": "-122.386155,37.616358,-122.386155,37.616358",
    "geom:latitude": 37.616358,
    "geom:longitude": -122.386155,
    "iso:country": "US",
    "media:fingerprint": "dba171535338ff623aadd59e13161790604190d7",
    "media:imagehash_avg": "a:ff7f7f7f1f010000",
    "media:imagehash_diff": "d:7bdee9cdfdbdadb1",
    "media:imagetext": "SYSTEM MAP\nUNITED Air Lines\nTHE MAIN LINE AIRWAY-COAST TO COAST",
    "media:imagetext_created": 1787951727,
    "media:imagetext_source": "com.apple.visionkit.VNImageRequestHandler#Version 26.6.2 (Build 25G83)",
    "media:medium": "image",
    "media:mimetype": "image/tiff",
    "media:properties": {
      "sizes": {
        "b": {
          "extension": "jpg",
          "height": 768,
          "mimetype": "image/jpeg",
          "secret": "sSkm5UZ8TosOtVTpD65rolq8l84zPps2",
          "width": 492
        },
        "c": {
          "extension": "jpg",
          "height": 600,
          "mimetype": "image/jpeg",
          "secret": "sSkm5UZ8TosOtVTpD65rolq8l84zPps2",
          "width": 385
        },
        "dc": {
          "extension": "jpg",
          "height": 600,
          "mimetype": "image/jpeg",
          "secret": "sSkm5UZ8TosOtVTpD65rolq8l84zPps2",
          "width": 385
        },
        "ds": {
          "extension": "jpg",
          "height": 320,
          "mimetype": "image/jpeg",
          "secret": "sSkm5UZ8TosOtVTpD65rolq8l84zPps2",
          "width": 320
        },
        "k": {
          "extension": "jpg",
          "height": 1536,
          "mimetype": "image/jpeg",
          "secret": "sSkm5UZ8TosOtVTpD65rolq8l84zPps2",
          "width": 985
        },
        "n": {
          "extension": "jpg",
          "height": 240,
          "mimetype": "image/jpeg",
          "secret": "sSkm5UZ8TosOtVTpD65rolq8l84zPps2",
          "width": 154
        },
        "o": {
          "extension": "jpg",
          "height": 2569,
          "mimetype": "image/jpeg",
          "secret": "hFe934g6odLKfPD9DP1qANkyiQ571aYk",
          "width": 1649
        },
        "s": {
          "extension": "jpg",
          "height": 320,
          "mimetype": "image/jpeg",
          "secret": "sSkm5UZ8TosOtVTpD65rolq8l84zPps2",
          "width": 320
        },
        "z": {
          "extension": "jpg",
          "height": 480,
          "mimetype": "image/jpeg",
          "secret": "sSkm5UZ8TosOtVTpD65rolq8l84zPps2",
          "width": 308
        }
      }
    },
    "media:source": "sfomuseum",
    "media:status_id": 1,
    "media:uri_template": "https://static.sfomuseum.org/media/152/784/448/5/1527844485_{secret}_{label}.{extension}",
    "millsfield:airline_id": [
      1159285415
    ],
    "millsfield:category_id": 1511214241,
    "millsfield:collection_id": 1511214207,
    "millsfield:company_id": [
      1159288779
    ],
    "millsfield:images_colors": [
      {
        "hex": "#9d9567",
        "name": "#9d9567",
        "reference": "marekm4"
      },
      {
        "hex": "#808080",
        "name": "grey",
        "reference": "css4"
      },
      {
        "hex": "#9f8170",
        "name": "Beaver",
        "reference": "crayola"
      },
      {
        "hex": "#c53119",
        "name": "#c53119",
        "reference": "marekm4"
      },
      {
        "hex": "#b22222",
        "name": "firebrick",
        "reference": "css4"
      },
      {
        "hex": "#c46210",
        "name": "Alloy Orange",
        "reference": "crayola"
      },
      {
        "hex": "#9c978a",
        "name": "#9c978a",
        "reference": "marekm4"
      },
      {
        "hex": "#bc8f8f",
        "name": "rosybrown",
        "reference": "css4"
      },
      {
        "hex": "#95918c",
        "name": "Gray",
        "reference": "crayola"
      },
      {
        "hex": "#5f5d57",
        "name": "#5f5d57",
        "reference": "marekm4"
      },
      {
        "hex": "#696969",
        "name": "dimgrey",
        "reference": "css4"
      },
      {
        "hex": "#6e5160",
        "name": "Eggplant",
        "reference": "crayola"
      }
    ],
    "millsfield:images_texts": [
      "SYSTEM MAP\nUNITED Air Lines\nTHE MAIN LINE AIRWAY-COAST TO COAST"
    ],
    "millsfield:images_texts_ids": [
      1527844485
    ],
    "millsfield:similar": {
      "apple/mobileclip_s0": [
        {
          "distance": 0.3091462,
          "id": 1527820337
        },
        {
          "distance": 0.65985674,
          "id": 1527851103
        },
        {
          "distance": 0.6622213,
          "id": 1527818663
        },
        {
          "distance": 0.6668791,
          "id": 1527840307
        },
        {
          "distance": 0.67750436,
          "id": 1527840309
        },
        {
          "distance": 0.6786388,
          "id": 1527850289
        },
        {
          "distance": 0.6800143,
          "id": 1527838205
        },
        {
          "distance": 0.6821235,
          "id": 1527851119
        },
        {
          "distance": 0.68519473,
          "id": 2015065185
        },
        {
          "distance": 0.68634427,
          "id": 1527844539
        }
      ],
      "apple/mobileclip_s1": [
        {
          "distance": 0.26838237,
          "id": 1527820337
        },
        {
          "distance": 0.46696332,
          "id": 1527830263
        },
        {
          "distance": 0.48340833,
          "id": 1763567005
        },
        {
          "distance": 0.48397955,
          "id": 1762898525
        },
        {
          "distance": 0.48397955,
          "id": 1762898527
        },
        {
          "distance": 0.4912691,
          "id": 1763566999
        },
        {
          "distance": 0.49697632,
          "id": 1527835301
        },
        {
          "distance": 0.5012996,
          "id": 1762715163
        },
        {
          "distance": 0.50273144,
          "id": 1527841113
        },
        {
          "distance": 0.50323176,
          "id": 1527851105
        }
      ],
      "apple/mobileclip_s2": [
        {
          "distance": 0.33997533,
          "id": 1527820337
        },
        {
          "distance": 0.6570478,
          "id": 1527844539
        },
        {
          "distance": 0.6689179,
          "id": 1762898525
        },
        {
          "distance": 0.6689179,
          "id": 1762898527
        },
        {
          "distance": 0.67843294,
          "id": 1527838383
        },
        {
          "distance": 0.67963284,
          "id": 1763249133
        },
        {
          "distance": 0.68115884,
          "id": 1762699331
        },
        {
          "distance": 0.6818234,
          "id": 1527858277
        },
        {
          "distance": 0.68405277,
          "id": 1527838207
        },
        {
          "distance": 0.68608445,
          "id": 1527820331
        }
      ]
    },
    "millsfield:subcategory_id": 1511213383,
    "mz:hierarchy_label": 1,
    "mz:is_current": -1,
    "sfomuseum:filename": "69159.tif",
    "sfomuseum:image_id": 69159,
    "sfomuseum:image_index": 5,
    "sfomuseum:image_type": "studio",
    "sfomuseum:object_id": 48798,
    "sfomuseum:placetype": "image",
    "sfomuseum:primary_image": 1,
    "src:geom": "sfomuseum",
    "wof:belongsto": [
      102191575,
      1511908991,
      85633793,
      136253057,
      1511214241,
      102527513,
      1511213383,
      85922583,
      102087579,
      1511214277,
      1511214203,
      85688637
    ],
    "wof:breaches": [],
    "wof:country": "US",
    "wof:created": 1578953204,
    "wof:depicts": [
      1511908991,
      1159285415,
      1159288779
    ],
    "wof:geomhash": "bd906905ce4be6c0651c90b0fc24804c",
    "wof:hierarchy": [
      {
        "continent_id": 102191575,
        "country_id": 85633793,
        "custom_id": 1527844485,
        "empire_id": 136253057,
        "image_id": 1527844485,
        "media_id": 1527844485,
        "venue_id": 1511908991
      },
      {
        "arcade_id": 1511213383,
        "building_id": 1511214277,
        "campus_id": 102527513,
        "concourse_id": 1511214241,
        "continent_id": 102191575,
        "country_id": 85633793,
        "county_id": 102087579,
        "custom_id": 1527844485,
        "image_id": 1527844485,
        "locality_id": 85922583,
        "media_id": 1527844485,
        "neighbourhood_id": -1,
        "region_id": 85688637,
        "venue_id": 1511908991,
        "wing_id": 1511214203
      }
    ],
    "wof:id": 1527844485,
    "wof:lastmodified": 1788450084,
    "wof:name": "route map: United Air Lines, system map",
    "wof:parent_id": 1511908991,
    "wof:placetype": "custom",
    "wof:placetype_alt": [
      "image"
    ],
    "wof:repo": "sfomuseum-data-media-collection",
    "wof:superseded_by": [],
    "wof:supersedes": [],
    "wof:tags": []
  },
  "bbox": [
    -122.386155,
    37.616358,
    -122.386155,
    37.616358
  ],
  "geometry": {"type":"Point","coordinates":[-122.386155,37.616358]}
}
