{
  "id": 1527852857,
  "type": "Feature",
  "properties": {
    "date:cessation_lower": "1930-01-01",
    "date:cessation_upper": "1930-12-31",
    "date:inception_lower": "1930-01-01",
    "date:inception_upper": "1930-12-31",
    "edtf:cessation": "1930~",
    "edtf:date": "1930~",
    "edtf:inception": "1930~",
    "geom:area": 0,
    "geom:bbox": "-122.386155,37.616358,-122.386155,37.616358",
    "geom:latitude": 37.616358,
    "geom:longitude": -122.386155,
    "iso:country": "XX",
    "media:fingerprint": "e63bb10281e9dbbad73aa9f39dcd40fb577cf415",
    "media:imagehash_avg": "a:ffffe781010101ff",
    "media:imagehash_diff": "d:5d4f4f3f3f337beb",
    "media:imagetext": "JOHN S. COX \u0026 SON\nAeronautical Supplies\nTERRE HAUTE, IND.\nAnnouncement\nWe take pleasure in presenting our first Aero-\nnautical Supply Catalogue.\nAll the items therein we attempt to carry in\nstock. Shipments are made to you the same day\nwe receive your order, if the article is in stock.\nWe contract for the entire output of a large\nnitrate solvents manufacturer, and your attention is\nespecially directed to our prices on dope.\nAll our merchandise is \"new production\" and\nwe stand behind each item of our aeronautical de-\npartment as we have in the automotive field for the\npast twenty-one years.\nYour satisfaction is assured and we solicit your\npatronage.\nJOHN S. COX \u0026 SON",
    "media:imagetext_created": 1787953467,
    "media:imagetext_source": "com.apple.visionkit.VNImageRequestHandler#Version 26.6.2 (Build 25G83)",
    "media:medium": "image",
    "media:mimetype": "image/tiff",
    "media:properties": {
      "sizes": {
        "b": {
          "extension": "jpg",
          "height": 768,
          "mimetype": "image/jpeg",
          "secret": "5amNOPYMo9Vtnbi8KUGDYuOXkjXfiSLM",
          "width": 519
        },
        "c": {
          "extension": "jpg",
          "height": 600,
          "mimetype": "image/jpeg",
          "secret": "5amNOPYMo9Vtnbi8KUGDYuOXkjXfiSLM",
          "width": 406
        },
        "dc": {
          "extension": "jpg",
          "height": 600,
          "mimetype": "image/jpeg",
          "secret": "5amNOPYMo9Vtnbi8KUGDYuOXkjXfiSLM",
          "width": 406
        },
        "ds": {
          "extension": "jpg",
          "height": 320,
          "mimetype": "image/jpeg",
          "secret": "5amNOPYMo9Vtnbi8KUGDYuOXkjXfiSLM",
          "width": 320
        },
        "k": {
          "extension": "jpg",
          "height": 1536,
          "mimetype": "image/jpeg",
          "secret": "5amNOPYMo9Vtnbi8KUGDYuOXkjXfiSLM",
          "width": 1039
        },
        "n": {
          "extension": "jpg",
          "height": 240,
          "mimetype": "image/jpeg",
          "secret": "5amNOPYMo9Vtnbi8KUGDYuOXkjXfiSLM",
          "width": 162
        },
        "o": {
          "extension": "jpg",
          "height": 2801,
          "mimetype": "image/jpeg",
          "secret": "wXqS5ZtRmfSaO2XzYDsInJiYRB0fmic3",
          "width": 1896
        },
        "s": {
          "extension": "jpg",
          "height": 320,
          "mimetype": "image/jpeg",
          "secret": "5amNOPYMo9Vtnbi8KUGDYuOXkjXfiSLM",
          "width": 320
        },
        "z": {
          "extension": "jpg",
          "height": 480,
          "mimetype": "image/jpeg",
          "secret": "5amNOPYMo9Vtnbi8KUGDYuOXkjXfiSLM",
          "width": 324
        }
      }
    },
    "media:source": "sfomuseum",
    "media:status_id": 1,
    "media:uri_template": "https://static.sfomuseum.org/media/152/785/285/7/1527852857_{secret}_{label}.{extension}",
    "millsfield:category_id": 1763416397,
    "millsfield:collection_id": 1511214207,
    "millsfield:images_colors": [
      {
        "hex": "#dccdb1",
        "name": "#dccdb1",
        "reference": "marekm4"
      },
      {
        "hex": "#f5deb3",
        "name": "wheat",
        "reference": "css4"
      },
      {
        "hex": "#efcdb8",
        "name": "Desert Sand",
        "reference": "crayola"
      },
      {
        "hex": "#423d38",
        "name": "#423d38",
        "reference": "marekm4"
      },
      {
        "hex": "#2f4f4f",
        "name": "darkslategrey",
        "reference": "css4"
      },
      {
        "hex": "#414a4c",
        "name": "Outer Space",
        "reference": "crayola"
      }
    ],
    "millsfield:images_texts": [
      "JOHNS COX \u0026 SON\nAeronautical Supplies\n222-224-226 South Seventh St.\nTerre Haute, Indiana-\nESTABLISHED 1908",
      "JOHN S. COX \u0026 SON\nAeronautical Supplies\nTERRE HAUTE, IND.\nAnnouncement\nWe take pleasure in presenting our first Aero-\nnautical Supply Catalogue.\nAll the items therein we attempt to carry in\nstock. Shipments are made to you the same day\nwe receive your order, if the article is in stock.\nWe contract for the entire output of a large\nnitrate solvents manufacturer, and your attention is\nespecially directed to our prices on dope.\nAll our merchandise is \"new production\" and\nwe stand behind each item of our aeronautical de-\npartment as we have in the automotive field for the\npast twenty-one years.\nYour satisfaction is assured and we solicit your\npatronage.\nJOHN S. COX \u0026 SON",
      "JOHN S. COX \u0026 SON\nAeronautical Supplies\nTERRE HAUTE, INDIANA\nWRITE NAME PLAINLY\neure Haute\nJOHNS.CoX \u0026 SON\nIndiana\nShip to.\nAddress\nDate\nVia Parcel Post\nQUANTITY\nExpress L\nFreight •\nITEM\nC.O.D. O\nDISTRIBUTORS OF\nFlightex\nHaskelite Plywood\nBG Spark Plugs\nLuxor Goggles\nCrystal Clear Dope\nResistal Goggles\nLee Whizits\nRussel Chutes\nConsolidated Instruments\nSupreme Propellors\nN.S. Bolts and Nuts\nPyle National Lights\nHanger Equipment\nBlack and Decker Drills\nAC Spark Plugs\nPRICE\nSigned.",
      "CRYSTAL\nCLEAR\nNITRATE\nDOPE\nExclusively for\nAIRCRAFT",
      "- FROM -\nRUSH ORDER\nJOHN S. COX \u0026 SON\n222-226 South 7th Street\nTERRE HAUTE, IND."
    ],
    "millsfield:images_texts_ids": [
      1527852855,
      1527852857,
      1527852859,
      1527852863,
      1527852865
    ],
    "millsfield:similar": {
      "apple/mobileclip_s0": [
        {
          "distance": 0.5090453,
          "id": 1762896247
        },
        {
          "distance": 0.5607686,
          "id": 1914556229
        },
        {
          "distance": 0.56427026,
          "id": 1762714175
        },
        {
          "distance": 0.5735149,
          "id": 1846755035
        },
        {
          "distance": 0.583552,
          "id": 1527820437
        },
        {
          "distance": 0.5853975,
          "id": 1527855223
        },
        {
          "distance": 0.58645624,
          "id": 1914622845
        },
        {
          "distance": 0.5866549,
          "id": 1763205145
        },
        {
          "distance": 0.5923432,
          "id": 1527828773
        },
        {
          "distance": 0.59377384,
          "id": 1931110103
        }
      ],
      "apple/mobileclip_s1": [
        {
          "distance": 0.46866795,
          "id": 1797194887
        },
        {
          "distance": 0.47757226,
          "id": 1846755013
        },
        {
          "distance": 0.48113942,
          "id": 1762714175
        },
        {
          "distance": 0.48533863,
          "id": 2014997689
        },
        {
          "distance": 0.4922032,
          "id": 1527829441
        },
        {
          "distance": 0.49267662,
          "id": 1762896175
        },
        {
          "distance": 0.49290675,
          "id": 1527855231
        },
        {
          "distance": 0.49476713,
          "id": 1527843391
        },
        {
          "distance": 0.49499294,
          "id": 1913799961
        },
        {
          "distance": 0.49502683,
          "id": 1527843131
        }
      ],
      "apple/mobileclip_s2": [
        {
          "distance": 0.7276563,
          "id": 1847486059
        },
        {
          "distance": 0.7326551,
          "id": 1762714175
        },
        {
          "distance": 0.7362106,
          "id": 1763249019
        },
        {
          "distance": 0.7372755,
          "id": 1846755013
        },
        {
          "distance": 0.73753834,
          "id": 1846755047
        },
        {
          "distance": 0.74387115,
          "id": 1762896175
        },
        {
          "distance": 0.74700767,
          "id": 1846755167
        },
        {
          "distance": 0.7471537,
          "id": 1763248963
        },
        {
          "distance": 0.74715525,
          "id": 2014997703
        },
        {
          "distance": 0.7526716,
          "id": 1527853381
        }
      ]
    },
    "millsfield:subcategory_id": 1511213635,
    "mz:hierarchy_label": 1,
    "mz:is_current": -1,
    "sfomuseum:filename": "87189.tif",
    "sfomuseum:image_id": 87189,
    "sfomuseum:image_index": 5,
    "sfomuseum:image_type": "studio",
    "sfomuseum:object_id": 106009,
    "sfomuseum:placetype": "image",
    "sfomuseum:primary_image": 0,
    "src:geom": "sfomuseum",
    "wof:belongsto": [
      85633793,
      1511941919,
      1511213635,
      102527513,
      1511214277,
      102191575,
      85922583,
      85688637,
      1511214205,
      102087579,
      1511214203
    ],
    "wof:breaches": [],
    "wof:country": "XX",
    "wof:created": 1578954574,
    "wof:depicts": [
      1511941919
    ],
    "wof:geomhash": "bd906905ce4be6c0651c90b0fc24804c",
    "wof:hierarchy": [
      {
        "arcade_id": 1511213635,
        "building_id": 1511214277,
        "campus_id": 102527513,
        "concourse_id": 1511214205,
        "continent_id": 102191575,
        "country_id": 85633793,
        "county_id": 102087579,
        "custom_id": 1527852857,
        "image_id": 1527852857,
        "locality_id": 85922583,
        "media_id": 1527852857,
        "neighbourhood_id": -1,
        "region_id": 85688637,
        "venue_id": 1511941919,
        "wing_id": 1511214203
      }
    ],
    "wof:id": 1527852857,
    "wof:lastmodified": 1788450208,
    "wof:name": "catalog: John S. Cox \u0026 Son, aeronautical supplies",
    "wof:parent_id": 1511941919,
    "wof:placetype": "custom",
    "wof:placetype_alt": [
      "image"
    ],
    "wof:repo": "sfomuseum-data-media-collection",
    "wof:superseded_by": [],
    "wof:supersedes": [],
    "wof:tags": []
  },
  "bbox": [
    -122.386155,
    37.616358,
    -122.386155,
    37.616358
  ],
  "geometry": {"type":"Point","coordinates":[-122.386155,37.616358]}
}
