{
  "id": 1762704785,
  "type": "Feature",
  "properties": {
    "date:cessation_lower": "1940-01-01",
    "date:cessation_upper": "1949-12-31",
    "date:inception_lower": "1940-01-01",
    "date:inception_upper": "1949-12-31",
    "edtf:cessation": "194X",
    "edtf:inception": "194X",
    "geom:area": 2.477324999997507e-7,
    "geom:bbox": "-122.386472,37.616105,-122.385834,37.616611",
    "geom:latitude": 37.61635756125121,
    "geom:longitude": -122.38615532866096,
    "media:fingerprint": "1252fefa1dfe403531297edb5e2f4f9854a20396",
    "media:imagehash_avg": "a:ff818181818181ff",
    "media:imagehash_diff": "d:1909192d370d6901",
    "media:imagetext": "DELTA RIR LINES",
    "media:imagetext_created": 1787956835,
    "media:imagetext_source": "com.apple.visionkit.VNImageRequestHandler#Version 26.6.2 (Build 25G83)",
    "media:mimetype": "image/tiff",
    "media:properties": {
      "sizes": {
        "b": {
          "extension": "jpg",
          "height": 652,
          "mimetype": "image/jpeg",
          "secret": "bHeYTWOv573O4rvgraUKtuGb5gefzMNE",
          "width": 1024
        },
        "c": {
          "extension": "jpg",
          "height": 509,
          "mimetype": "image/jpeg",
          "secret": "bHeYTWOv573O4rvgraUKtuGb5gefzMNE",
          "width": 800
        },
        "dc": {
          "extension": "jpg",
          "height": 509,
          "mimetype": "image/jpeg",
          "secret": "bHeYTWOv573O4rvgraUKtuGb5gefzMNE",
          "width": 800
        },
        "ds": {
          "extension": "jpg",
          "height": 320,
          "mimetype": "image/jpeg",
          "secret": "bHeYTWOv573O4rvgraUKtuGb5gefzMNE",
          "width": 320
        },
        "k": {
          "extension": "jpg",
          "height": 1304,
          "mimetype": "image/jpeg",
          "secret": "bHeYTWOv573O4rvgraUKtuGb5gefzMNE",
          "width": 2048
        },
        "n": {
          "extension": "jpg",
          "height": 203,
          "mimetype": "image/jpeg",
          "secret": "bHeYTWOv573O4rvgraUKtuGb5gefzMNE",
          "width": 320
        },
        "o": {
          "extension": "jpg",
          "height": 1081,
          "mimetype": "image/jpeg",
          "secret": "KVgX6ihjuVrU1V9OruP4gFa8GJzVroas",
          "width": 1697
        },
        "s": {
          "extension": "jpg",
          "height": 320,
          "mimetype": "image/jpeg",
          "secret": "bHeYTWOv573O4rvgraUKtuGb5gefzMNE",
          "width": 320
        },
        "z": {
          "extension": "jpg",
          "height": 407,
          "mimetype": "image/jpeg",
          "secret": "bHeYTWOv573O4rvgraUKtuGb5gefzMNE",
          "width": 640
        }
      }
    },
    "media:source": "sfomuseum",
    "media:status_id": 1,
    "media:uri_template": "https://static.sfomuseum.org/media/176/270/478/5/1762704785_{secret}_{label}.{extension}",
    "millsfield:airline_id": [
      1159284261
    ],
    "millsfield:category_id": 1511214215,
    "millsfield:collection_id": 1511214207,
    "millsfield:company_id": [
      1159287931
    ],
    "millsfield:images_colors": [
      {
        "hex": "#32383b",
        "name": "#32383b",
        "reference": "marekm4"
      },
      {
        "hex": "#2f4f4f",
        "name": "darkslategrey",
        "reference": "css4"
      },
      {
        "hex": "#414a4c",
        "name": "Outer Space",
        "reference": "crayola"
      },
      {
        "hex": "#eeeeec",
        "name": "#eeeeec",
        "reference": "marekm4"
      },
      {
        "hex": "#f5f5f5",
        "name": "whitesmoke",
        "reference": "css4"
      },
      {
        "hex": "#fddde6",
        "name": "Piggy Pink",
        "reference": "crayola"
      }
    ],
    "millsfield:images_texts": [
      "DELTA RIR LINES",
      "Cruising at 215 miles per hour, this 4-engine\nSkymaster speeds 44 passengers along\nroutes.\nThe military version 456\nsah\nworld-wide service: was chosen bx Ragseet.\nUNITED\nSTATES\nPOSTAGE\nPOSTICARER FUTU\nWISELY\nSA\nU.S. SAVINGS BE\nCENT\n410 7- Hedeal\n260"
    ],
    "millsfield:images_texts_ids": [
      1762704785,
      1762704787
    ],
    "millsfield:similar": {
      "apple/mobileclip_s0": [
        {
          "distance": 0.54598016,
          "id": 1762707349
        },
        {
          "distance": 0.5497581,
          "id": 1729566523
        },
        {
          "distance": 0.54985523,
          "id": 1762707209
        },
        {
          "distance": 0.5516894,
          "id": 1762708873
        },
        {
          "distance": 0.55229604,
          "id": 1762707653
        },
        {
          "distance": 0.5539357,
          "id": 1729565453
        },
        {
          "distance": 0.5545207,
          "id": 1729565735
        },
        {
          "distance": 0.5546312,
          "id": 1762705727
        },
        {
          "distance": 0.55773693,
          "id": 1762708249
        },
        {
          "distance": 0.5596803,
          "id": 1762704969
        }
      ],
      "apple/mobileclip_s1": [
        {
          "distance": 0.34087062,
          "id": 1762706293
        },
        {
          "distance": 0.3428922,
          "id": 1729565745
        },
        {
          "distance": 0.3536114,
          "id": 2014998225
        },
        {
          "distance": 0.3551038,
          "id": 1897416845
        },
        {
          "distance": 0.35569432,
          "id": 1762704973
        },
        {
          "distance": 0.35744938,
          "id": 1762705073
        },
        {
          "distance": 0.35789728,
          "id": 1762709083
        },
        {
          "distance": 0.35863027,
          "id": 1762706677
        },
        {
          "distance": 0.36017367,
          "id": 1762708985
        },
        {
          "distance": 0.3640793,
          "id": 1762703687
        }
      ],
      "apple/mobileclip_s2": [
        {
          "distance": 0.46189266,
          "id": 1897416845
        },
        {
          "distance": 0.47155058,
          "id": 1762703861
        },
        {
          "distance": 0.47875935,
          "id": 1762703789
        },
        {
          "distance": 0.4988796,
          "id": 1729565745
        },
        {
          "distance": 0.5117804,
          "id": 1762702651
        },
        {
          "distance": 0.5120174,
          "id": 1762707639
        },
        {
          "distance": 0.5157531,
          "id": 1762703011
        },
        {
          "distance": 0.51834553,
          "id": 2014998225
        },
        {
          "distance": 0.5206226,
          "id": 1762703039
        },
        {
          "distance": 0.5206357,
          "id": 1762706293
        }
      ]
    },
    "millsfield:subcategory_id": 1511213363,
    "mz:is_current": 1,
    "sfomuseum:filename": "2015.166.0600_ft.tif",
    "sfomuseum:image_id": 153354,
    "sfomuseum:image_index": 5,
    "sfomuseum:image_type": "studio",
    "sfomuseum:object_id": 180217,
    "sfomuseum:placetype": "image",
    "sfomuseum:primary_image": 1,
    "src:geom": "sfomuseum",
    "wof:belongsto": [
      102527513,
      1159162825,
      102191575,
      85633793,
      102087579,
      85922583,
      1762688933,
      85688637,
      1159160869
    ],
    "wof:country": "XY",
    "wof:created": 1641348031,
    "wof:depicts": [
      1159284261,
      1159287931,
      1762688933
    ],
    "wof:geomhash": "ed7c2ab3547fc3916b5edc33488deaa7",
    "wof:hierarchy": [
      {
        "building_id": -1,
        "campus_id": 102527513,
        "collection_id": 1159162825,
        "concourse_id": 1159162825,
        "continent_id": 102191575,
        "country_id": 85633793,
        "county_id": 102087579,
        "custom_id": 1762704785,
        "image_id": 1762704785,
        "locality_id": 85922583,
        "neighbourhood_id": -1,
        "object_id": 1762688933,
        "region_id": 85688637,
        "wing_id": 1159160869
      }
    ],
    "wof:id": 1762704785,
    "wof:lastmodified": 1788450523,
    "wof:name": "postcard: Delta Air Lines",
    "wof:parent_id": 1762688933,
    "wof:placetype": "custom",
    "wof:placetype_alt": [
      "image"
    ],
    "wof:repo": "sfomuseum-data-media-collection",
    "wof:superseded_by": [],
    "wof:supersedes": []
  },
  "bbox": [
    -122.386472,
    37.616105,
    -122.385834,
    37.616611
  ],
  "geometry": {"type":"Polygon","coordinates":[[[-122.386472,37.616318],[-122.386435,37.616233],[-122.386376,37.616178],[-122.386301,37.616131],[-122.386161,37.616105],[-122.386022,37.616131],[-122.385914,37.616186],[-122.385855,37.616267],[-122.385834,37.616369],[-122.385871,37.616467],[-122.385941,37.616543],[-122.386054,37.616603],[-122.386183,37.616611],[-122.386306,37.616573],[-122.386419,37.616509],[-122.386467,37.616411],[-122.386472,37.616318]]]}
}
