{
  "id": 1796335931,
  "type": "Feature",
  "properties": {
    "date:cessation_lower": "1970-01-01",
    "date:cessation_upper": "1979-12-31",
    "date:inception_lower": "1970-01-01",
    "date:inception_upper": "1979-12-31",
    "edtf:cessation": "197X",
    "edtf:inception": "197X",
    "geom:area": 2.477324999997507e-7,
    "geom:bbox": "-122.386472,37.616105,-122.385834,37.616611",
    "geom:latitude": 37.61635756125121,
    "geom:longitude": -122.38615532866096,
    "media:fingerprint": "d03938f6078b7f9e147f11d098d83926897ebcd2",
    "media:imagehash_avg": "a:ffefc3c381c3c3f7",
    "media:imagehash_diff": "d:b88e9f2b0f0f0e0e",
    "media:mimetype": "image/tiff",
    "media:properties": {
      "sizes": {
        "b": {
          "extension": "jpg",
          "height": 768,
          "mimetype": "image/jpeg",
          "secret": "Z4rsbGlnitDs7fVH6j9qvBniK3YIo2hK",
          "width": 965
        },
        "c": {
          "extension": "jpg",
          "height": 600,
          "mimetype": "image/jpeg",
          "secret": "Z4rsbGlnitDs7fVH6j9qvBniK3YIo2hK",
          "width": 754
        },
        "dc": {
          "extension": "jpg",
          "height": 600,
          "mimetype": "image/jpeg",
          "secret": "Z4rsbGlnitDs7fVH6j9qvBniK3YIo2hK",
          "width": 754
        },
        "ds": {
          "extension": "jpg",
          "height": 320,
          "mimetype": "image/jpeg",
          "secret": "Z4rsbGlnitDs7fVH6j9qvBniK3YIo2hK",
          "width": 320
        },
        "k": {
          "extension": "jpg",
          "height": 1536,
          "mimetype": "image/jpeg",
          "secret": "Z4rsbGlnitDs7fVH6j9qvBniK3YIo2hK",
          "width": 1931
        },
        "n": {
          "extension": "jpg",
          "height": 240,
          "mimetype": "image/jpeg",
          "secret": "Z4rsbGlnitDs7fVH6j9qvBniK3YIo2hK",
          "width": 301
        },
        "o": {
          "extension": "jpg",
          "height": 1667,
          "mimetype": "image/jpeg",
          "secret": "eigIh4mog6uNFBgqoLw7xICezC9hFJLu",
          "width": 2096
        },
        "s": {
          "extension": "jpg",
          "height": 320,
          "mimetype": "image/jpeg",
          "secret": "Z4rsbGlnitDs7fVH6j9qvBniK3YIo2hK",
          "width": 320
        },
        "z": {
          "extension": "jpg",
          "height": 480,
          "mimetype": "image/jpeg",
          "secret": "Z4rsbGlnitDs7fVH6j9qvBniK3YIo2hK",
          "width": 603
        }
      }
    },
    "media:source": "sfomuseum",
    "media:status_id": 1,
    "media:uri_template": "https://static.sfomuseum.org/media/179/633/593/1/1796335931_{secret}_{label}.{extension}",
    "millsfield:airline_id": [
      1159283793
    ],
    "millsfield:category_id": 1511214225,
    "millsfield:collection_id": 1511214203,
    "millsfield:company_id": [
      1159286809
    ],
    "millsfield:images_colors": [
      {
        "hex": "#aeaca8",
        "name": "#aeaca8",
        "reference": "marekm4"
      },
      {
        "hex": "#a9a9a9",
        "name": "darkgrey",
        "reference": "css4"
      },
      {
        "hex": "#979aaa",
        "name": "Manatee",
        "reference": "crayola"
      },
      {
        "hex": "#9a6b2a",
        "name": "#9a6b2a",
        "reference": "marekm4"
      },
      {
        "hex": "#a0522d",
        "name": "sienna",
        "reference": "css4"
      },
      {
        "hex": "#9c7c38",
        "name": "Metallic Sunburst",
        "reference": "crayola"
      },
      {
        "hex": "#ce9c4f",
        "name": "#ce9c4f",
        "reference": "marekm4"
      },
      {
        "hex": "#cd853f",
        "name": "peru",
        "reference": "css4"
      },
      {
        "hex": "#d68a59",
        "name": "Raw Sienna",
        "reference": "crayola"
      },
      {
        "hex": "#64481b",
        "name": "#64481b",
        "reference": "marekm4"
      },
      {
        "hex": "#8b4513",
        "name": "saddlebrown",
        "reference": "css4"
      },
      {
        "hex": "#714b23",
        "name": "Raw Umber",
        "reference": "crayola"
      }
    ],
    "millsfield:similar": {
      "apple/mobileclip_s0": [
        {
          "distance": 0.55523443,
          "id": 2048163433
        },
        {
          "distance": 0.5867754,
          "id": 1881026803
        },
        {
          "distance": 0.598029,
          "id": 1762973567
        },
        {
          "distance": 0.6114469,
          "id": 1897762459
        },
        {
          "distance": 0.6117587,
          "id": 1896966221
        },
        {
          "distance": 0.61779743,
          "id": 2048163475
        },
        {
          "distance": 0.62529516,
          "id": 2048163439
        },
        {
          "distance": 0.6285458,
          "id": 1881026799
        },
        {
          "distance": 0.631889,
          "id": 2048163423
        },
        {
          "distance": 0.6355049,
          "id": 1881026835
        }
      ],
      "apple/mobileclip_s1": [
        {
          "distance": 0.4480495,
          "id": 1780304159
        },
        {
          "distance": 0.45271096,
          "id": 2048163475
        },
        {
          "distance": 0.4560939,
          "id": 1780333199
        },
        {
          "distance": 0.45984364,
          "id": 1762973567
        },
        {
          "distance": 0.46353453,
          "id": 1780333267
        },
        {
          "distance": 0.46800166,
          "id": 2048163439
        },
        {
          "distance": 0.46934304,
          "id": 1780332915
        },
        {
          "distance": 0.46980006,
          "id": 1780332909
        },
        {
          "distance": 0.47140262,
          "id": 1780333193
        },
        {
          "distance": 0.472627,
          "id": 2048163431
        }
      ],
      "apple/mobileclip_s2": [
        {
          "distance": 0.61849177,
          "id": 2048163433
        },
        {
          "distance": 0.6317637,
          "id": 1780333193
        },
        {
          "distance": 0.6690645,
          "id": 1780304159
        },
        {
          "distance": 0.6691859,
          "id": 1780333201
        },
        {
          "distance": 0.6707249,
          "id": 1780333199
        },
        {
          "distance": 0.6756944,
          "id": 2048163521
        },
        {
          "distance": 0.6773229,
          "id": 2048163455
        },
        {
          "distance": 0.6814575,
          "id": 1780304161
        },
        {
          "distance": 0.6835748,
          "id": 1763372949
        },
        {
          "distance": 0.6850071,
          "id": 2048163787
        }
      ]
    },
    "millsfield:subcategory_id": 1511213739,
    "mz:is_current": 1,
    "sfomuseum:filename": "2016.023.002.tif",
    "sfomuseum:image_id": 182875,
    "sfomuseum:image_index": 5,
    "sfomuseum:image_type": "studio",
    "sfomuseum:object_id": 174550,
    "sfomuseum:placetype": "image",
    "sfomuseum:primary_image": 1,
    "src:geom": "sfomuseum",
    "wof:belongsto": [
      102527513,
      1159162825,
      102191575,
      85633793,
      102087579,
      85922583,
      1796335817,
      85688637,
      1159160869
    ],
    "wof:country": "XY",
    "wof:created": 1663921297,
    "wof:depicts": [
      1159283793,
      1159286809,
      1796335817
    ],
    "wof:geomhash": "ed7c2ab3547fc3916b5edc33488deaa7",
    "wof:hierarchy": [
      {
        "building_id": -1,
        "campus_id": 102527513,
        "collection_id": 1159162825,
        "concourse_id": 1159162825,
        "continent_id": 102191575,
        "country_id": 85633793,
        "county_id": 102087579,
        "custom_id": 1796335931,
        "image_id": 1796335931,
        "locality_id": 85922583,
        "neighbourhood_id": -1,
        "object_id": 1796335817,
        "region_id": 85688637,
        "wing_id": 1159160869
      }
    ],
    "wof:id": 1796335931,
    "wof:lastmodified": 1788451495,
    "wof:name": "flight attendant pin: Air California",
    "wof:parent_id": 1796335817,
    "wof:placetype": "custom",
    "wof:placetype_alt": [
      "image"
    ],
    "wof:repo": "sfomuseum-data-media-collection",
    "wof:superseded_by": [],
    "wof:supersedes": []
  },
  "bbox": [
    -122.386472,
    37.616105,
    -122.385834,
    37.616611
  ],
  "geometry": {"type":"Polygon","coordinates":[[[-122.386472,37.616318],[-122.386435,37.616233],[-122.386376,37.616178],[-122.386301,37.616131],[-122.386161,37.616105],[-122.386022,37.616131],[-122.385914,37.616186],[-122.385855,37.616267],[-122.385834,37.616369],[-122.385871,37.616467],[-122.385941,37.616543],[-122.386054,37.616603],[-122.386183,37.616611],[-122.386306,37.616573],[-122.386419,37.616509],[-122.386467,37.616411],[-122.386472,37.616318]]]}
}
