{
  "id": 1880320273,
  "type": "Feature",
  "properties": {
    "date:cessation_lower": "1998-01-01",
    "date:cessation_upper": "1998-12-31",
    "date:inception_lower": "1998-01-01",
    "date:inception_upper": "1998-12-31",
    "edtf:cessation": "1998",
    "edtf:inception": "1998",
    "geom:area": 2.477324999997507e-7,
    "geom:bbox": "-122.386472,37.616105,-122.385834,37.616611",
    "geom:latitude": 37.61635756125121,
    "geom:longitude": -122.38615532866096,
    "media:fingerprint": "a1b04d7adebfa559351c6864a0245e6e5d01218b",
    "media:imagehash_avg": "a:ffffffc38101f9ff",
    "media:imagehash_diff": "d:f8f8cf0f1f7bf3f2",
    "media:imagetext": "",
    "media:mimetype": "image/tiff",
    "media:properties": {
      "sizes": {
        "b": {
          "extension": "jpg",
          "height": 768,
          "mimetype": "image/jpeg",
          "secret": "SL1hpCOcB294YaZNqAD4hqQbE0ugIbW9",
          "width": 965
        },
        "c": {
          "extension": "jpg",
          "height": 600,
          "mimetype": "image/jpeg",
          "secret": "SL1hpCOcB294YaZNqAD4hqQbE0ugIbW9",
          "width": 754
        },
        "dc": {
          "extension": "jpg",
          "height": 600,
          "mimetype": "image/jpeg",
          "secret": "SL1hpCOcB294YaZNqAD4hqQbE0ugIbW9",
          "width": 754
        },
        "ds": {
          "extension": "jpg",
          "height": 320,
          "mimetype": "image/jpeg",
          "secret": "SL1hpCOcB294YaZNqAD4hqQbE0ugIbW9",
          "width": 320
        },
        "k": {
          "extension": "jpg",
          "height": 1536,
          "mimetype": "image/jpeg",
          "secret": "SL1hpCOcB294YaZNqAD4hqQbE0ugIbW9",
          "width": 1931
        },
        "n": {
          "extension": "jpg",
          "height": 240,
          "mimetype": "image/jpeg",
          "secret": "SL1hpCOcB294YaZNqAD4hqQbE0ugIbW9",
          "width": 301
        },
        "o": {
          "extension": "jpg",
          "height": 1667,
          "mimetype": "image/jpeg",
          "secret": "leC3Y71VBjmkoyE9vfk8pBzEvSw7wK8R",
          "width": 2096
        },
        "s": {
          "extension": "jpg",
          "height": 320,
          "mimetype": "image/jpeg",
          "secret": "SL1hpCOcB294YaZNqAD4hqQbE0ugIbW9",
          "width": 320
        },
        "z": {
          "extension": "jpg",
          "height": 480,
          "mimetype": "image/jpeg",
          "secret": "SL1hpCOcB294YaZNqAD4hqQbE0ugIbW9",
          "width": 603
        }
      }
    },
    "media:source": "sfomuseum",
    "media:status_id": 1,
    "media:uri_template": "https://static.sfomuseum.org/media/188/032/027/3/1880320273_{secret}_{label}.{extension}",
    "millsfield:category_id": 1511214235,
    "millsfield:collection_id": 1511214203,
    "millsfield:exhibition_ids": [
      1159160581,
      1159160707
    ],
    "millsfield:images_colors": [
      {
        "hex": "#bab9b7",
        "name": "#bab9b7",
        "reference": "marekm4"
      },
      {
        "hex": "#c0c0c0",
        "name": "silver",
        "reference": "css4"
      },
      {
        "hex": "#b0b7c6",
        "name": "Cadet Blue",
        "reference": "crayola"
      },
      {
        "hex": "#585249",
        "name": "#585249",
        "reference": "marekm4"
      },
      {
        "hex": "#556b2f",
        "name": "darkolivegreen",
        "reference": "css4"
      },
      {
        "hex": "#414a4c",
        "name": "Outer Space",
        "reference": "crayola"
      },
      {
        "hex": "#938a76",
        "name": "#938a76",
        "reference": "marekm4"
      },
      {
        "hex": "#808080",
        "name": "grey",
        "reference": "css4"
      },
      {
        "hex": "#9f8170",
        "name": "Beaver",
        "reference": "crayola"
      }
    ],
    "millsfield:images_texts": [
      "У98+88",
      "282 ARA"
    ],
    "millsfield:images_texts_ids": [
      1880320267,
      1880320269
    ],
    "millsfield:on_view": 0,
    "millsfield:similar": {
      "apple/mobileclip_s0": [
        {
          "distance": 0.23510356,
          "id": 1880320271
        },
        {
          "distance": 0.34306875,
          "id": 1880319707
        },
        {
          "distance": 0.35342753,
          "id": 1880321379
        },
        {
          "distance": 0.3672283,
          "id": 1880321675
        },
        {
          "distance": 0.36753628,
          "id": 1880320287
        },
        {
          "distance": 0.37257504,
          "id": 1914301133
        },
        {
          "distance": 0.381799,
          "id": 1880321673
        },
        {
          "distance": 0.3826069,
          "id": 1880320431
        },
        {
          "distance": 0.39111286,
          "id": 1880321375
        },
        {
          "distance": 0.39373496,
          "id": 1880320289
        }
      ],
      "apple/mobileclip_s1": [
        {
          "distance": 0.14195496,
          "id": 1880320271
        },
        {
          "distance": 0.22483687,
          "id": 1880320431
        },
        {
          "distance": 0.22905621,
          "id": 1880320289
        },
        {
          "distance": 0.23021863,
          "id": 1880320291
        },
        {
          "distance": 0.23146483,
          "id": 1880321673
        },
        {
          "distance": 0.23629706,
          "id": 1880320269
        },
        {
          "distance": 0.23910628,
          "id": 1880319707
        },
        {
          "distance": 0.24046975,
          "id": 1880321321
        },
        {
          "distance": 0.24473408,
          "id": 1880320285
        },
        {
          "distance": 0.24504846,
          "id": 1914301137
        }
      ],
      "apple/mobileclip_s2": [
        {
          "distance": 0.26283526,
          "id": 1880320271
        },
        {
          "distance": 0.31594196,
          "id": 1880320269
        },
        {
          "distance": 0.34187967,
          "id": 1880320289
        },
        {
          "distance": 0.35262966,
          "id": 1880320267
        },
        {
          "distance": 0.35412306,
          "id": 1914301137
        },
        {
          "distance": 0.35590264,
          "id": 1880320291
        },
        {
          "distance": 0.36099404,
          "id": 1880319709
        },
        {
          "distance": 0.36528975,
          "id": 1914301139
        },
        {
          "distance": 0.36775616,
          "id": 1880321379
        },
        {
          "distance": 0.36790568,
          "id": 1880319705
        }
      ]
    },
    "millsfield:subcategory_id": 1511213161,
    "mz:is_current": 1,
    "sfomuseum:filename": "2014.153.013_04.tif",
    "sfomuseum:image_id": 167541,
    "sfomuseum:image_index": 5,
    "sfomuseum:image_type": "studio",
    "sfomuseum:object_id": 162669,
    "sfomuseum:placetype": "image",
    "sfomuseum:primary_image": 0,
    "src:geom": "sfomuseum",
    "wof:belongsto": [
      102527513,
      1159162825,
      102191575,
      85633793,
      102087579,
      85922583,
      1880318713,
      85688637,
      1159160869
    ],
    "wof:country": "XY",
    "wof:created": 1694022956,
    "wof:depicts": [
      1880318713
    ],
    "wof:geomhash": "ed7c2ab3547fc3916b5edc33488deaa7",
    "wof:hierarchy": [
      {
        "building_id": -1,
        "campus_id": 102527513,
        "collection_id": 1159162825,
        "concourse_id": 1159162825,
        "continent_id": 102191575,
        "country_id": 85633793,
        "county_id": 102087579,
        "custom_id": 1880320273,
        "image_id": 1880320273,
        "locality_id": 85922583,
        "neighbourhood_id": -1,
        "object_id": 1880318713,
        "region_id": 85688637,
        "wing_id": 1159160869
      }
    ],
    "wof:id": 1880320273,
    "wof:lastmodified": 1788451800,
    "wof:name": "model airplane: Wright Model EX Vin Fiz",
    "wof:parent_id": 1880318713,
    "wof:placetype": "custom",
    "wof:placetype_alt": [
      "image"
    ],
    "wof:repo": "sfomuseum-data-media-collection",
    "wof:superseded_by": [],
    "wof:supersedes": []
  },
  "bbox": [
    -122.386472,
    37.616105,
    -122.385834,
    37.616611
  ],
  "geometry": {"type":"Polygon","coordinates":[[[-122.386472,37.616318],[-122.386435,37.616233],[-122.386376,37.616178],[-122.386301,37.616131],[-122.386161,37.616105],[-122.386022,37.616131],[-122.385914,37.616186],[-122.385855,37.616267],[-122.385834,37.616369],[-122.385871,37.616467],[-122.385941,37.616543],[-122.386054,37.616603],[-122.386183,37.616611],[-122.386306,37.616573],[-122.386419,37.616509],[-122.386467,37.616411],[-122.386472,37.616318]]]}
}
