{
  "id": 1880319417,
  "type": "Feature",
  "properties": {
    "date:cessation_lower": "1985-01-01",
    "date:cessation_upper": "1985-12-31",
    "date:inception_lower": "1985-01-01",
    "date:inception_upper": "1985-12-31",
    "edtf:cessation": "1985",
    "edtf:inception": "1985",
    "geom:area": 2.477324999997507e-7,
    "geom:bbox": "-122.386472,37.616105,-122.385834,37.616611",
    "geom:latitude": 37.61635756125121,
    "geom:longitude": -122.38615532866096,
    "media:fingerprint": "89e06b5c817d99e23de4e866bcff60536227d4a1",
    "media:imagehash_avg": "a:7ffffdc181c3ffff",
    "media:imagehash_diff": "d:f070931b0f070300",
    "media:imagetext": "Canadien Partner\n106\nOperated by:\nOntario Express\nC-GJPX I+I",
    "media:imagetext_created": 1787968550,
    "media:imagetext_source": "com.apple.visionkit.VNImageRequestHandler#Version 26.6.2 (Build 25G83)",
    "media:mimetype": "image/tiff",
    "media:properties": {
      "sizes": {
        "b": {
          "extension": "jpg",
          "height": 768,
          "mimetype": "image/jpeg",
          "secret": "wr2kn7AvFGokCuLe4aoiKfqtB6P5Q760",
          "width": 965
        },
        "c": {
          "extension": "jpg",
          "height": 600,
          "mimetype": "image/jpeg",
          "secret": "wr2kn7AvFGokCuLe4aoiKfqtB6P5Q760",
          "width": 754
        },
        "dc": {
          "extension": "jpg",
          "height": 600,
          "mimetype": "image/jpeg",
          "secret": "wr2kn7AvFGokCuLe4aoiKfqtB6P5Q760",
          "width": 754
        },
        "ds": {
          "extension": "jpg",
          "height": 320,
          "mimetype": "image/jpeg",
          "secret": "wr2kn7AvFGokCuLe4aoiKfqtB6P5Q760",
          "width": 320
        },
        "k": {
          "extension": "jpg",
          "height": 1536,
          "mimetype": "image/jpeg",
          "secret": "wr2kn7AvFGokCuLe4aoiKfqtB6P5Q760",
          "width": 1931
        },
        "n": {
          "extension": "jpg",
          "height": 240,
          "mimetype": "image/jpeg",
          "secret": "wr2kn7AvFGokCuLe4aoiKfqtB6P5Q760",
          "width": 301
        },
        "o": {
          "extension": "jpg",
          "height": 1667,
          "mimetype": "image/jpeg",
          "secret": "xJ3yiqH1ItkqZPHPiIzl8MBiThnTxW8q",
          "width": 2096
        },
        "s": {
          "extension": "jpg",
          "height": 320,
          "mimetype": "image/jpeg",
          "secret": "wr2kn7AvFGokCuLe4aoiKfqtB6P5Q760",
          "width": 320
        },
        "z": {
          "extension": "jpg",
          "height": 480,
          "mimetype": "image/jpeg",
          "secret": "wr2kn7AvFGokCuLe4aoiKfqtB6P5Q760",
          "width": 603
        }
      }
    },
    "media:source": "sfomuseum",
    "media:status_id": 1,
    "media:uri_template": "https://static.sfomuseum.org/media/188/031/941/7/1880319417_{secret}_{label}.{extension}",
    "millsfield:aircraft_id": [
      1159292721
    ],
    "millsfield:airline_id": [
      1159286035
    ],
    "millsfield:category_id": 1511214235,
    "millsfield:collection_id": 1511214203,
    "millsfield:company_id": [
      1159293749
    ],
    "millsfield:exhibition_ids": [
      1159160707
    ],
    "millsfield:has_coloring_book": 1,
    "millsfield:images_colors": [
      {
        "hex": "#b0b0b1",
        "name": "#b0b0b1",
        "reference": "marekm4"
      },
      {
        "hex": "#a9a9a9",
        "name": "darkgrey",
        "reference": "css4"
      },
      {
        "hex": "#b0b7c6",
        "name": "Cadet Blue",
        "reference": "crayola"
      },
      {
        "hex": "#45474f",
        "name": "#45474f",
        "reference": "marekm4"
      },
      {
        "hex": "#2f4f4f",
        "name": "darkslategrey",
        "reference": "css4"
      },
      {
        "hex": "#414a4c",
        "name": "Outer Space",
        "reference": "crayola"
      }
    ],
    "millsfield:images_texts": [
      "Canadi\u003cn Partner\nOntario Expres\nC-GPY MI\n106",
      "106\nChario Expres\nCanadi »n\nPartner",
      "106\nOperated by:\nOntario Express\nC-GJPX 1+I\nCanadian\nPartner",
      "Canadien Partner\n106\nOperated by:\nOntario Express\nC-GJPX I+I"
    ],
    "millsfield:images_texts_ids": [
      1880319409,
      1880319413,
      1880319415,
      1880319417
    ],
    "millsfield:on_view": 0,
    "millsfield:similar": {
      "apple/mobileclip_s0": [
        {
          "distance": 0.19865313,
          "id": 1880319415
        },
        {
          "distance": 0.3781487,
          "id": 1880319409
        },
        {
          "distance": 0.39234006,
          "id": 1880319413
        },
        {
          "distance": 0.40202904,
          "id": 1763145407
        },
        {
          "distance": 0.4467975,
          "id": 1763145411
        },
        {
          "distance": 0.44957778,
          "id": 1880273609
        },
        {
          "distance": 0.45338115,
          "id": 1880273607
        },
        {
          "distance": 0.45749775,
          "id": 1880319487
        },
        {
          "distance": 0.45834032,
          "id": 1880319485
        },
        {
          "distance": 0.45907703,
          "id": 1880319295
        }
      ],
      "apple/mobileclip_s1": [
        {
          "distance": 0.18366599,
          "id": 1880319415
        },
        {
          "distance": 0.27364218,
          "id": 1880319413
        },
        {
          "distance": 0.27747414,
          "id": 1763145407
        },
        {
          "distance": 0.3022646,
          "id": 1763145411
        },
        {
          "distance": 0.3218356,
          "id": 1880319325
        },
        {
          "distance": 0.3275964,
          "id": 1880319409
        },
        {
          "distance": 0.33108878,
          "id": 1880319323
        },
        {
          "distance": 0.34527275,
          "id": 1880319935
        },
        {
          "distance": 0.35601646,
          "id": 1880321609
        },
        {
          "distance": 0.36119798,
          "id": 1964047791
        }
      ],
      "apple/mobileclip_s2": [
        {
          "distance": 0.21701564,
          "id": 1880319415
        },
        {
          "distance": 0.31874722,
          "id": 1880319413
        },
        {
          "distance": 0.3727293,
          "id": 1880319409
        },
        {
          "distance": 0.45976368,
          "id": 1763145407
        },
        {
          "distance": 0.47062787,
          "id": 1763145411
        },
        {
          "distance": 0.4706754,
          "id": 1880273635
        },
        {
          "distance": 0.48777023,
          "id": 1880320219
        },
        {
          "distance": 0.4905159,
          "id": 1880319323
        },
        {
          "distance": 0.49402156,
          "id": 1880319325
        },
        {
          "distance": 0.49458048,
          "id": 1880321491
        }
      ]
    },
    "millsfield:subcategory_id": 1511213161,
    "mz:is_current": 1,
    "sfomuseum:filename": "2014.145.061_04.tif",
    "sfomuseum:image_id": 166991,
    "sfomuseum:image_index": 5,
    "sfomuseum:image_type": "studio",
    "sfomuseum:object_id": 161653,
    "sfomuseum:placetype": "image",
    "sfomuseum:primary_image": 0,
    "src:geom": "sfomuseum",
    "wof:belongsto": [
      102527513,
      1159162825,
      102191575,
      85633793,
      102087579,
      85922583,
      1880318931,
      85688637,
      1159160869
    ],
    "wof:country": "XY",
    "wof:created": 1694022776,
    "wof:depicts": [
      1880318931,
      1159292721,
      1159293749,
      1159286035,
      1159286675
    ],
    "wof:geomhash": "ed7c2ab3547fc3916b5edc33488deaa7",
    "wof:hierarchy": [
      {
        "building_id": -1,
        "campus_id": 102527513,
        "collection_id": 1159162825,
        "concourse_id": 1159162825,
        "continent_id": 102191575,
        "country_id": 85633793,
        "county_id": 102087579,
        "custom_id": 1880319417,
        "image_id": 1880319417,
        "locality_id": 85922583,
        "neighbourhood_id": -1,
        "object_id": 1880318931,
        "region_id": 85688637,
        "wing_id": 1159160869
      }
    ],
    "wof:id": 1880319417,
    "wof:lastmodified": 1788451785,
    "wof:name": "model airplane: Ontario Express, BAe Jetstream 31",
    "wof:parent_id": 1880318931,
    "wof:placetype": "custom",
    "wof:placetype_alt": [
      "image"
    ],
    "wof:repo": "sfomuseum-data-media-collection",
    "wof:superseded_by": [],
    "wof:supersedes": []
  },
  "bbox": [
    -122.386472,
    37.616105,
    -122.385834,
    37.616611
  ],
  "geometry": {"type":"Polygon","coordinates":[[[-122.386472,37.616318],[-122.386435,37.616233],[-122.386376,37.616178],[-122.386301,37.616131],[-122.386161,37.616105],[-122.386022,37.616131],[-122.385914,37.616186],[-122.385855,37.616267],[-122.385834,37.616369],[-122.385871,37.616467],[-122.385941,37.616543],[-122.386054,37.616603],[-122.386183,37.616611],[-122.386306,37.616573],[-122.386419,37.616509],[-122.386467,37.616411],[-122.386472,37.616318]]]}
}
