{
  "id": 1527828873,
  "type": "Feature",
  "properties": {
    "date:cessation_lower": "1935-11-22",
    "date:cessation_upper": "1935-11-22",
    "date:inception_lower": "1935-11-22",
    "date:inception_upper": "1935-11-22",
    "edtf:cessation": "1935-11-22",
    "edtf:date": "1935-11-22",
    "edtf:inception": "1935-11-22",
    "geom:area": 0,
    "geom:bbox": "-122.386155,37.616358,-122.386155,37.616358",
    "geom:latitude": 37.616358,
    "geom:longitude": -122.386155,
    "iso:country": "US",
    "media:fingerprint": "f3672816842a64b47d3c7f46875ff9f626bab2d1",
    "media:imagehash_avg": "a:c0fffffff3727e00",
    "media:imagehash_diff": "d:81fab2a2e6e6c45f",
    "media:imagetext": "1994.18.006\nA\nNOV\n27\n3 PM\n1935\nGUAM.\n14.16\n150",
    "media:imagetext_created": 1787949013,
    "media:imagetext_source": "com.apple.visionkit.VNImageRequestHandler#Version 26.6.2 (Build 25G83)",
    "media:medium": "image",
    "media:mimetype": "image/tiff",
    "media:properties": {
      "sizes": {
        "b": {
          "extension": "jpg",
          "height": 460,
          "mimetype": "image/jpeg",
          "secret": "q3IHOqlJxc4TtZnj9NPIwMAXdI7milOf",
          "width": 1024
        },
        "c": {
          "extension": "jpg",
          "height": 359,
          "mimetype": "image/jpeg",
          "secret": "q3IHOqlJxc4TtZnj9NPIwMAXdI7milOf",
          "width": 800
        },
        "dc": {
          "extension": "jpg",
          "height": 359,
          "mimetype": "image/jpeg",
          "secret": "q3IHOqlJxc4TtZnj9NPIwMAXdI7milOf",
          "width": 800
        },
        "ds": {
          "extension": "jpg",
          "height": 320,
          "mimetype": "image/jpeg",
          "secret": "q3IHOqlJxc4TtZnj9NPIwMAXdI7milOf",
          "width": 320
        },
        "k": {
          "extension": "jpg",
          "height": 921,
          "mimetype": "image/jpeg",
          "secret": "q3IHOqlJxc4TtZnj9NPIwMAXdI7milOf",
          "width": 2048
        },
        "n": {
          "extension": "jpg",
          "height": 143,
          "mimetype": "image/jpeg",
          "secret": "q3IHOqlJxc4TtZnj9NPIwMAXdI7milOf",
          "width": 320
        },
        "o": {
          "extension": "jpg",
          "height": 1325,
          "mimetype": "image/jpeg",
          "secret": "vPbuK8fa0q2uCa1MnEGFOU3GdqIgz8tq",
          "width": 2946
        },
        "s": {
          "extension": "jpg",
          "height": 320,
          "mimetype": "image/jpeg",
          "secret": "q3IHOqlJxc4TtZnj9NPIwMAXdI7milOf",
          "width": 320
        },
        "z": {
          "extension": "jpg",
          "height": 287,
          "mimetype": "image/jpeg",
          "secret": "q3IHOqlJxc4TtZnj9NPIwMAXdI7milOf",
          "width": 640
        }
      }
    },
    "media:source": "sfomuseum",
    "media:status_id": 1,
    "media:uri_template": "https://static.sfomuseum.org/media/152/782/887/3/1527828873_{secret}_{label}.{extension}",
    "millsfield:aircraft_id": [
      1159291191
    ],
    "millsfield:airline_id": [
      1159284991
    ],
    "millsfield:category_id": 1511214215,
    "millsfield:collection_id": 1511214207,
    "millsfield:company_id": [],
    "millsfield:images_colors": [
      {
        "hex": "#f0e6d3",
        "name": "#f0e6d3",
        "reference": "marekm4"
      },
      {
        "hex": "#faebd7",
        "name": "antiquewhite",
        "reference": "css4"
      },
      {
        "hex": "#efdecd",
        "name": "Almond",
        "reference": "crayola"
      },
      {
        "hex": "#212245",
        "name": "#212245",
        "reference": "marekm4"
      },
      {
        "hex": "#191970",
        "name": "midnightblue",
        "reference": "css4"
      },
      {
        "hex": "#414a4c",
        "name": "Outer Space",
        "reference": "crayola"
      },
      {
        "hex": "#e93f23",
        "name": "#e93f23",
        "reference": "marekm4"
      },
      {
        "hex": "#ff4500",
        "name": "orangered",
        "reference": "css4"
      },
      {
        "hex": "#ff2b2b",
        "name": "Orange Red",
        "reference": "crayola"
      }
    ],
    "millsfield:images_texts": [
      "FIRST FLIGHT\nA.M. ROUTE\nGUAM\nFRANCIS\nQ\n22\n1 PM\n1935\nCALIF\nNOVEMBER 1935\n•POSTAGE 5\nVIA AIR MAIL\nMr. J.T. Trippe, President\nPan American Airways System,\nGuam, Pacific Ocean",
      "1994.18.006\nA\nNOV\n27\n3 PM\n1935\nGUAM.\n14.16\n150"
    ],
    "millsfield:images_texts_ids": [
      1527828871,
      1527828873
    ],
    "millsfield:similar": {
      "apple/mobileclip_s0": [
        {
          "distance": 0.21968253,
          "id": 1527828869
        },
        {
          "distance": 0.36364394,
          "id": 1527828877
        },
        {
          "distance": 0.36893925,
          "id": 1527828881
        },
        {
          "distance": 0.4245815,
          "id": 1527830195
        },
        {
          "distance": 0.441464,
          "id": 1527833801
        },
        {
          "distance": 0.44155282,
          "id": 1527834371
        },
        {
          "distance": 0.44718182,
          "id": 1527833553
        },
        {
          "distance": 0.44763854,
          "id": 1527832839
        },
        {
          "distance": 0.44923213,
          "id": 1527828863
        },
        {
          "distance": 0.45178005,
          "id": 1527830209
        }
      ],
      "apple/mobileclip_s1": [
        {
          "distance": 0.15961127,
          "id": 1527828869
        },
        {
          "distance": 0.19394381,
          "id": 1527828877
        },
        {
          "distance": 0.20076923,
          "id": 1527828935
        },
        {
          "distance": 0.22662884,
          "id": 1527828931
        },
        {
          "distance": 0.23246324,
          "id": 1527828881
        },
        {
          "distance": 0.24162337,
          "id": 1527832621
        },
        {
          "distance": 0.24568057,
          "id": 1527829013
        },
        {
          "distance": 0.25251812,
          "id": 1527834371
        },
        {
          "distance": 0.25277695,
          "id": 1527833839
        },
        {
          "distance": 0.25515974,
          "id": 1527830115
        }
      ],
      "apple/mobileclip_s2": [
        {
          "distance": 0.18137337,
          "id": 1527828869
        },
        {
          "distance": 0.34334835,
          "id": 1527829017
        },
        {
          "distance": 0.34391195,
          "id": 1527829013
        },
        {
          "distance": 0.35280883,
          "id": 1527828931
        },
        {
          "distance": 0.36073348,
          "id": 1527828877
        },
        {
          "distance": 0.37250993,
          "id": 1527833839
        },
        {
          "distance": 0.37849838,
          "id": 1527832621
        },
        {
          "distance": 0.37945375,
          "id": 1527828935
        },
        {
          "distance": 0.38582635,
          "id": 1527828881
        },
        {
          "distance": 0.43638733,
          "id": 1527833093
        }
      ]
    },
    "millsfield:subcategory_id": 1511213159,
    "mz:hierarchy_label": 1,
    "mz:is_current": -1,
    "sfomuseum:filename": "47357.tif",
    "sfomuseum:image_id": 47357,
    "sfomuseum:image_index": 5,
    "sfomuseum:image_type": "studio",
    "sfomuseum:object_id": 42884,
    "sfomuseum:placetype": "image",
    "sfomuseum:primary_image": 0,
    "src:geom": "sfomuseum",
    "wof:belongsto": [
      1511214215,
      1511906843,
      102527513,
      102191575,
      85633793,
      1511213159,
      85922583,
      102087579,
      1511214277,
      1511214203,
      85688637,
      136253057
    ],
    "wof:breaches": [],
    "wof:country": "US",
    "wof:created": 1578950750,
    "wof:depicts": [
      1159291191,
      1159284991,
      1159286839,
      1511906843
    ],
    "wof:geomhash": "bd906905ce4be6c0651c90b0fc24804c",
    "wof:hierarchy": [
      {
        "arcade_id": 1511213159,
        "building_id": 1511214277,
        "campus_id": 102527513,
        "concourse_id": 1511214215,
        "continent_id": 102191575,
        "country_id": 85633793,
        "county_id": 102087579,
        "custom_id": 1527828873,
        "image_id": 1527828873,
        "locality_id": 85922583,
        "media_id": 1527828873,
        "neighbourhood_id": -1,
        "region_id": 85688637,
        "venue_id": 1511906843,
        "wing_id": 1511214203
      },
      {
        "continent_id": 102191575,
        "country_id": 85633793,
        "custom_id": 1527828873,
        "empire_id": 136253057,
        "image_id": 1527828873,
        "media_id": 1527828873,
        "venue_id": 1511906843
      }
    ],
    "wof:id": 1527828873,
    "wof:lastmodified": 1788449853,
    "wof:name": "airmail flight cover: Pan American Airways, FAM-14, San Francisco (Alameda) - Guam route",
    "wof:parent_id": 1511906843,
    "wof:placetype": "custom",
    "wof:placetype_alt": [
      "image"
    ],
    "wof:repo": "sfomuseum-data-media-collection",
    "wof:superseded_by": [],
    "wof:supersedes": [],
    "wof:tags": []
  },
  "bbox": [
    -122.386155,
    37.616358,
    -122.386155,
    37.616358
  ],
  "geometry": {"type":"Point","coordinates":[-122.386155,37.616358]}
}
