{
  "id": 1762711175,
  "type": "Feature",
  "properties": {
    "date:cessation_lower": "1970-01-01",
    "date:cessation_upper": "1979-12-31",
    "date:inception_lower": "1970-01-01",
    "date:inception_upper": "1979-12-31",
    "edtf:cessation": "197X",
    "edtf:inception": "197X",
    "geom:area": 2.477324999997507e-7,
    "geom:bbox": "-122.386472,37.616105,-122.385834,37.616611",
    "geom:latitude": 37.61635756125121,
    "geom:longitude": -122.38615532866096,
    "iso:country": "ZA",
    "media:fingerprint": "58f03b186e4715a9f0fd8288d927ffee3467c320",
    "media:imagehash_avg": "a:f7e1e3a78101019f",
    "media:imagehash_diff": "d:6f4f2f4d6f6d7d79",
    "media:imagetext": "JAN SMUTS INTERNATIONAL AIRPORT\nR.S.A.\nSituated at Kempton Park, some 22km from Johannesburg, this\nterminus has Africa's longest runway and is the \"Gateway to South\nAfrica\".\nJAN SMUTS INTERNASIONALE LUGHAWE\nR.S.A.\nHierdie vlug-eindpunt geleë te Kemptonpark en sowat 22km vanaf\nJohannesburg. spog met Afrika se langste aanloopbaan en staan\nbekend as die \"Ingang tot Suid-Afrika\",\nartco\nCOPYRIGHT\nART PUBLISHERS (PTY) LTD., 265 UMBILO ROAD, DURBAN, SOUTH AFRICA.\nTEL: DURBAN (031)-315440 JOHANNESBURG (011)-6833017 PHOTO: B.K. BJORNSEN\nPOST CARD\nPOSKAART\nNo. 407\n2015.166.2004\ns-los",
    "media:imagetext_created": 1787957758,
    "media:imagetext_source": "com.apple.visionkit.VNImageRequestHandler#Version 26.6.2 (Build 25G83)",
    "media:mimetype": "image/tiff",
    "media:properties": {
      "sizes": {
        "b": {
          "extension": "jpg",
          "height": 746,
          "mimetype": "image/jpeg",
          "secret": "w1JgRkD3lwBAz1g7ZtnpqaIYv4JDJLrs",
          "width": 1024
        },
        "c": {
          "extension": "jpg",
          "height": 582,
          "mimetype": "image/jpeg",
          "secret": "w1JgRkD3lwBAz1g7ZtnpqaIYv4JDJLrs",
          "width": 800
        },
        "dc": {
          "extension": "jpg",
          "height": 582,
          "mimetype": "image/jpeg",
          "secret": "w1JgRkD3lwBAz1g7ZtnpqaIYv4JDJLrs",
          "width": 800
        },
        "ds": {
          "extension": "jpg",
          "height": 320,
          "mimetype": "image/jpeg",
          "secret": "w1JgRkD3lwBAz1g7ZtnpqaIYv4JDJLrs",
          "width": 320
        },
        "k": {
          "extension": "jpg",
          "height": 1492,
          "mimetype": "image/jpeg",
          "secret": "w1JgRkD3lwBAz1g7ZtnpqaIYv4JDJLrs",
          "width": 2048
        },
        "n": {
          "extension": "jpg",
          "height": 233,
          "mimetype": "image/jpeg",
          "secret": "w1JgRkD3lwBAz1g7ZtnpqaIYv4JDJLrs",
          "width": 320
        },
        "o": {
          "extension": "jpg",
          "height": 1331,
          "mimetype": "image/jpeg",
          "secret": "voxwsH41LxYVxWyLZhHrT09xdZFauLjC",
          "width": 1827
        },
        "s": {
          "extension": "jpg",
          "height": 320,
          "mimetype": "image/jpeg",
          "secret": "w1JgRkD3lwBAz1g7ZtnpqaIYv4JDJLrs",
          "width": 320
        },
        "z": {
          "extension": "jpg",
          "height": 466,
          "mimetype": "image/jpeg",
          "secret": "w1JgRkD3lwBAz1g7ZtnpqaIYv4JDJLrs",
          "width": 640
        }
      }
    },
    "media:source": "sfomuseum",
    "media:status_id": 1,
    "media:uri_template": "https://static.sfomuseum.org/media/176/271/117/5/1762711175_{secret}_{label}.{extension}",
    "millsfield:aircraft_id": [
      1159289873
    ],
    "millsfield:airline_id": [
      1159285183
    ],
    "millsfield:airport_id": [
      1746875291
    ],
    "millsfield:category_id": 1511214215,
    "millsfield:collection_id": 1511214207,
    "millsfield:company_id": [
      1159293593
    ],
    "millsfield:images_colors": [
      {
        "hex": "#e9dbb8",
        "name": "#e9dbb8",
        "reference": "marekm4"
      },
      {
        "hex": "#f5deb3",
        "name": "wheat",
        "reference": "css4"
      },
      {
        "hex": "#efcdb8",
        "name": "Desert Sand",
        "reference": "crayola"
      },
      {
        "hex": "#979174",
        "name": "#979174",
        "reference": "marekm4"
      },
      {
        "hex": "#808080",
        "name": "grey",
        "reference": "css4"
      },
      {
        "hex": "#9f8170",
        "name": "Beaver",
        "reference": "crayola"
      }
    ],
    "millsfield:images_texts": [
      "JAN SMUTS AIRPORT\nJOHANNESBURG",
      "JAN SMUTS INTERNATIONAL AIRPORT\nR.S.A.\nSituated at Kempton Park, some 22km from Johannesburg, this\nterminus has Africa's longest runway and is the \"Gateway to South\nAfrica\".\nJAN SMUTS INTERNASIONALE LUGHAWE\nR.S.A.\nHierdie vlug-eindpunt geleë te Kemptonpark en sowat 22km vanaf\nJohannesburg. spog met Afrika se langste aanloopbaan en staan\nbekend as die \"Ingang tot Suid-Afrika\",\nartco\nCOPYRIGHT\nART PUBLISHERS (PTY) LTD., 265 UMBILO ROAD, DURBAN, SOUTH AFRICA.\nTEL: DURBAN (031)-315440 JOHANNESBURG (011)-6833017 PHOTO: B.K. BJORNSEN\nPOST CARD\nPOSKAART\nNo. 407\n2015.166.2004\ns-los"
    ],
    "millsfield:images_texts_ids": [
      1762711171,
      1762711175
    ],
    "millsfield:similar": {
      "apple/mobileclip_s0": [
        {
          "distance": 0.4006653,
          "id": 1762710287
        },
        {
          "distance": 0.40675342,
          "id": 1762710369
        },
        {
          "distance": 0.4211393,
          "id": 1762712967
        },
        {
          "distance": 0.42329374,
          "id": 1762712493
        },
        {
          "distance": 0.42839,
          "id": 1762707427
        },
        {
          "distance": 0.43652987,
          "id": 1762711413
        },
        {
          "distance": 0.44276774,
          "id": 1762711169
        },
        {
          "distance": 0.44376165,
          "id": 1762710607
        },
        {
          "distance": 0.45000312,
          "id": 1762712453
        },
        {
          "distance": 0.46069536,
          "id": 1762711813
        }
      ],
      "apple/mobileclip_s1": [
        {
          "distance": 0.29306248,
          "id": 1762710287
        },
        {
          "distance": 0.2956322,
          "id": 1762711391
        },
        {
          "distance": 0.30234632,
          "id": 1762710769
        },
        {
          "distance": 0.3108379,
          "id": 1762712845
        },
        {
          "distance": 0.31384835,
          "id": 1762710747
        },
        {
          "distance": 0.31644464,
          "id": 1762712967
        },
        {
          "distance": 0.32292664,
          "id": 1762711399
        },
        {
          "distance": 0.32493165,
          "id": 1762711813
        },
        {
          "distance": 0.32536125,
          "id": 1762712619
        },
        {
          "distance": 0.32900655,
          "id": 1762711575
        }
      ],
      "apple/mobileclip_s2": [
        {
          "distance": 0.4316308,
          "id": 1762712967
        },
        {
          "distance": 0.444575,
          "id": 1762710287
        },
        {
          "distance": 0.47365725,
          "id": 1762711769
        },
        {
          "distance": 0.48207647,
          "id": 1762710769
        },
        {
          "distance": 0.48586673,
          "id": 1762713053
        },
        {
          "distance": 0.4875378,
          "id": 1762712551
        },
        {
          "distance": 0.48966274,
          "id": 1762710323
        },
        {
          "distance": 0.4924895,
          "id": 1762712619
        },
        {
          "distance": 0.49601364,
          "id": 1762712845
        },
        {
          "distance": 0.49651098,
          "id": 1762710315
        }
      ]
    },
    "millsfield:subcategory_id": 1511213363,
    "mz:is_current": 1,
    "sfomuseum:filename": "2015.166.2004_bk.tif",
    "sfomuseum:image_id": 158801,
    "sfomuseum:image_index": 5,
    "sfomuseum:image_type": "studio",
    "sfomuseum:object_id": 181765,
    "sfomuseum:placetype": "image",
    "sfomuseum:primary_image": 0,
    "src:geom": "sfomuseum",
    "wof:belongsto": [
      102527513,
      1159162825,
      102191575,
      85633793,
      102087579,
      85922583,
      1762682019,
      85688637,
      1159160869
    ],
    "wof:country": "ZA",
    "wof:created": 1641350363,
    "wof:depicts": [
      1159288307,
      1762682019,
      1159289873,
      1159293593,
      1159285183,
      1746875291
    ],
    "wof:geomhash": "ed7c2ab3547fc3916b5edc33488deaa7",
    "wof:hierarchy": [
      {
        "building_id": -1,
        "campus_id": 102527513,
        "collection_id": 1159162825,
        "concourse_id": 1159162825,
        "continent_id": 102191575,
        "country_id": 85633793,
        "county_id": 102087579,
        "custom_id": 1762711175,
        "image_id": 1762711175,
        "locality_id": 85922583,
        "neighbourhood_id": -1,
        "object_id": 1762682019,
        "region_id": 85688637,
        "wing_id": 1159160869
      }
    ],
    "wof:id": 1762711175,
    "wof:lastmodified": 1788450628,
    "wof:name": "postcard: South African Airways, Boeing 747, Johannesburg Airport",
    "wof:parent_id": 1762682019,
    "wof:placetype": "custom",
    "wof:placetype_alt": [
      "image"
    ],
    "wof:repo": "sfomuseum-data-media-collection",
    "wof:superseded_by": [],
    "wof:supersedes": []
  },
  "bbox": [
    -122.386472,
    37.616105,
    -122.385834,
    37.616611
  ],
  "geometry": {"type":"Polygon","coordinates":[[[-122.386472,37.616318],[-122.386435,37.616233],[-122.386376,37.616178],[-122.386301,37.616131],[-122.386161,37.616105],[-122.386022,37.616131],[-122.385914,37.616186],[-122.385855,37.616267],[-122.385834,37.616369],[-122.385871,37.616467],[-122.385941,37.616543],[-122.386054,37.616603],[-122.386183,37.616611],[-122.386306,37.616573],[-122.386419,37.616509],[-122.386467,37.616411],[-122.386472,37.616318]]]}
}
