{
  "id": 1913802181,
  "type": "Feature",
  "properties": {
    "date:cessation_lower": "1935-07-01",
    "date:cessation_upper": "1935-07-01",
    "date:inception_lower": "1935-07-01",
    "date:inception_upper": "1935-07-01",
    "edtf:cessation": "1935-07-01",
    "edtf:inception": "1935-07-01",
    "geom:area": 2.477324999997507e-7,
    "geom:bbox": "-122.386472,37.616105,-122.385834,37.616611",
    "geom:latitude": 37.61635756125121,
    "geom:longitude": -122.38615532866096,
    "media:fingerprint": "4dc6a72e6a01c88dd513f62530d1a576c98f8901",
    "media:imagehash_avg": "a:ff818181818181df",
    "media:imagehash_diff": "d:333b131b1b333f33",
    "media:imagetext": "monday July!\nDearst Debs.\n- I am in Judge Rosi offici waiting\nfor a cale from\nQuezons Seeritary\nit looks as though no cale moned\nCome unte this\nafternoon\nas it is\nneak, noon\nnow.\nThere telepen\nmeal, as bad as the Chiness when it\nCome ti\napprintments - no organigation\nat all.\nYatuday I sprat the morning\nwith the boys\nIn boat and\nthe bach so the aftinoon cor\naceptio an invitation from a man\nnamed Bacharack to go summing in\nhis pool. Hi kao a\nbrautifue place\nand it was lots of fun. Us stages\nfor dunna and aftu\nale the excus\nWhen I got home abont len oclock\nwint right to brd,\nHair bira concerard abort morr\ntroute reportes in North China. Suppor\nthe report an greath regated but\nI'm dreadfuel, worried\nalont you.\nMu common sat trees me that\nIf things gut really bad you wile\nve and\n90 1o\npeace. Stile no\nKuling or some other\nlettes from you\nalthough two boat har\nthe last few days.\nOuts dear do",
    "media:imagetext_created": 1787972763,
    "media:imagetext_source": "com.apple.visionkit.VNImageRequestHandler#Version 26.6.2 (Build 25G83)",
    "media:mimetype": "image/tiff",
    "media:properties": {
      "sizes": {
        "b": {
          "extension": "jpg",
          "height": 768,
          "mimetype": "image/jpeg",
          "secret": "sBqZ7iYm1p3MlmUGw8npXYOhLF8pkc7K",
          "width": 506
        },
        "c": {
          "extension": "jpg",
          "height": 600,
          "mimetype": "image/jpeg",
          "secret": "sBqZ7iYm1p3MlmUGw8npXYOhLF8pkc7K",
          "width": 395
        },
        "dc": {
          "extension": "jpg",
          "height": 600,
          "mimetype": "image/jpeg",
          "secret": "sBqZ7iYm1p3MlmUGw8npXYOhLF8pkc7K",
          "width": 395
        },
        "ds": {
          "extension": "jpg",
          "height": 320,
          "mimetype": "image/jpeg",
          "secret": "sBqZ7iYm1p3MlmUGw8npXYOhLF8pkc7K",
          "width": 320
        },
        "k": {
          "extension": "jpg",
          "height": 1536,
          "mimetype": "image/jpeg",
          "secret": "sBqZ7iYm1p3MlmUGw8npXYOhLF8pkc7K",
          "width": 1012
        },
        "n": {
          "extension": "jpg",
          "height": 240,
          "mimetype": "image/jpeg",
          "secret": "sBqZ7iYm1p3MlmUGw8npXYOhLF8pkc7K",
          "width": 158
        },
        "o": {
          "extension": "jpg",
          "height": 2000,
          "mimetype": "image/jpeg",
          "secret": "V57s6INtNHYPA1NVACoiQhSeoiTkjzDJ",
          "width": 1318
        },
        "s": {
          "extension": "jpg",
          "height": 320,
          "mimetype": "image/jpeg",
          "secret": "sBqZ7iYm1p3MlmUGw8npXYOhLF8pkc7K",
          "width": 320
        },
        "z": {
          "extension": "jpg",
          "height": 480,
          "mimetype": "image/jpeg",
          "secret": "sBqZ7iYm1p3MlmUGw8npXYOhLF8pkc7K",
          "width": 316
        }
      }
    },
    "media:source": "sfomuseum",
    "media:status_id": 1,
    "media:uri_template": "https://static.sfomuseum.org/media/191/380/218/1/1913802181_{secret}_{label}.{extension}",
    "millsfield:airline_id": [
      1159284991
    ],
    "millsfield:category_id": 1511214251,
    "millsfield:collection_id": 1511214207,
    "millsfield:company_id": [
      1159286839
    ],
    "millsfield:images_colors": [
      {
        "hex": "#e6d895",
        "name": "#e6d895",
        "reference": "marekm4"
      },
      {
        "hex": "#f0e68c",
        "name": "khaki",
        "reference": "css4"
      },
      {
        "hex": "#edd19c",
        "name": "Maize",
        "reference": "crayola"
      },
      {
        "hex": "#b8b474",
        "name": "#b8b474",
        "reference": "marekm4"
      },
      {
        "hex": "#bdb76b",
        "name": "darkkhaki",
        "reference": "css4"
      },
      {
        "hex": "#bab86c",
        "name": "Olive Green",
        "reference": "crayola"
      },
      {
        "hex": "#474726",
        "name": "#474726",
        "reference": "marekm4"
      },
      {
        "hex": "#556b2f",
        "name": "darkolivegreen",
        "reference": "css4"
      },
      {
        "hex": "#414a4c",
        "name": "Outer Space",
        "reference": "crayola"
      },
      {
        "hex": "#65a366",
        "name": "#65a366",
        "reference": "marekm4"
      },
      {
        "hex": "#3cb371",
        "name": "mediumseagreen",
        "reference": "css4"
      },
      {
        "hex": "#6dae81",
        "name": "Forest Green",
        "reference": "crayola"
      }
    ],
    "millsfield:images_texts": [
      "monday July!\nDearst Debs.\n- I am in Judge Rosi offici waiting\nfor a cale from\nQuezons Seeritary\nit looks as though no cale moned\nCome unte this\nafternoon\nas it is\nneak, noon\nnow.\nThere telepen\nmeal, as bad as the Chiness when it\nCome ti\napprintments - no organigation\nat all.\nYatuday I sprat the morning\nwith the boys\nIn boat and\nthe bach so the aftinoon cor\naceptio an invitation from a man\nnamed Bacharack to go summing in\nhis pool. Hi kao a\nbrautifue place\nand it was lots of fun. Us stages\nfor dunna and aftu\nale the excus\nWhen I got home abont len oclock\nwint right to brd,\nHair bira concerard abort morr\ntroute reportes in North China. Suppor\nthe report an greath regated but\nI'm dreadfuel, worried\nalont you.\nMu common sat trees me that\nIf things gut really bad you wile\nve and\n90 1o\npeace. Stile no\nKuling or some other\nlettes from you\nalthough two boat har\nthe last few days.\nOuts dear do",
      "ast quicks, if you thick thee is\ndanger at Feng and dont think\nalont cot of transportation on\nangotta consideration Except the\nsafe of youre\nand the jamie.\nknow you\n-wice be carfue and\nI rice try not to worry about you.\nFrom present indications I shoned\nbe beaung\nher abort the 20\" of\nJuly on around that dats...\nmust run\nalong now.\nlore to\njia lmost precion -\nyou\nNad\nso on st\nab\n20191210904"
    ],
    "millsfield:images_texts_ids": [
      1913802181,
      1913802185
    ],
    "millsfield:similar": {
      "apple/mobileclip_s0": [
        {
          "distance": 0.21178637,
          "id": 1913802437
        },
        {
          "distance": 0.21611547,
          "id": 1913799881
        },
        {
          "distance": 0.2217085,
          "id": 1913801911
        },
        {
          "distance": 0.22191061,
          "id": 1913801923
        },
        {
          "distance": 0.2235552,
          "id": 1913802433
        },
        {
          "distance": 0.22433712,
          "id": 1913801915
        },
        {
          "distance": 0.2444156,
          "id": 1913802443
        },
        {
          "distance": 0.24466434,
          "id": 1913801335
        },
        {
          "distance": 0.24727245,
          "id": 1913799877
        },
        {
          "distance": 0.24871448,
          "id": 1913799859
        }
      ],
      "apple/mobileclip_s1": [
        {
          "distance": 0.1954531,
          "id": 1913823085
        },
        {
          "distance": 0.19550213,
          "id": 1913802249
        },
        {
          "distance": 0.20189084,
          "id": 1913801917
        },
        {
          "distance": 0.20252231,
          "id": 1913802187
        },
        {
          "distance": 0.20507471,
          "id": 1913799859
        },
        {
          "distance": 0.2060886,
          "id": 1913802439
        },
        {
          "distance": 0.2065661,
          "id": 1913801881
        },
        {
          "distance": 0.20674512,
          "id": 1913801925
        },
        {
          "distance": 0.20755383,
          "id": 1913801911
        },
        {
          "distance": 0.20803665,
          "id": 1913799881
        }
      ],
      "apple/mobileclip_s2": [
        {
          "distance": 0.30558577,
          "id": 1913802437
        },
        {
          "distance": 0.3173763,
          "id": 1913802439
        },
        {
          "distance": 0.32075262,
          "id": 1913799873
        },
        {
          "distance": 0.32337078,
          "id": 1913802215
        },
        {
          "distance": 0.3278792,
          "id": 1913801919
        },
        {
          "distance": 0.33118248,
          "id": 1913799883
        },
        {
          "distance": 0.3316766,
          "id": 1913801911
        },
        {
          "distance": 0.33296454,
          "id": 1913802367
        },
        {
          "distance": 0.3368982,
          "id": 1913802249
        },
        {
          "distance": 0.33836427,
          "id": 1913802187
        }
      ]
    },
    "millsfield:subcategory_id": 1511213489,
    "mz:is_current": 1,
    "sfomuseum:filename": "2019.121.0904_front.tif",
    "sfomuseum:image_id": 231019,
    "sfomuseum:image_index": 0,
    "sfomuseum:image_type": "studio",
    "sfomuseum:object_id": 211267,
    "sfomuseum:placetype": "image",
    "sfomuseum:primary_image": 1,
    "src:geom": "sfomuseum",
    "wof:belongsto": [
      102527513,
      1159162825,
      102191575,
      85633793,
      102087579,
      85922583,
      1913795491,
      85688637,
      1159160869
    ],
    "wof:country": "XY",
    "wof:created": 1714551771,
    "wof:depicts": [
      1159284991,
      1159286839,
      1913795491
    ],
    "wof:geomhash": "ed7c2ab3547fc3916b5edc33488deaa7",
    "wof:hierarchy": [
      {
        "building_id": -1,
        "campus_id": 102527513,
        "collection_id": 1159162825,
        "concourse_id": 1159162825,
        "continent_id": 102191575,
        "country_id": 85633793,
        "county_id": 102087579,
        "custom_id": 1913802181,
        "image_id": 1913802181,
        "locality_id": 85922583,
        "neighbourhood_id": -1,
        "object_id": 1913795491,
        "region_id": 85688637,
        "wing_id": 1159160869
      }
    ],
    "wof:id": 1913802181,
    "wof:lastmodified": 1788452276,
    "wof:name": "correspondence: Harold M. Bixby to Debby Bixby",
    "wof:parent_id": 1913795491,
    "wof:placetype": "custom",
    "wof:placetype_alt": [
      "image"
    ],
    "wof:repo": "sfomuseum-data-media-collection",
    "wof:superseded_by": [],
    "wof:supersedes": []
  },
  "bbox": [
    -122.386472,
    37.616105,
    -122.385834,
    37.616611
  ],
  "geometry": {"type":"Polygon","coordinates":[[[-122.386472,37.616318],[-122.386435,37.616233],[-122.386376,37.616178],[-122.386301,37.616131],[-122.386161,37.616105],[-122.386022,37.616131],[-122.385914,37.616186],[-122.385855,37.616267],[-122.385834,37.616369],[-122.385871,37.616467],[-122.385941,37.616543],[-122.386054,37.616603],[-122.386183,37.616611],[-122.386306,37.616573],[-122.386419,37.616509],[-122.386467,37.616411],[-122.386472,37.616318]]]}
}
