{
  "id": 1527851139,
  "type": "Feature",
  "properties": {
    "date:cessation_lower": "1961-01-01",
    "date:cessation_upper": "1961-12-31",
    "date:inception_lower": "1961-01-01",
    "date:inception_upper": "1961-12-31",
    "edtf:cessation": "1961",
    "edtf:date": "1961",
    "edtf:inception": "1961",
    "geom:area": 0,
    "geom:bbox": "-122.386155,37.616358,-122.386155,37.616358",
    "geom:latitude": 37.616358,
    "geom:longitude": -122.386155,
    "iso:country": "XX",
    "media:fingerprint": "e130e3155ce99e9b199bed51f648bf7a9c57863d",
    "media:imagehash_avg": "a:20383c1800ffffff",
    "media:imagehash_diff": "d:43e078701a39170b",
    "media:imagetext": "PORTLAND\nSALEM\nEUGENE\nMEDFORD\nVANCOUVER\nSEATTLE /TACOMA\nSPOKANE\nPENDLETON\nBOISE\nELKO\nELY\nLAS VEGAS\nHONOLULU\nSAN FRANCISCO\nOAKLAND\nSALINAS\nMONTEREY\nSACRAMENTO\nSTOCKTON\nMODESTO\nMERCED\nFRESNO\nVISALIA\nBAKERSFIELD\nSANTA BARBARA\nLOS ANGELES\nLONG BEACH\nSAN DIEGO\nSALT LAKE CITY\nGRAND JUNCTION\nDENVER\nMINNEAPOLIS /ST. PAUL\nMILWAUKEE\nSAGINAW /BAY CITY MIDLAND\nMUSKEGON FLINT\nLAISING\nGRAND RAPIDS\nROCHESTER\nBUFFALO\nHARTFORD SPRINGFIELD\nELMIRA CORNING\nBOSTON\nPROVIDENCE\nDETROIT\nWILLIAMSPORT\nCEDAR RAPID\nDES MOTNES\nOMAHA\nCHICAGO\nNEW YORK\nTOLEDO\nYOUNGSTOWN WARREN\nNEWARK\nSOUTH BEND AKRON CANTON\nSHARON\nALLENTOWN/BETHLEHEM/EASTON\nPORT WAYNE PITTSBURGH\nHARRISBURG\nPHILADELPHIA\nMOLINE/ROCK ISLAND/DAVENPORT DAYTON\nCOLUMBUS\nLINCOLN\nBALTIMORE\nWASHINGTON\nNEWPORT NEWS\nHAMPTON WARWICK\nCHARLESTON\nRICHMOND\nNORFOLK PORTSMOUTH\nBRISTOL JOHNSON CITY /KINGSPORT\nKANSAS CITY\nGREENSBORO HIGH POINT\nKNOXVILLE\nWINSTON-SALEM\nASHEVILLE /HENDERSONVILLE\nCHATTANOOGA\nRALEIGH /DURHAM\nCHARLOTTE\nMEMPHIS\nHUNTSVILLE DECATUR\nATLANTA\nBIRMINGHAM\nJACKSONVILLE\nMOBILE\nNEW ORLEANS\nTAMPA\nST. PETERSBURG\nCLEARWATER\nUnited flights are timed to the stars by the Elgin National Watch Company.\nWEST PALM BEACH\nFORT LAUDERDALE\nMIAMI\nTO BETTER SERVE YOU...\nA QUICK, CONVENIENT SOURCE OF FLIGHT INFORMATION\nOur new quick-reference timetable lists the most trequent\nUnited flights to and from a given area. A similar city version\nappears in many originating and connecting cities across\nUnited's system. For a complete listing of all United flights,\ncontact the nearest United Air Lines office.\nFinding the exact flight you wish to take is a quick, simple\nstep with this handy guide. Instead of searching through\nmany pages, you'll find all the information you need listed in\none place.\nThe left page lists destination cities in alphabetical order.\nThe right page lists cities of origin-also in ABC order. After\neach city listing, the \"Leave\" and \"Arrive\" times appear in\nchronological order. The flight number follows.\nPlease note also, we list additional information that can prove\nhelpful in selecting your flight...\n• days of week flight is in operation\n• number of stops en route\n• type of aircraft\n• type of meal service\n• service (First Class, etc.) and fares\n• limousine fare from city to airport\n• mileage and direction from city to terminal\nPertinent information regarding each flight is fully covered and\nwe hope you'll find this new timetable greatly simplified and\neasier to read.\nThis easy-reference timetable is another example of United\nAir Lines Extra Care in every detail of your flight.",
    "media:imagetext_created": 1787953151,
    "media:imagetext_source": "com.apple.visionkit.VNImageRequestHandler#Version 26.6.2 (Build 25G83)",
    "media:medium": "image",
    "media:mimetype": "image/tiff",
    "media:properties": {
      "sizes": {
        "b": {
          "extension": "jpg",
          "height": 768,
          "mimetype": "image/jpeg",
          "secret": "kGLVIv43LaV1BpFiTkoCZNGQuJlnwJI0",
          "width": 681
        },
        "c": {
          "extension": "jpg",
          "height": 600,
          "mimetype": "image/jpeg",
          "secret": "kGLVIv43LaV1BpFiTkoCZNGQuJlnwJI0",
          "width": 532
        },
        "dc": {
          "extension": "jpg",
          "height": 600,
          "mimetype": "image/jpeg",
          "secret": "kGLVIv43LaV1BpFiTkoCZNGQuJlnwJI0",
          "width": 532
        },
        "ds": {
          "extension": "jpg",
          "height": 320,
          "mimetype": "image/jpeg",
          "secret": "kGLVIv43LaV1BpFiTkoCZNGQuJlnwJI0",
          "width": 320
        },
        "k": {
          "extension": "jpg",
          "height": 1536,
          "mimetype": "image/jpeg",
          "secret": "kGLVIv43LaV1BpFiTkoCZNGQuJlnwJI0",
          "width": 1363
        },
        "n": {
          "extension": "jpg",
          "height": 239,
          "mimetype": "image/jpeg",
          "secret": "kGLVIv43LaV1BpFiTkoCZNGQuJlnwJI0",
          "width": 213
        },
        "o": {
          "extension": "jpg",
          "height": 2717,
          "mimetype": "image/jpeg",
          "secret": "6xhjsyAJ76VySY7q8r6090fD14yR7v13",
          "width": 2412
        },
        "s": {
          "extension": "jpg",
          "height": 320,
          "mimetype": "image/jpeg",
          "secret": "kGLVIv43LaV1BpFiTkoCZNGQuJlnwJI0",
          "width": 320
        },
        "z": {
          "extension": "jpg",
          "height": 479,
          "mimetype": "image/jpeg",
          "secret": "kGLVIv43LaV1BpFiTkoCZNGQuJlnwJI0",
          "width": 426
        }
      }
    },
    "media:source": "sfomuseum",
    "media:status_id": 1,
    "media:uri_template": "https://static.sfomuseum.org/media/152/785/113/9/1527851139_{secret}_{label}.{extension}",
    "millsfield:airline_id": [
      1159285415
    ],
    "millsfield:category_id": 1511214223,
    "millsfield:collection_id": 1511214207,
    "millsfield:company_id": [
      1159288779
    ],
    "millsfield:images_colors": [
      {
        "hex": "#cdcfc9",
        "name": "#cdcfc9",
        "reference": "marekm4"
      },
      {
        "hex": "#d3d3d3",
        "name": "lightgrey",
        "reference": "css4"
      },
      {
        "hex": "#cdc5c2",
        "name": "Silver",
        "reference": "crayola"
      },
      {
        "hex": "#416590",
        "name": "#416590",
        "reference": "marekm4"
      },
      {
        "hex": "#483d8b",
        "name": "darkslateblue",
        "reference": "css4"
      },
      {
        "hex": "#2e5894",
        "name": "B'dazzled Blue",
        "reference": "crayola"
      },
      {
        "hex": "#da493d",
        "name": "#da493d",
        "reference": "marekm4"
      },
      {
        "hex": "#cd5c5c",
        "name": "indianred",
        "reference": "css4"
      },
      {
        "hex": "#cd4a4c",
        "name": "Mahogany",
        "reference": "crayola"
      }
    ],
    "millsfield:images_texts": [
      "SAN FRANCISCO/\nOAKLAND\nUNITED\nNEW, EASY-REFERENCE\nCITY TIMETABLE\nSee next page\nAUGUST 1, 1961",
      "United flights are timed to the stars by the Elgin National Watch Company.\nVEST PALM BEACH\nFORE LAUDERDALL\nTO BETTER SERVE YOU...\nA QUICK, CONVENIENT SOURCE OF FLIGHT INFORMATION\nOur new quick-reference timetable lists the most frequent\nPlease note also, we list additional information that can prove\nUnited flights to and from a given area. A similar city version\nhelpful in selecting your flight ...\nappears in many originating and connecting cities across\n• days of week flight is in operation\nUnited's system.\nFor a complete listing of all United flights,\n• number of stops en route\ncontact the nearest United Air Lines office.\n• type of aircraft\nFinding the exact flight you wish to take is a quick, simple\n• type of meal service\nstep with this handy guide.\nInstead\nof searching through\n• service (First Class, etc.) and fares\n• limousine fare from city to airport\nmany pages, you'll find all the information you need listed in\n• mileage and direction from city to terminal\none place.\nPertinent information regarding each flight is fully covered and\nThe left page lists destination cities in alphabetical order.\nwe hope you'll find this new timetable greatly simplified and\nThe right page lists cities of origin —also in ABC order. After\neasier to read.\neach city listing, the \"Leave\" and \"Arrive\" times appear in\nThis easy-reference timetable is another example of United\nchronological order. The flight number follows.\nAir Lines Extra Care in every detail of your flight."
    ],
    "millsfield:images_texts_ids": [
      1527838257,
      1527851139
    ],
    "millsfield:similar": {
      "apple/mobileclip_s0": [
        {
          "distance": 0.4106812,
          "id": 1527851137
        },
        {
          "distance": 0.5406822,
          "id": 1527851067
        },
        {
          "distance": 0.544528,
          "id": 1527851559
        },
        {
          "distance": 0.54569435,
          "id": 1527855025
        },
        {
          "distance": 0.5612579,
          "id": 1527851235
        },
        {
          "distance": 0.56343627,
          "id": 1527851237
        },
        {
          "distance": 0.5650753,
          "id": 1527851229
        },
        {
          "distance": 0.5676627,
          "id": 1527851539
        },
        {
          "distance": 0.57010156,
          "id": 1527851233
        },
        {
          "distance": 0.5800281,
          "id": 1527851561
        }
      ],
      "apple/mobileclip_s1": [
        {
          "distance": 0.31022272,
          "id": 1527851137
        },
        {
          "distance": 0.32008007,
          "id": 1527851235
        },
        {
          "distance": 0.3285859,
          "id": 1527851237
        },
        {
          "distance": 0.3318788,
          "id": 1527851539
        },
        {
          "distance": 0.33535266,
          "id": 1527851229
        },
        {
          "distance": 0.34085137,
          "id": 1527851143
        },
        {
          "distance": 0.34435323,
          "id": 1527851227
        },
        {
          "distance": 0.34596428,
          "id": 1527851063
        },
        {
          "distance": 0.35280716,
          "id": 1527851067
        },
        {
          "distance": 0.35372627,
          "id": 1527851181
        }
      ],
      "apple/mobileclip_s2": [
        {
          "distance": 0.42131293,
          "id": 1527851137
        },
        {
          "distance": 0.49439493,
          "id": 1527851181
        },
        {
          "distance": 0.5025115,
          "id": 1527851231
        },
        {
          "distance": 0.5091466,
          "id": 1527851535
        },
        {
          "distance": 0.5100547,
          "id": 1527855025
        },
        {
          "distance": 0.5159702,
          "id": 1527851237
        },
        {
          "distance": 0.5165244,
          "id": 1527851227
        },
        {
          "distance": 0.5177113,
          "id": 1527851235
        },
        {
          "distance": 0.51954377,
          "id": 1527851525
        },
        {
          "distance": 0.5204576,
          "id": 1527851233
        }
      ]
    },
    "millsfield:subcategory_id": 1511213425,
    "mz:hierarchy_label": 1,
    "mz:is_current": -1,
    "sfomuseum:filename": "82906.tif",
    "sfomuseum:image_id": 82906,
    "sfomuseum:image_index": 5,
    "sfomuseum:image_type": "studio",
    "sfomuseum:object_id": 98337,
    "sfomuseum:placetype": "image",
    "sfomuseum:primary_image": 0,
    "src:geom": "sfomuseum",
    "wof:belongsto": [
      1511214223,
      1511937581,
      102527513,
      102191575,
      85633793,
      1511213425,
      85922583,
      102087579,
      1511214277,
      1511214203,
      85688637
    ],
    "wof:breaches": [],
    "wof:country": "XX",
    "wof:created": 1578954307,
    "wof:depicts": [
      1159285415,
      1159288779,
      1511937581,
      85921881,
      85688637,
      85633793
    ],
    "wof:geomhash": "bd906905ce4be6c0651c90b0fc24804c",
    "wof:hierarchy": [
      {
        "arcade_id": 1511213425,
        "building_id": 1511214277,
        "campus_id": 102527513,
        "concourse_id": 1511214223,
        "continent_id": 102191575,
        "country_id": 85633793,
        "county_id": 102087579,
        "custom_id": 1527851139,
        "image_id": 1527851139,
        "locality_id": 85922583,
        "media_id": 1527851139,
        "neighbourhood_id": -1,
        "region_id": 85688637,
        "venue_id": 1511937581,
        "wing_id": 1511214203
      }
    ],
    "wof:id": 1527851139,
    "wof:lastmodified": 1774079232,
    "wof:name": "timetable: United Air Lines, San Francisco and Oakland",
    "wof:parent_id": 1511937581,
    "wof:placetype": "custom",
    "wof:placetype_alt": [
      "image"
    ],
    "wof:repo": "sfomuseum-data-media-collection",
    "wof:superseded_by": [],
    "wof:supersedes": [],
    "wof:tags": []
  },
  "bbox": [
    -122.386155,
    37.616358,
    -122.386155,
    37.616358
  ],
  "geometry": {"type":"Point","coordinates":[-122.386155,37.616358]}
}
