{
  "id": 1880320085,
  "type": "Feature",
  "properties": {
    "date:cessation_lower": "1982-01-01",
    "date:cessation_upper": "1982-12-31",
    "date:inception_lower": "1982-01-01",
    "date:inception_upper": "1982-12-31",
    "edtf:cessation": "1982",
    "edtf:inception": "1982",
    "geom:area": 2.477324999997507e-7,
    "geom:bbox": "-122.386472,37.616105,-122.385834,37.616611",
    "geom:latitude": 37.61635756125121,
    "geom:longitude": -122.38615532866096,
    "media:fingerprint": "7c50afd1bb856509c4d791a92a1eefdce45e6d87",
    "media:imagehash_avg": "a:043fffe9c303397f",
    "media:imagehash_diff": "d:fcfce98b8f2fe3f3",
    "media:imagetext": "D-IDOM\nHOLIDAY EXPRESS",
    "media:imagetext_created": 1787968682,
    "media:imagetext_source": "com.apple.visionkit.VNImageRequestHandler#Version 26.6.2 (Build 25G83)",
    "media:mimetype": "image/tiff",
    "media:properties": {
      "sizes": {
        "b": {
          "extension": "jpg",
          "height": 768,
          "mimetype": "image/jpeg",
          "secret": "gAbMad2ObHDs0aRhlFqV19mu7cFOx0bA",
          "width": 965
        },
        "c": {
          "extension": "jpg",
          "height": 600,
          "mimetype": "image/jpeg",
          "secret": "gAbMad2ObHDs0aRhlFqV19mu7cFOx0bA",
          "width": 754
        },
        "dc": {
          "extension": "jpg",
          "height": 600,
          "mimetype": "image/jpeg",
          "secret": "gAbMad2ObHDs0aRhlFqV19mu7cFOx0bA",
          "width": 754
        },
        "ds": {
          "extension": "jpg",
          "height": 320,
          "mimetype": "image/jpeg",
          "secret": "gAbMad2ObHDs0aRhlFqV19mu7cFOx0bA",
          "width": 320
        },
        "k": {
          "extension": "jpg",
          "height": 1536,
          "mimetype": "image/jpeg",
          "secret": "gAbMad2ObHDs0aRhlFqV19mu7cFOx0bA",
          "width": 1931
        },
        "n": {
          "extension": "jpg",
          "height": 240,
          "mimetype": "image/jpeg",
          "secret": "gAbMad2ObHDs0aRhlFqV19mu7cFOx0bA",
          "width": 301
        },
        "o": {
          "extension": "jpg",
          "height": 1667,
          "mimetype": "image/jpeg",
          "secret": "j7BGLdlsz928E0sYsdr0wd2dNBSaLpzA",
          "width": 2096
        },
        "s": {
          "extension": "jpg",
          "height": 320,
          "mimetype": "image/jpeg",
          "secret": "gAbMad2ObHDs0aRhlFqV19mu7cFOx0bA",
          "width": 320
        },
        "z": {
          "extension": "jpg",
          "height": 480,
          "mimetype": "image/jpeg",
          "secret": "gAbMad2ObHDs0aRhlFqV19mu7cFOx0bA",
          "width": 603
        }
      }
    },
    "media:source": "sfomuseum",
    "media:status_id": 1,
    "media:uri_template": "https://static.sfomuseum.org/media/188/032/008/5/1880320085_{secret}_{label}.{extension}",
    "millsfield:aircraft_id": [
      1159290381
    ],
    "millsfield:airline_id": [
      1159286033
    ],
    "millsfield:category_id": 1511214235,
    "millsfield:collection_id": 1511214203,
    "millsfield:company_id": [
      1159294011,
      1159290375
    ],
    "millsfield:exhibition_ids": [
      1159160707
    ],
    "millsfield:images_colors": [
      {
        "hex": "#b7b6b5",
        "name": "#b7b6b5",
        "reference": "marekm4"
      },
      {
        "hex": "#c0c0c0",
        "name": "silver",
        "reference": "css4"
      },
      {
        "hex": "#b0b7c6",
        "name": "Cadet Blue",
        "reference": "crayola"
      },
      {
        "hex": "#595047",
        "name": "#595047",
        "reference": "marekm4"
      },
      {
        "hex": "#556b2f",
        "name": "darkolivegreen",
        "reference": "css4"
      },
      {
        "hex": "#414a4c",
        "name": "Outer Space",
        "reference": "crayola"
      },
      {
        "hex": "#908675",
        "name": "#908675",
        "reference": "marekm4"
      },
      {
        "hex": "#808080",
        "name": "grey",
        "reference": "css4"
      },
      {
        "hex": "#9f8170",
        "name": "Beaver",
        "reference": "crayola"
      },
      {
        "hex": "#867954",
        "name": "#867954",
        "reference": "marekm4"
      },
      {
        "hex": "#696969",
        "name": "dimgrey",
        "reference": "css4"
      },
      {
        "hex": "#85754e",
        "name": "Gold Fusion",
        "reference": "crayola"
      }
    ],
    "millsfield:images_texts": [
      "D-IDOM\nHOLIDAY EXPRESS",
      "D-IDOM\nHOLIDAY EXPRESS",
      "D-IDOM\nHOLIDAY EXPRESS",
      "D-IDOM\nHOLIDAY EXPRESS"
    ],
    "millsfield:images_texts_ids": [
      1880320079,
      1880320081,
      1880320083,
      1880320085
    ],
    "millsfield:on_view": 0,
    "millsfield:similar": {
      "apple/mobileclip_s0": [
        {
          "distance": 0.29956406,
          "id": 1880320083
        },
        {
          "distance": 0.39185658,
          "id": 1880319309
        },
        {
          "distance": 0.4297301,
          "id": 1880319307
        },
        {
          "distance": 0.4321662,
          "id": 1880319191
        },
        {
          "distance": 0.4609603,
          "id": 1880321073
        },
        {
          "distance": 0.46151757,
          "id": 1880320889
        },
        {
          "distance": 0.46372044,
          "id": 1880319327
        },
        {
          "distance": 0.46409154,
          "id": 1880320891
        },
        {
          "distance": 0.46630034,
          "id": 1880319189
        },
        {
          "distance": 0.46692476,
          "id": 1880321401
        }
      ],
      "apple/mobileclip_s1": [
        {
          "distance": 0.27473968,
          "id": 1880320083
        },
        {
          "distance": 0.30469987,
          "id": 1880319307
        },
        {
          "distance": 0.32045648,
          "id": 1880320081
        },
        {
          "distance": 0.3225474,
          "id": 1880320219
        },
        {
          "distance": 0.33481866,
          "id": 1880320669
        },
        {
          "distance": 0.33835098,
          "id": 1880320463
        },
        {
          "distance": 0.33911976,
          "id": 1880319309
        },
        {
          "distance": 0.3397554,
          "id": 1880273647
        },
        {
          "distance": 0.34010234,
          "id": 1880320893
        },
        {
          "distance": 0.3431995,
          "id": 1880320511
        }
      ],
      "apple/mobileclip_s2": [
        {
          "distance": 0.3348684,
          "id": 1880320083
        },
        {
          "distance": 0.4974194,
          "id": 1880273647
        },
        {
          "distance": 0.50823873,
          "id": 1880319489
        },
        {
          "distance": 0.51293486,
          "id": 1880320219
        },
        {
          "distance": 0.5174826,
          "id": 1880319477
        },
        {
          "distance": 0.5215421,
          "id": 1880320511
        },
        {
          "distance": 0.52601635,
          "id": 1763145375
        },
        {
          "distance": 0.5266696,
          "id": 1880320507
        },
        {
          "distance": 0.5298506,
          "id": 1763145373
        },
        {
          "distance": 0.5309863,
          "id": 1880319307
        }
      ]
    },
    "millsfield:subcategory_id": 1511213161,
    "millsfield:tailnumbers": [
      "D-IDOM"
    ],
    "mz:is_current": 1,
    "sfomuseum:filename": "2014.145.058_04.tif",
    "sfomuseum:image_id": 167408,
    "sfomuseum:image_index": 5,
    "sfomuseum:image_type": "studio",
    "sfomuseum:object_id": 161650,
    "sfomuseum:placetype": "image",
    "sfomuseum:primary_image": 0,
    "src:geom": "sfomuseum",
    "wof:belongsto": [
      102527513,
      1159162825,
      102191575,
      85633793,
      102087579,
      85922583,
      1880319095,
      85688637,
      1159160869
    ],
    "wof:country": "XY",
    "wof:created": 1694022916,
    "wof:depicts": [
      1880319095,
      1159290381,
      1159294011,
      1159290375,
      1159286033,
      1159287239
    ],
    "wof:geomhash": "ed7c2ab3547fc3916b5edc33488deaa7",
    "wof:hierarchy": [
      {
        "building_id": -1,
        "campus_id": 102527513,
        "collection_id": 1159162825,
        "concourse_id": 1159162825,
        "continent_id": 102191575,
        "country_id": 85633793,
        "county_id": 102087579,
        "custom_id": 1880320085,
        "image_id": 1880320085,
        "locality_id": 85922583,
        "neighbourhood_id": -1,
        "object_id": 1880319095,
        "region_id": 85688637,
        "wing_id": 1159160869
      }
    ],
    "wof:id": 1880320085,
    "wof:lastmodified": 1788451797,
    "wof:name": "model airplane: Holiday Express, Dornier 228",
    "wof:parent_id": 1880319095,
    "wof:placetype": "custom",
    "wof:placetype_alt": [
      "image"
    ],
    "wof:repo": "sfomuseum-data-media-collection",
    "wof:superseded_by": [],
    "wof:supersedes": []
  },
  "bbox": [
    -122.386472,
    37.616105,
    -122.385834,
    37.616611
  ],
  "geometry": {"type":"Polygon","coordinates":[[[-122.386472,37.616318],[-122.386435,37.616233],[-122.386376,37.616178],[-122.386301,37.616131],[-122.386161,37.616105],[-122.386022,37.616131],[-122.385914,37.616186],[-122.385855,37.616267],[-122.385834,37.616369],[-122.385871,37.616467],[-122.385941,37.616543],[-122.386054,37.616603],[-122.386183,37.616611],[-122.386306,37.616573],[-122.386419,37.616509],[-122.386467,37.616411],[-122.386472,37.616318]]]}
}
