{
  "id": 1527843557,
  "type": "Feature",
  "properties": {
    "date:cessation_lower": "1980-01-01",
    "date:cessation_upper": "1989-12-31",
    "date:inception_lower": "1980-01-01",
    "date:inception_upper": "1989-12-31",
    "edtf:cessation": "198X",
    "edtf:date": "198x",
    "edtf:inception": "198X",
    "geom:area": 0,
    "geom:bbox": "-122.386155,37.616358,-122.386155,37.616358",
    "geom:latitude": 37.616358,
    "geom:longitude": -122.386155,
    "iso:country": "XX",
    "media:fingerprint": "3b6d5f9b4fe732336e77547eca4a620d314d0596",
    "media:imagehash_avg": "a:0644040676de9fe2",
    "media:imagehash_diff": "d:acacacecedac286e",
    "media:imagetext": "Taipei-San Francisco\n(10h. 40m.-11h. 45m.)\nDinner\nCanape\n83.\nGreen Salad\nCream of Asparagus Coup\nChinese Hors d'Oeuvre\nA7517-\n****+\nChoice of Main\nCourse\n**#-\n* * 17:\nLobster Cantonese\nFillet Mignon\nw/Mushroom Sauceri\nBraised\n744*\nAl\nDork w/ Degetable\n* 72** *\nBraised Black Mushroom\nCreamed Chinese Cabbage\nChateau\nPotatoes\n# ta\n**\n* 7\nDeas \u0026\nCarrots\nNoodles\nFried\nRice\nCassata Neapolitain\n*##\n4 8\n71771-4\nFruit Basket\nBread Basket\n***€\nButter\n^3-\n- 8\nTea or\nCoffee\n**117-4-\n(Olong Tea, Jasmine Tea, Black Tea and Decaffeinated Coffee are available for your choice.)\n*Calorie-free Sweetener is available upon request.\nAs you will appreciate,\nstorage space in our galleys is very limited.\nSometimes,\ntherefore, we are unable to offer a choice of main dish to every passenger aboard.\nShould the choice be limited aboard this flight, please accept our apologies.\n69S-004F\n183\nTaipeiSan Francisco\n(10h. 40m.-11h. 45m.)\nBreakfast\nFruit Compote\nChoice of Main\nPlain Omelette\nGrilled Bacon\nCausage\nGrilled Tomato\nCourse\nCongee Soup Chinese\nStyle\nChinese Delicatessen\nBoiled Egg\nBread Trau\nButter\nJama\nTea or Coffee\n*****•*S*ZF5.\n4 8\n1 893\n****\u003e*****•*#**•\n: 8\n0 1*131122\n(10/-#$40-11/#$455)\n*#..\n‡ * 11:8\n48\nAl\n* *\n**1*\n*\n- *#\n1, 18\n+ 83\n3+4\n- 83\nLAL,\n69S-004F",
    "media:imagetext_created": 1787951492,
    "media:imagetext_source": "com.apple.visionkit.VNImageRequestHandler#Version 26.6.2 (Build 25G83)",
    "media:medium": "image",
    "media:mimetype": "image/tiff",
    "media:properties": {
      "sizes": {
        "b": {
          "extension": "jpg",
          "height": 655,
          "mimetype": "image/jpeg",
          "secret": "ZHdrTHBJ54kD9pTG84h2NsVZV9Xm476k",
          "width": 1024
        },
        "c": {
          "extension": "jpg",
          "height": 512,
          "mimetype": "image/jpeg",
          "secret": "ZHdrTHBJ54kD9pTG84h2NsVZV9Xm476k",
          "width": 800
        },
        "dc": {
          "extension": "jpg",
          "height": 512,
          "mimetype": "image/jpeg",
          "secret": "ZHdrTHBJ54kD9pTG84h2NsVZV9Xm476k",
          "width": 800
        },
        "ds": {
          "extension": "jpg",
          "height": 320,
          "mimetype": "image/jpeg",
          "secret": "ZHdrTHBJ54kD9pTG84h2NsVZV9Xm476k",
          "width": 320
        },
        "k": {
          "extension": "jpg",
          "height": 1311,
          "mimetype": "image/jpeg",
          "secret": "ZHdrTHBJ54kD9pTG84h2NsVZV9Xm476k",
          "width": 2048
        },
        "n": {
          "extension": "jpg",
          "height": 204,
          "mimetype": "image/jpeg",
          "secret": "ZHdrTHBJ54kD9pTG84h2NsVZV9Xm476k",
          "width": 320
        },
        "o": {
          "extension": "jpg",
          "height": 1921,
          "mimetype": "image/jpeg",
          "secret": "RAhL3Iiy84zqCU46j696bTATWkMAgoHd",
          "width": 3000
        },
        "s": {
          "extension": "jpg",
          "height": 320,
          "mimetype": "image/jpeg",
          "secret": "ZHdrTHBJ54kD9pTG84h2NsVZV9Xm476k",
          "width": 320
        },
        "z": {
          "extension": "jpg",
          "height": 409,
          "mimetype": "image/jpeg",
          "secret": "ZHdrTHBJ54kD9pTG84h2NsVZV9Xm476k",
          "width": 640
        }
      }
    },
    "media:source": "sfomuseum",
    "media:status_id": 1,
    "media:uri_template": "https://static.sfomuseum.org/media/152/784/355/7/1527843557_{secret}_{label}.{extension}",
    "millsfield:airline_id": [
      1159284153
    ],
    "millsfield:category_id": 1762671311,
    "millsfield:collection_id": 1511214207,
    "millsfield:company_id": [
      1159288057
    ],
    "millsfield:images_colors": [
      {
        "hex": "#f7a77a",
        "name": "#f7a77a",
        "reference": "marekm4"
      },
      {
        "hex": "#ffa07a",
        "name": "lightsalmon",
        "reference": "css4"
      },
      {
        "hex": "#ffa474",
        "name": "Atomic Tangerine",
        "reference": "crayola"
      },
      {
        "hex": "#f8bb98",
        "name": "#f8bb98",
        "reference": "marekm4"
      },
      {
        "hex": "#deb887",
        "name": "burlywood",
        "reference": "css4"
      },
      {
        "hex": "#ffbd88",
        "name": "Macaroni and Cheese",
        "reference": "crayola"
      },
      {
        "hex": "#2a1c14",
        "name": "#2a1c14",
        "reference": "marekm4"
      },
      {
        "hex": "#000000",
        "name": "black",
        "reference": "css4"
      },
      {
        "hex": "#000000",
        "name": "Black",
        "reference": "crayola"
      },
      {
        "hex": "#ac3e29",
        "name": "#ac3e29",
        "reference": "marekm4"
      },
      {
        "hex": "#a52a2a",
        "name": "brown",
        "reference": "css4"
      },
      {
        "hex": "#9c2542",
        "name": "Big Dip O' Ruby",
        "reference": "crayola"
      }
    ],
    "millsfield:images_texts": [
      "a\n17\n\u003c4\n#",
      "Taipei-San Francisco\n(10h. 40m.-11h. 45m.)\nDinner\nCanape\n83.\nGreen Salad\nCream of Asparagus Coup\nChinese Hors d'Oeuvre\nA7517-\n****+\nChoice of Main\nCourse\n**#-\n* * 17:\nLobster Cantonese\nFillet Mignon\nw/Mushroom Sauceri\nBraised\n744*\nAl\nDork w/ Degetable\n* 72** *\nBraised Black Mushroom\nCreamed Chinese Cabbage\nChateau\nPotatoes\n# ta\n**\n* 7\nDeas \u0026\nCarrots\nNoodles\nFried\nRice\nCassata Neapolitain\n*##\n4 8\n71771-4\nFruit Basket\nBread Basket\n***€\nButter\n^3-\n- 8\nTea or\nCoffee\n**117-4-\n(Olong Tea, Jasmine Tea, Black Tea and Decaffeinated Coffee are available for your choice.)\n*Calorie-free Sweetener is available upon request.\nAs you will appreciate,\nstorage space in our galleys is very limited.\nSometimes,\ntherefore, we are unable to offer a choice of main dish to every passenger aboard.\nShould the choice be limited aboard this flight, please accept our apologies.\n69S-004F\n183\nTaipeiSan Francisco\n(10h. 40m.-11h. 45m.)\nBreakfast\nFruit Compote\nChoice of Main\nPlain Omelette\nGrilled Bacon\nCausage\nGrilled Tomato\nCourse\nCongee Soup Chinese\nStyle\nChinese Delicatessen\nBoiled Egg\nBread Trau\nButter\nJama\nTea or Coffee\n*****•*S*ZF5.\n4 8\n1 893\n****\u003e*****•*#**•\n: 8\n0 1*131122\n(10/-#$40-11/#$455)\n*#..\n‡ * 11:8\n48\nAl\n* *\n**1*\n*\n- *#\n1, 18\n+ 83\n3+4\n- 83\nLAL,\n69S-004F"
    ],
    "millsfield:images_texts_ids": [
      1527843553,
      1527843557
    ],
    "millsfield:similar": {
      "apple/mobileclip_s0": [
        {
          "distance": 0.26685107,
          "id": 1527843525
        },
        {
          "distance": 0.31331506,
          "id": 1527843543
        },
        {
          "distance": 0.40062845,
          "id": 1527843539
        },
        {
          "distance": 0.42080092,
          "id": 1527843551
        },
        {
          "distance": 0.4675211,
          "id": 1527843533
        },
        {
          "distance": 0.58169436,
          "id": 1762714407
        },
        {
          "distance": 0.591637,
          "id": 1527844305
        },
        {
          "distance": 0.5990035,
          "id": 1527843617
        },
        {
          "distance": 0.6026804,
          "id": 1763196205
        },
        {
          "distance": 0.6074179,
          "id": 1527843561
        }
      ],
      "apple/mobileclip_s1": [
        {
          "distance": 0.19134018,
          "id": 1527843525
        },
        {
          "distance": 0.22138819,
          "id": 1527843539
        },
        {
          "distance": 0.22534442,
          "id": 1527843543
        },
        {
          "distance": 0.25026143,
          "id": 1527843551
        },
        {
          "distance": 0.31119698,
          "id": 1527843533
        },
        {
          "distance": 0.3943313,
          "id": 1527845153
        },
        {
          "distance": 0.4061876,
          "id": 1527845159
        },
        {
          "distance": 0.42789078,
          "id": 1527843561
        },
        {
          "distance": 0.43210858,
          "id": 1527845315
        },
        {
          "distance": 0.4542821,
          "id": 1527845069
        }
      ],
      "apple/mobileclip_s2": [
        {
          "distance": 0.27895024,
          "id": 1527843525
        },
        {
          "distance": 0.35468128,
          "id": 1527843539
        },
        {
          "distance": 0.36531547,
          "id": 1527843551
        },
        {
          "distance": 0.40382624,
          "id": 1527843543
        },
        {
          "distance": 0.49535403,
          "id": 1527843533
        },
        {
          "distance": 0.5819176,
          "id": 1527845153
        },
        {
          "distance": 0.5968566,
          "id": 1527843561
        },
        {
          "distance": 0.62928957,
          "id": 1527843617
        },
        {
          "distance": 0.6377249,
          "id": 1527845523
        },
        {
          "distance": 0.6609583,
          "id": 1527845483
        }
      ]
    },
    "millsfield:subcategory_id": 1511213567,
    "mz:hierarchy_label": 1,
    "mz:is_current": -1,
    "sfomuseum:filename": "68568.tif",
    "sfomuseum:image_id": 68568,
    "sfomuseum:image_index": 5,
    "sfomuseum:image_type": "studio",
    "sfomuseum:object_id": 60985,
    "sfomuseum:placetype": "image",
    "sfomuseum:primary_image": 0,
    "src:geom": "sfomuseum",
    "wof:belongsto": [
      1511921625,
      102527513,
      102191575,
      85633793,
      85922583,
      102087579,
      1511214277,
      85688637
    ],
    "wof:breaches": [],
    "wof:country": "XX",
    "wof:created": 1578953061,
    "wof:depicts": [
      1159284153,
      1511921625,
      1159288057
    ],
    "wof:geomhash": "bd906905ce4be6c0651c90b0fc24804c",
    "wof:hierarchy": [
      {
        "building_id": 1511214277,
        "campus_id": 102527513,
        "continent_id": 102191575,
        "country_id": 85633793,
        "county_id": 102087579,
        "custom_id": 1527843557,
        "image_id": 1527843557,
        "locality_id": 85922583,
        "media_id": 1527843557,
        "neighbourhood_id": -1,
        "region_id": 85688637,
        "venue_id": 1511921625
      }
    ],
    "wof:id": 1527843557,
    "wof:lastmodified": 1788450068,
    "wof:name": "menu: China Airlines",
    "wof:parent_id": 1511921625,
    "wof:placetype": "custom",
    "wof:placetype_alt": [
      "image"
    ],
    "wof:repo": "sfomuseum-data-media-collection",
    "wof:superseded_by": [],
    "wof:supersedes": [],
    "wof:tags": []
  },
  "bbox": [
    -122.386155,
    37.616358,
    -122.386155,
    37.616358
  ],
  "geometry": {"type":"Point","coordinates":[-122.386155,37.616358]}
}
