{
  "id": 1527823797,
  "type": "Feature",
  "properties": {
    "date:cessation_lower": "2000-01-01",
    "date:cessation_upper": "2000-12-31",
    "date:inception_lower": "2000-01-01",
    "date:inception_upper": "2000-12-31",
    "edtf:cessation": "2000~",
    "edtf:date": "2000~",
    "edtf:inception": "2000~",
    "geom:area": 0,
    "geom:bbox": "-122.386155,37.616358,-122.386155,37.616358",
    "geom:latitude": 37.616358,
    "geom:longitude": -122.386155,
    "iso:country": "XX",
    "media:fingerprint": "3d52246eb993f42b61278880a939cbc1f0264978",
    "media:imagehash_avg": "a:0000ffffffffffff",
    "media:imagehash_diff": "d:630f8fe3c383939b",
    "media:imagetext": "CHINA AIRLINES\ni eK 1\nDISPOSAL BAG",
    "media:imagetext_created": 1787948389,
    "media:imagetext_source": "com.apple.visionkit.VNImageRequestHandler#Version 26.6.2 (Build 25G83)",
    "media:medium": "image",
    "media:mimetype": "image/tiff",
    "media:properties": {
      "sizes": {
        "b": {
          "extension": "jpg",
          "height": 768,
          "mimetype": "image/jpeg",
          "secret": "SOzMvVyJLMhaToCK49EYyrTM1VsoVfzA",
          "width": 370
        },
        "c": {
          "extension": "jpg",
          "height": 600,
          "mimetype": "image/jpeg",
          "secret": "SOzMvVyJLMhaToCK49EYyrTM1VsoVfzA",
          "width": 289
        },
        "dc": {
          "extension": "jpg",
          "height": 600,
          "mimetype": "image/jpeg",
          "secret": "SOzMvVyJLMhaToCK49EYyrTM1VsoVfzA",
          "width": 289
        },
        "ds": {
          "extension": "jpg",
          "height": 320,
          "mimetype": "image/jpeg",
          "secret": "SOzMvVyJLMhaToCK49EYyrTM1VsoVfzA",
          "width": 320
        },
        "k": {
          "extension": "jpg",
          "height": 1536,
          "mimetype": "image/jpeg",
          "secret": "SOzMvVyJLMhaToCK49EYyrTM1VsoVfzA",
          "width": 741
        },
        "n": {
          "extension": "jpg",
          "height": 240,
          "mimetype": "image/jpeg",
          "secret": "SOzMvVyJLMhaToCK49EYyrTM1VsoVfzA",
          "width": 115
        },
        "o": {
          "extension": "jpg",
          "height": 3281,
          "mimetype": "image/jpeg",
          "secret": "CDur6zFyKOGi4aYm5yROQrGYuNlnVPI6",
          "width": 1583
        },
        "s": {
          "extension": "jpg",
          "height": 320,
          "mimetype": "image/jpeg",
          "secret": "SOzMvVyJLMhaToCK49EYyrTM1VsoVfzA",
          "width": 320
        },
        "z": {
          "extension": "jpg",
          "height": 480,
          "mimetype": "image/jpeg",
          "secret": "SOzMvVyJLMhaToCK49EYyrTM1VsoVfzA",
          "width": 231
        }
      }
    },
    "media:source": "sfomuseum",
    "media:status_id": 1,
    "media:uri_template": "https://static.sfomuseum.org/media/152/782/379/7/1527823797_{secret}_{label}.{extension}",
    "millsfield:airline_id": [
      1159284153
    ],
    "millsfield:category_id": 1762671311,
    "millsfield:collection_id": 1511214207,
    "millsfield:company_id": [
      1159288057
    ],
    "millsfield:images_colors": [
      {
        "hex": "#dadfd8",
        "name": "#dadfd8",
        "reference": "marekm4"
      },
      {
        "hex": "#dcdcdc",
        "name": "gainsboro",
        "reference": "css4"
      },
      {
        "hex": "#dbd7d2",
        "name": "Timberwolf",
        "reference": "crayola"
      },
      {
        "hex": "#48549c",
        "name": "#48549c",
        "reference": "marekm4"
      },
      {
        "hex": "#483d8b",
        "name": "darkslateblue",
        "reference": "css4"
      },
      {
        "hex": "#2e5894",
        "name": "B'dazzled Blue",
        "reference": "crayola"
      }
    ],
    "millsfield:images_texts": [
      "1 FOLD DOTTED LINE\nFT AR\n2 FOLD DOTTED LINE\n1. 1 A9 18\nAFTER USE\n2. H8 T***\nt771#\n#OSIR\nFOLD DOTTED\nLINE C\n3.578 2\nFOLD DOTTED\nLINE 2\n1998 157.079",
      "CHINA AIRLINES\ni eK 1\nDISPOSAL BAG"
    ],
    "millsfield:images_texts_ids": [
      1527823795,
      1527823797
    ],
    "millsfield:similar": {
      "apple/mobileclip_s0": [
        {
          "distance": 0.45362973,
          "id": 1527823805
        },
        {
          "distance": 0.5513996,
          "id": 1527824733
        },
        {
          "distance": 0.57102185,
          "id": 1527842121
        },
        {
          "distance": 0.61486435,
          "id": 1763205071
        },
        {
          "distance": 0.6237813,
          "id": 2048165079
        },
        {
          "distance": 0.629246,
          "id": 2048165083
        },
        {
          "distance": 0.64493513,
          "id": 1527824757
        },
        {
          "distance": 0.6479107,
          "id": 1527823799
        },
        {
          "distance": 0.6651417,
          "id": 1527824811
        },
        {
          "distance": 0.6686438,
          "id": 1527823759
        }
      ],
      "apple/mobileclip_s1": [
        {
          "distance": 0.26331115,
          "id": 1527823805
        },
        {
          "distance": 0.34940454,
          "id": 1527824733
        },
        {
          "distance": 0.39375752,
          "id": 1527842121
        },
        {
          "distance": 0.41577876,
          "id": 1527824757
        },
        {
          "distance": 0.43609545,
          "id": 1763205071
        },
        {
          "distance": 0.45859164,
          "id": 1527823799
        },
        {
          "distance": 0.4619047,
          "id": 1763204975
        },
        {
          "distance": 0.46945247,
          "id": 1763205411
        },
        {
          "distance": 0.4743869,
          "id": 1763241551
        },
        {
          "distance": 0.47499055,
          "id": 1527824463
        }
      ],
      "apple/mobileclip_s2": [
        {
          "distance": 0.30565336,
          "id": 1527823805
        },
        {
          "distance": 0.4639568,
          "id": 1527824733
        },
        {
          "distance": 0.50800973,
          "id": 1527842121
        },
        {
          "distance": 0.5603179,
          "id": 1763205071
        },
        {
          "distance": 0.5842888,
          "id": 1527824757
        },
        {
          "distance": 0.6228368,
          "id": 1527842093
        },
        {
          "distance": 0.6350765,
          "id": 1763241551
        },
        {
          "distance": 0.64475,
          "id": 1527823799
        },
        {
          "distance": 0.65214586,
          "id": 2048164645
        },
        {
          "distance": 0.65544826,
          "id": 1763204989
        }
      ]
    },
    "millsfield:subcategory_id": 1511213185,
    "mz:hierarchy_label": 1,
    "mz:is_current": -1,
    "sfomuseum:filename": "41793.tif",
    "sfomuseum:image_id": 41793,
    "sfomuseum:image_index": 5,
    "sfomuseum:image_type": "studio",
    "sfomuseum:object_id": 47742,
    "sfomuseum:placetype": "image",
    "sfomuseum:primary_image": 1,
    "src:geom": "sfomuseum",
    "wof:belongsto": [
      1511908517,
      102527513,
      102191575,
      85633793,
      85922583,
      102087579,
      1511214277,
      85688637
    ],
    "wof:breaches": [],
    "wof:country": "XX",
    "wof:created": 1578949954,
    "wof:depicts": [
      1159284153,
      1511908517,
      1159288057
    ],
    "wof:geomhash": "bd906905ce4be6c0651c90b0fc24804c",
    "wof:hierarchy": [
      {
        "building_id": 1511214277,
        "campus_id": 102527513,
        "continent_id": 102191575,
        "country_id": 85633793,
        "county_id": 102087579,
        "custom_id": 1527823797,
        "image_id": 1527823797,
        "locality_id": 85922583,
        "media_id": 1527823797,
        "neighbourhood_id": -1,
        "region_id": 85688637,
        "venue_id": 1511908517
      }
    ],
    "wof:id": 1527823797,
    "wof:lastmodified": 1788449780,
    "wof:name": "airsickness bag: China Airlines",
    "wof:parent_id": 1511908517,
    "wof:placetype": "custom",
    "wof:placetype_alt": [
      "image"
    ],
    "wof:repo": "sfomuseum-data-media-collection",
    "wof:superseded_by": [],
    "wof:supersedes": [],
    "wof:tags": []
  },
  "bbox": [
    -122.386155,
    37.616358,
    -122.386155,
    37.616358
  ],
  "geometry": {"type":"Point","coordinates":[-122.386155,37.616358]}
}
