{
  "id": 1527849787,
  "type": "Feature",
  "properties": {
    "date:cessation_lower": "1985-01-01",
    "date:cessation_upper": "1985-12-31",
    "date:inception_lower": "1985-01-01",
    "date:inception_upper": "1985-12-31",
    "edtf:cessation": "1985~",
    "edtf:date": "1985~",
    "edtf:inception": "1985~",
    "geom:area": 0,
    "geom:bbox": "-122.386155,37.616358,-122.386155,37.616358",
    "geom:latitude": 37.616358,
    "geom:longitude": -122.386155,
    "iso:country": "XX",
    "media:fingerprint": "a0eab0a0e3ee0278f9f9858d283975f6e808da44",
    "media:imagehash_avg": "a:df99d18b838f998f",
    "media:imagehash_diff": "d:3573333f1f3b333b",
    "media:imagetext": "[EXIT\nX\nREMAIN SEATED UNTIL\nTHE AIRCRAFT COMES\nIO A COMPLEIC SIUR\nANU AVAI\nINSTRUCTIONS FROM\nTHE CABIN CHEW\nBEFORE DISEMBARKING.\nEXIT\nAIIENUEZ L ARACI IOTAL\nDE L'APPAREIL, ET SUIVEZ\nLES INDICATIONS DE\nL'EQUIPAGE POUR\nEVACUER L'AVION.\nERST WENN DAS FLUGZEUG\nZUM STILLSTAND GEKOMMEN\nIST. VERLASSEN SIE BITTE DAS\nFLUGZEUG NACH ANWEISUNG\nDES PERSONALS.\nCUANDO eL APAKAIO SE HAYA\nESTACIONADO POR COMPLETO\nPROCEDA A EVACUAR\nSIGUIENDO ESTRICTAMENTE\nLAS INSTRUCCIONES DEL\nПОКИДАЙТЕ САМОЛЕТ СТРОГО\nСЛЕДУЯ УКАЗАНИЯМ\n«КИПАЖА. ПОСЛЕ ЕГО ПОЛНОЙ\nОСТАНОВКИ!\nX\nEXIT)",
    "media:imagetext_created": 1787952851,
    "media:imagetext_source": "com.apple.visionkit.VNImageRequestHandler#Version 26.6.2 (Build 25G83)",
    "media:medium": "image",
    "media:mimetype": "image/tiff",
    "media:properties": {
      "sizes": {
        "b": {
          "extension": "jpg",
          "height": 727,
          "mimetype": "image/jpeg",
          "secret": "yNTNPyiHM3xHKf3xpFX4iFDBaNyAMzZ8",
          "width": 1024
        },
        "c": {
          "extension": "jpg",
          "height": 568,
          "mimetype": "image/jpeg",
          "secret": "yNTNPyiHM3xHKf3xpFX4iFDBaNyAMzZ8",
          "width": 800
        },
        "dc": {
          "extension": "jpg",
          "height": 568,
          "mimetype": "image/jpeg",
          "secret": "yNTNPyiHM3xHKf3xpFX4iFDBaNyAMzZ8",
          "width": 800
        },
        "ds": {
          "extension": "jpg",
          "height": 320,
          "mimetype": "image/jpeg",
          "secret": "yNTNPyiHM3xHKf3xpFX4iFDBaNyAMzZ8",
          "width": 320
        },
        "k": {
          "extension": "jpg",
          "height": 1455,
          "mimetype": "image/jpeg",
          "secret": "yNTNPyiHM3xHKf3xpFX4iFDBaNyAMzZ8",
          "width": 2048
        },
        "n": {
          "extension": "jpg",
          "height": 227,
          "mimetype": "image/jpeg",
          "secret": "yNTNPyiHM3xHKf3xpFX4iFDBaNyAMzZ8",
          "width": 320
        },
        "o": {
          "extension": "jpg",
          "height": 3536,
          "mimetype": "image/jpeg",
          "secret": "LHSCEmI1QKoPGlj5XS14M7tu8VTRfzY0",
          "width": 4976
        },
        "s": {
          "extension": "jpg",
          "height": 320,
          "mimetype": "image/jpeg",
          "secret": "yNTNPyiHM3xHKf3xpFX4iFDBaNyAMzZ8",
          "width": 320
        },
        "z": {
          "extension": "jpg",
          "height": 454,
          "mimetype": "image/jpeg",
          "secret": "yNTNPyiHM3xHKf3xpFX4iFDBaNyAMzZ8",
          "width": 640
        }
      }
    },
    "media:source": "sfomuseum",
    "media:status_id": 1,
    "media:uri_template": "https://static.sfomuseum.org/media/152/784/978/7/1527849787_{secret}_{label}.{extension}",
    "millsfield:aircraft_id": [
      1159289873
    ],
    "millsfield:airline_id": [
      1159283875
    ],
    "millsfield:category_id": 1762671311,
    "millsfield:collection_id": 1511214207,
    "millsfield:company_id": [
      1159293593
    ],
    "millsfield:images_colors": [
      {
        "hex": "#dbd9d5",
        "name": "#dbd9d5",
        "reference": "marekm4"
      },
      {
        "hex": "#dcdcdc",
        "name": "gainsboro",
        "reference": "css4"
      },
      {
        "hex": "#dbd7d2",
        "name": "Timberwolf",
        "reference": "crayola"
      },
      {
        "hex": "#372c30",
        "name": "#372c30",
        "reference": "marekm4"
      },
      {
        "hex": "#2f4f4f",
        "name": "darkslategrey",
        "reference": "css4"
      },
      {
        "hex": "#414a4c",
        "name": "Outer Space",
        "reference": "crayola"
      },
      {
        "hex": "#2551a6",
        "name": "#2551a6",
        "reference": "marekm4"
      },
      {
        "hex": "#483d8b",
        "name": "darkslateblue",
        "reference": "css4"
      },
      {
        "hex": "#324ab2",
        "name": "Violet Blue",
        "reference": "crayola"
      },
      {
        "hex": "#a4483d",
        "name": "#a4483d",
        "reference": "marekm4"
      },
      {
        "hex": "#a0522d",
        "name": "sienna",
        "reference": "css4"
      },
      {
        "hex": "#bf4f51",
        "name": "Bittersweet Shimmer",
        "reference": "crayola"
      },
      {
        "hex": "#b39351",
        "name": "#b39351",
        "reference": "marekm4"
      },
      {
        "hex": "#cd853f",
        "name": "peru",
        "reference": "css4"
      },
      {
        "hex": "#d68a59",
        "name": "Raw Sienna",
        "reference": "crayola"
      }
    ],
    "millsfield:images_texts": [
      "B-747\nSAFETY INSTRUCTIONS\nINSTRUCCIONES PARA SU SEGURIDAD\nSICHERHEITSVORSCHRIFTEN\nCONSIGNES DE SECURITE\nИНСТРУКЦИЯ ДЛЯ БЕЗОПАСНОСТИ\nANA/",
      "[EXIT\nX\nREMAIN SEATED UNTIL\nTHE AIRCRAFT COMES\nIO A COMPLEIC SIUR\nANU AVAI\nINSTRUCTIONS FROM\nTHE CABIN CHEW\nBEFORE DISEMBARKING.\nEXIT\nAIIENUEZ L ARACI IOTAL\nDE L'APPAREIL, ET SUIVEZ\nLES INDICATIONS DE\nL'EQUIPAGE POUR\nEVACUER L'AVION.\nERST WENN DAS FLUGZEUG\nZUM STILLSTAND GEKOMMEN\nIST. VERLASSEN SIE BITTE DAS\nFLUGZEUG NACH ANWEISUNG\nDES PERSONALS.\nCUANDO eL APAKAIO SE HAYA\nESTACIONADO POR COMPLETO\nPROCEDA A EVACUAR\nSIGUIENDO ESTRICTAMENTE\nLAS INSTRUCCIONES DEL\nПОКИДАЙТЕ САМОЛЕТ СТРОГО\nСЛЕДУЯ УКАЗАНИЯМ\n«КИПАЖА. ПОСЛЕ ЕГО ПОЛНОЙ\nОСТАНОВКИ!\nX\nEXIT)",
      "3\nEXIT\n[EXIT]\n2\nEXIT\n3\n(EXIT\n0\n0\n******** DO NOT REMOVE FROM AIRCRAFT\nB4-004 000428"
    ],
    "millsfield:images_texts_ids": [
      1527849785,
      1527849787,
      1527849789
    ],
    "millsfield:similar": {
      "apple/mobileclip_s0": [
        {
          "distance": 0.28653035,
          "id": 1931109893
        },
        {
          "distance": 0.4575663,
          "id": 1931096355
        },
        {
          "distance": 0.48386452,
          "id": 1913928663
        },
        {
          "distance": 0.48592865,
          "id": 1797194955
        },
        {
          "distance": 0.49416113,
          "id": 1913928657
        },
        {
          "distance": 0.49436802,
          "id": 1762894591
        },
        {
          "distance": 0.49894166,
          "id": 1913928611
        },
        {
          "distance": 0.4999252,
          "id": 1913928637
        },
        {
          "distance": 0.5028566,
          "id": 1931096387
        },
        {
          "distance": 0.5031881,
          "id": 1914580091
        }
      ],
      "apple/mobileclip_s1": [
        {
          "distance": 0.24593915,
          "id": 1931109893
        },
        {
          "distance": 0.34372583,
          "id": 1914623043
        },
        {
          "distance": 0.3469553,
          "id": 1914489295
        },
        {
          "distance": 0.35037032,
          "id": 1914489291
        },
        {
          "distance": 0.35073832,
          "id": 1914622843
        },
        {
          "distance": 0.35538283,
          "id": 1931109815
        },
        {
          "distance": 0.35648495,
          "id": 1914622615
        },
        {
          "distance": 0.357324,
          "id": 1762894599
        },
        {
          "distance": 0.35832924,
          "id": 1931096503
        },
        {
          "distance": 0.35906455,
          "id": 1797194909
        }
      ],
      "apple/mobileclip_s2": [
        {
          "distance": 0.3369746,
          "id": 1931109893
        },
        {
          "distance": 0.49016005,
          "id": 1931096305
        },
        {
          "distance": 0.50184685,
          "id": 1913928637
        },
        {
          "distance": 0.5197527,
          "id": 1913928663
        },
        {
          "distance": 0.5208041,
          "id": 1762894427
        },
        {
          "distance": 0.5256415,
          "id": 1762894915
        },
        {
          "distance": 0.5301971,
          "id": 1931096355
        },
        {
          "distance": 0.53418654,
          "id": 1914556033
        },
        {
          "distance": 0.53458136,
          "id": 1913928657
        },
        {
          "distance": 0.54082096,
          "id": 1914556521
        }
      ]
    },
    "millsfield:subcategory_id": 1511213703,
    "mz:hierarchy_label": 1,
    "mz:is_current": -1,
    "sfomuseum:filename": "75405.tif",
    "sfomuseum:image_id": 75405,
    "sfomuseum:image_index": 5,
    "sfomuseum:image_type": "studio",
    "sfomuseum:object_id": 68438,
    "sfomuseum:placetype": "image",
    "sfomuseum:primary_image": 0,
    "src:geom": "sfomuseum",
    "wof:belongsto": [
      1511214243,
      1511923935,
      102527513,
      102191575,
      85633793,
      1511213703,
      85922583,
      102087579,
      1511214277,
      1511214203,
      85688637
    ],
    "wof:breaches": [],
    "wof:country": "XX",
    "wof:created": 1578954084,
    "wof:depicts": [
      1159289873,
      1159293593,
      1159283875,
      1511923935,
      1159287625
    ],
    "wof:geomhash": "bd906905ce4be6c0651c90b0fc24804c",
    "wof:hierarchy": [
      {
        "arcade_id": 1511213703,
        "building_id": 1511214277,
        "campus_id": 102527513,
        "concourse_id": 1511214243,
        "continent_id": 102191575,
        "country_id": 85633793,
        "county_id": 102087579,
        "custom_id": 1527849787,
        "image_id": 1527849787,
        "locality_id": 85922583,
        "media_id": 1527849787,
        "neighbourhood_id": -1,
        "region_id": 85688637,
        "venue_id": 1511923935,
        "wing_id": 1511214203
      }
    ],
    "wof:id": 1527849787,
    "wof:lastmodified": 1788450164,
    "wof:name": "safety information card: ANA (All Nippon Airways), Boeing 747",
    "wof:parent_id": 1511923935,
    "wof:placetype": "custom",
    "wof:placetype_alt": [
      "image"
    ],
    "wof:repo": "sfomuseum-data-media-collection",
    "wof:superseded_by": [],
    "wof:supersedes": [],
    "wof:tags": []
  },
  "bbox": [
    -122.386155,
    37.616358,
    -122.386155,
    37.616358
  ],
  "geometry": {"type":"Point","coordinates":[-122.386155,37.616358]}
}
