{
  "id": 1527847609,
  "type": "Feature",
  "properties": {
    "date:cessation_lower": "1982-01-01",
    "date:cessation_upper": "1982-12-31",
    "date:inception_lower": "1982-01-01",
    "date:inception_upper": "1982-12-31",
    "edtf:cessation": "1982",
    "edtf:date": "1982",
    "edtf:inception": "1982",
    "geom:area": 0,
    "geom:bbox": "-122.386155,37.616358,-122.386155,37.616358",
    "geom:latitude": 37.616358,
    "geom:longitude": -122.386155,
    "iso:country": "XX",
    "media:fingerprint": "fdc1bb20e99ffad7bc362486f2dfe50ff105cd26",
    "media:imagehash_avg": "a:c7d7ffff0d010000",
    "media:imagehash_diff": "d:2d97979dede9f98b",
    "media:imagetext": "CPAir L\nSYSTEM\nTIMETABLE/\nINDICATEUR\nAPRIL 25, 1982 - OCTOBER 30, 1982\nDU 25 AVRIL 1982\nAU 30 OCTOBRE 1982\n=",
    "media:imagetext_created": 1787952357,
    "media:imagetext_source": "com.apple.visionkit.VNImageRequestHandler#Version 26.6.2 (Build 25G83)",
    "media:medium": "image",
    "media:mimetype": "image/tiff",
    "media:properties": {
      "sizes": {
        "b": {
          "extension": "jpg",
          "height": 768,
          "mimetype": "image/jpeg",
          "secret": "tZREKkbLlQn7vZx9lEe2xlIUozSz1GQp",
          "width": 343
        },
        "c": {
          "extension": "jpg",
          "height": 600,
          "mimetype": "image/jpeg",
          "secret": "tZREKkbLlQn7vZx9lEe2xlIUozSz1GQp",
          "width": 268
        },
        "dc": {
          "extension": "jpg",
          "height": 600,
          "mimetype": "image/jpeg",
          "secret": "tZREKkbLlQn7vZx9lEe2xlIUozSz1GQp",
          "width": 268
        },
        "ds": {
          "extension": "jpg",
          "height": 320,
          "mimetype": "image/jpeg",
          "secret": "tZREKkbLlQn7vZx9lEe2xlIUozSz1GQp",
          "width": 320
        },
        "k": {
          "extension": "jpg",
          "height": 1536,
          "mimetype": "image/jpeg",
          "secret": "tZREKkbLlQn7vZx9lEe2xlIUozSz1GQp",
          "width": 687
        },
        "n": {
          "extension": "jpg",
          "height": 240,
          "mimetype": "image/jpeg",
          "secret": "tZREKkbLlQn7vZx9lEe2xlIUozSz1GQp",
          "width": 107
        },
        "o": {
          "extension": "jpg",
          "height": 2805,
          "mimetype": "image/jpeg",
          "secret": "owEtcZbiXvlGPc5MJOemDP5tMEb9BkG8",
          "width": 1256
        },
        "s": {
          "extension": "jpg",
          "height": 320,
          "mimetype": "image/jpeg",
          "secret": "tZREKkbLlQn7vZx9lEe2xlIUozSz1GQp",
          "width": 320
        },
        "z": {
          "extension": "jpg",
          "height": 480,
          "mimetype": "image/jpeg",
          "secret": "tZREKkbLlQn7vZx9lEe2xlIUozSz1GQp",
          "width": 214
        }
      }
    },
    "media:source": "sfomuseum",
    "media:status_id": 1,
    "media:uri_template": "https://static.sfomuseum.org/media/152/784/760/9/1527847609_{secret}_{label}.{extension}",
    "millsfield:aircraft_id": [
      1159291259
    ],
    "millsfield:airline_id": [
      1159285759
    ],
    "millsfield:category_id": 1511214223,
    "millsfield:collection_id": 1511214207,
    "millsfield:company_id": [
      1159293561
    ],
    "millsfield:images_colors": [
      {
        "hex": "#dac625",
        "name": "#dac625",
        "reference": "marekm4"
      },
      {
        "hex": "#daa520",
        "name": "goldenrod",
        "reference": "css4"
      },
      {
        "hex": "#ffcf48",
        "name": "Sunglow",
        "reference": "crayola"
      },
      {
        "hex": "#d44c11",
        "name": "#d44c11",
        "reference": "marekm4"
      },
      {
        "hex": "#d2691e",
        "name": "chocolate",
        "reference": "css4"
      },
      {
        "hex": "#c46210",
        "name": "Alloy Orange",
        "reference": "crayola"
      },
      {
        "hex": "#201908",
        "name": "#201908",
        "reference": "marekm4"
      },
      {
        "hex": "#000000",
        "name": "black",
        "reference": "css4"
      },
      {
        "hex": "#000000",
        "name": "Black",
        "reference": "crayola"
      },
      {
        "hex": "#d8d9c5",
        "name": "#d8d9c5",
        "reference": "marekm4"
      },
      {
        "hex": "#d3d3d3",
        "name": "lightgrey",
        "reference": "css4"
      },
      {
        "hex": "#dbd7d2",
        "name": "Timberwolf",
        "reference": "crayola"
      }
    ],
    "millsfield:images_texts": [
      "CPAir L\nSYSTEM\nTIMETABLE/\nINDICATEUR\nAPRIL 25, 1982 - OCTOBER 30, 1982\nDU 25 AVRIL 1982\nAU 30 OCTOBRE 1982\n="
    ],
    "millsfield:images_texts_ids": [
      1527847609
    ],
    "millsfield:similar": {
      "apple/mobileclip_s0": [
        {
          "distance": 0.26470143,
          "id": 1762699463
        },
        {
          "distance": 0.3440523,
          "id": 1762699465
        },
        {
          "distance": 0.36091506,
          "id": 1527847611
        },
        {
          "distance": 0.4244335,
          "id": 1762699461
        },
        {
          "distance": 0.4575586,
          "id": 1527847607
        },
        {
          "distance": 0.48295715,
          "id": 1762699451
        },
        {
          "distance": 0.4971226,
          "id": 1527847589
        },
        {
          "distance": 0.57399523,
          "id": 1527836793
        },
        {
          "distance": 0.5832673,
          "id": 1762699457
        },
        {
          "distance": 0.5841228,
          "id": 1762699459
        }
      ],
      "apple/mobileclip_s1": [
        {
          "distance": 0.18214251,
          "id": 1762699463
        },
        {
          "distance": 0.21284902,
          "id": 1527847611
        },
        {
          "distance": 0.22866635,
          "id": 1762699465
        },
        {
          "distance": 0.25647685,
          "id": 1527847607
        },
        {
          "distance": 0.3060729,
          "id": 1762699461
        },
        {
          "distance": 0.36842233,
          "id": 1527847589
        },
        {
          "distance": 0.37643483,
          "id": 1762699451
        },
        {
          "distance": 0.40402824,
          "id": 1527847601
        },
        {
          "distance": 0.42782477,
          "id": 1527842557
        },
        {
          "distance": 0.4369809,
          "id": 1762699459
        }
      ],
      "apple/mobileclip_s2": [
        {
          "distance": 0.22112904,
          "id": 1762699463
        },
        {
          "distance": 0.28872007,
          "id": 1762699465
        },
        {
          "distance": 0.34065962,
          "id": 1527847611
        },
        {
          "distance": 0.35891393,
          "id": 1762699461
        },
        {
          "distance": 0.41915593,
          "id": 1527847607
        },
        {
          "distance": 0.48726365,
          "id": 1527847589
        },
        {
          "distance": 0.5117268,
          "id": 1762699451
        },
        {
          "distance": 0.5143807,
          "id": 1527847601
        },
        {
          "distance": 0.5557422,
          "id": 1762699459
        },
        {
          "distance": 0.59650767,
          "id": 1762699457
        }
      ]
    },
    "millsfield:subcategory_id": 1511213425,
    "mz:hierarchy_label": 1,
    "mz:is_current": -1,
    "sfomuseum:filename": "2009.122.287.tif",
    "sfomuseum:image_id": 71616,
    "sfomuseum:image_index": 5,
    "sfomuseum:image_type": "studio",
    "sfomuseum:object_id": 103290,
    "sfomuseum:placetype": "image",
    "sfomuseum:primary_image": 1,
    "src:geom": "sfomuseum",
    "wof:belongsto": [
      1511214223,
      1511940553,
      102527513,
      102191575,
      85633793,
      1511213425,
      85922583,
      102087579,
      1511214277,
      1511214203,
      85688637
    ],
    "wof:breaches": [],
    "wof:country": "XX",
    "wof:created": 1578953703,
    "wof:depicts": [
      1159293561,
      1511940553,
      1159285759,
      1159288301,
      1159284217,
      1159291259
    ],
    "wof:geomhash": "bd906905ce4be6c0651c90b0fc24804c",
    "wof:hierarchy": [
      {
        "arcade_id": 1511213425,
        "building_id": 1511214277,
        "campus_id": 102527513,
        "concourse_id": 1511214223,
        "continent_id": 102191575,
        "country_id": 85633793,
        "county_id": 102087579,
        "custom_id": 1527847609,
        "image_id": 1527847609,
        "locality_id": 85922583,
        "media_id": 1527847609,
        "neighbourhood_id": -1,
        "region_id": 85688637,
        "venue_id": 1511940553,
        "wing_id": 1511214203
      }
    ],
    "wof:id": 1527847609,
    "wof:lastmodified": 1788450132,
    "wof:name": "timetable: CP Air (Canadian Pacific Air Lines)",
    "wof:parent_id": 1511940553,
    "wof:placetype": "custom",
    "wof:placetype_alt": [
      "image"
    ],
    "wof:repo": "sfomuseum-data-media-collection",
    "wof:superseded_by": [],
    "wof:supersedes": [],
    "wof:tags": []
  },
  "bbox": [
    -122.386155,
    37.616358,
    -122.386155,
    37.616358
  ],
  "geometry": {"type":"Point","coordinates":[-122.386155,37.616358]}
}
