{
  "id": 1779788157,
  "type": "Feature",
  "properties": {
    "date:cessation_lower": "1974-01-01",
    "date:cessation_upper": "1974-12-31",
    "date:inception_lower": "1974-01-01",
    "date:inception_upper": "1974-12-31",
    "edtf:cessation": "1974",
    "edtf:inception": "1974",
    "geom:area": 2.477324999997507e-7,
    "geom:bbox": "-122.386472,37.616105,-122.385834,37.616611",
    "geom:latitude": 37.61635756125121,
    "geom:longitude": -122.38615532866096,
    "media:fingerprint": "d3ff96ce4a4152a322095fbb9a611dfdf8186ea5",
    "media:imagehash_avg": "a:ffc7c3c3818181c7",
    "media:imagehash_diff": "d:a6961f0737373f1f",
    "media:mimetype": "image/jpeg",
    "media:properties": {
      "sizes": {
        "b": {
          "extension": "jpg",
          "height": 768,
          "mimetype": "image/jpeg",
          "secret": "L9pDLSn7rHiNzB5xO6t6Acvyi63uKYS7",
          "width": 936
        },
        "c": {
          "extension": "jpg",
          "height": 600,
          "mimetype": "image/jpeg",
          "secret": "L9pDLSn7rHiNzB5xO6t6Acvyi63uKYS7",
          "width": 731
        },
        "dc": {
          "extension": "jpg",
          "height": 600,
          "mimetype": "image/jpeg",
          "secret": "L9pDLSn7rHiNzB5xO6t6Acvyi63uKYS7",
          "width": 731
        },
        "ds": {
          "extension": "jpg",
          "height": 320,
          "mimetype": "image/jpeg",
          "secret": "L9pDLSn7rHiNzB5xO6t6Acvyi63uKYS7",
          "width": 320
        },
        "k": {
          "extension": "jpg",
          "height": 1536,
          "mimetype": "image/jpeg",
          "secret": "L9pDLSn7rHiNzB5xO6t6Acvyi63uKYS7",
          "width": 1872
        },
        "n": {
          "extension": "jpg",
          "height": 239,
          "mimetype": "image/jpeg",
          "secret": "L9pDLSn7rHiNzB5xO6t6Acvyi63uKYS7",
          "width": 292
        },
        "o": {
          "extension": "jpg",
          "height": 803,
          "mimetype": "image/jpeg",
          "secret": "g2PucpLnVJ3Gvx8nKDKuRiSTJEKkniaf",
          "width": 979
        },
        "s": {
          "extension": "jpg",
          "height": 320,
          "mimetype": "image/jpeg",
          "secret": "L9pDLSn7rHiNzB5xO6t6Acvyi63uKYS7",
          "width": 320
        },
        "z": {
          "extension": "jpg",
          "height": 479,
          "mimetype": "image/jpeg",
          "secret": "L9pDLSn7rHiNzB5xO6t6Acvyi63uKYS7",
          "width": 585
        }
      }
    },
    "media:source": "sfomuseum",
    "media:status_id": 1,
    "media:uri_template": "https://static.sfomuseum.org/media/177/978/815/7/1779788157_{secret}_{label}.{extension}",
    "millsfield:airline_id": [
      1159285393
    ],
    "millsfield:category_id": 1763416381,
    "millsfield:collection_id": 1511214203,
    "millsfield:company_id": [
      1159287531
    ],
    "millsfield:images_colors": [
      {
        "hex": "#fefef0",
        "name": "#fefef0",
        "reference": "marekm4"
      },
      {
        "hex": "#fffff0",
        "name": "ivory",
        "reference": "css4"
      },
      {
        "hex": "#ffffff",
        "name": "White",
        "reference": "crayola"
      },
      {
        "hex": "#153a9a",
        "name": "#153a9a",
        "reference": "marekm4"
      },
      {
        "hex": "#483d8b",
        "name": "darkslateblue",
        "reference": "css4"
      },
      {
        "hex": "#1a4876",
        "name": "Midnight Blue",
        "reference": "crayola"
      },
      {
        "hex": "#0a1f75",
        "name": "#0a1f75",
        "reference": "marekm4"
      },
      {
        "hex": "#191970",
        "name": "midnightblue",
        "reference": "css4"
      }
    ],
    "millsfield:similar": {
      "apple/mobileclip_s0": [
        {
          "distance": 0.30090168,
          "id": 1779796929
        },
        {
          "distance": 0.34870005,
          "id": 1880369915
        },
        {
          "distance": 0.36500427,
          "id": 1880508275
        },
        {
          "distance": 0.36588988,
          "id": 1746679471
        },
        {
          "distance": 0.37285936,
          "id": 2015335057
        },
        {
          "distance": 0.37375295,
          "id": 1897358971
        },
        {
          "distance": 0.37631106,
          "id": 1880498843
        },
        {
          "distance": 0.37879068,
          "id": 1897358963
        },
        {
          "distance": 0.39069945,
          "id": 2015344261
        },
        {
          "distance": 0.3933358,
          "id": 1746679475
        }
      ],
      "apple/mobileclip_s1": [
        {
          "distance": 0.23779336,
          "id": 1779796929
        },
        {
          "distance": 0.2578878,
          "id": 1880713115
        },
        {
          "distance": 0.26636598,
          "id": 1880508275
        },
        {
          "distance": 0.26899117,
          "id": 1880369915
        },
        {
          "distance": 0.2789496,
          "id": 1913955395
        },
        {
          "distance": 0.2815787,
          "id": 2015344261
        },
        {
          "distance": 0.2840989,
          "id": 1880369773
        },
        {
          "distance": 0.3016605,
          "id": 1897358963
        },
        {
          "distance": 0.30560118,
          "id": 1763446525
        },
        {
          "distance": 0.30883276,
          "id": 1880644933
        }
      ],
      "apple/mobileclip_s2": [
        {
          "distance": 0.3119871,
          "id": 1880713115
        },
        {
          "distance": 0.32286483,
          "id": 1779796929
        },
        {
          "distance": 0.3336427,
          "id": 1880369915
        },
        {
          "distance": 0.3392737,
          "id": 2015344261
        },
        {
          "distance": 0.3785974,
          "id": 1897358963
        },
        {
          "distance": 0.3827841,
          "id": 1880369773
        },
        {
          "distance": 0.38546467,
          "id": 1880369917
        },
        {
          "distance": 0.39276385,
          "id": 1763446525
        },
        {
          "distance": 0.39312512,
          "id": 1880370355
        },
        {
          "distance": 0.3955029,
          "id": 1763446537
        }
      ]
    },
    "millsfield:subcategory_id": 1511213455,
    "mz:is_current": 1,
    "sfomuseum:filename": "CD6AB0AD-34FA-4F3F-B223-A733D538D502_1_105_c.jpeg",
    "sfomuseum:image_id": 260465,
    "sfomuseum:image_index": 1,
    "sfomuseum:image_type": "curator",
    "sfomuseum:object_id": 230562,
    "sfomuseum:placetype": "image",
    "sfomuseum:primary_image": 1,
    "src:geom": "sfomuseum",
    "wof:belongsto": [
      102527513,
      1159162825,
      102191575,
      85633793,
      102087579,
      85922583,
      1779435915,
      85688637,
      1159160869
    ],
    "wof:country": "XY",
    "wof:created": 1657155637,
    "wof:depicts": [
      1779435915,
      1159285393,
      1159287531
    ],
    "wof:geomhash": "ed7c2ab3547fc3916b5edc33488deaa7",
    "wof:hierarchy": [
      {
        "building_id": -1,
        "campus_id": 102527513,
        "collection_id": 1159162825,
        "concourse_id": 1159162825,
        "continent_id": 102191575,
        "country_id": 85633793,
        "county_id": 102087579,
        "custom_id": 1779788157,
        "image_id": 1779788157,
        "locality_id": 85922583,
        "neighbourhood_id": -1,
        "object_id": 1779435915,
        "region_id": 85688637,
        "wing_id": 1159160869
      }
    ],
    "wof:id": 1779788157,
    "wof:lastmodified": 1788451382,
    "wof:name": "flight attendant skirt: TWA (Trans World Airlines)",
    "wof:parent_id": 1779435915,
    "wof:placetype": "custom",
    "wof:placetype_alt": [
      "image"
    ],
    "wof:repo": "sfomuseum-data-media-collection",
    "wof:superseded_by": [],
    "wof:supersedes": []
  },
  "bbox": [
    -122.386472,
    37.616105,
    -122.385834,
    37.616611
  ],
  "geometry": {"type":"Polygon","coordinates":[[[-122.386472,37.616318],[-122.386435,37.616233],[-122.386376,37.616178],[-122.386301,37.616131],[-122.386161,37.616105],[-122.386022,37.616131],[-122.385914,37.616186],[-122.385855,37.616267],[-122.385834,37.616369],[-122.385871,37.616467],[-122.385941,37.616543],[-122.386054,37.616603],[-122.386183,37.616611],[-122.386306,37.616573],[-122.386419,37.616509],[-122.386467,37.616411],[-122.386472,37.616318]]]}
}
