{
  "id": 1913832249,
  "type": "Feature",
  "properties": {
    "date:cessation_lower": "1950-01-01",
    "date:cessation_upper": "1959-12-31",
    "date:inception_lower": "1950-01-01",
    "date:inception_upper": "1959-12-31",
    "edtf:cessation": "195X",
    "edtf:inception": "195X",
    "geom:area": 2.477324999997507e-7,
    "geom:bbox": "-122.386472,37.616105,-122.385834,37.616611",
    "geom:latitude": 37.61635756125121,
    "geom:longitude": -122.38615532866096,
    "media:fingerprint": "71d4c1dc3fed923ae31e11b7b3c7b089edb269a2",
    "media:imagehash_avg": "a:ffffdb8181c3ffff",
    "media:imagehash_diff": "d:68f03333170f0e5c",
    "media:imagetext": "",
    "media:mimetype": "image/tiff",
    "media:properties": {
      "sizes": {
        "b": {
          "extension": "jpg",
          "height": 768,
          "mimetype": "image/jpeg",
          "secret": "R7BndAW90n9NeYVWUjtNqf26qWXuZTWI",
          "width": 965
        },
        "c": {
          "extension": "jpg",
          "height": 600,
          "mimetype": "image/jpeg",
          "secret": "R7BndAW90n9NeYVWUjtNqf26qWXuZTWI",
          "width": 754
        },
        "dc": {
          "extension": "jpg",
          "height": 600,
          "mimetype": "image/jpeg",
          "secret": "R7BndAW90n9NeYVWUjtNqf26qWXuZTWI",
          "width": 754
        },
        "ds": {
          "extension": "jpg",
          "height": 320,
          "mimetype": "image/jpeg",
          "secret": "R7BndAW90n9NeYVWUjtNqf26qWXuZTWI",
          "width": 320
        },
        "k": {
          "extension": "jpg",
          "height": 1536,
          "mimetype": "image/jpeg",
          "secret": "R7BndAW90n9NeYVWUjtNqf26qWXuZTWI",
          "width": 1931
        },
        "n": {
          "extension": "jpg",
          "height": 240,
          "mimetype": "image/jpeg",
          "secret": "R7BndAW90n9NeYVWUjtNqf26qWXuZTWI",
          "width": 301
        },
        "o": {
          "extension": "jpg",
          "height": 1667,
          "mimetype": "image/jpeg",
          "secret": "RvrPvxUtOwkLk3WKz8sOBFTuDJzEqXP6",
          "width": 2096
        },
        "s": {
          "extension": "jpg",
          "height": 320,
          "mimetype": "image/jpeg",
          "secret": "R7BndAW90n9NeYVWUjtNqf26qWXuZTWI",
          "width": 320
        },
        "z": {
          "extension": "jpg",
          "height": 480,
          "mimetype": "image/jpeg",
          "secret": "R7BndAW90n9NeYVWUjtNqf26qWXuZTWI",
          "width": 603
        }
      }
    },
    "media:source": "sfomuseum",
    "media:status_id": 1,
    "media:uri_template": "https://static.sfomuseum.org/media/191/383/224/9/1913832249_{secret}_{label}.{extension}",
    "millsfield:airline_id": [
      1159283849
    ],
    "millsfield:category_id": 1746152551,
    "millsfield:collection_id": 1511214203,
    "millsfield:company_id": [
      1360700619
    ],
    "millsfield:images_colors": [
      {
        "hex": "#afaeaf",
        "name": "#afaeaf",
        "reference": "marekm4"
      },
      {
        "hex": "#a9a9a9",
        "name": "darkgrey",
        "reference": "css4"
      },
      {
        "hex": "#b0b7c6",
        "name": "Cadet Blue",
        "reference": "crayola"
      },
      {
        "hex": "#474645",
        "name": "#474645",
        "reference": "marekm4"
      },
      {
        "hex": "#2f4f4f",
        "name": "darkslategrey",
        "reference": "css4"
      },
      {
        "hex": "#414a4c",
        "name": "Outer Space",
        "reference": "crayola"
      }
    ],
    "millsfield:similar": {
      "apple/mobileclip_s0": [
        {
          "distance": 0.6321673,
          "id": 1746681981
        },
        {
          "distance": 0.6461962,
          "id": 1763389381
        },
        {
          "distance": 0.6541511,
          "id": 1931110701
        },
        {
          "distance": 0.6695832,
          "id": 1913872277
        },
        {
          "distance": 0.6707333,
          "id": 1746681987
        },
        {
          "distance": 0.6733843,
          "id": 1931110703
        },
        {
          "distance": 0.6908819,
          "id": 2014979185
        },
        {
          "distance": 0.6914875,
          "id": 1931110705
        },
        {
          "distance": 0.69826376,
          "id": 1913872279
        },
        {
          "distance": 0.69925374,
          "id": 1913842291
        }
      ],
      "apple/mobileclip_s1": [
        {
          "distance": 0.47843012,
          "id": 1913872277
        },
        {
          "distance": 0.49948224,
          "id": 1913872279
        },
        {
          "distance": 0.5057116,
          "id": 1913872283
        },
        {
          "distance": 0.50633705,
          "id": 1931110705
        },
        {
          "distance": 0.51085734,
          "id": 2048166537
        },
        {
          "distance": 0.51451516,
          "id": 1931110701
        },
        {
          "distance": 0.52005893,
          "id": 1763094615
        },
        {
          "distance": 0.52431685,
          "id": 1763441743
        },
        {
          "distance": 0.5262386,
          "id": 1763441715
        },
        {
          "distance": 0.5309039,
          "id": 1763441747
        }
      ],
      "apple/mobileclip_s2": [
        {
          "distance": 0.5816343,
          "id": 1913872277
        },
        {
          "distance": 0.6414519,
          "id": 1913872279
        },
        {
          "distance": 0.6514195,
          "id": 1931110701
        },
        {
          "distance": 0.66191953,
          "id": 1931110703
        },
        {
          "distance": 0.6744023,
          "id": 1931110705
        },
        {
          "distance": 0.67896366,
          "id": 1913872283
        },
        {
          "distance": 0.68900526,
          "id": 1746681987
        },
        {
          "distance": 0.7240964,
          "id": 1913872273
        },
        {
          "distance": 0.7257946,
          "id": 1913832247
        },
        {
          "distance": 0.73715365,
          "id": 1913872281
        }
      ]
    },
    "millsfield:subcategory_id": 1746152569,
    "mz:is_current": 1,
    "sfomuseum:filename": "121259.tif",
    "sfomuseum:image_id": 121259,
    "sfomuseum:image_index": 5,
    "sfomuseum:image_type": "studio",
    "sfomuseum:object_id": 65484,
    "sfomuseum:placetype": "image",
    "sfomuseum:primary_image": 1,
    "src:geom": "sfomuseum",
    "wof:belongsto": [
      102527513,
      1159162825,
      102191575,
      85633793,
      102087579,
      85922583,
      1913832127,
      85688637,
      1159160869
    ],
    "wof:country": "XY",
    "wof:created": 1714721725,
    "wof:depicts": [
      1159283849,
      1360700619,
      1913832127
    ],
    "wof:geomhash": "ed7c2ab3547fc3916b5edc33488deaa7",
    "wof:hierarchy": [
      {
        "building_id": -1,
        "campus_id": 102527513,
        "collection_id": 1159162825,
        "concourse_id": 1159162825,
        "continent_id": 102191575,
        "country_id": 85633793,
        "county_id": 102087579,
        "custom_id": 1913832249,
        "image_id": 1913832249,
        "locality_id": 85922583,
        "neighbourhood_id": -1,
        "object_id": 1913832127,
        "region_id": 85688637,
        "wing_id": 1159160869
      }
    ],
    "wof:id": 1913832249,
    "wof:lastmodified": 1788452301,
    "wof:name": "napkin ring: American Airlines",
    "wof:parent_id": 1913832127,
    "wof:placetype": "custom",
    "wof:placetype_alt": [
      "image"
    ],
    "wof:repo": "sfomuseum-data-media-collection",
    "wof:superseded_by": [],
    "wof:supersedes": []
  },
  "bbox": [
    -122.386472,
    37.616105,
    -122.385834,
    37.616611
  ],
  "geometry": {"type":"Polygon","coordinates":[[[-122.386472,37.616318],[-122.386435,37.616233],[-122.386376,37.616178],[-122.386301,37.616131],[-122.386161,37.616105],[-122.386022,37.616131],[-122.385914,37.616186],[-122.385855,37.616267],[-122.385834,37.616369],[-122.385871,37.616467],[-122.385941,37.616543],[-122.386054,37.616603],[-122.386183,37.616611],[-122.386306,37.616573],[-122.386419,37.616509],[-122.386467,37.616411],[-122.386472,37.616318]]]}
}
