{
  "id": 1779436509,
  "type": "Feature",
  "properties": {
    "date:cessation_lower": "1980-01-01",
    "date:cessation_upper": "1989-12-31",
    "date:inception_lower": "1980-01-01",
    "date:inception_upper": "1989-12-31",
    "edtf:cessation": "198X",
    "edtf:inception": "198X",
    "geom:area": 2.477324999997507e-7,
    "geom:bbox": "-122.386472,37.616105,-122.385834,37.616611",
    "geom:latitude": 37.61635756125121,
    "geom:longitude": -122.38615532866096,
    "media:fingerprint": "584a92f955eae7d96228d0ca4659562369b3e020",
    "media:imagehash_avg": "a:0000fce101f0fffd",
    "media:imagehash_diff": "d:2161c953dd046809",
    "media:imagetext": "Japan\nJAPAN AIR LINES\nJAL",
    "media:imagetext_created": 1787963950,
    "media:imagetext_source": "com.apple.visionkit.VNImageRequestHandler#Version 26.6.2 (Build 25G83)",
    "media:mimetype": "image/tiff",
    "media:properties": {
      "sizes": {
        "b": {
          "extension": "jpg",
          "height": 768,
          "mimetype": "image/jpeg",
          "secret": "yVl6AtNRDjoY025skyUkJI0eU0DY8Axh",
          "width": 513
        },
        "c": {
          "extension": "jpg",
          "height": 600,
          "mimetype": "image/jpeg",
          "secret": "yVl6AtNRDjoY025skyUkJI0eU0DY8Axh",
          "width": 401
        },
        "dc": {
          "extension": "jpg",
          "height": 600,
          "mimetype": "image/jpeg",
          "secret": "yVl6AtNRDjoY025skyUkJI0eU0DY8Axh",
          "width": 401
        },
        "ds": {
          "extension": "jpg",
          "height": 320,
          "mimetype": "image/jpeg",
          "secret": "yVl6AtNRDjoY025skyUkJI0eU0DY8Axh",
          "width": 320
        },
        "k": {
          "extension": "jpg",
          "height": 1536,
          "mimetype": "image/jpeg",
          "secret": "yVl6AtNRDjoY025skyUkJI0eU0DY8Axh",
          "width": 1027
        },
        "n": {
          "extension": "jpg",
          "height": 240,
          "mimetype": "image/jpeg",
          "secret": "yVl6AtNRDjoY025skyUkJI0eU0DY8Axh",
          "width": 160
        },
        "o": {
          "extension": "jpg",
          "height": 2200,
          "mimetype": "image/jpeg",
          "secret": "PuRo41nvAtMX4cCukYD7CIWjlUA8KBKq",
          "width": 1472
        },
        "s": {
          "extension": "jpg",
          "height": 320,
          "mimetype": "image/jpeg",
          "secret": "yVl6AtNRDjoY025skyUkJI0eU0DY8Axh",
          "width": 320
        },
        "z": {
          "extension": "jpg",
          "height": 480,
          "mimetype": "image/jpeg",
          "secret": "yVl6AtNRDjoY025skyUkJI0eU0DY8Axh",
          "width": 321
        }
      }
    },
    "media:source": "sfomuseum",
    "media:status_id": 1,
    "media:uri_template": "https://static.sfomuseum.org/media/177/943/650/9/1779436509_{secret}_{label}.{extension}",
    "millsfield:airline_id": [
      1159285785
    ],
    "millsfield:category_id": 1763416373,
    "millsfield:collection_id": 1511214203,
    "millsfield:company_id": [
      1159288505
    ],
    "millsfield:images_colors": [
      {
        "hex": "#b4bfce",
        "name": "#b4bfce",
        "reference": "marekm4"
      },
      {
        "hex": "#b0c4de",
        "name": "lightsteelblue",
        "reference": "css4"
      },
      {
        "hex": "#b0b7c6",
        "name": "Cadet Blue",
        "reference": "crayola"
      },
      {
        "hex": "#3d77af",
        "name": "#3d77af",
        "reference": "marekm4"
      },
      {
        "hex": "#4682b4",
        "name": "steelblue",
        "reference": "css4"
      },
      {
        "hex": "#2b6cc4",
        "name": "Denim",
        "reference": "crayola"
      },
      {
        "hex": "#638bb7",
        "name": "#638bb7",
        "reference": "marekm4"
      },
      {
        "hex": "#5f9ea0",
        "name": "cadetblue",
        "reference": "css4"
      },
      {
        "hex": "#6699cc",
        "name": "Blue Gray",
        "reference": "crayola"
      },
      {
        "hex": "#3d526c",
        "name": "#3d526c",
        "reference": "marekm4"
      },
      {
        "hex": "#2f4f4f",
        "name": "darkslategrey",
        "reference": "css4"
      },
      {
        "hex": "#4a646c",
        "name": "Deep Space Sparkle",
        "reference": "crayola"
      }
    ],
    "millsfield:images_texts": [
      "Japan\nJAPAN AIR LINES\nJAL"
    ],
    "millsfield:images_texts_ids": [
      1779436509
    ],
    "millsfield:similar": {
      "apple/mobileclip_s0": [
        {
          "distance": 0.6322434,
          "id": 1762706105
        },
        {
          "distance": 0.7118825,
          "id": 1762706083
        },
        {
          "distance": 0.7383268,
          "id": 1527854847
        },
        {
          "distance": 0.7566286,
          "id": 1779436561
        },
        {
          "distance": 0.8079527,
          "id": 1762701619
        },
        {
          "distance": 0.80812985,
          "id": 1527819843
        },
        {
          "distance": 0.8099727,
          "id": 1527835811
        },
        {
          "distance": 0.8110332,
          "id": 1527846951
        },
        {
          "distance": 0.815782,
          "id": 1527841893
        },
        {
          "distance": 0.82012904,
          "id": 1527848201
        }
      ],
      "apple/mobileclip_s1": [
        {
          "distance": 0.45610467,
          "id": 1762706083
        },
        {
          "distance": 0.465131,
          "id": 1762706105
        },
        {
          "distance": 0.49792063,
          "id": 1779436561
        },
        {
          "distance": 0.5027874,
          "id": 1527854847
        },
        {
          "distance": 0.53381544,
          "id": 1762701619
        },
        {
          "distance": 0.5382174,
          "id": 2048167733
        },
        {
          "distance": 0.5403447,
          "id": 1762706087
        },
        {
          "distance": 0.5419541,
          "id": 1779436859
        },
        {
          "distance": 0.56199014,
          "id": 1527844791
        },
        {
          "distance": 0.5692904,
          "id": 1527846951
        }
      ],
      "apple/mobileclip_s2": [
        {
          "distance": 0.6680851,
          "id": 1762706083
        },
        {
          "distance": 0.6847866,
          "id": 1527854847
        },
        {
          "distance": 0.6991023,
          "id": 1762706105
        },
        {
          "distance": 0.72348243,
          "id": 2048167733
        },
        {
          "distance": 0.7259419,
          "id": 1779436859
        },
        {
          "distance": 0.7299412,
          "id": 1779436561
        },
        {
          "distance": 0.76917106,
          "id": 1762706087
        },
        {
          "distance": 0.82219315,
          "id": 1863470795
        },
        {
          "distance": 0.8331091,
          "id": 1762697433
        },
        {
          "distance": 0.83621466,
          "id": 1527841893
        }
      ]
    },
    "millsfield:subcategory_id": 1511213365,
    "mz:is_current": 1,
    "sfomuseum:filename": "2012.129.010.tif",
    "sfomuseum:image_id": 105988,
    "sfomuseum:image_index": 5,
    "sfomuseum:image_type": "studio",
    "sfomuseum:object_id": 130187,
    "sfomuseum:placetype": "image",
    "sfomuseum:primary_image": 1,
    "src:geom": "sfomuseum",
    "wof:belongsto": [
      102527513,
      1159162825,
      102191575,
      85633793,
      102087579,
      85922583,
      1779436419,
      85688637,
      1159160869
    ],
    "wof:country": "XY",
    "wof:created": 1652312783,
    "wof:depicts": [
      1159285785,
      1159288505,
      1779436419
    ],
    "wof:geomhash": "ed7c2ab3547fc3916b5edc33488deaa7",
    "wof:hierarchy": [
      {
        "building_id": -1,
        "campus_id": 102527513,
        "collection_id": 1159162825,
        "concourse_id": 1159162825,
        "continent_id": 102191575,
        "country_id": 85633793,
        "county_id": 102087579,
        "custom_id": 1779436509,
        "image_id": 1779436509,
        "locality_id": 85922583,
        "neighbourhood_id": -1,
        "object_id": 1779436419,
        "region_id": 85688637,
        "wing_id": 1159160869
      }
    ],
    "wof:id": 1779436509,
    "wof:lastmodified": 1788451269,
    "wof:name": "poster: Japan Air Lines, Japan",
    "wof:parent_id": 1779436419,
    "wof:placetype": "custom",
    "wof:placetype_alt": [
      "image"
    ],
    "wof:repo": "sfomuseum-data-media-collection",
    "wof:superseded_by": [],
    "wof:supersedes": []
  },
  "bbox": [
    -122.386472,
    37.616105,
    -122.385834,
    37.616611
  ],
  "geometry": {"type":"Polygon","coordinates":[[[-122.386472,37.616318],[-122.386435,37.616233],[-122.386376,37.616178],[-122.386301,37.616131],[-122.386161,37.616105],[-122.386022,37.616131],[-122.385914,37.616186],[-122.385855,37.616267],[-122.385834,37.616369],[-122.385871,37.616467],[-122.385941,37.616543],[-122.386054,37.616603],[-122.386183,37.616611],[-122.386306,37.616573],[-122.386419,37.616509],[-122.386467,37.616411],[-122.386472,37.616318]]]}
}
