{
  "id": 1779667891,
  "type": "Feature",
  "properties": {
    "date:cessation_lower": "2018-01-01",
    "date:cessation_upper": "2018-12-31",
    "date:inception_lower": "2018-01-01",
    "date:inception_upper": "2018-12-31",
    "edtf:cessation": "2018",
    "edtf:inception": "2018",
    "geom:area": 2.477324999997507e-7,
    "geom:bbox": "-122.386472,37.616105,-122.385834,37.616611",
    "geom:latitude": 37.61635756125121,
    "geom:longitude": -122.38615532866096,
    "media:fingerprint": "1c01541bcf9b1cf2b866e78e1297f861042f42ce",
    "media:imagehash_avg": "a:ffffffffffff8080",
    "media:imagehash_diff": "d:eeaea686a6ae3d31",
    "media:imagetext": "MENU\nYour meal will be served shortly after take-off.\nEXPRESS LIGHT\nOPTION\nAPPETIZER\nSALAD\nMAIN COURSES\nEach meal is served with\na selection of warm breads.\nCHEESE\nDESSERT\nServed with espresso,\ncappuccino, coffee and\na selection of teas.\nAs a quicker, lighter option, enjoy your appetizer with salad,\ncheese and fruit - presented all at once, soon after take-off.\nSmoked duck slices, date purée, grilled apple, fig\n\u0026 Mixed greens, bell peppers, cherry tomato, vinaigrette\nRack of lamb, cherry tomato confit, buttered mashed\npotatoes, sautéed parsley field mushrooms\nGarlic herb chicken breast, oregano tomato sauce,\nwhole-grain rice, sultana pilaf, asparagus, carrots\n• Cod fillet, lemon basil sauce, coriander coconut rice,\nmushrooms, mixed vegetables\nMushroom and cheese filled pasta, arrabbiata sauce\nFrench Brie, smoked Cheddar, Red Leicester, crackers\n• Fresh seasonal fruit\nChocolate, vanilla bean, mocha ice cream\nA selection of packaged snacks is always available in our\ngalley.\nLIGHT MEAL\nA light meal will be served\napproximately 90 minutes prior\nto arrival. Should you prefer to\neat at an earlier time, please\ninform your flight attendant.\nSandwich selection of piri piri chicken, egg salad with chives,\nharissa hummus with peppers\nScones, jam, clotted cream\n• Fresh orange segments\n3 211C003-3\n• Air Canada NutriCuisine\nWe apologize should your preferred choice not be available. We cannot guarantee any food items to be allergen free.\n\u0026 DINE ON DEMAND\nShould you wish more time to work or sleep after take-off,\nplease let us know before departure and we'll set your meal\naside for you to have later during the flight.\nFollowing your meal, personalise your inflight experience:\nenjoy any light meal items up to 90 minutes prior to landing.\nSimply let your flight attendant know what you would like\nto order.",
    "media:imagetext_created": 1787964616,
    "media:imagetext_source": "com.apple.visionkit.VNImageRequestHandler#Version 26.6.2 (Build 25G83)",
    "media:mimetype": "image/tiff",
    "media:properties": {
      "sizes": {
        "b": {
          "extension": "jpg",
          "height": 768,
          "mimetype": "image/jpeg",
          "secret": "fyKvhqVOJvxhseT9mPu0p9BIVnOHvj57",
          "width": 504
        },
        "c": {
          "extension": "jpg",
          "height": 600,
          "mimetype": "image/jpeg",
          "secret": "fyKvhqVOJvxhseT9mPu0p9BIVnOHvj57",
          "width": 394
        },
        "dc": {
          "extension": "jpg",
          "height": 600,
          "mimetype": "image/jpeg",
          "secret": "fyKvhqVOJvxhseT9mPu0p9BIVnOHvj57",
          "width": 394
        },
        "ds": {
          "extension": "jpg",
          "height": 320,
          "mimetype": "image/jpeg",
          "secret": "fyKvhqVOJvxhseT9mPu0p9BIVnOHvj57",
          "width": 320
        },
        "k": {
          "extension": "jpg",
          "height": 1536,
          "mimetype": "image/jpeg",
          "secret": "fyKvhqVOJvxhseT9mPu0p9BIVnOHvj57",
          "width": 1009
        },
        "n": {
          "extension": "jpg",
          "height": 240,
          "mimetype": "image/jpeg",
          "secret": "fyKvhqVOJvxhseT9mPu0p9BIVnOHvj57",
          "width": 157
        },
        "o": {
          "extension": "jpg",
          "height": 2000,
          "mimetype": "image/jpeg",
          "secret": "LhVz6G6GHi8XgDvoWnUsWTbrFadzds0i",
          "width": 1315
        },
        "s": {
          "extension": "jpg",
          "height": 320,
          "mimetype": "image/jpeg",
          "secret": "fyKvhqVOJvxhseT9mPu0p9BIVnOHvj57",
          "width": 320
        },
        "z": {
          "extension": "jpg",
          "height": 480,
          "mimetype": "image/jpeg",
          "secret": "fyKvhqVOJvxhseT9mPu0p9BIVnOHvj57",
          "width": 315
        }
      }
    },
    "media:source": "sfomuseum",
    "media:status_id": 1,
    "media:uri_template": "https://static.sfomuseum.org/media/177/966/789/1/1779667891_{secret}_{label}.{extension}",
    "millsfield:airline_id": [
      1159283597
    ],
    "millsfield:category_id": 1762671311,
    "millsfield:collection_id": 1511214207,
    "millsfield:company_id": [
      1159288851
    ],
    "millsfield:images_colors": [
      {
        "hex": "#f5f5f4",
        "name": "#f5f5f4",
        "reference": "marekm4"
      },
      {
        "hex": "#f5f5f5",
        "name": "whitesmoke",
        "reference": "css4"
      },
      {
        "hex": "#ffffff",
        "name": "White",
        "reference": "crayola"
      },
      {
        "hex": "#252213",
        "name": "#252213",
        "reference": "marekm4"
      },
      {
        "hex": "#000000",
        "name": "black",
        "reference": "css4"
      },
      {
        "hex": "#000000",
        "name": "Black",
        "reference": "crayola"
      }
    ],
    "millsfield:images_texts": [
      "MENU",
      "MENU\nYour meal will be served shortly after take-off.\nEXPRESS LIGHT\nOPTION\nAPPETIZER\nSALAD\nMAIN COURSES\nEach meal is served with\na selection of warm breads.\nCHEESE\nDESSERT\nServed with espresso,\ncappuccino, coffee and\na selection of teas.\nAs a quicker, lighter option, enjoy your appetizer with salad,\ncheese and fruit - presented all at once, soon after take-off.\nSmoked duck slices, date purée, grilled apple, fig\n\u0026 Mixed greens, bell peppers, cherry tomato, vinaigrette\nRack of lamb, cherry tomato confit, buttered mashed\npotatoes, sautéed parsley field mushrooms\nGarlic herb chicken breast, oregano tomato sauce,\nwhole-grain rice, sultana pilaf, asparagus, carrots\n• Cod fillet, lemon basil sauce, coriander coconut rice,\nmushrooms, mixed vegetables\nMushroom and cheese filled pasta, arrabbiata sauce\nFrench Brie, smoked Cheddar, Red Leicester, crackers\n• Fresh seasonal fruit\nChocolate, vanilla bean, mocha ice cream\nA selection of packaged snacks is always available in our\ngalley.\nLIGHT MEAL\nA light meal will be served\napproximately 90 minutes prior\nto arrival. Should you prefer to\neat at an earlier time, please\ninform your flight attendant.\nSandwich selection of piri piri chicken, egg salad with chives,\nharissa hummus with peppers\nScones, jam, clotted cream\n• Fresh orange segments\n3 211C003-3\n• Air Canada NutriCuisine\nWe apologize should your preferred choice not be available. We cannot guarantee any food items to be allergen free.\n\u0026 DINE ON DEMAND\nShould you wish more time to work or sleep after take-off,\nplease let us know before departure and we'll set your meal\naside for you to have later during the flight.\nFollowing your meal, personalise your inflight experience:\nenjoy any light meal items up to 90 minutes prior to landing.\nSimply let your flight attendant know what you would like\nto order."
    ],
    "millsfield:images_texts_ids": [
      1779667889,
      1779667891
    ],
    "millsfield:similar": {
      "apple/mobileclip_s0": [
        {
          "distance": 0.38922843,
          "id": 1779667887
        },
        {
          "distance": 0.41990134,
          "id": 1762896947
        },
        {
          "distance": 0.43562245,
          "id": 1779736519
        },
        {
          "distance": 0.4431317,
          "id": 1527846635
        },
        {
          "distance": 0.47329497,
          "id": 1779667579
        },
        {
          "distance": 0.47448793,
          "id": 1527846211
        },
        {
          "distance": 0.47550008,
          "id": 1527843795
        },
        {
          "distance": 0.4861299,
          "id": 1527846625
        },
        {
          "distance": 0.49257052,
          "id": 1779667897
        },
        {
          "distance": 0.4940948,
          "id": 1527845015
        }
      ],
      "apple/mobileclip_s1": [
        {
          "distance": 0.38929477,
          "id": 1762896947
        },
        {
          "distance": 0.4013553,
          "id": 1779667887
        },
        {
          "distance": 0.41227543,
          "id": 1762899405
        },
        {
          "distance": 0.41816285,
          "id": 1779667897
        },
        {
          "distance": 0.4442075,
          "id": 1527846611
        },
        {
          "distance": 0.45265925,
          "id": 1527846241
        },
        {
          "distance": 0.45361552,
          "id": 1527844961
        },
        {
          "distance": 0.46025822,
          "id": 1527846211
        },
        {
          "distance": 0.466497,
          "id": 1527844115
        },
        {
          "distance": 0.46833882,
          "id": 1527843877
        }
      ],
      "apple/mobileclip_s2": [
        {
          "distance": 0.4860303,
          "id": 1779667887
        },
        {
          "distance": 0.54439193,
          "id": 1762896947
        },
        {
          "distance": 0.59982044,
          "id": 1527846519
        },
        {
          "distance": 0.6017107,
          "id": 1779667579
        },
        {
          "distance": 0.60254,
          "id": 1779667913
        },
        {
          "distance": 0.60324925,
          "id": 1779736519
        },
        {
          "distance": 0.610573,
          "id": 1527846241
        },
        {
          "distance": 0.611236,
          "id": 1762899405
        },
        {
          "distance": 0.6239601,
          "id": 1931109805
        },
        {
          "distance": 0.6240405,
          "id": 1527843877
        }
      ]
    },
    "millsfield:subcategory_id": 1511213567,
    "mz:is_current": 1,
    "sfomuseum:filename": "2018.154.011_interior.tif",
    "sfomuseum:image_id": 221405,
    "sfomuseum:image_index": 5,
    "sfomuseum:image_type": "studio",
    "sfomuseum:object_id": 201603,
    "sfomuseum:placetype": "image",
    "sfomuseum:primary_image": 0,
    "src:geom": "sfomuseum",
    "wof:belongsto": [
      102527513,
      1159162825,
      102191575,
      85633793,
      102087579,
      85922583,
      1779667097,
      85688637,
      1159160869
    ],
    "wof:country": "XY",
    "wof:created": 1655193566,
    "wof:depicts": [
      1159283597,
      1159288851,
      1779667097
    ],
    "wof:geomhash": "ed7c2ab3547fc3916b5edc33488deaa7",
    "wof:hierarchy": [
      {
        "building_id": -1,
        "campus_id": 102527513,
        "collection_id": 1159162825,
        "concourse_id": 1159162825,
        "continent_id": 102191575,
        "country_id": 85633793,
        "county_id": 102087579,
        "custom_id": 1779667891,
        "image_id": 1779667891,
        "locality_id": 85922583,
        "neighbourhood_id": -1,
        "object_id": 1779667097,
        "region_id": 85688637,
        "wing_id": 1159160869
      }
    ],
    "wof:id": 1779667891,
    "wof:lastmodified": 1788451336,
    "wof:name": "menu: Air Canada, Signature class",
    "wof:parent_id": 1779667097,
    "wof:placetype": "custom",
    "wof:placetype_alt": [
      "image"
    ],
    "wof:repo": "sfomuseum-data-media-collection",
    "wof:superseded_by": [],
    "wof:supersedes": []
  },
  "bbox": [
    -122.386472,
    37.616105,
    -122.385834,
    37.616611
  ],
  "geometry": {"type":"Polygon","coordinates":[[[-122.386472,37.616318],[-122.386435,37.616233],[-122.386376,37.616178],[-122.386301,37.616131],[-122.386161,37.616105],[-122.386022,37.616131],[-122.385914,37.616186],[-122.385855,37.616267],[-122.385834,37.616369],[-122.385871,37.616467],[-122.385941,37.616543],[-122.386054,37.616603],[-122.386183,37.616611],[-122.386306,37.616573],[-122.386419,37.616509],[-122.386467,37.616411],[-122.386472,37.616318]]]}
}
