{
  "id": 1762708963,
  "type": "Feature",
  "properties": {
    "date:cessation_lower": "1960-01-01",
    "date:cessation_upper": "1969-12-31",
    "date:inception_lower": "1960-01-01",
    "date:inception_upper": "1969-12-31",
    "edtf:cessation": "196X",
    "edtf:inception": "196X",
    "geom:area": 2.477324999997507e-7,
    "geom:bbox": "-122.386472,37.616105,-122.385834,37.616611",
    "geom:latitude": 37.61635756125121,
    "geom:longitude": -122.38615532866096,
    "media:fingerprint": "8b7ebd92b7d1160564905a2c3f3257194d124c4b",
    "media:imagehash_avg": "a:8100818181f3ffff",
    "media:imagehash_diff": "d:553133130f474301",
    "media:imagetext": "0.0",
    "media:mimetype": "image/tiff",
    "media:properties": {
      "sizes": {
        "b": {
          "extension": "jpg",
          "height": 665,
          "mimetype": "image/jpeg",
          "secret": "y8k3GgB6fnRwcme0nPioueaphMulIE93",
          "width": 1024
        },
        "c": {
          "extension": "jpg",
          "height": 519,
          "mimetype": "image/jpeg",
          "secret": "y8k3GgB6fnRwcme0nPioueaphMulIE93",
          "width": 800
        },
        "dc": {
          "extension": "jpg",
          "height": 519,
          "mimetype": "image/jpeg",
          "secret": "y8k3GgB6fnRwcme0nPioueaphMulIE93",
          "width": 800
        },
        "ds": {
          "extension": "jpg",
          "height": 320,
          "mimetype": "image/jpeg",
          "secret": "y8k3GgB6fnRwcme0nPioueaphMulIE93",
          "width": 320
        },
        "k": {
          "extension": "jpg",
          "height": 1330,
          "mimetype": "image/jpeg",
          "secret": "y8k3GgB6fnRwcme0nPioueaphMulIE93",
          "width": 2048
        },
        "n": {
          "extension": "jpg",
          "height": 207,
          "mimetype": "image/jpeg",
          "secret": "y8k3GgB6fnRwcme0nPioueaphMulIE93",
          "width": 320
        },
        "o": {
          "extension": "jpg",
          "height": 1108,
          "mimetype": "image/jpeg",
          "secret": "Iy9oR82bVBJAKqKE2tUKyPkhbTsaRtBl",
          "width": 1705
        },
        "s": {
          "extension": "jpg",
          "height": 320,
          "mimetype": "image/jpeg",
          "secret": "y8k3GgB6fnRwcme0nPioueaphMulIE93",
          "width": 320
        },
        "z": {
          "extension": "jpg",
          "height": 415,
          "mimetype": "image/jpeg",
          "secret": "y8k3GgB6fnRwcme0nPioueaphMulIE93",
          "width": 640
        }
      }
    },
    "media:source": "sfomuseum",
    "media:status_id": 1,
    "media:uri_template": "https://static.sfomuseum.org/media/176/270/896/3/1762708963_{secret}_{label}.{extension}",
    "millsfield:aircraft_id": [
      1159289689
    ],
    "millsfield:airline_id": [
      1159285803
    ],
    "millsfield:category_id": 1511214215,
    "millsfield:collection_id": 1511214207,
    "millsfield:company_id": [
      1159293593,
      1159289653
    ],
    "millsfield:images_colors": [
      {
        "hex": "#bebda2",
        "name": "#bebda2",
        "reference": "marekm4"
      },
      {
        "hex": "#a9a9a9",
        "name": "darkgrey",
        "reference": "css4"
      },
      {
        "hex": "#cdc5c2",
        "name": "Silver",
        "reference": "crayola"
      },
      {
        "hex": "#3e5c5a",
        "name": "#3e5c5a",
        "reference": "marekm4"
      },
      {
        "hex": "#2f4f4f",
        "name": "darkslategrey",
        "reference": "css4"
      },
      {
        "hex": "#414a4c",
        "name": "Outer Space",
        "reference": "crayola"
      },
      {
        "hex": "#19668d",
        "name": "#19668d",
        "reference": "marekm4"
      },
      {
        "hex": "#008080",
        "name": "teal",
        "reference": "css4"
      },
      {
        "hex": "#2e5894",
        "name": "B'dazzled Blue",
        "reference": "crayola"
      },
      {
        "hex": "#979875",
        "name": "#979875",
        "reference": "marekm4"
      },
      {
        "hex": "#808080",
        "name": "grey",
        "reference": "css4"
      },
      {
        "hex": "#95918c",
        "name": "Gray",
        "reference": "crayola"
      },
      {
        "hex": "#758572",
        "name": "#758572",
        "reference": "marekm4"
      },
      {
        "hex": "#757575",
        "name": "Sonic Silver",
        "reference": "crayola"
      }
    ],
    "millsfield:images_texts": [
      "0.0",
      "OLYMPIC\nBOEING 707-320\nSuper fan fel\nPrinted in Greece by J. Makris S.A. Athens\n2015.166.1164"
    ],
    "millsfield:images_texts_ids": [
      1762708963,
      1762708965
    ],
    "millsfield:similar": {
      "apple/mobileclip_s0": [
        {
          "distance": 0.4231072,
          "id": 1762707685
        },
        {
          "distance": 0.427587,
          "id": 1762705085
        },
        {
          "distance": 0.4306661,
          "id": 1762704577
        },
        {
          "distance": 0.43190655,
          "id": 1762705077
        },
        {
          "distance": 0.43882492,
          "id": 1762705081
        },
        {
          "distance": 0.44560528,
          "id": 1762707677
        },
        {
          "distance": 0.45457226,
          "id": 1762702923
        },
        {
          "distance": 0.45998904,
          "id": 1762702565
        },
        {
          "distance": 0.46933067,
          "id": 1762703691
        },
        {
          "distance": 0.47371256,
          "id": 1762709003
        }
      ],
      "apple/mobileclip_s1": [
        {
          "distance": 0.35936564,
          "id": 1762710195
        },
        {
          "distance": 0.36719042,
          "id": 1762708999
        },
        {
          "distance": 0.37666008,
          "id": 1762706239
        },
        {
          "distance": 0.37720573,
          "id": 1762708957
        },
        {
          "distance": 0.37725908,
          "id": 1762708953
        },
        {
          "distance": 0.37733054,
          "id": 1762708989
        },
        {
          "distance": 0.3783486,
          "id": 1762705073
        },
        {
          "distance": 0.38007063,
          "id": 1762708985
        },
        {
          "distance": 0.38033643,
          "id": 1762708967
        },
        {
          "distance": 0.38108966,
          "id": 1762708981
        }
      ],
      "apple/mobileclip_s2": [
        {
          "distance": 0.4349221,
          "id": 1762708989
        },
        {
          "distance": 0.44061956,
          "id": 1762709003
        },
        {
          "distance": 0.45152444,
          "id": 1762706227
        },
        {
          "distance": 0.46035013,
          "id": 1762708967
        },
        {
          "distance": 0.46043268,
          "id": 1762708957
        },
        {
          "distance": 0.4638999,
          "id": 1762708953
        },
        {
          "distance": 0.46674734,
          "id": 1762702915
        },
        {
          "distance": 0.4729137,
          "id": 1762708999
        },
        {
          "distance": 0.47529295,
          "id": 1762708985
        },
        {
          "distance": 0.47905663,
          "id": 1762705641
        }
      ]
    },
    "millsfield:subcategory_id": 1511213363,
    "mz:is_current": 1,
    "sfomuseum:filename": "2015.166.1164_ft.tif",
    "sfomuseum:image_id": 157772,
    "sfomuseum:image_index": 5,
    "sfomuseum:image_type": "studio",
    "sfomuseum:object_id": 180781,
    "sfomuseum:placetype": "image",
    "sfomuseum:primary_image": 1,
    "src:geom": "sfomuseum",
    "wof:belongsto": [
      102527513,
      1159162825,
      102191575,
      85633793,
      102087579,
      85922583,
      1762682531,
      85688637,
      1159160869
    ],
    "wof:country": "XY",
    "wof:created": 1641349589,
    "wof:depicts": [
      1159293593,
      1159289653,
      1159285803,
      1159286755,
      1762682531,
      1159289689
    ],
    "wof:geomhash": "ed7c2ab3547fc3916b5edc33488deaa7",
    "wof:hierarchy": [
      {
        "building_id": -1,
        "campus_id": 102527513,
        "collection_id": 1159162825,
        "concourse_id": 1159162825,
        "continent_id": 102191575,
        "country_id": 85633793,
        "county_id": 102087579,
        "custom_id": 1762708963,
        "image_id": 1762708963,
        "locality_id": 85922583,
        "neighbourhood_id": -1,
        "object_id": 1762682531,
        "region_id": 85688637,
        "wing_id": 1159160869
      }
    ],
    "wof:id": 1762708963,
    "wof:lastmodified": 1788450591,
    "wof:name": "postcard: Olympic Airways, Boeing 707-320",
    "wof:parent_id": 1762682531,
    "wof:placetype": "custom",
    "wof:placetype_alt": [
      "image"
    ],
    "wof:repo": "sfomuseum-data-media-collection",
    "wof:superseded_by": [],
    "wof:supersedes": []
  },
  "bbox": [
    -122.386472,
    37.616105,
    -122.385834,
    37.616611
  ],
  "geometry": {"type":"Polygon","coordinates":[[[-122.386472,37.616318],[-122.386435,37.616233],[-122.386376,37.616178],[-122.386301,37.616131],[-122.386161,37.616105],[-122.386022,37.616131],[-122.385914,37.616186],[-122.385855,37.616267],[-122.385834,37.616369],[-122.385871,37.616467],[-122.385941,37.616543],[-122.386054,37.616603],[-122.386183,37.616611],[-122.386306,37.616573],[-122.386419,37.616509],[-122.386467,37.616411],[-122.386472,37.616318]]]}
}
