{
  "id": 1762892987,
  "type": "Feature",
  "properties": {
    "date:cessation_lower": "2012-01-01",
    "date:cessation_upper": "2012-12-31",
    "date:inception_lower": "2012-01-01",
    "date:inception_upper": "2012-12-31",
    "edtf:cessation": "2012",
    "edtf:inception": "2012",
    "geom:area": 2.477324999997507e-7,
    "geom:bbox": "-122.386472,37.616105,-122.385834,37.616611",
    "geom:latitude": 37.61635756125121,
    "geom:longitude": -122.38615532866096,
    "media:fingerprint": "4e07cc30048eb9cbee0ab05bca1b5a64ca982a47",
    "media:imagehash_avg": "a:9938001898f9dfff",
    "media:imagehash_diff": "d:7361633173533373",
    "media:mimetype": "image/tiff",
    "media:properties": {
      "sizes": {
        "b": {
          "extension": "jpg",
          "height": 768,
          "mimetype": "image/jpeg",
          "secret": "n3Zr7DEQIgnsQxpEr9OeGC9aVh8xsqag",
          "width": 561
        },
        "c": {
          "extension": "jpg",
          "height": 600,
          "mimetype": "image/jpeg",
          "secret": "n3Zr7DEQIgnsQxpEr9OeGC9aVh8xsqag",
          "width": 438
        },
        "dc": {
          "extension": "jpg",
          "height": 600,
          "mimetype": "image/jpeg",
          "secret": "n3Zr7DEQIgnsQxpEr9OeGC9aVh8xsqag",
          "width": 438
        },
        "ds": {
          "extension": "jpg",
          "height": 320,
          "mimetype": "image/jpeg",
          "secret": "n3Zr7DEQIgnsQxpEr9OeGC9aVh8xsqag",
          "width": 320
        },
        "k": {
          "extension": "jpg",
          "height": 1536,
          "mimetype": "image/jpeg",
          "secret": "n3Zr7DEQIgnsQxpEr9OeGC9aVh8xsqag",
          "width": 1122
        },
        "n": {
          "extension": "jpg",
          "height": 240,
          "mimetype": "image/jpeg",
          "secret": "n3Zr7DEQIgnsQxpEr9OeGC9aVh8xsqag",
          "width": 175
        },
        "o": {
          "extension": "jpg",
          "height": 2097,
          "mimetype": "image/jpeg",
          "secret": "Bs9xcB346Lut5pfEi137XjyrcrjmrJKF",
          "width": 1532
        },
        "s": {
          "extension": "jpg",
          "height": 320,
          "mimetype": "image/jpeg",
          "secret": "n3Zr7DEQIgnsQxpEr9OeGC9aVh8xsqag",
          "width": 320
        },
        "z": {
          "extension": "jpg",
          "height": 480,
          "mimetype": "image/jpeg",
          "secret": "n3Zr7DEQIgnsQxpEr9OeGC9aVh8xsqag",
          "width": 350
        }
      }
    },
    "media:source": "sfomuseum",
    "media:status_id": 1,
    "media:uri_template": "https://static.sfomuseum.org/media/176/289/298/7/1762892987_{secret}_{label}.{extension}",
    "millsfield:airline_id": [
      1159284989
    ],
    "millsfield:category_id": 1511214251,
    "millsfield:collection_id": 1511214207,
    "millsfield:company_id": [
      1159286839
    ],
    "millsfield:images_colors": [
      {
        "hex": "#bdbcbe",
        "name": "#bdbcbe",
        "reference": "marekm4"
      },
      {
        "hex": "#c0c0c0",
        "name": "silver",
        "reference": "css4"
      },
      {
        "hex": "#b0b7c6",
        "name": "Cadet Blue",
        "reference": "crayola"
      },
      {
        "hex": "#454352",
        "name": "#454352",
        "reference": "marekm4"
      },
      {
        "hex": "#2f4f4f",
        "name": "darkslategrey",
        "reference": "css4"
      },
      {
        "hex": "#414a4c",
        "name": "Outer Space",
        "reference": "crayola"
      },
      {
        "hex": "#6e6f8a",
        "name": "#6e6f8a",
        "reference": "marekm4"
      },
      {
        "hex": "#708090",
        "name": "slategrey",
        "reference": "css4"
      },
      {
        "hex": "#757575",
        "name": "Sonic Silver",
        "reference": "crayola"
      },
      {
        "hex": "#8e7890",
        "name": "#8e7890",
        "reference": "marekm4"
      },
      {
        "hex": "#808080",
        "name": "grey",
        "reference": "css4"
      },
      {
        "hex": "#95918c",
        "name": "Gray",
        "reference": "crayola"
      },
      {
        "hex": "#788b96",
        "name": "#788b96",
        "reference": "marekm4"
      },
      {
        "hex": "#778899",
        "name": "lightslategrey",
        "reference": "css4"
      }
    ],
    "millsfield:similar": {
      "apple/mobileclip_s0": [
        {
          "distance": 0.4645841,
          "id": 1762893011
        },
        {
          "distance": 0.4743488,
          "id": 1762892967
        },
        {
          "distance": 0.50458425,
          "id": 1762892999
        },
        {
          "distance": 0.53082055,
          "id": 1762892781
        },
        {
          "distance": 0.5371868,
          "id": 1762892839
        },
        {
          "distance": 0.53805214,
          "id": 1762893067
        },
        {
          "distance": 0.5392766,
          "id": 1762893005
        },
        {
          "distance": 0.5538984,
          "id": 1762892997
        },
        {
          "distance": 0.5561941,
          "id": 1762892715
        },
        {
          "distance": 0.5831169,
          "id": 1762893041
        }
      ],
      "apple/mobileclip_s1": [
        {
          "distance": 0.37160876,
          "id": 1762893011
        },
        {
          "distance": 0.38000455,
          "id": 1762893023
        },
        {
          "distance": 0.38520634,
          "id": 1762892715
        },
        {
          "distance": 0.3853983,
          "id": 1762893035
        },
        {
          "distance": 0.39671418,
          "id": 1762893005
        },
        {
          "distance": 0.40154314,
          "id": 1762892999
        },
        {
          "distance": 0.4027119,
          "id": 1762892967
        },
        {
          "distance": 0.40413627,
          "id": 1762892781
        },
        {
          "distance": 0.40502104,
          "id": 1762892997
        },
        {
          "distance": 0.4287441,
          "id": 1762893019
        }
      ],
      "apple/mobileclip_s2": [
        {
          "distance": 0.5167865,
          "id": 1762893035
        },
        {
          "distance": 0.53185564,
          "id": 1762893011
        },
        {
          "distance": 0.55020756,
          "id": 1762893005
        },
        {
          "distance": 0.5539708,
          "id": 1762892967
        },
        {
          "distance": 0.5554777,
          "id": 1762892999
        },
        {
          "distance": 0.5708988,
          "id": 1762892839
        },
        {
          "distance": 0.57997334,
          "id": 1762892779
        },
        {
          "distance": 0.58047676,
          "id": 1762892599
        },
        {
          "distance": 0.58181185,
          "id": 1762893059
        },
        {
          "distance": 0.5843092,
          "id": 1762892781
        }
      ]
    },
    "millsfield:subcategory_id": 1511213683,
    "mz:is_current": 1,
    "sfomuseum:filename": "58122.tif",
    "sfomuseum:image_id": 58122,
    "sfomuseum:image_index": 5,
    "sfomuseum:image_type": "studio",
    "sfomuseum:object_id": 141178,
    "sfomuseum:placetype": "image",
    "sfomuseum:primary_image": 1,
    "src:geom": "sfomuseum",
    "wof:belongsto": [
      102527513,
      1159162825,
      102191575,
      85633793,
      102087579,
      85922583,
      1762888199,
      85688637,
      1159160869
    ],
    "wof:country": "XY",
    "wof:created": 1643413586,
    "wof:depicts": [
      1159284989,
      1159286839,
      1762888199
    ],
    "wof:geomhash": "ed7c2ab3547fc3916b5edc33488deaa7",
    "wof:hierarchy": [
      {
        "building_id": -1,
        "campus_id": 102527513,
        "collection_id": 1159162825,
        "concourse_id": 1159162825,
        "continent_id": 102191575,
        "country_id": 85633793,
        "county_id": 102087579,
        "custom_id": 1762892987,
        "image_id": 1762892987,
        "locality_id": 85922583,
        "neighbourhood_id": -1,
        "object_id": 1762888199,
        "region_id": 85688637,
        "wing_id": 1159160869
      }
    ],
    "wof:id": 1762892987,
    "wof:lastmodified": 1788450742,
    "wof:name": "career history questionnaire: World Wings International, Carol Meyer Manchester",
    "wof:parent_id": 1762888199,
    "wof:placetype": "custom",
    "wof:placetype_alt": [
      "image"
    ],
    "wof:repo": "sfomuseum-data-media-collection",
    "wof:superseded_by": [],
    "wof:supersedes": []
  },
  "bbox": [
    -122.386472,
    37.616105,
    -122.385834,
    37.616611
  ],
  "geometry": {"type":"Polygon","coordinates":[[[-122.386472,37.616318],[-122.386435,37.616233],[-122.386376,37.616178],[-122.386301,37.616131],[-122.386161,37.616105],[-122.386022,37.616131],[-122.385914,37.616186],[-122.385855,37.616267],[-122.385834,37.616369],[-122.385871,37.616467],[-122.385941,37.616543],[-122.386054,37.616603],[-122.386183,37.616611],[-122.386306,37.616573],[-122.386419,37.616509],[-122.386467,37.616411],[-122.386472,37.616318]]]}
}
