{
  "id": 1914556463,
  "type": "Feature",
  "properties": {
    "date:cessation_lower": "1990-01-01",
    "date:cessation_upper": "1990-12-31",
    "date:inception_lower": "1990-01-01",
    "date:inception_upper": "1990-12-31",
    "edtf:cessation": "1990",
    "edtf:inception": "1990",
    "geom:area": 2.477324999997507e-7,
    "geom:bbox": "-122.386472,37.616105,-122.385834,37.616611",
    "geom:latitude": 37.61635756125121,
    "geom:longitude": -122.38615532866096,
    "media:fingerprint": "c23a3a6d7b29c7cd8b16713db464765b8c340c63",
    "media:imagehash_avg": "a:1f3f2f03010501ff",
    "media:imagehash_diff": "d:6b6b5e5769694ded",
    "media:imagetext": "DC-9-51\nEASTERN\nDC-9-51\n\u0026 DC-9-31 A/C 988, 989, 990\nCOMPARTIMENTO SUPERIOR\nOVERHEAD COMPARTMENT COMPARTIMENT SUPERIEUR\nEASTERN\nSEAT BELTS CINTURONES DE SEGURIDAD • CEINTURE DE SECURITE\nTAKE-OFF \u0026 DESPEGUE Y ATERRIZAJE\nLANDING\nDECOLLAGE ET ATTERRISSAGE\nPROTECTIVE\nPOSITIONS\nPOSICIONES DE EMERGENCIA\nPOSITIONS POUR VOTRE SÉCURITÉ\nOXYGEN OXIGENO • OXYGENE\nEXIT\nQUICKLY PULL MASK TO YOU TO ACTIVATE OXYGEN FLOW. THE AIR BAG MAY NOT INFLATE BUT OXYGEN WILL BE\nFLOWING. KEEP MASK ON.\nHALE LA MÁSCARA RÁPIDAMENTE HACIA USTED PARA ACTIVAR EL OXÍGENO. ES POSIBLE QUE LA BOLSA PLÁSTICA NO SE INFLE, PERO EL OXÍGENO FLUIRÁ DE\nCUALQUIER MANERA. MANTENGA LA MÁSCARA PUESTA SOBRE SU NARIZ Y BOCA.\nTIREZ VITE SUR LE MASQUE POUR DÉCLENCHER L'ARRIVÉE D'OXYGÈNE. LA POCHE D'AIR NE SE GONFLERA PEUT-ÊTRE PAS MAIS L'OXYGÈNE ARRIVERA AUSSI\nBIEN. GARDEZ LE MASQUE SUR VOTRE NEZ ET BOUCHE.",
    "media:imagetext_created": 1787973617,
    "media:imagetext_source": "com.apple.visionkit.VNImageRequestHandler#Version 26.6.2 (Build 25G83)",
    "media:mimetype": "image/tiff",
    "media:properties": {
      "sizes": {
        "b": {
          "extension": "jpg",
          "height": 768,
          "mimetype": "image/jpeg",
          "secret": "Pj5a4mFoJWfFjw0qytaeIcSRGL6aXhec",
          "width": 592
        },
        "c": {
          "extension": "jpg",
          "height": 600,
          "mimetype": "image/jpeg",
          "secret": "Pj5a4mFoJWfFjw0qytaeIcSRGL6aXhec",
          "width": 463
        },
        "dc": {
          "extension": "jpg",
          "height": 600,
          "mimetype": "image/jpeg",
          "secret": "Pj5a4mFoJWfFjw0qytaeIcSRGL6aXhec",
          "width": 463
        },
        "ds": {
          "extension": "jpg",
          "height": 320,
          "mimetype": "image/jpeg",
          "secret": "Pj5a4mFoJWfFjw0qytaeIcSRGL6aXhec",
          "width": 320
        },
        "k": {
          "extension": "jpg",
          "height": 1536,
          "mimetype": "image/jpeg",
          "secret": "Pj5a4mFoJWfFjw0qytaeIcSRGL6aXhec",
          "width": 1185
        },
        "n": {
          "extension": "jpg",
          "height": 240,
          "mimetype": "image/jpeg",
          "secret": "Pj5a4mFoJWfFjw0qytaeIcSRGL6aXhec",
          "width": 185
        },
        "o": {
          "extension": "jpg",
          "height": 2000,
          "mimetype": "image/jpeg",
          "secret": "GqfWi2yRmIgEb4X0vUAY8tuJ7wxr3gjV",
          "width": 1544
        },
        "s": {
          "extension": "jpg",
          "height": 320,
          "mimetype": "image/jpeg",
          "secret": "Pj5a4mFoJWfFjw0qytaeIcSRGL6aXhec",
          "width": 320
        },
        "z": {
          "extension": "jpg",
          "height": 480,
          "mimetype": "image/jpeg",
          "secret": "Pj5a4mFoJWfFjw0qytaeIcSRGL6aXhec",
          "width": 370
        }
      }
    },
    "media:source": "sfomuseum",
    "media:status_id": 1,
    "media:uri_template": "https://static.sfomuseum.org/media/191/455/646/3/1914556463_{secret}_{label}.{extention}",
    "millsfield:aircraft_id": [
      1159291227
    ],
    "millsfield:airline_id": [
      1159284309
    ],
    "millsfield:category_id": 1762671311,
    "millsfield:collection_id": 1511214207,
    "millsfield:company_id": [
      1159291223
    ],
    "millsfield:images_colors": [
      {
        "hex": "#e5e1cc",
        "name": "#e5e1cc",
        "reference": "marekm4"
      },
      {
        "hex": "#dcdcdc",
        "name": "gainsboro",
        "reference": "css4"
      },
      {
        "hex": "#efdecd",
        "name": "Almond",
        "reference": "crayola"
      },
      {
        "hex": "#272d38",
        "name": "#272d38",
        "reference": "marekm4"
      },
      {
        "hex": "#2f4f4f",
        "name": "darkslategrey",
        "reference": "css4"
      },
      {
        "hex": "#414a4c",
        "name": "Outer Space",
        "reference": "crayola"
      },
      {
        "hex": "#1b75bc",
        "name": "#1b75bc",
        "reference": "marekm4"
      },
      {
        "hex": "#4682b4",
        "name": "steelblue",
        "reference": "css4"
      },
      {
        "hex": "#2b6cc4",
        "name": "Denim",
        "reference": "crayola"
      },
      {
        "hex": "#5e8eac",
        "name": "#5e8eac",
        "reference": "marekm4"
      },
      {
        "hex": "#5f9ea0",
        "name": "cadetblue",
        "reference": "css4"
      },
      {
        "hex": "#6699cc",
        "name": "Blue Gray",
        "reference": "crayola"
      },
      {
        "hex": "#a59866",
        "name": "#a59866",
        "reference": "marekm4"
      },
      {
        "hex": "#bdb76b",
        "name": "darkkhaki",
        "reference": "css4"
      },
      {
        "hex": "#9f8170",
        "name": "Beaver",
        "reference": "crayola"
      }
    ],
    "millsfield:images_texts": [
      "DC-9-51\nEASTERN\nDC-9-51\n\u0026 DC-9-31 A/C 988, 989, 990\nCOMPARTIMENTO SUPERIOR\nOVERHEAD COMPARTMENT COMPARTIMENT SUPERIEUR\nEASTERN\nSEAT BELTS CINTURONES DE SEGURIDAD • CEINTURE DE SECURITE\nTAKE-OFF \u0026 DESPEGUE Y ATERRIZAJE\nLANDING\nDECOLLAGE ET ATTERRISSAGE\nPROTECTIVE\nPOSITIONS\nPOSICIONES DE EMERGENCIA\nPOSITIONS POUR VOTRE SÉCURITÉ\nOXYGEN OXIGENO • OXYGENE\nEXIT\nQUICKLY PULL MASK TO YOU TO ACTIVATE OXYGEN FLOW. THE AIR BAG MAY NOT INFLATE BUT OXYGEN WILL BE\nFLOWING. KEEP MASK ON.\nHALE LA MÁSCARA RÁPIDAMENTE HACIA USTED PARA ACTIVAR EL OXÍGENO. ES POSIBLE QUE LA BOLSA PLÁSTICA NO SE INFLE, PERO EL OXÍGENO FLUIRÁ DE\nCUALQUIER MANERA. MANTENGA LA MÁSCARA PUESTA SOBRE SU NARIZ Y BOCA.\nTIREZ VITE SUR LE MASQUE POUR DÉCLENCHER L'ARRIVÉE D'OXYGÈNE. LA POCHE D'AIR NE SE GONFLERA PEUT-ÊTRE PAS MAIS L'OXYGÈNE ARRIVERA AUSSI\nBIEN. GARDEZ LE MASQUE SUR VOTRE NEZ ET BOUCHE.",
      "FLOTATION SEAT CUSHIONS COJINES DE FLOTACIÓN • COUSSINS FLOTTANTS\nLANDING AMARAJE\nON WATER AMERRISSAGE\nTHIS AIRCRAFT IS PROVISIONED WITH\nFLOTATION SEAT CUSHIONS\nON ALL FLIGHTS.\nESTE AVION ESTA EQUIPADO CON COJINES\nDE FLOTACION EN TODAS LOS VUELOS\nLAVION EST MUNI, POUR TOUS LES VOLS,\nDE COUSSINS DE SIEGE INSUBMERSIBLES.\nPLEASE RETURN THIS CARD TO THE SEAT\nBACK POCKET FOR EASTERN'S NEXT CUSTOMER.\nPOR FAVOR PONGA ESTA TARJETA NUEVAMENTE\nAL COMPARTIMENTO DEL ASIENTO PARA EL USO\nDE PROXIMO PASAJERO DE EASTERN.\nPLEASE DO NOT REMOVE ANY SAFETY EQUIPMENT FROM THE AIRCRAFT.\nPOR FAVOR NO REMUEVA EQUIPO DE EMERGENCIA DE EL AVIÓN\n14-CC-1706 OPR-980 REV. 9/90\nPRINTED IN THE U.S.A.\n2002127.291",
      "FRONT EXIT OPERATION PARA OPERAR LA PUERTA DELANTERA • OPERATIONS DE SORTIE AVANT\nRED DENOTES AN EXIT AREA\nLAS LUCES ROJAS INDICAN LAS SALIDAS DE EMERGENCIA\nLES LUMIERES ROUGES SONT PRES DES SORTIES.\nLAND\nEVACUATION\nEVACUACION EN TIERRA\nEVACUATION SUR TERRE\nEXIT\nFLOOR LIGHTING\nLUCES DEL\nLUE NATION DU SOL\n.....\n000000000000000059\n0000000000000\n00000000000000000000N\n0000000000000\nREAR EXIT SALIDA TRASERA • SORTIE ARRIERE\n•\n•\n•\nWINDOW OPERATION\nOPERACION DE LA VENTANA DE SALIDA • L'OPERACI\nWHAT YOU SHOULD KNOW\nABOUT SITTING IN A\nDESIGNATED EXIT ROW\nThose customers who are seated in the designated\nemergency rows for this airplane have already been\ninterviewed by the airport agent, and have discussed\nthe following\ninformation: rederal Regulations\n•ure marn me eventor an emeroenev evacuation\nyour assistance may be needed to open the exit and\npeople safely out of\npeople sirly out ere are Te\ngetting\nthe airplane\nTollowing\nif you will be able to perform the functions necessary.\nIf you cannot answer \"YES\"\nto all of the following\nquestions, please inform an Eastern crew member\nTOW.\nWould you be willing to lend assistance in the\nevent of an emergency evacuation?\nDo you read English and speak it in a manner\nthat is understandable to others?\nDo you have full use of your arms, hands and\nlegs, and the necessary strength to enable you\nto quickly reach an exit, open it and remove it\nfrom the opening as necessary? (instructions\ncraft seatback pocket.\nBecause of the exertion required, could you\noperate the exit without aggravating an existing\nphysical condition?\nAre you free of any condition or responsibility\ninal could prevent you from perrorming ine\nfunctions required, i.e. the responsibility of caring\nfor a small child?\nAre you age 15 or older?\nCan you see without using a corrective device\n(other than glasses or contact lenses)?\nCan you hear without using a corrective device\n(other than a hearing aid)?\nIf you answered \"NO\" to any of the above questions\nor do not wish to pentorm unese tuncions i called\nplease advise an Eastern crew member\ninat is not in a desionated emerdency exit row\nLos Reglamentos Federales de Aviación exigen que\nlos pasajeros sentados en filas cerca de las salidas\ndel avión puedan asistir a la tripulación en caso de\nfilas cerca de una salida, y Ud. no puede entender,\nni hablar, ni leer inglés, por favor indentifiquese a un\nasistente de vuelo para poder cambiar su asiento.\nLes Réglèments Fédérales D'Aviation exigents que\nles passagers assis dans les rangées\ndans un cas d'urdence. si vous etes assis dans une\n•e ces randees\nores o une\npouvez pas compendre, ni parler, ni lie l'anglaise,\nveuillez vous mettre en contacte avec un membre de\ncase all e care ve bee\nGuidelines for assisting crewmembers in the exit\noperallon\nustomers seateo at a desonateo extrow shoule\nbecome familiar with the exit operation in order to\nassist crewmembers.\nThe following guidelines review exit operations and\nprocedures:\nLocate and identify the exit (refer to\npages 2 \u0026 3).\nType of exit (window/door).\nExit operation (including stowage).\nCheck to see that the exit is clear/safe to\nuse with no tire, obstruction, nigh water\nlevel present.\nFollow the verbal/hand directions of a\ncrewinemoet."
    ],
    "millsfield:images_texts_ids": [
      1914556463,
      1914556465,
      1914556467
    ],
    "millsfield:similar": {
      "apple/mobileclip_s0": [
        {
          "distance": 0.3066887,
          "id": 1914556469
        },
        {
          "distance": 0.47612166,
          "id": 1813192847
        },
        {
          "distance": 0.50651664,
          "id": 1527850113
        },
        {
          "distance": 0.53427446,
          "id": 1931096485
        },
        {
          "distance": 0.53640306,
          "id": 1914556457
        },
        {
          "distance": 0.5431002,
          "id": 1931109451
        },
        {
          "distance": 0.57703,
          "id": 1931096491
        },
        {
          "distance": 0.58025825,
          "id": 1914556497
        },
        {
          "distance": 0.58064324,
          "id": 1914556477
        },
        {
          "distance": 0.58362204,
          "id": 1931096479
        }
      ],
      "apple/mobileclip_s1": [
        {
          "distance": 0.18044798,
          "id": 1914556469
        },
        {
          "distance": 0.36080027,
          "id": 1813192847
        },
        {
          "distance": 0.39191782,
          "id": 1931109451
        },
        {
          "distance": 0.41317305,
          "id": 1930979747
        },
        {
          "distance": 0.42285323,
          "id": 1527850113
        },
        {
          "distance": 0.431527,
          "id": 1931109449
        },
        {
          "distance": 0.4364325,
          "id": 1762894587
        },
        {
          "distance": 0.4429636,
          "id": 1914556457
        },
        {
          "distance": 0.4446785,
          "id": 1931096491
        },
        {
          "distance": 0.44660258,
          "id": 1762894595
        }
      ],
      "apple/mobileclip_s2": [
        {
          "distance": 0.2757663,
          "id": 1914556469
        },
        {
          "distance": 0.61286795,
          "id": 1931096485
        },
        {
          "distance": 0.6187055,
          "id": 1813192847
        },
        {
          "distance": 0.62899363,
          "id": 1931109451
        },
        {
          "distance": 0.64540815,
          "id": 1914556457
        },
        {
          "distance": 0.6566698,
          "id": 1914556449
        },
        {
          "distance": 0.6633567,
          "id": 1914556477
        },
        {
          "distance": 0.6780829,
          "id": 1931096491
        },
        {
          "distance": 0.6823291,
          "id": 1931109457
        },
        {
          "distance": 0.68532103,
          "id": 1527850113
        }
      ]
    },
    "millsfield:subcategory_id": 1511213703,
    "mz:is_current": 1,
    "sfomuseum:filename": "77731.tif",
    "sfomuseum:image_id": 77731,
    "sfomuseum:image_index": 5,
    "sfomuseum:image_type": "studio",
    "sfomuseum:object_id": 68861,
    "sfomuseum:placetype": "image",
    "sfomuseum:primary_image": 1,
    "src:geom": "sfomuseum",
    "wof:belongsto": [
      102527513,
      1159162825,
      102191575,
      85633793,
      102087579,
      85922583,
      1914555651,
      85688637,
      1159160869
    ],
    "wof:country": "XY",
    "wof:created": 1720460412,
    "wof:depicts": [
      1159284309,
      1159291227,
      1159291223,
      1914555651
    ],
    "wof:geomhash": "ed7c2ab3547fc3916b5edc33488deaa7",
    "wof:hierarchy": [
      {
        "building_id": -1,
        "campus_id": 102527513,
        "collection_id": 1159162825,
        "concourse_id": 1159162825,
        "continent_id": 102191575,
        "country_id": 85633793,
        "county_id": 102087579,
        "custom_id": 1914556463,
        "locality_id": 85922583,
        "neighbourhood_id": -1,
        "object_id": 1914555651,
        "region_id": 85688637,
        "wing_id": 1159160869
      }
    ],
    "wof:id": 1914556463,
    "wof:lastmodified": 1788452372,
    "wof:name": "safety information card: Eastern Air Lines, Douglas DC-9-51",
    "wof:parent_id": 1914555651,
    "wof:placetype": "custom",
    "wof:repo": "sfomuseum-data-media-collection",
    "wof:superseded_by": [],
    "wof:supersedes": []
  },
  "bbox": [
    -122.386472,
    37.616105,
    -122.385834,
    37.616611
  ],
  "geometry": {"type":"Polygon","coordinates":[[[-122.386472,37.616318],[-122.386435,37.616233],[-122.386376,37.616178],[-122.386301,37.616131],[-122.386161,37.616105],[-122.386022,37.616131],[-122.385914,37.616186],[-122.385855,37.616267],[-122.385834,37.616369],[-122.385871,37.616467],[-122.385941,37.616543],[-122.386054,37.616603],[-122.386183,37.616611],[-122.386306,37.616573],[-122.386419,37.616509],[-122.386467,37.616411],[-122.386472,37.616318]]]}
}
