{
  "id": 1527857783,
  "type": "Feature",
  "properties": {
    "date:cessation_lower": "1970-01-01",
    "date:cessation_upper": "1979-12-31",
    "date:inception_lower": "1970-01-01",
    "date:inception_upper": "1979-12-31",
    "edtf:cessation": "197X",
    "edtf:date": "197x",
    "edtf:inception": "197X",
    "geom:area": 0,
    "geom:bbox": "-122.386155,37.616358,-122.386155,37.616358",
    "geom:latitude": 37.616358,
    "geom:longitude": -122.386155,
    "iso:country": "US",
    "media:fingerprint": "2e7e4a9f359236cbea6665b13385f926e69f42ff",
    "media:imagehash_avg": "a:ffffe7e7efc3c3cf",
    "media:imagehash_diff": "d:e0968e8c181f0f1f",
    "media:imagetext": "AIR\nCALIFORNIA",
    "media:imagetext_created": 1787954265,
    "media:imagetext_source": "com.apple.visionkit.VNImageRequestHandler#Version 26.6.2 (Build 25G83)",
    "media:medium": "image",
    "media:mimetype": "image/tiff",
    "media:properties": {
      "sizes": {
        "b": {
          "extension": "jpg",
          "height": 768,
          "mimetype": "image/jpeg",
          "secret": "ZnUSJ2M9ejtRuo5VNe7ev6LH8hEw4XCK",
          "width": 965
        },
        "c": {
          "extension": "jpg",
          "height": 600,
          "mimetype": "image/jpeg",
          "secret": "ZnUSJ2M9ejtRuo5VNe7ev6LH8hEw4XCK",
          "width": 754
        },
        "dc": {
          "extension": "jpg",
          "height": 600,
          "mimetype": "image/jpeg",
          "secret": "ZnUSJ2M9ejtRuo5VNe7ev6LH8hEw4XCK",
          "width": 754
        },
        "ds": {
          "extension": "jpg",
          "height": 320,
          "mimetype": "image/jpeg",
          "secret": "ZnUSJ2M9ejtRuo5VNe7ev6LH8hEw4XCK",
          "width": 320
        },
        "k": {
          "extension": "jpg",
          "height": 1536,
          "mimetype": "image/jpeg",
          "secret": "ZnUSJ2M9ejtRuo5VNe7ev6LH8hEw4XCK",
          "width": 1931
        },
        "n": {
          "extension": "jpg",
          "height": 240,
          "mimetype": "image/jpeg",
          "secret": "ZnUSJ2M9ejtRuo5VNe7ev6LH8hEw4XCK",
          "width": 301
        },
        "o": {
          "extension": "jpg",
          "height": 1667,
          "mimetype": "image/jpeg",
          "secret": "ikBmXFh3U9uplsSutWxy6eJaX9uNFD3s",
          "width": 2096
        },
        "s": {
          "extension": "jpg",
          "height": 320,
          "mimetype": "image/jpeg",
          "secret": "ZnUSJ2M9ejtRuo5VNe7ev6LH8hEw4XCK",
          "width": 320
        },
        "z": {
          "extension": "jpg",
          "height": 480,
          "mimetype": "image/jpeg",
          "secret": "ZnUSJ2M9ejtRuo5VNe7ev6LH8hEw4XCK",
          "width": 603
        }
      }
    },
    "media:source": "sfomuseum",
    "media:status_id": 1,
    "media:uri_template": "https://static.sfomuseum.org/media/152/785/778/3/1527857783_{secret}_{label}.{extension}",
    "millsfield:aircraft_id": [
      1159289827
    ],
    "millsfield:airline_id": [
      1159283793
    ],
    "millsfield:category_id": 1511214235,
    "millsfield:collection_id": 1511214203,
    "millsfield:company_id": [
      1159293593,
      1159289819
    ],
    "millsfield:exhibition_ids": [
      1159160543
    ],
    "millsfield:has_coloring_book": 1,
    "millsfield:images_colors": [
      {
        "hex": "#b6babc",
        "name": "#b6babc",
        "reference": "marekm4"
      },
      {
        "hex": "#c0c0c0",
        "name": "silver",
        "reference": "css4"
      },
      {
        "hex": "#b0b7c6",
        "name": "Cadet Blue",
        "reference": "crayola"
      },
      {
        "hex": "#353433",
        "name": "#353433",
        "reference": "marekm4"
      },
      {
        "hex": "#2f4f4f",
        "name": "darkslategrey",
        "reference": "css4"
      },
      {
        "hex": "#414a4c",
        "name": "Outer Space",
        "reference": "crayola"
      }
    ],
    "millsfield:images_texts": [
      "AIR\nCALIFOR\nN464GB",
      "AIR\nCALIFORNIA",
      "AIR CALIFORNIA",
      "AIR\nCALIFORNIA"
    ],
    "millsfield:images_texts_ids": [
      1527857773,
      1527857777,
      1527857781,
      1527857783
    ],
    "millsfield:on_view": 0,
    "millsfield:similar": {
      "apple/mobileclip_s0": [
        {
          "distance": 0.3169424,
          "id": 1527857781
        },
        {
          "distance": 0.3377573,
          "id": 1527857485
        },
        {
          "distance": 0.34701687,
          "id": 1527857777
        },
        {
          "distance": 0.3681546,
          "id": 1527857773
        },
        {
          "distance": 0.39404923,
          "id": 1527857787
        },
        {
          "distance": 0.4070522,
          "id": 1527857483
        },
        {
          "distance": 0.40810364,
          "id": 1527857479
        },
        {
          "distance": 0.40918997,
          "id": 1763110163
        },
        {
          "distance": 0.412342,
          "id": 1763110385
        },
        {
          "distance": 0.4175215,
          "id": 1763110351
        }
      ],
      "apple/mobileclip_s1": [
        {
          "distance": 0.24693042,
          "id": 1527857777
        },
        {
          "distance": 0.25239334,
          "id": 1527857781
        },
        {
          "distance": 0.27203637,
          "id": 1527857773
        },
        {
          "distance": 0.28910002,
          "id": 1763110163
        },
        {
          "distance": 0.2898318,
          "id": 1527857485
        },
        {
          "distance": 0.31330225,
          "id": 1527857797
        },
        {
          "distance": 0.31705213,
          "id": 1763112079
        },
        {
          "distance": 0.32210478,
          "id": 1880255329
        },
        {
          "distance": 0.32256603,
          "id": 1527857779
        },
        {
          "distance": 0.3276719,
          "id": 1763144833
        }
      ],
      "apple/mobileclip_s2": [
        {
          "distance": 0.25151306,
          "id": 1527857781
        },
        {
          "distance": 0.33878717,
          "id": 1527857777
        },
        {
          "distance": 0.35960153,
          "id": 1527857773
        },
        {
          "distance": 0.41185978,
          "id": 1763112079
        },
        {
          "distance": 0.42774835,
          "id": 1763110473
        },
        {
          "distance": 0.43325427,
          "id": 1527857787
        },
        {
          "distance": 0.43495923,
          "id": 1763112077
        },
        {
          "distance": 0.43688306,
          "id": 1881138611
        },
        {
          "distance": 0.4373957,
          "id": 1527857485
        },
        {
          "distance": 0.44309974,
          "id": 1527857797
        }
      ]
    },
    "millsfield:subcategory_id": 1511213161,
    "millsfield:tail_numbers": [
      "N464G8"
    ],
    "millsfield:tailnumbers": [
      "N464G8"
    ],
    "mz:hierarchy_label": 1,
    "mz:is_current": -1,
    "sfomuseum:filename": "1999.061.051_05.tif",
    "sfomuseum:image_id": 161873,
    "sfomuseum:image_index": 5,
    "sfomuseum:image_type": "studio",
    "sfomuseum:object_id": 49304,
    "sfomuseum:placetype": "image",
    "sfomuseum:primary_image": 0,
    "src:geom": "sfomuseum",
    "wof:belongsto": [
      1511214235,
      1511909395,
      102527513,
      102191575,
      85633793,
      1511213161,
      85922583,
      102087579,
      1511214277,
      1511214203,
      85688637,
      136253057
    ],
    "wof:breaches": [],
    "wof:country": "US",
    "wof:created": 1578955346,
    "wof:depicts": [
      1159293593,
      1159289827,
      1159286809,
      1159283793,
      1511909395,
      1159289819
    ],
    "wof:geomhash": "bd906905ce4be6c0651c90b0fc24804c",
    "wof:hierarchy": [
      {
        "arcade_id": 1511213161,
        "building_id": 1511214277,
        "campus_id": 102527513,
        "concourse_id": 1511214235,
        "continent_id": 102191575,
        "country_id": 85633793,
        "county_id": 102087579,
        "custom_id": 1527857783,
        "image_id": 1527857783,
        "locality_id": 85922583,
        "media_id": 1527857783,
        "neighbourhood_id": -1,
        "region_id": 85688637,
        "venue_id": 1511909395,
        "wing_id": 1511214203
      },
      {
        "continent_id": 102191575,
        "country_id": 85633793,
        "custom_id": 1527857783,
        "empire_id": 136253057,
        "image_id": 1527857783,
        "media_id": 1527857783,
        "venue_id": 1511909395
      }
    ],
    "wof:id": 1527857783,
    "wof:lastmodified": 1788450276,
    "wof:name": "model airplane: Air California, Boeing 737-200",
    "wof:parent_id": 1511909395,
    "wof:placetype": "custom",
    "wof:placetype_alt": [
      "image"
    ],
    "wof:repo": "sfomuseum-data-media-collection",
    "wof:superseded_by": [],
    "wof:supersedes": [],
    "wof:tags": []
  },
  "bbox": [
    -122.386155,
    37.616358,
    -122.386155,
    37.616358
  ],
  "geometry": {"type":"Point","coordinates":[-122.386155,37.616358]}
}
