{
  "id": 1796455101,
  "type": "Feature",
  "properties": {
    "date:cessation_lower": "1970-01-01",
    "date:cessation_upper": "1979-12-31",
    "date:inception_lower": "1970-01-01",
    "date:inception_upper": "1979-12-31",
    "edtf:cessation": "197X",
    "edtf:inception": "197X",
    "geom:area": 2.477324999997507e-7,
    "geom:bbox": "-122.386472,37.616105,-122.385834,37.616611",
    "geom:latitude": 37.61635756125121,
    "geom:longitude": -122.38615532866096,
    "media:fingerprint": "bcfa8e3a7e376e9e86f4b12093bed407b0905026",
    "media:imagehash_avg": "a:ffffc3c7c3c3c260",
    "media:imagehash_diff": "d:e0f0cc8c969696c4",
    "media:imagetext": "JAL\nCOFFEE\nCREAMER\n2002.025.457",
    "media:imagetext_created": 1787966469,
    "media:imagetext_source": "com.apple.visionkit.VNImageRequestHandler#Version 26.6.2 (Build 25G83)",
    "media:mimetype": "image/tiff",
    "media:properties": {
      "sizes": {
        "b": {
          "extension": "jpg",
          "height": 768,
          "mimetype": "image/jpeg",
          "secret": "ak6RV7uRP5m7oXocNOTuhMO7lVMvWXUQ",
          "width": 965
        },
        "c": {
          "extension": "jpg",
          "height": 600,
          "mimetype": "image/jpeg",
          "secret": "ak6RV7uRP5m7oXocNOTuhMO7lVMvWXUQ",
          "width": 754
        },
        "dc": {
          "extension": "jpg",
          "height": 600,
          "mimetype": "image/jpeg",
          "secret": "ak6RV7uRP5m7oXocNOTuhMO7lVMvWXUQ",
          "width": 754
        },
        "ds": {
          "extension": "jpg",
          "height": 320,
          "mimetype": "image/jpeg",
          "secret": "ak6RV7uRP5m7oXocNOTuhMO7lVMvWXUQ",
          "width": 320
        },
        "k": {
          "extension": "jpg",
          "height": 1536,
          "mimetype": "image/jpeg",
          "secret": "ak6RV7uRP5m7oXocNOTuhMO7lVMvWXUQ",
          "width": 1931
        },
        "n": {
          "extension": "jpg",
          "height": 240,
          "mimetype": "image/jpeg",
          "secret": "ak6RV7uRP5m7oXocNOTuhMO7lVMvWXUQ",
          "width": 301
        },
        "o": {
          "extension": "jpg",
          "height": 1667,
          "mimetype": "image/jpeg",
          "secret": "xYykRMpDXBF5oRf03o7j59xfgnELtNou",
          "width": 2096
        },
        "s": {
          "extension": "jpg",
          "height": 320,
          "mimetype": "image/jpeg",
          "secret": "ak6RV7uRP5m7oXocNOTuhMO7lVMvWXUQ",
          "width": 320
        },
        "z": {
          "extension": "jpg",
          "height": 480,
          "mimetype": "image/jpeg",
          "secret": "ak6RV7uRP5m7oXocNOTuhMO7lVMvWXUQ",
          "width": 603
        }
      }
    },
    "media:source": "sfomuseum",
    "media:status_id": 1,
    "media:uri_template": "https://static.sfomuseum.org/media/179/645/510/1/1796455101_{secret}_{label}.{extension}",
    "millsfield:airline_id": [
      1159285785
    ],
    "millsfield:category_id": 1746152533,
    "millsfield:collection_id": 1511214203,
    "millsfield:company_id": [
      1159288505
    ],
    "millsfield:images_colors": [
      {
        "hex": "#afaeae",
        "name": "#afaeae",
        "reference": "marekm4"
      },
      {
        "hex": "#a9a9a9",
        "name": "darkgrey",
        "reference": "css4"
      },
      {
        "hex": "#b0b7c6",
        "name": "Cadet Blue",
        "reference": "crayola"
      },
      {
        "hex": "#3a47a0",
        "name": "#3a47a0",
        "reference": "marekm4"
      },
      {
        "hex": "#483d8b",
        "name": "darkslateblue",
        "reference": "css4"
      },
      {
        "hex": "#324ab2",
        "name": "Violet Blue",
        "reference": "crayola"
      }
    ],
    "millsfield:images_texts": [
      "JAL\nCREMA®\nSter-disposables Amsterdam",
      "JAL\nCOFFEE\nCREAMER\n2002.025.457"
    ],
    "millsfield:images_texts_ids": [
      1796455099,
      1796455101
    ],
    "millsfield:similar": {
      "apple/mobileclip_s0": [
        {
          "distance": 0.5734306,
          "id": 1796455099
        },
        {
          "distance": 0.6295463,
          "id": 1796455059
        },
        {
          "distance": 0.63648117,
          "id": 1796455105
        },
        {
          "distance": 0.6399172,
          "id": 1796455061
        },
        {
          "distance": 0.6621711,
          "id": 1796455381
        },
        {
          "distance": 0.67981434,
          "id": 1863469153
        },
        {
          "distance": 0.68717235,
          "id": 1796455133
        },
        {
          "distance": 0.6912266,
          "id": 1863469157
        },
        {
          "distance": 0.69262743,
          "id": 1863469155
        },
        {
          "distance": 0.7265465,
          "id": 1796455115
        }
      ],
      "apple/mobileclip_s1": [
        {
          "distance": 0.3661729,
          "id": 1796455099
        },
        {
          "distance": 0.42796087,
          "id": 1796455061
        },
        {
          "distance": 0.43699205,
          "id": 1796455059
        },
        {
          "distance": 0.47399688,
          "id": 1796455105
        },
        {
          "distance": 0.49818927,
          "id": 1796455381
        },
        {
          "distance": 0.50551265,
          "id": 1796455133
        },
        {
          "distance": 0.50824434,
          "id": 1796455109
        },
        {
          "distance": 0.51844066,
          "id": 1863469153
        },
        {
          "distance": 0.5226378,
          "id": 1863469155
        },
        {
          "distance": 0.5233455,
          "id": 1796455169
        }
      ],
      "apple/mobileclip_s2": [
        {
          "distance": 0.51634043,
          "id": 1796455099
        },
        {
          "distance": 0.6816637,
          "id": 1796455059
        },
        {
          "distance": 0.68248945,
          "id": 1796455109
        },
        {
          "distance": 0.69766706,
          "id": 1796455061
        },
        {
          "distance": 0.699931,
          "id": 1796455105
        },
        {
          "distance": 0.70201886,
          "id": 1863469153
        },
        {
          "distance": 0.707989,
          "id": 1863469157
        },
        {
          "distance": 0.7271334,
          "id": 1863469155
        },
        {
          "distance": 0.73606384,
          "id": 1796455115
        },
        {
          "distance": 0.7591062,
          "id": 1796455135
        }
      ]
    },
    "millsfield:subcategory_id": 1796982897,
    "mz:is_current": 1,
    "sfomuseum:filename": "121483.tif",
    "sfomuseum:image_id": 121483,
    "sfomuseum:image_index": 5,
    "sfomuseum:image_type": "studio",
    "sfomuseum:object_id": 66288,
    "sfomuseum:placetype": "image",
    "sfomuseum:primary_image": 0,
    "src:geom": "sfomuseum",
    "wof:belongsto": [
      102527513,
      1159162825,
      102191575,
      85633793,
      102087579,
      85922583,
      1796453979,
      85688637,
      1159160869
    ],
    "wof:country": "XY",
    "wof:created": 1666079733,
    "wof:depicts": [
      1159285785,
      1159288505,
      1796453979
    ],
    "wof:geomhash": "ed7c2ab3547fc3916b5edc33488deaa7",
    "wof:hierarchy": [
      {
        "building_id": -1,
        "campus_id": 102527513,
        "collection_id": 1159162825,
        "concourse_id": 1159162825,
        "continent_id": 102191575,
        "country_id": 85633793,
        "county_id": 102087579,
        "custom_id": 1796455101,
        "image_id": 1796455101,
        "locality_id": 85922583,
        "neighbourhood_id": -1,
        "object_id": 1796453979,
        "region_id": 85688637,
        "wing_id": 1159160869
      }
    ],
    "wof:id": 1796455101,
    "wof:lastmodified": 1788451517,
    "wof:name": "creamer packet: Japan Air Lines",
    "wof:parent_id": 1796453979,
    "wof:placetype": "custom",
    "wof:placetype_alt": [
      "image"
    ],
    "wof:repo": "sfomuseum-data-media-collection",
    "wof:superseded_by": [],
    "wof:supersedes": []
  },
  "bbox": [
    -122.386472,
    37.616105,
    -122.385834,
    37.616611
  ],
  "geometry": {"type":"Polygon","coordinates":[[[-122.386472,37.616318],[-122.386435,37.616233],[-122.386376,37.616178],[-122.386301,37.616131],[-122.386161,37.616105],[-122.386022,37.616131],[-122.385914,37.616186],[-122.385855,37.616267],[-122.385834,37.616369],[-122.385871,37.616467],[-122.385941,37.616543],[-122.386054,37.616603],[-122.386183,37.616611],[-122.386306,37.616573],[-122.386419,37.616509],[-122.386467,37.616411],[-122.386472,37.616318]]]}
}
