{
  "id": 1527843079,
  "type": "Feature",
  "properties": {
    "date:cessation_lower": "1964-01-01",
    "date:cessation_upper": "1964-12-31",
    "date:inception_lower": "1964-01-01",
    "date:inception_upper": "1964-12-31",
    "edtf:cessation": "1964",
    "edtf:date": "1964",
    "edtf:inception": "1964",
    "geom:area": 0,
    "geom:bbox": "-122.386155,37.616358,-122.386155,37.616358",
    "geom:latitude": 37.616358,
    "geom:longitude": -122.386155,
    "iso:country": "XX",
    "media:fingerprint": "db4c780cc3506c12cf635a7a769d61659ca34251",
    "media:imagehash_avg": "a:ff89ffc38381c3ff",
    "media:imagehash_diff": "d:66311b0f17170e0f",
    "media:imagetext": "JULY\nPANAM\nLOCAL TIME TABLE\nSERVICES\nFROM\n3FLIGHTS\nDIRECT\n• TOKYO\n• U.S. A.\n• ASIA\n• MIDDLE EAST\n• NEAR EAST\n• EUROPE\nTOKYO\nSAN FRANCISCO\nLOS ANGELES\n11 FLIGHTS\nVIA HAWAII\nPAN AMERICAN AIRWAYS\nWORLD'S MOST EXPERIENCED AIRLINE",
    "media:imagetext_created": 1787951409,
    "media:imagetext_source": "com.apple.visionkit.VNImageRequestHandler#Version 26.6.2 (Build 25G83)",
    "media:medium": "image",
    "media:mimetype": "image/tiff",
    "media:properties": {
      "sizes": {
        "b": {
          "extension": "jpg",
          "height": 768,
          "mimetype": "image/jpeg",
          "secret": "YStRPsxMVX5CYDv2pSCa6JEImeXYvBX1",
          "width": 446
        },
        "c": {
          "extension": "jpg",
          "height": 600,
          "mimetype": "image/jpeg",
          "secret": "YStRPsxMVX5CYDv2pSCa6JEImeXYvBX1",
          "width": 348
        },
        "dc": {
          "extension": "jpg",
          "height": 600,
          "mimetype": "image/jpeg",
          "secret": "YStRPsxMVX5CYDv2pSCa6JEImeXYvBX1",
          "width": 348
        },
        "ds": {
          "extension": "jpg",
          "height": 320,
          "mimetype": "image/jpeg",
          "secret": "YStRPsxMVX5CYDv2pSCa6JEImeXYvBX1",
          "width": 320
        },
        "k": {
          "extension": "jpg",
          "height": 1536,
          "mimetype": "image/jpeg",
          "secret": "YStRPsxMVX5CYDv2pSCa6JEImeXYvBX1",
          "width": 892
        },
        "n": {
          "extension": "jpg",
          "height": 240,
          "mimetype": "image/jpeg",
          "secret": "YStRPsxMVX5CYDv2pSCa6JEImeXYvBX1",
          "width": 139
        },
        "o": {
          "extension": "jpg",
          "height": 1668,
          "mimetype": "image/jpeg",
          "secret": "Sjw5Y3MCqA942quyE2nPZmoEScW0n8me",
          "width": 969
        },
        "s": {
          "extension": "jpg",
          "height": 320,
          "mimetype": "image/jpeg",
          "secret": "YStRPsxMVX5CYDv2pSCa6JEImeXYvBX1",
          "width": 320
        },
        "z": {
          "extension": "jpg",
          "height": 480,
          "mimetype": "image/jpeg",
          "secret": "YStRPsxMVX5CYDv2pSCa6JEImeXYvBX1",
          "width": 278
        }
      }
    },
    "media:source": "sfomuseum",
    "media:status_id": 1,
    "media:uri_template": "https://static.sfomuseum.org/media/152/784/307/9/1527843079_{secret}_{label}.{extension}",
    "millsfield:airline_id": [
      1159284989
    ],
    "millsfield:category_id": 1511214223,
    "millsfield:collection_id": 1511214207,
    "millsfield:company_id": [
      1159286839
    ],
    "millsfield:images_colors": [
      {
        "hex": "#f1ebd9",
        "name": "#f1ebd9",
        "reference": "marekm4"
      },
      {
        "hex": "#faebd7",
        "name": "antiquewhite",
        "reference": "css4"
      },
      {
        "hex": "#efdecd",
        "name": "Almond",
        "reference": "crayola"
      },
      {
        "hex": "#196bcd",
        "name": "#196bcd",
        "reference": "marekm4"
      },
      {
        "hex": "#4169e1",
        "name": "royalblue",
        "reference": "css4"
      },
      {
        "hex": "#1974d2",
        "name": "Navy Blue",
        "reference": "crayola"
      },
      {
        "hex": "#ed2b21",
        "name": "#ed2b21",
        "reference": "marekm4"
      },
      {
        "hex": "#dc143c",
        "name": "crimson",
        "reference": "css4"
      },
      {
        "hex": "#ff2b2b",
        "name": "Orange Red",
        "reference": "crayola"
      },
      {
        "hex": "#272321",
        "name": "#272321",
        "reference": "marekm4"
      },
      {
        "hex": "#000000",
        "name": "black",
        "reference": "css4"
      },
      {
        "hex": "#000000",
        "name": "Black",
        "reference": "crayola"
      },
      {
        "hex": "#518fd0",
        "name": "#518fd0",
        "reference": "marekm4"
      },
      {
        "hex": "#4682b4",
        "name": "steelblue",
        "reference": "css4"
      },
      {
        "hex": "#6699cc",
        "name": "Blue Gray",
        "reference": "crayola"
      }
    ],
    "millsfield:images_texts": [
      "JULY\nPANAM\nLOCAL TIME TABLE\nSERVICES\nFROM\n3FLIGHTS\nDIRECT\n• TOKYO\n• U.S. A.\n• ASIA\n• MIDDLE EAST\n• NEAR EAST\n• EUROPE\nTOKYO\nSAN FRANCISCO\nLOS ANGELES\n11 FLIGHTS\nVIA HAWAII\nPAN AMERICAN AIRWAYS\nWORLD'S MOST EXPERIENCED AIRLINE"
    ],
    "millsfield:images_texts_ids": [
      1527843079
    ],
    "millsfield:similar": {
      "apple/mobileclip_s0": [
        {
          "distance": 0.6901947,
          "id": 1527851453
        },
        {
          "distance": 0.6904591,
          "id": 1527836739
        },
        {
          "distance": 0.69222885,
          "id": 1527839903
        },
        {
          "distance": 0.69532204,
          "id": 1527836511
        },
        {
          "distance": 0.703279,
          "id": 1527849687
        },
        {
          "distance": 0.7068299,
          "id": 1762701359
        },
        {
          "distance": 0.70950943,
          "id": 1762715375
        },
        {
          "distance": 0.7106284,
          "id": 1762699349
        },
        {
          "distance": 0.7108044,
          "id": 1527848809
        },
        {
          "distance": 0.71126056,
          "id": 1762699307
        }
      ],
      "apple/mobileclip_s1": [
        {
          "distance": 0.4692048,
          "id": 1762700999
        },
        {
          "distance": 0.47150162,
          "id": 1527839563
        },
        {
          "distance": 0.48240557,
          "id": 1763196695
        },
        {
          "distance": 0.49002528,
          "id": 1527839903
        },
        {
          "distance": 0.49538484,
          "id": 1527839907
        },
        {
          "distance": 0.49816313,
          "id": 1763257787
        },
        {
          "distance": 0.49859896,
          "id": 1762701537
        },
        {
          "distance": 0.5000766,
          "id": 1527839637
        },
        {
          "distance": 0.50011265,
          "id": 1527839639
        },
        {
          "distance": 0.5108758,
          "id": 1762699349
        }
      ],
      "apple/mobileclip_s2": [
        {
          "distance": 0.69794047,
          "id": 1762700999
        },
        {
          "distance": 0.7323619,
          "id": 1527839895
        },
        {
          "distance": 0.73295635,
          "id": 1762701537
        },
        {
          "distance": 0.73818773,
          "id": 1762698109
        },
        {
          "distance": 0.73921764,
          "id": 1527839907
        },
        {
          "distance": 0.7397903,
          "id": 1763196695
        },
        {
          "distance": 0.74055046,
          "id": 1527839903
        },
        {
          "distance": 0.7412353,
          "id": 1527849811
        },
        {
          "distance": 0.74249125,
          "id": 1527849687
        },
        {
          "distance": 0.7450955,
          "id": 1527839639
        }
      ]
    },
    "millsfield:subcategory_id": 1511213425,
    "mz:hierarchy_label": 1,
    "mz:is_current": -1,
    "sfomuseum:filename": "2001.038.128.tif",
    "sfomuseum:image_id": 67958,
    "sfomuseum:image_index": 5,
    "sfomuseum:image_type": "studio",
    "sfomuseum:object_id": 59466,
    "sfomuseum:placetype": "image",
    "sfomuseum:primary_image": 1,
    "src:geom": "sfomuseum",
    "wof:belongsto": [
      1511214223,
      1511921113,
      102527513,
      102191575,
      85633793,
      1511213425,
      85922583,
      102087579,
      1511214277,
      1511214203,
      85688637
    ],
    "wof:breaches": [],
    "wof:country": "XX",
    "wof:created": 1578952977,
    "wof:depicts": [
      1159284989,
      1159286839,
      1511921113
    ],
    "wof:geomhash": "bd906905ce4be6c0651c90b0fc24804c",
    "wof:hierarchy": [
      {
        "arcade_id": 1511213425,
        "building_id": 1511214277,
        "campus_id": 102527513,
        "concourse_id": 1511214223,
        "continent_id": 102191575,
        "country_id": 85633793,
        "county_id": 102087579,
        "custom_id": 1527843079,
        "image_id": 1527843079,
        "locality_id": 85922583,
        "media_id": 1527843079,
        "neighbourhood_id": -1,
        "region_id": 85688637,
        "venue_id": 1511921113,
        "wing_id": 1511214203
      }
    ],
    "wof:id": 1527843079,
    "wof:lastmodified": 1788450061,
    "wof:name": "timetable: Pan American World Airways, Tokyo / San Francisco / Los Angeles",
    "wof:parent_id": 1511921113,
    "wof:placetype": "custom",
    "wof:placetype_alt": [
      "image"
    ],
    "wof:repo": "sfomuseum-data-media-collection",
    "wof:superseded_by": [],
    "wof:supersedes": [],
    "wof:tags": []
  },
  "bbox": [
    -122.386155,
    37.616358,
    -122.386155,
    37.616358
  ],
  "geometry": {"type":"Point","coordinates":[-122.386155,37.616358]}
}
