{
  "id": 1527854873,
  "type": "Feature",
  "properties": {
    "date:cessation_lower": "1986-01-01",
    "date:cessation_upper": "1986-12-31",
    "date:inception_lower": "1986-01-01",
    "date:inception_upper": "1986-12-31",
    "edtf:cessation": "1986",
    "edtf:date": "1986",
    "edtf:inception": "1986",
    "geom:area": 0,
    "geom:bbox": "-122.386155,37.616358,-122.386155,37.616358",
    "geom:latitude": 37.616358,
    "geom:longitude": -122.386155,
    "iso:country": "XX",
    "media:fingerprint": "4f8146ba02853981e0881328ad488a9655421774",
    "media:imagehash_avg": "a:00c3c3c3ffffffff",
    "media:imagehash_diff": "d:4d0e0e0e0e0e0e0e",
    "media:imagetext": "TIMETABLE\nNO. 243\nEFFECTIVE: APRIL 3, 1988\nHAWALAN.\nThe Colors of Paradise.\nHAWAII\nLOS ANGELES\nLAS VEGAS\nSAN FRANCISCO\nSEATTLE\nPORTLAND\nANCHORAGE\nAMERICAN SAMOA\nWESTERN SAMOA\nTONGA\nGUAM\nTAHITI\nCOOK ISLANDS\nNEW ZEALAND\nAUSTRALIA",
    "media:imagetext_created": 1787953779,
    "media:imagetext_source": "com.apple.visionkit.VNImageRequestHandler#Version 26.6.2 (Build 25G83)",
    "media:medium": "image",
    "media:mimetype": "image/tiff",
    "media:properties": {
      "sizes": {
        "b": {
          "extension": "jpg",
          "height": 768,
          "mimetype": "image/jpeg",
          "secret": "zYIeh1fXJ2jvroid98xRSh5dbPmnRPE8",
          "width": 349
        },
        "c": {
          "extension": "jpg",
          "height": 600,
          "mimetype": "image/jpeg",
          "secret": "zYIeh1fXJ2jvroid98xRSh5dbPmnRPE8",
          "width": 272
        },
        "dc": {
          "extension": "jpg",
          "height": 600,
          "mimetype": "image/jpeg",
          "secret": "zYIeh1fXJ2jvroid98xRSh5dbPmnRPE8",
          "width": 272
        },
        "ds": {
          "extension": "jpg",
          "height": 320,
          "mimetype": "image/jpeg",
          "secret": "zYIeh1fXJ2jvroid98xRSh5dbPmnRPE8",
          "width": 320
        },
        "k": {
          "extension": "jpg",
          "height": 1536,
          "mimetype": "image/jpeg",
          "secret": "zYIeh1fXJ2jvroid98xRSh5dbPmnRPE8",
          "width": 698
        },
        "n": {
          "extension": "jpg",
          "height": 240,
          "mimetype": "image/jpeg",
          "secret": "zYIeh1fXJ2jvroid98xRSh5dbPmnRPE8",
          "width": 109
        },
        "o": {
          "extension": "jpg",
          "height": 2727,
          "mimetype": "image/jpeg",
          "secret": "dzEYpdiAmDSvGq1EUFhQdFbi4HKEnSIB",
          "width": 1240
        },
        "s": {
          "extension": "jpg",
          "height": 320,
          "mimetype": "image/jpeg",
          "secret": "zYIeh1fXJ2jvroid98xRSh5dbPmnRPE8",
          "width": 320
        },
        "z": {
          "extension": "jpg",
          "height": 480,
          "mimetype": "image/jpeg",
          "secret": "zYIeh1fXJ2jvroid98xRSh5dbPmnRPE8",
          "width": 218
        }
      }
    },
    "media:source": "sfomuseum",
    "media:status_id": 1,
    "media:uri_template": "https://static.sfomuseum.org/media/152/785/487/3/1527854873_{secret}_{label}.{extension}",
    "millsfield:aircraft_id": [
      1159291129
    ],
    "millsfield:airline_id": [
      1159284489
    ],
    "millsfield:category_id": 1511214223,
    "millsfield:collection_id": 1511214207,
    "millsfield:company_id": [
      1159293697
    ],
    "millsfield:images_colors": [
      {
        "hex": "#e0dac8",
        "name": "#e0dac8",
        "reference": "marekm4"
      },
      {
        "hex": "#d3d3d3",
        "name": "lightgrey",
        "reference": "css4"
      },
      {
        "hex": "#dbd7d2",
        "name": "Timberwolf",
        "reference": "crayola"
      },
      {
        "hex": "#c22661",
        "name": "#c22661",
        "reference": "marekm4"
      },
      {
        "hex": "#c71585",
        "name": "mediumvioletred",
        "reference": "css4"
      },
      {
        "hex": "#ca3767",
        "name": "Jazzberry Jam",
        "reference": "crayola"
      },
      {
        "hex": "#302d55",
        "name": "#302d55",
        "reference": "marekm4"
      },
      {
        "hex": "#2f4f4f",
        "name": "darkslategrey",
        "reference": "css4"
      },
      {
        "hex": "#414a4c",
        "name": "Outer Space",
        "reference": "crayola"
      },
      {
        "hex": "#1f5995",
        "name": "#1f5995",
        "reference": "marekm4"
      },
      {
        "hex": "#483d8b",
        "name": "darkslateblue",
        "reference": "css4"
      },
      {
        "hex": "#2e5894",
        "name": "B'dazzled Blue",
        "reference": "crayola"
      }
    ],
    "millsfield:images_texts": [
      "TIMETABLE\nNO. 243\nEFFECTIVE: APRIL 3, 1988\nHAWALAN.\nThe Colors of Paradise.\nHAWAII\nLOS ANGELES\nLAS VEGAS\nSAN FRANCISCO\nSEATTLE\nPORTLAND\nANCHORAGE\nAMERICAN SAMOA\nWESTERN SAMOA\nTONGA\nGUAM\nTAHITI\nCOOK ISLANDS\nNEW ZEALAND\nAUSTRALIA",
      "DRINE\nPARADISE\nDOLLARE\nRENT A CAR®\nA PACIFIC INTERNATIONAL SERVICES COMPANY.\nFUN CARS • LOW PRICES\nFREE MILEAGE\nFrom Honolulu and all Oahu\n926-4200\nFrom all Hawaii Neighbor Islands TOLL FREE\n1-800-342-7398\nFor Waikiki only\n926-4264\nFrom the U.S. Mainland TOLL FREE\n1-800-367-7006\nAll major airports in Hawaii.\nNow open in Guam and Saipan.\n362",
      "HAWALAN.\nAIRLINE\nTerminal Locations\nAgana, Guam\nAnchorage, Alaska\nApia, Western Samoa\nAuckland, New Zealand\nHonolulu-Transpacific\nHonolulu-Interisland\nLas Vegas, Nevada\nLos Angeles, California\nNuku'alofa, Tonga\nPago Pago, American Samoa\nPapeete, Tahiti\nPortland, Oregon\nRarotonga, Cook Islands\nSan Francisco, California\nSeattle/Tacoma, Washington\nSydney, Australia\nAgana Inti (GUM)\nAnchorage Int'l (ANC)\nFaleolo Int'l (APW)\nAuckland Int'l (AKL)\nInti Terminal (HNL)\nInterisland Terminal (HNL)\nMcCarran Int'l (LAS)\nLos Angeles Int (LAX)\nTerminal #2\nTongatapu Intl (TBU)\nTafuna Int'l (PPG)\nTahiti-FAAA Int'l (PPT)\nPortland Intl (PDX)\nRarotonga Inti (RAR)\nSan Francisco Int'l (SFO)\nSeattle/Tacoma Int'l (SEA)\nKingsford Smith Int'l (SYD)\nANCHORAGE\nOAHU\nKAUAI\nSEATTLE/TACOMA\nPORTLAND\nSAN FRANCISCO\n• LAS VEGAS\nLOS ANGELES\nGUAM\nWESTERN\nSAMOA\nSYDNEY\nAUSTRALIA\nLANAI\nKONA\nMOLOKAI\nMAUI\nWEST MAUI\nKAHULUI\nHILO\nHAWAII\nAMERICAN\nSAMOA\nTAHITI\nTONGA\n• COOK ISLANDS\nAUCKLAND\nNEW ZEALAND\nANCHORAGE\nRESERVATIONS\n(800) 367-5320\nTO\nLeave Arrive\nFlight\nNumber\nStops\nor Via Freq. Serv.\nApia, W. Samoa\n9:30\n9:20\n27/11\nHNL\n6\nM\nAuckland, New Zealand\n9:30 7:15+2\n27/471/1471 3\n1\nM\nGuam\n9:30\n6:15+1\n27/3\nHNL 16\nM\nHilo\n9:30\n2:50\n27/202\nHNL\n156\nM\nHonolulu\n9:30 1:10\n27\n156\nMA\nKahului, Maui\n9:30\n3:01\n27/226\nHNL 156\nM\nKapalua-West Maui\n9:30 2:45\n27/660\nHNL 156\nM\nKauai\n9:30 3:20\n27/121\nHNL 156\nM\nKona\n9:30 2:38\n27/58\nHNL\n156\nM\nLanai\n9:30\n5:28\n27/734 HNL\n5\nM\nMolokai\n9:30 3:10\n27/728\nHNL 156\nM\nPago Pago, Am. Samoa\n9:30\n3:05+1\n27/471\n1\n9:30\n7:50\n27/11\nHNL\n6\nM\nM\nPapeete, Tahiti, Fr. Polynesia\n9:30 11:59\n27/483\nHNL 5\nRarotonga, Cook Islands\n9:30 9:40\n27/483\nHNL 5\nM\nSydney, Australia\nCONSULT HAWAIIAN AIRLINES\nTonga\n9:30 10:20+20\n27/461\nHNL 6\nM\nFROM\nFlight\nLeave\nArrive\nNumber\nStops\nor Via Freq. Serv.\nApia Reservations: 21345\n11:30\n10:00+1\n466/28\nHNL 6\nM\nAuckland Reservations: (649) 771-013\n6:30\n10:00 + 1• 1472/472/28 2\n3\nM\nGuam Reservations: (671) 646-0373\n11:40\n10:00\n4/28\nHNL 457\nM\nHilo Reservations: (808) 935-0811\n11:50\n10:00\n291/28\nHNL 457\nM\nHonolulu Reservations: (808) 537-5100\n2:20\n10:00\n28\n457\nMA\nKahului, Maui Reservations: (808) 244-9111\n1:00\n10:00\n225/28\nHNL 457\nM\nKapalua-West Maui Reservations: (808) 244-9111\n12:00\n10:00\n643/28\nHNL 457\nM\nKauai Reservations: (808) 245-3671\n12:30\n10:00\n166/28\nHNL 457\nM\nKona Reservations: (808) 935-0811\n12:35\n10:00\n97/28\nHNL 457\nM\nLanai Reservations: (808) 565-6429\nCONSULT HAWAIIAN AIRLINES\nMolokai Reservations: (808) 553-5321\n12:00\n2:00\n11:05\n10:00\n719/28\nHNL 457\nPago Pago Reservations: (684) 699-1875\n10:00\n462/28\nHNL\n5\n10:00+1\n452/28\nHNL\n4\nPapeete Reservations: (689) 424-438\n10:00 + 1•\n482/28\nHNL\n3\n10:00 + 1• 483/28\nHNL 6\nM\nM\nM\n1:00\n1:00\nRarotonga Reservations: 21210\n10:25\n10:00+2 483/28\nHNL 5\nM\nM\nSydney Reservations: (02) 221-4522\n12:45\n10:00\n452/28\nHNL\n5\nTonga Reservations: 21688\n11:30\n10:00\n462/28\nHNL 5\nM\nM\nINTRODUCIN\nG\nHAWALAN\nPremier Club\nSee Page 24-25 for details\nALL FLIGHTS OPERATE DAILY UNLESS NOTED\n1-MONDAY\n2-TUESDAY 3-WEDNESDAY 4 THURSDAY 5-FRIDAY\n6-SATURDAY 7-SUNDAY X-EXCEPT\nFor decoding of symbols see page 43\n3"
    ],
    "millsfield:images_texts_ids": [
      1527854873,
      1527854875,
      1527854879
    ],
    "millsfield:similar": {
      "apple/mobileclip_s0": [
        {
          "distance": 0.2133613,
          "id": 1527839635
        },
        {
          "distance": 0.2712577,
          "id": 1762699715
        },
        {
          "distance": 0.42727992,
          "id": 1527839633
        },
        {
          "distance": 0.6175675,
          "id": 1762713815
        },
        {
          "distance": 0.62705916,
          "id": 1762697585
        },
        {
          "distance": 0.6345458,
          "id": 2014778517
        },
        {
          "distance": 0.64087355,
          "id": 1762699957
        },
        {
          "distance": 0.6434843,
          "id": 1527849529
        },
        {
          "distance": 0.64440227,
          "id": 1762715149
        },
        {
          "distance": 0.64526373,
          "id": 1763257863
        }
      ],
      "apple/mobileclip_s1": [
        {
          "distance": 0.11224668,
          "id": 1527839635
        },
        {
          "distance": 0.20129648,
          "id": 1527839633
        },
        {
          "distance": 0.21497917,
          "id": 1762699715
        },
        {
          "distance": 0.45371258,
          "id": 1527847085
        },
        {
          "distance": 0.4594517,
          "id": 1527847079
        },
        {
          "distance": 0.4656552,
          "id": 1527847089
        },
        {
          "distance": 0.46854964,
          "id": 1527847075
        },
        {
          "distance": 0.47485816,
          "id": 1527849743
        },
        {
          "distance": 0.48379236,
          "id": 1527839517
        },
        {
          "distance": 0.48422995,
          "id": 1527854829
        }
      ],
      "apple/mobileclip_s2": [
        {
          "distance": 0.12949795,
          "id": 1527839635
        },
        {
          "distance": 0.19369671,
          "id": 1762699715
        },
        {
          "distance": 0.26015928,
          "id": 1527839633
        },
        {
          "distance": 0.58642876,
          "id": 1527847089
        },
        {
          "distance": 0.62232846,
          "id": 1527847085
        },
        {
          "distance": 0.6235925,
          "id": 1527847079
        },
        {
          "distance": 0.6404298,
          "id": 1527847075
        },
        {
          "distance": 0.6454622,
          "id": 1762697831
        },
        {
          "distance": 0.64585876,
          "id": 1763196157
        },
        {
          "distance": 0.6460391,
          "id": 1527850353
        }
      ]
    },
    "millsfield:subcategory_id": 1511213425,
    "mz:hierarchy_label": 1,
    "mz:is_current": -1,
    "sfomuseum:filename": "2008.108.363.tif",
    "sfomuseum:image_id": 98839,
    "sfomuseum:image_index": 5,
    "sfomuseum:image_type": "studio",
    "sfomuseum:object_id": 93742,
    "sfomuseum:placetype": "image",
    "sfomuseum:primary_image": 1,
    "src:geom": "sfomuseum",
    "wof:belongsto": [
      1511214223,
      1511933609,
      102527513,
      102191575,
      85633793,
      1511213425,
      85922583,
      102087579,
      1511214277,
      1511214203,
      85688637
    ],
    "wof:breaches": [],
    "wof:country": "XX",
    "wof:created": 1578954896,
    "wof:depicts": [
      1159291129,
      1159284489,
      1159293697,
      1511933609
    ],
    "wof:geomhash": "bd906905ce4be6c0651c90b0fc24804c",
    "wof:hierarchy": [
      {
        "arcade_id": 1511213425,
        "building_id": 1511214277,
        "campus_id": 102527513,
        "concourse_id": 1511214223,
        "continent_id": 102191575,
        "country_id": 85633793,
        "county_id": 102087579,
        "custom_id": 1527854873,
        "image_id": 1527854873,
        "locality_id": 85922583,
        "media_id": 1527854873,
        "neighbourhood_id": -1,
        "region_id": 85688637,
        "venue_id": 1511933609,
        "wing_id": 1511214203
      }
    ],
    "wof:id": 1527854873,
    "wof:lastmodified": 1788450234,
    "wof:name": "timetable: Hawaiian Airlines",
    "wof:parent_id": 1511933609,
    "wof:placetype": "custom",
    "wof:placetype_alt": [
      "image"
    ],
    "wof:repo": "sfomuseum-data-media-collection",
    "wof:superseded_by": [],
    "wof:supersedes": [],
    "wof:tags": []
  },
  "bbox": [
    -122.386155,
    37.616358,
    -122.386155,
    37.616358
  ],
  "geometry": {"type":"Point","coordinates":[-122.386155,37.616358]}
}
