{
  "id": 1762702769,
  "type": "Feature",
  "properties": {
    "date:cessation_lower": "1960-01-01",
    "date:cessation_upper": "1969-12-31",
    "date:inception_lower": "1960-01-01",
    "date:inception_upper": "1969-12-31",
    "edtf:cessation": "196X",
    "edtf:inception": "196X",
    "geom:area": 2.477324999997507e-7,
    "geom:bbox": "-122.386472,37.616105,-122.385834,37.616611",
    "geom:latitude": 37.61635756125121,
    "geom:longitude": -122.38615532866096,
    "media:fingerprint": "3e137cbc4c768bbb699731ff1a96d5cd9a520bd1",
    "media:imagehash_avg": "a:1b0507e7e1e1f7fd",
    "media:imagehash_diff": "d:737d6d4d6d6d6d79",
    "media:imagetext": "AIR NEW ZEALAND s DC-8 s link New Zealand and\nthe South Pacific with Australia, the Orient and\nNorth America. Their powerful fanjet engines and\nluxury interiors ensure superb comfort. The symbol\non the tail fin is the Koru which had its place on the\nsternposts of questing Maori canoes that probed\nPacific distances in another time.\nPOSTCARD\nAIR NEW ZEALAND LIMITED\nAIR NEW ZEALAND House, Queen St., Auckland, N.Z.\nPlace\nStamp\nHere\n1565A PRINTED IN NEW ZEALAND\n2015.166.0037",
    "media:imagetext_created": 1787956541,
    "media:imagetext_source": "com.apple.visionkit.VNImageRequestHandler#Version 26.6.2 (Build 25G83)",
    "media:mimetype": "image/tiff",
    "media:properties": {
      "sizes": {
        "b": {
          "extension": "jpg",
          "height": 651,
          "mimetype": "image/jpeg",
          "secret": "KigcOjLvEi915XWloTW4TkwWyjIsaugU",
          "width": 1024
        },
        "c": {
          "extension": "jpg",
          "height": 508,
          "mimetype": "image/jpeg",
          "secret": "KigcOjLvEi915XWloTW4TkwWyjIsaugU",
          "width": 800
        },
        "dc": {
          "extension": "jpg",
          "height": 508,
          "mimetype": "image/jpeg",
          "secret": "KigcOjLvEi915XWloTW4TkwWyjIsaugU",
          "width": 800
        },
        "ds": {
          "extension": "jpg",
          "height": 320,
          "mimetype": "image/jpeg",
          "secret": "KigcOjLvEi915XWloTW4TkwWyjIsaugU",
          "width": 320
        },
        "k": {
          "extension": "jpg",
          "height": 1302,
          "mimetype": "image/jpeg",
          "secret": "KigcOjLvEi915XWloTW4TkwWyjIsaugU",
          "width": 2048
        },
        "n": {
          "extension": "jpg",
          "height": 203,
          "mimetype": "image/jpeg",
          "secret": "KigcOjLvEi915XWloTW4TkwWyjIsaugU",
          "width": 320
        },
        "o": {
          "extension": "jpg",
          "height": 1105,
          "mimetype": "image/jpeg",
          "secret": "IEU78sKqnVQJl5HxlsJMHxz7PH6wrEuP",
          "width": 1737
        },
        "s": {
          "extension": "jpg",
          "height": 320,
          "mimetype": "image/jpeg",
          "secret": "KigcOjLvEi915XWloTW4TkwWyjIsaugU",
          "width": 320
        },
        "z": {
          "extension": "jpg",
          "height": 407,
          "mimetype": "image/jpeg",
          "secret": "KigcOjLvEi915XWloTW4TkwWyjIsaugU",
          "width": 640
        }
      }
    },
    "media:source": "sfomuseum",
    "media:status_id": 1,
    "media:uri_template": "https://static.sfomuseum.org/media/176/270/276/9/1762702769_{secret}_{label}.{extension}",
    "millsfield:aircraft_id": [
      1159290443
    ],
    "millsfield:airline_id": [
      1159283697
    ],
    "millsfield:category_id": 1511214215,
    "millsfield:collection_id": 1511214207,
    "millsfield:company_id": [],
    "millsfield:images_colors": [
      {
        "hex": "#f0e5cc",
        "name": "#f0e5cc",
        "reference": "marekm4"
      },
      {
        "hex": "#faebd7",
        "name": "antiquewhite",
        "reference": "css4"
      },
      {
        "hex": "#efdecd",
        "name": "Almond",
        "reference": "crayola"
      },
      {
        "hex": "#32449d",
        "name": "#32449d",
        "reference": "marekm4"
      },
      {
        "hex": "#483d8b",
        "name": "darkslateblue",
        "reference": "css4"
      },
      {
        "hex": "#324ab2",
        "name": "Violet Blue",
        "reference": "crayola"
      }
    ],
    "millsfield:images_texts": [
      "DuPiee? mau JIP\nGID",
      "AIR NEW ZEALAND s DC-8 s link New Zealand and\nthe South Pacific with Australia, the Orient and\nNorth America. Their powerful fanjet engines and\nluxury interiors ensure superb comfort. The symbol\non the tail fin is the Koru which had its place on the\nsternposts of questing Maori canoes that probed\nPacific distances in another time.\nPOSTCARD\nAIR NEW ZEALAND LIMITED\nAIR NEW ZEALAND House, Queen St., Auckland, N.Z.\nPlace\nStamp\nHere\n1565A PRINTED IN NEW ZEALAND\n2015.166.0037"
    ],
    "millsfield:images_texts_ids": [
      1762702765,
      1762702769
    ],
    "millsfield:similar": {
      "apple/mobileclip_s0": [
        {
          "distance": 0.3938252,
          "id": 1762702755
        },
        {
          "distance": 0.42444175,
          "id": 1846756519
        },
        {
          "distance": 0.4288978,
          "id": 1762708075
        },
        {
          "distance": 0.43537042,
          "id": 1762711179
        },
        {
          "distance": 0.4381187,
          "id": 1762708789
        },
        {
          "distance": 0.43994144,
          "id": 1846756249
        },
        {
          "distance": 0.4402129,
          "id": 1762713161
        },
        {
          "distance": 0.44066513,
          "id": 1762711161
        },
        {
          "distance": 0.44162217,
          "id": 1762712751
        },
        {
          "distance": 0.44493735,
          "id": 1762704805
        }
      ],
      "apple/mobileclip_s1": [
        {
          "distance": 0.33390364,
          "id": 1762708853
        },
        {
          "distance": 0.3398224,
          "id": 1762710805
        },
        {
          "distance": 0.34323543,
          "id": 1762708785
        },
        {
          "distance": 0.34813616,
          "id": 1846756223
        },
        {
          "distance": 0.34832266,
          "id": 1762708865
        },
        {
          "distance": 0.34841287,
          "id": 1762711179
        },
        {
          "distance": 0.34854814,
          "id": 1762713613
        },
        {
          "distance": 0.34962153,
          "id": 1762711319
        },
        {
          "distance": 0.3496481,
          "id": 1762708789
        },
        {
          "distance": 0.3499852,
          "id": 1762710881
        }
      ],
      "apple/mobileclip_s2": [
        {
          "distance": 0.5502328,
          "id": 1762704835
        },
        {
          "distance": 0.56255084,
          "id": 1762708785
        },
        {
          "distance": 0.5686458,
          "id": 1762708853
        },
        {
          "distance": 0.5695116,
          "id": 1762702755
        },
        {
          "distance": 0.569693,
          "id": 1762713613
        },
        {
          "distance": 0.5704185,
          "id": 1762713161
        },
        {
          "distance": 0.5705587,
          "id": 1762709543
        },
        {
          "distance": 0.5737824,
          "id": 1762712245
        },
        {
          "distance": 0.5740187,
          "id": 1762709551
        },
        {
          "distance": 0.5744308,
          "id": 1762710823
        }
      ]
    },
    "millsfield:subcategory_id": 1511213363,
    "mz:is_current": 1,
    "sfomuseum:filename": "2015.166.0037_reverse.tif",
    "sfomuseum:image_id": 150711,
    "sfomuseum:image_index": 5,
    "sfomuseum:image_type": "studio",
    "sfomuseum:object_id": 179654,
    "sfomuseum:placetype": "image",
    "sfomuseum:primary_image": 0,
    "src:geom": "sfomuseum",
    "wof:belongsto": [
      102527513,
      1159162825,
      102191575,
      85633793,
      102087579,
      85922583,
      1762685771,
      85688637,
      1159160869
    ],
    "wof:country": "XY",
    "wof:created": 1641347287,
    "wof:depicts": [
      1762685771,
      1159283697,
      1159287125,
      1159290443
    ],
    "wof:geomhash": "ed7c2ab3547fc3916b5edc33488deaa7",
    "wof:hierarchy": [
      {
        "building_id": -1,
        "campus_id": 102527513,
        "collection_id": 1159162825,
        "concourse_id": 1159162825,
        "continent_id": 102191575,
        "country_id": 85633793,
        "county_id": 102087579,
        "custom_id": 1762702769,
        "image_id": 1762702769,
        "locality_id": 85922583,
        "neighbourhood_id": -1,
        "object_id": 1762685771,
        "region_id": 85688637,
        "wing_id": 1159160869
      }
    ],
    "wof:id": 1762702769,
    "wof:lastmodified": 1788450490,
    "wof:name": "postcard: Air New Zealand, Douglas DC-8",
    "wof:parent_id": 1762685771,
    "wof:placetype": "custom",
    "wof:placetype_alt": [
      "image"
    ],
    "wof:repo": "sfomuseum-data-media-collection",
    "wof:superseded_by": [],
    "wof:supersedes": []
  },
  "bbox": [
    -122.386472,
    37.616105,
    -122.385834,
    37.616611
  ],
  "geometry": {"type":"Polygon","coordinates":[[[-122.386472,37.616318],[-122.386435,37.616233],[-122.386376,37.616178],[-122.386301,37.616131],[-122.386161,37.616105],[-122.386022,37.616131],[-122.385914,37.616186],[-122.385855,37.616267],[-122.385834,37.616369],[-122.385871,37.616467],[-122.385941,37.616543],[-122.386054,37.616603],[-122.386183,37.616611],[-122.386306,37.616573],[-122.386419,37.616509],[-122.386467,37.616411],[-122.386472,37.616318]]]}
}
