{
  "id": 1527849709,
  "type": "Feature",
  "properties": {
    "date:cessation_lower": "1995-01-01",
    "date:cessation_upper": "1995-12-31",
    "date:inception_lower": "1995-01-01",
    "date:inception_upper": "1995-12-31",
    "edtf:cessation": "1995",
    "edtf:date": "1995",
    "edtf:inception": "1995",
    "geom:area": 0,
    "geom:bbox": "-122.386155,37.616358,-122.386155,37.616358",
    "geom:latitude": 37.616358,
    "geom:longitude": -122.386155,
    "iso:country": "XX",
    "media:fingerprint": "e88b63aa4187c04a6d8043c0f8d3b11c769f67c7",
    "media:imagehash_avg": "a:df009f9fffffff00",
    "media:imagehash_diff": "d:366b3b3b3a3a2a0d",
    "media:imagetext": "Western Pacifi...\nAIRLINES\nEFFECTIVE\nJux 1-31, 1995\nFLIGHT SCHEDULE\nFLIGHT #\nDEPARTS\nARRIVES\nFREQUENCY\nSToPs\nFROM: CHICAGO-MIDWAY\nTo COLORADO SPRINGS (COS)\n219\n6:30p\n8:15p\n1234567\n0\nTo LAS VEGAS (LAS)\n219/277\n6:30p\n9:30p\n1234567\n1\nTo PHOENIX (PHX)\n219\n6:30p\n9:40p\n1234567\n1\nFROM: COLORADO SPRINGS\nTo CHICAGO-MIDWAY (MDW)\n246\n2:30p\nTo DALLAS FoRT WORTH (DFW)\n284\n2:20p\n266\n8:10p\n5:55p\n5:05p\n10:55p\n1234567\n1234567\n1234567\n0\n0\nTo KANSAS CITY (MCI)\n052\n10:40p\n1:15p\n1234567\n0\nTo LAS VEGAS (LAS)\n115\n3:15p\n277\n8:40p\n4:05p\n9:30p\n1234567\n1234567\n0\n0\nTo Los ANGELES (LAX)\n017\n8:05a\n145\n4:10p\n9:45a\n5:50p\n1234567\n1234567\n0\nTo OKLAHOMA CITY (OKC)\n112\n10:50a\n1:20p\n1234567\n0\nTo PHOENIX (PHX)\n037\n3:00p\n219\n9:00p\n3:40p\n9:40p\n1234567\n1234567\n0\n0\nTo SAN FRANCISCO (SFO)\n235\n7:40a\n257\n7:10p\n9:30a\n9:00p\n1234567\n1234567\n0\n0\nTo SEATTLE (SEA)\n091\n7:25a\n9:30a\n1234567\n0\nRESERVATIONS\nAIR CARGO ...\nTRAVEL AGENTS\nVACATION PACKS..\n1-800-930-3030\n1-800-679-3701\n1-800-930-3010\n1-800-722-5775",
    "media:imagetext_created": 1787952835,
    "media:imagetext_source": "com.apple.visionkit.VNImageRequestHandler#Version 26.6.2 (Build 25G83)",
    "media:medium": "image",
    "media:mimetype": "image/tiff",
    "media:properties": {
      "sizes": {
        "b": {
          "extension": "jpg",
          "height": 768,
          "mimetype": "image/jpeg",
          "secret": "PoWjFwPMrY4kxbeP70aeUfnDbLHeUM2u",
          "width": 342
        },
        "c": {
          "extension": "jpg",
          "height": 600,
          "mimetype": "image/jpeg",
          "secret": "PoWjFwPMrY4kxbeP70aeUfnDbLHeUM2u",
          "width": 267
        },
        "dc": {
          "extension": "jpg",
          "height": 600,
          "mimetype": "image/jpeg",
          "secret": "PoWjFwPMrY4kxbeP70aeUfnDbLHeUM2u",
          "width": 267
        },
        "ds": {
          "extension": "jpg",
          "height": 320,
          "mimetype": "image/jpeg",
          "secret": "PoWjFwPMrY4kxbeP70aeUfnDbLHeUM2u",
          "width": 320
        },
        "k": {
          "extension": "jpg",
          "height": 1536,
          "mimetype": "image/jpeg",
          "secret": "PoWjFwPMrY4kxbeP70aeUfnDbLHeUM2u",
          "width": 685
        },
        "n": {
          "extension": "jpg",
          "height": 240,
          "mimetype": "image/jpeg",
          "secret": "PoWjFwPMrY4kxbeP70aeUfnDbLHeUM2u",
          "width": 107
        },
        "o": {
          "extension": "jpg",
          "height": 2635,
          "mimetype": "image/jpeg",
          "secret": "t73T9UKi4yjMZPtjrjUe75n1TN5wHgPR",
          "width": 1176
        },
        "s": {
          "extension": "jpg",
          "height": 320,
          "mimetype": "image/jpeg",
          "secret": "PoWjFwPMrY4kxbeP70aeUfnDbLHeUM2u",
          "width": 320
        },
        "z": {
          "extension": "jpg",
          "height": 480,
          "mimetype": "image/jpeg",
          "secret": "PoWjFwPMrY4kxbeP70aeUfnDbLHeUM2u",
          "width": 214
        }
      }
    },
    "media:source": "sfomuseum",
    "media:status_id": 1,
    "media:uri_template": "https://static.sfomuseum.org/media/152/784/970/9/1527849709_{secret}_{label}.{extension}",
    "millsfield:airline_id": [
      1159285521
    ],
    "millsfield:category_id": 1511214223,
    "millsfield:collection_id": 1511214207,
    "millsfield:company_id": [
      1159288025
    ],
    "millsfield:images_colors": [
      {
        "hex": "#eae8e3",
        "name": "#eae8e3",
        "reference": "marekm4"
      },
      {
        "hex": "#faf0e6",
        "name": "linen",
        "reference": "css4"
      },
      {
        "hex": "#fddde6",
        "name": "Piggy Pink",
        "reference": "crayola"
      },
      {
        "hex": "#134bc6",
        "name": "#134bc6",
        "reference": "marekm4"
      },
      {
        "hex": "#4169e1",
        "name": "royalblue",
        "reference": "css4"
      },
      {
        "hex": "#1164b4",
        "name": "Green Blue",
        "reference": "crayola"
      },
      {
        "hex": "#272522",
        "name": "#272522",
        "reference": "marekm4"
      },
      {
        "hex": "#2f4f4f",
        "name": "darkslategrey",
        "reference": "css4"
      },
      {
        "hex": "#414a4c",
        "name": "Outer Space",
        "reference": "crayola"
      }
    ],
    "millsfield:images_texts": [
      "Western Pacifi...\nAIRLINES\nEFFECTIVE\nJux 1-31, 1995\nFLIGHT SCHEDULE\nFLIGHT #\nDEPARTS\nARRIVES\nFREQUENCY\nSToPs\nFROM: CHICAGO-MIDWAY\nTo COLORADO SPRINGS (COS)\n219\n6:30p\n8:15p\n1234567\n0\nTo LAS VEGAS (LAS)\n219/277\n6:30p\n9:30p\n1234567\n1\nTo PHOENIX (PHX)\n219\n6:30p\n9:40p\n1234567\n1\nFROM: COLORADO SPRINGS\nTo CHICAGO-MIDWAY (MDW)\n246\n2:30p\nTo DALLAS FoRT WORTH (DFW)\n284\n2:20p\n266\n8:10p\n5:55p\n5:05p\n10:55p\n1234567\n1234567\n1234567\n0\n0\nTo KANSAS CITY (MCI)\n052\n10:40p\n1:15p\n1234567\n0\nTo LAS VEGAS (LAS)\n115\n3:15p\n277\n8:40p\n4:05p\n9:30p\n1234567\n1234567\n0\n0\nTo Los ANGELES (LAX)\n017\n8:05a\n145\n4:10p\n9:45a\n5:50p\n1234567\n1234567\n0\nTo OKLAHOMA CITY (OKC)\n112\n10:50a\n1:20p\n1234567\n0\nTo PHOENIX (PHX)\n037\n3:00p\n219\n9:00p\n3:40p\n9:40p\n1234567\n1234567\n0\n0\nTo SAN FRANCISCO (SFO)\n235\n7:40a\n257\n7:10p\n9:30a\n9:00p\n1234567\n1234567\n0\n0\nTo SEATTLE (SEA)\n091\n7:25a\n9:30a\n1234567\n0\nRESERVATIONS\nAIR CARGO ...\nTRAVEL AGENTS\nVACATION PACKS..\n1-800-930-3030\n1-800-679-3701\n1-800-930-3010\n1-800-722-5775",
      "FLIGHT #\nDEPARTS\nARRIVES\nFROM: SAN FRANCISCO\nTo CHICAGO-MIDWAY (MDW)\n196\n10:10a\nTo COLORADO SPRINGS (COS)\n284\n10:05a\n- 028\n9:35p\nTo DALLAS FORT WORTH (DFW)\n284\n10:05a\n5:55p\n1:40p\n1:10a\n5:05p\nFROM: SEATTLE\nTo COLORADO SPRINGS (COS)\n254\n10:05a\nTo DALLAS FORT WORTH (DFW)\n254/284\n10:05a\n2:40p\n5:05p\nTo CHICAGO MIDWAY (MDW)\n254/246\n10:05a\n5:55p\nFREQUENCY\nSTOPS\n1234567\n1\n1234567\n1234567\n1234567\n0\n1\n1234567\n0\n1234567\n1234567\n1\nSYSTEM ROUTE MAP\nSan Francisco!\nLos Angeles\nSan Diego\nLas Vegas\nPhoenix\nColorado Springs\nKansas City\n- Wichita\n• Oklahoma Gity\n• Dallas/\nFr. Worth)\nExisting Routes\nAugust 1st, 1995\nWP\nWestern Pacific\nAIRLINES\n3 SOUTH TEJON STREET, SUITE 400 • COLORADO SPRINGS, CO 80903\n2802.135.057.00~"
    ],
    "millsfield:images_texts_ids": [
      1527849709,
      1527851373
    ],
    "millsfield:similar": {
      "apple/mobileclip_s0": [
        {
          "distance": 0.36303174,
          "id": 1527849707
        },
        {
          "distance": 0.39388174,
          "id": 1762700671
        },
        {
          "distance": 0.44642168,
          "id": 1762700669
        },
        {
          "distance": 0.5745137,
          "id": 1762700667
        },
        {
          "distance": 0.59554666,
          "id": 1763241113
        },
        {
          "distance": 0.606496,
          "id": 1527843099
        },
        {
          "distance": 0.6221658,
          "id": 1762700595
        },
        {
          "distance": 0.6247528,
          "id": 1527844555
        },
        {
          "distance": 0.62605673,
          "id": 1527818423
        },
        {
          "distance": 0.63070554,
          "id": 1527838511
        }
      ],
      "apple/mobileclip_s1": [
        {
          "distance": 0.1949016,
          "id": 1527849707
        },
        {
          "distance": 0.20323853,
          "id": 1762700671
        },
        {
          "distance": 0.24145803,
          "id": 1762700669
        },
        {
          "distance": 0.3081934,
          "id": 1762700667
        },
        {
          "distance": 0.41465846,
          "id": 1763241113
        },
        {
          "distance": 0.45643932,
          "id": 1527835731
        },
        {
          "distance": 0.4771149,
          "id": 1762701711
        },
        {
          "distance": 0.48112944,
          "id": 1527818421
        },
        {
          "distance": 0.49018,
          "id": 1762698925
        },
        {
          "distance": 0.49189007,
          "id": 1527834281
        }
      ],
      "apple/mobileclip_s2": [
        {
          "distance": 0.27500466,
          "id": 1762700671
        },
        {
          "distance": 0.3101707,
          "id": 1762700669
        },
        {
          "distance": 0.32408336,
          "id": 1527849707
        },
        {
          "distance": 0.44841847,
          "id": 1762700667
        },
        {
          "distance": 0.6244225,
          "id": 1762699997
        },
        {
          "distance": 0.6280098,
          "id": 1527846781
        },
        {
          "distance": 0.6324547,
          "id": 1779566125
        },
        {
          "distance": 0.63824815,
          "id": 1763241113
        },
        {
          "distance": 0.6421299,
          "id": 1762708569
        },
        {
          "distance": 0.64454657,
          "id": 1527839549
        }
      ]
    },
    "millsfield:subcategory_id": 1511213425,
    "mz:hierarchy_label": 1,
    "mz:is_current": -1,
    "sfomuseum:filename": "2002.135.057.002.tif",
    "sfomuseum:image_id": 75336,
    "sfomuseum:image_index": 5,
    "sfomuseum:image_type": "studio",
    "sfomuseum:object_id": 99858,
    "sfomuseum:placetype": "image",
    "sfomuseum:primary_image": 1,
    "src:geom": "sfomuseum",
    "wof:belongsto": [
      1511214223,
      1511938713,
      102527513,
      102191575,
      85633793,
      1511213425,
      85922583,
      102087579,
      1511214277,
      1511214203,
      85688637
    ],
    "wof:breaches": [],
    "wof:country": "XX",
    "wof:created": 1578954071,
    "wof:depicts": [
      1511938713,
      1159288025,
      1159285521
    ],
    "wof:geomhash": "bd906905ce4be6c0651c90b0fc24804c",
    "wof:hierarchy": [
      {
        "arcade_id": 1511213425,
        "building_id": 1511214277,
        "campus_id": 102527513,
        "concourse_id": 1511214223,
        "continent_id": 102191575,
        "country_id": 85633793,
        "county_id": 102087579,
        "custom_id": 1527849709,
        "image_id": 1527849709,
        "locality_id": 85922583,
        "media_id": 1527849709,
        "neighbourhood_id": -1,
        "region_id": 85688637,
        "venue_id": 1511938713,
        "wing_id": 1511214203
      }
    ],
    "wof:id": 1527849709,
    "wof:lastmodified": 1788450163,
    "wof:name": "timetable: Western Pacific Airlines",
    "wof:parent_id": 1511938713,
    "wof:placetype": "custom",
    "wof:placetype_alt": [
      "image"
    ],
    "wof:repo": "sfomuseum-data-media-collection",
    "wof:superseded_by": [],
    "wof:supersedes": [],
    "wof:tags": []
  },
  "bbox": [
    -122.386155,
    37.616358,
    -122.386155,
    37.616358
  ],
  "geometry": {"type":"Point","coordinates":[-122.386155,37.616358]}
}
