{
  "id": 1762707595,
  "type": "Feature",
  "properties": {
    "date:cessation_lower": "1960-01-01",
    "date:cessation_upper": "1969-12-31",
    "date:inception_lower": "1960-01-01",
    "date:inception_upper": "1969-12-31",
    "edtf:cessation": "196X",
    "edtf:inception": "196X",
    "geom:area": 2.477324999997507e-7,
    "geom:bbox": "-122.386472,37.616105,-122.385834,37.616611",
    "geom:latitude": 37.61635756125121,
    "geom:longitude": -122.38615532866096,
    "media:fingerprint": "e6cc02c1c5f85fdeaf94b9e5077eefe0c0f2dd9b",
    "media:imagehash_avg": "a:003cffffffff1c18",
    "media:imagehash_diff": "d:316c69ece8c87971",
    "media:imagetext": "50 1\nImp. J.-E. GOOSSENS, S.A. Bruxelles - Printed in Belgium\nSABENA\nBELGIAN World AIRLINES\nDEINC\n20l",
    "media:imagetext_created": 1787957244,
    "media:imagetext_source": "com.apple.visionkit.VNImageRequestHandler#Version 26.6.2 (Build 25G83)",
    "media:mimetype": "image/tiff",
    "media:properties": {
      "sizes": {
        "b": {
          "extension": "jpg",
          "height": 683,
          "mimetype": "image/jpeg",
          "secret": "HyrIJQnsFDmSRuoqEfhL4BjmpGQJyMXl",
          "width": 1024
        },
        "c": {
          "extension": "jpg",
          "height": 534,
          "mimetype": "image/jpeg",
          "secret": "HyrIJQnsFDmSRuoqEfhL4BjmpGQJyMXl",
          "width": 800
        },
        "dc": {
          "extension": "jpg",
          "height": 534,
          "mimetype": "image/jpeg",
          "secret": "HyrIJQnsFDmSRuoqEfhL4BjmpGQJyMXl",
          "width": 800
        },
        "ds": {
          "extension": "jpg",
          "height": 320,
          "mimetype": "image/jpeg",
          "secret": "HyrIJQnsFDmSRuoqEfhL4BjmpGQJyMXl",
          "width": 320
        },
        "k": {
          "extension": "jpg",
          "height": 1367,
          "mimetype": "image/jpeg",
          "secret": "HyrIJQnsFDmSRuoqEfhL4BjmpGQJyMXl",
          "width": 2048
        },
        "n": {
          "extension": "jpg",
          "height": 213,
          "mimetype": "image/jpeg",
          "secret": "HyrIJQnsFDmSRuoqEfhL4BjmpGQJyMXl",
          "width": 320
        },
        "o": {
          "extension": "jpg",
          "height": 1213,
          "mimetype": "image/jpeg",
          "secret": "tdEFjw17NxvJ2Rap75lUlMRgF025jAne",
          "width": 1817
        },
        "s": {
          "extension": "jpg",
          "height": 320,
          "mimetype": "image/jpeg",
          "secret": "HyrIJQnsFDmSRuoqEfhL4BjmpGQJyMXl",
          "width": 320
        },
        "z": {
          "extension": "jpg",
          "height": 427,
          "mimetype": "image/jpeg",
          "secret": "HyrIJQnsFDmSRuoqEfhL4BjmpGQJyMXl",
          "width": 640
        }
      }
    },
    "media:source": "sfomuseum",
    "media:status_id": 1,
    "media:uri_template": "https://static.sfomuseum.org/media/176/270/759/5/1762707595_{secret}_{label}.{extension}",
    "millsfield:aircraft_id": [
      1159289653
    ],
    "millsfield:airline_id": [
      1159285807
    ],
    "millsfield:category_id": 1511214215,
    "millsfield:collection_id": 1511214207,
    "millsfield:company_id": [
      1159293593
    ],
    "millsfield:images_colors": [
      {
        "hex": "#eee3ca",
        "name": "#eee3ca",
        "reference": "marekm4"
      },
      {
        "hex": "#ffe4c4",
        "name": "bisque",
        "reference": "css4"
      },
      {
        "hex": "#efdecd",
        "name": "Almond",
        "reference": "crayola"
      }
    ],
    "millsfield:images_texts": [
      "S\nA\nE\nN\nA",
      "50 1\nImp. J.-E. GOOSSENS, S.A. Bruxelles - Printed in Belgium\nSABENA\nBELGIAN World AIRLINES\nDEINC\n20l"
    ],
    "millsfield:images_texts_ids": [
      1762707593,
      1762707595
    ],
    "millsfield:similar": {
      "apple/mobileclip_s0": [
        {
          "distance": 0.3059462,
          "id": 1762707603
        },
        {
          "distance": 0.33686358,
          "id": 1762707599
        },
        {
          "distance": 0.36740077,
          "id": 1762713007
        },
        {
          "distance": 0.36759093,
          "id": 1762713187
        },
        {
          "distance": 0.37842098,
          "id": 1762713283
        },
        {
          "distance": 0.38257527,
          "id": 1762711323
        },
        {
          "distance": 0.38651973,
          "id": 1762711327
        },
        {
          "distance": 0.38847992,
          "id": 1762713431
        },
        {
          "distance": 0.39488876,
          "id": 1762702685
        },
        {
          "distance": 0.39707425,
          "id": 1762706261
        }
      ],
      "apple/mobileclip_s1": [
        {
          "distance": 0.22497535,
          "id": 1762707603
        },
        {
          "distance": 0.3159583,
          "id": 1762707599
        },
        {
          "distance": 0.3163203,
          "id": 1762707585
        },
        {
          "distance": 0.3187635,
          "id": 1762710251
        },
        {
          "distance": 0.32040846,
          "id": 1762713283
        },
        {
          "distance": 0.32175818,
          "id": 1762713187
        },
        {
          "distance": 0.32753977,
          "id": 1762706233
        },
        {
          "distance": 0.3330787,
          "id": 1762705115
        },
        {
          "distance": 0.33386883,
          "id": 1762702827
        },
        {
          "distance": 0.3364066,
          "id": 1762702831
        }
      ],
      "apple/mobileclip_s2": [
        {
          "distance": 0.33253664,
          "id": 1762707599
        },
        {
          "distance": 0.35250407,
          "id": 1762707603
        },
        {
          "distance": 0.38775557,
          "id": 1762702827
        },
        {
          "distance": 0.39787182,
          "id": 1762713283
        },
        {
          "distance": 0.39840913,
          "id": 1762711327
        },
        {
          "distance": 0.3998512,
          "id": 1762713187
        },
        {
          "distance": 0.40301618,
          "id": 1762706261
        },
        {
          "distance": 0.40753466,
          "id": 1762706233
        },
        {
          "distance": 0.41655937,
          "id": 1762712259
        },
        {
          "distance": 0.41660467,
          "id": 1762709925
        }
      ]
    },
    "millsfield:subcategory_id": 1511213363,
    "mz:is_current": 1,
    "sfomuseum:filename": "2015.166.1365_bk.tif",
    "sfomuseum:image_id": 155377,
    "sfomuseum:image_index": 5,
    "sfomuseum:image_type": "studio",
    "sfomuseum:object_id": 180982,
    "sfomuseum:placetype": "image",
    "sfomuseum:primary_image": 0,
    "src:geom": "sfomuseum",
    "wof:belongsto": [
      102527513,
      1159162825,
      102191575,
      85633793,
      102087579,
      85922583,
      1762695811,
      85688637,
      1159160869
    ],
    "wof:country": "XY",
    "wof:created": 1641349113,
    "wof:depicts": [
      1762695811,
      1159289653,
      1159293593,
      1159285807,
      1159286639
    ],
    "wof:geomhash": "ed7c2ab3547fc3916b5edc33488deaa7",
    "wof:hierarchy": [
      {
        "building_id": -1,
        "campus_id": 102527513,
        "collection_id": 1159162825,
        "concourse_id": 1159162825,
        "continent_id": 102191575,
        "country_id": 85633793,
        "county_id": 102087579,
        "custom_id": 1762707595,
        "image_id": 1762707595,
        "locality_id": 85922583,
        "neighbourhood_id": -1,
        "object_id": 1762695811,
        "region_id": 85688637,
        "wing_id": 1159160869
      }
    ],
    "wof:id": 1762707595,
    "wof:lastmodified": 1788450569,
    "wof:name": "postcard: Sabena Belgian Air Lines, Boeing 707",
    "wof:parent_id": 1762695811,
    "wof:placetype": "custom",
    "wof:placetype_alt": [
      "image"
    ],
    "wof:repo": "sfomuseum-data-media-collection",
    "wof:superseded_by": [],
    "wof:supersedes": []
  },
  "bbox": [
    -122.386472,
    37.616105,
    -122.385834,
    37.616611
  ],
  "geometry": {"type":"Polygon","coordinates":[[[-122.386472,37.616318],[-122.386435,37.616233],[-122.386376,37.616178],[-122.386301,37.616131],[-122.386161,37.616105],[-122.386022,37.616131],[-122.385914,37.616186],[-122.385855,37.616267],[-122.385834,37.616369],[-122.385871,37.616467],[-122.385941,37.616543],[-122.386054,37.616603],[-122.386183,37.616611],[-122.386306,37.616573],[-122.386419,37.616509],[-122.386467,37.616411],[-122.386472,37.616318]]]}
}
