{
  "id": 1527846821,
  "type": "Feature",
  "properties": {
    "date:cessation_lower": "1970-01-01",
    "date:cessation_upper": "1970-12-31",
    "date:inception_lower": "1970-01-01",
    "date:inception_upper": "1970-12-31",
    "edtf:cessation": "1970",
    "edtf:date": "1970",
    "edtf:inception": "1970",
    "geom:area": 0,
    "geom:bbox": "-122.386155,37.616358,-122.386155,37.616358",
    "geom:latitude": 37.616358,
    "geom:longitude": -122.386155,
    "iso:country": "XX",
    "media:fingerprint": "9c8a8ac957f6eb05ba31cd3f6b0759084a6bb87d",
    "media:imagehash_avg": "a:8183c3818fffc3e3",
    "media:imagehash_diff": "d:33071f173f270347",
    "media:imagetext": "NORTHEAST\nComplete System Timetable Effective December 10, 1970\n\"At Northeast we've\nalways believed flying is\nmore than just taking\npeople from one place\nand dropping them off\nat another.\nNE\nNE",
    "media:imagetext_created": 1787952205,
    "media:imagetext_source": "com.apple.visionkit.VNImageRequestHandler#Version 26.6.2 (Build 25G83)",
    "media:medium": "image",
    "media:mimetype": "image/tiff",
    "media:properties": {
      "sizes": {
        "b": {
          "extension": "jpg",
          "height": 768,
          "mimetype": "image/jpeg",
          "secret": "J6nZQLgH184Qh7UBCpBgKNKe5DiFSYXm",
          "width": 346
        },
        "c": {
          "extension": "jpg",
          "height": 600,
          "mimetype": "image/jpeg",
          "secret": "J6nZQLgH184Qh7UBCpBgKNKe5DiFSYXm",
          "width": 270
        },
        "dc": {
          "extension": "jpg",
          "height": 600,
          "mimetype": "image/jpeg",
          "secret": "J6nZQLgH184Qh7UBCpBgKNKe5DiFSYXm",
          "width": 270
        },
        "ds": {
          "extension": "jpg",
          "height": 320,
          "mimetype": "image/jpeg",
          "secret": "J6nZQLgH184Qh7UBCpBgKNKe5DiFSYXm",
          "width": 320
        },
        "k": {
          "extension": "jpg",
          "height": 1536,
          "mimetype": "image/jpeg",
          "secret": "J6nZQLgH184Qh7UBCpBgKNKe5DiFSYXm",
          "width": 693
        },
        "n": {
          "extension": "jpg",
          "height": 240,
          "mimetype": "image/jpeg",
          "secret": "J6nZQLgH184Qh7UBCpBgKNKe5DiFSYXm",
          "width": 108
        },
        "o": {
          "extension": "jpg",
          "height": 2753,
          "mimetype": "image/jpeg",
          "secret": "ENPM7GvgeEv83yd5bzbuIgP5auOdZR9l",
          "width": 1243
        },
        "s": {
          "extension": "jpg",
          "height": 320,
          "mimetype": "image/jpeg",
          "secret": "J6nZQLgH184Qh7UBCpBgKNKe5DiFSYXm",
          "width": 320
        },
        "z": {
          "extension": "jpg",
          "height": 480,
          "mimetype": "image/jpeg",
          "secret": "J6nZQLgH184Qh7UBCpBgKNKe5DiFSYXm",
          "width": 216
        }
      }
    },
    "media:source": "sfomuseum",
    "media:status_id": 1,
    "media:uri_template": "https://static.sfomuseum.org/media/152/784/682/1/1527846821_{secret}_{label}.{extension}",
    "millsfield:airline_id": [
      1159284893
    ],
    "millsfield:category_id": 1511214223,
    "millsfield:collection_id": 1511214207,
    "millsfield:company_id": [
      1159288917
    ],
    "millsfield:images_colors": [
      {
        "hex": "#ead50a",
        "name": "#ead50a",
        "reference": "marekm4"
      },
      {
        "hex": "#ffd700",
        "name": "gold",
        "reference": "css4"
      },
      {
        "hex": "#fefe22",
        "name": "Laser Lemon",
        "reference": "crayola"
      },
      {
        "hex": "#e3daca",
        "name": "#e3daca",
        "reference": "marekm4"
      },
      {
        "hex": "#dcdcdc",
        "name": "gainsboro",
        "reference": "css4"
      },
      {
        "hex": "#dbd7d2",
        "name": "Timberwolf",
        "reference": "crayola"
      },
      {
        "hex": "#100e08",
        "name": "#100e08",
        "reference": "marekm4"
      },
      {
        "hex": "#000000",
        "name": "black",
        "reference": "css4"
      },
      {
        "hex": "#000000",
        "name": "Black",
        "reference": "crayola"
      }
    ],
    "millsfield:images_texts": [
      "NORTHEAST\nComplete System Timetable Effective December 10, 1970\n\"At Northeast we've\nalways believed flying is\nmore than just taking\npeople from one place\nand dropping them off\nat another.\nNE\nNE"
    ],
    "millsfield:images_texts_ids": [
      1527846821
    ],
    "millsfield:similar": {
      "apple/mobileclip_s0": [
        {
          "distance": 0.584994,
          "id": 1527846823
        },
        {
          "distance": 0.61561185,
          "id": 1762697967
        },
        {
          "distance": 0.6196771,
          "id": 1527849453
        },
        {
          "distance": 0.6197565,
          "id": 1762700223
        },
        {
          "distance": 0.62144125,
          "id": 1762714569
        },
        {
          "distance": 0.6220419,
          "id": 1762697971
        },
        {
          "distance": 0.6223977,
          "id": 1527847145
        },
        {
          "distance": 0.62619,
          "id": 1762700199
        },
        {
          "distance": 0.6267581,
          "id": 1527838149
        },
        {
          "distance": 0.63360375,
          "id": 1729566439
        }
      ],
      "apple/mobileclip_s1": [
        {
          "distance": 0.42733127,
          "id": 1527846823
        },
        {
          "distance": 0.49849948,
          "id": 1746680541
        },
        {
          "distance": 0.5032899,
          "id": 2014778687
        },
        {
          "distance": 0.5064948,
          "id": 1527836601
        },
        {
          "distance": 0.5088783,
          "id": 1762895359
        },
        {
          "distance": 0.51101434,
          "id": 2014944647
        },
        {
          "distance": 0.51148,
          "id": 2014778681
        },
        {
          "distance": 0.5125971,
          "id": 1527832279
        },
        {
          "distance": 0.51318544,
          "id": 1527837155
        },
        {
          "distance": 0.5133457,
          "id": 2014778683
        }
      ],
      "apple/mobileclip_s2": [
        {
          "distance": 0.58096087,
          "id": 1527846823
        },
        {
          "distance": 0.6668064,
          "id": 1762714569
        },
        {
          "distance": 0.66774505,
          "id": 1746680541
        },
        {
          "distance": 0.6717664,
          "id": 2014895957
        },
        {
          "distance": 0.67409873,
          "id": 1527846917
        },
        {
          "distance": 0.68354803,
          "id": 2014944647
        },
        {
          "distance": 0.68446416,
          "id": 1762699363
        },
        {
          "distance": 0.69267476,
          "id": 1527832259
        },
        {
          "distance": 0.6929963,
          "id": 1762714487
        },
        {
          "distance": 0.69355935,
          "id": 1527850591
        }
      ]
    },
    "millsfield:subcategory_id": 1511213425,
    "mz:hierarchy_label": 1,
    "mz:is_current": -1,
    "sfomuseum:filename": "2005.132.034.016.tif",
    "sfomuseum:image_id": 71125,
    "sfomuseum:image_index": 5,
    "sfomuseum:image_type": "studio",
    "sfomuseum:object_id": 97936,
    "sfomuseum:placetype": "image",
    "sfomuseum:primary_image": 1,
    "src:geom": "sfomuseum",
    "wof:belongsto": [
      1511214223,
      1511936687,
      102527513,
      102191575,
      85633793,
      1511213425,
      85922583,
      102087579,
      1511214277,
      1511214203,
      85688637
    ],
    "wof:breaches": [],
    "wof:country": "XX",
    "wof:created": 1578953571,
    "wof:depicts": [
      1159288917,
      1511936687,
      1159284893
    ],
    "wof:geomhash": "bd906905ce4be6c0651c90b0fc24804c",
    "wof:hierarchy": [
      {
        "arcade_id": 1511213425,
        "building_id": 1511214277,
        "campus_id": 102527513,
        "concourse_id": 1511214223,
        "continent_id": 102191575,
        "country_id": 85633793,
        "county_id": 102087579,
        "custom_id": 1527846821,
        "image_id": 1527846821,
        "locality_id": 85922583,
        "media_id": 1527846821,
        "neighbourhood_id": -1,
        "region_id": 85688637,
        "venue_id": 1511936687,
        "wing_id": 1511214203
      }
    ],
    "wof:id": 1527846821,
    "wof:lastmodified": 1788450120,
    "wof:name": "timetable: Northeast Airlines",
    "wof:parent_id": 1511936687,
    "wof:placetype": "custom",
    "wof:placetype_alt": [
      "image"
    ],
    "wof:repo": "sfomuseum-data-media-collection",
    "wof:superseded_by": [],
    "wof:supersedes": [],
    "wof:tags": []
  },
  "bbox": [
    -122.386155,
    37.616358,
    -122.386155,
    37.616358
  ],
  "geometry": {"type":"Point","coordinates":[-122.386155,37.616358]}
}
