{
  "id": 1763144999,
  "type": "Feature",
  "properties": {
    "date:cessation_lower": "1980-01-01",
    "date:cessation_upper": "1989-12-31",
    "date:inception_lower": "1980-01-01",
    "date:inception_upper": "1989-12-31",
    "edtf:cessation": "198X",
    "edtf:inception": "198X",
    "geom:area": 2.477324999997507e-7,
    "geom:bbox": "-122.386472,37.616105,-122.385834,37.616611",
    "geom:latitude": 37.61635756125121,
    "geom:longitude": -122.38615532866096,
    "media:fingerprint": "09f57882ceaa72a389f400f056cfedba49725cc2",
    "media:imagehash_avg": "a:1f3f03c3e7e7c3e7",
    "media:imagehash_diff": "d:f8fccf8eccce0f0f",
    "media:imagetext": "NC33665",
    "media:imagetext_created": 1787960903,
    "media:imagetext_source": "com.apple.visionkit.VNImageRequestHandler#Version 26.6.2 (Build 25G83)",
    "media:mimetype": "image/tiff",
    "media:properties": {
      "sizes": {
        "b": {
          "extension": "jpg",
          "height": 768,
          "mimetype": "image/jpeg",
          "secret": "Mk0BGKAj6PDUdpVMmzq6lO06slnlFY6E",
          "width": 965
        },
        "c": {
          "extension": "jpg",
          "height": 600,
          "mimetype": "image/jpeg",
          "secret": "Mk0BGKAj6PDUdpVMmzq6lO06slnlFY6E",
          "width": 754
        },
        "dc": {
          "extension": "jpg",
          "height": 600,
          "mimetype": "image/jpeg",
          "secret": "Mk0BGKAj6PDUdpVMmzq6lO06slnlFY6E",
          "width": 754
        },
        "ds": {
          "extension": "jpg",
          "height": 320,
          "mimetype": "image/jpeg",
          "secret": "Mk0BGKAj6PDUdpVMmzq6lO06slnlFY6E",
          "width": 320
        },
        "k": {
          "extension": "jpg",
          "height": 1536,
          "mimetype": "image/jpeg",
          "secret": "Mk0BGKAj6PDUdpVMmzq6lO06slnlFY6E",
          "width": 1931
        },
        "n": {
          "extension": "jpg",
          "height": 240,
          "mimetype": "image/jpeg",
          "secret": "Mk0BGKAj6PDUdpVMmzq6lO06slnlFY6E",
          "width": 301
        },
        "o": {
          "extension": "jpg",
          "height": 1667,
          "mimetype": "image/jpeg",
          "secret": "BoTczByp92Uc4INqIkGigwJn2XWvzyJK",
          "width": 2096
        },
        "s": {
          "extension": "jpg",
          "height": 320,
          "mimetype": "image/jpeg",
          "secret": "Mk0BGKAj6PDUdpVMmzq6lO06slnlFY6E",
          "width": 320
        },
        "z": {
          "extension": "jpg",
          "height": 480,
          "mimetype": "image/jpeg",
          "secret": "Mk0BGKAj6PDUdpVMmzq6lO06slnlFY6E",
          "width": 603
        }
      }
    },
    "media:source": "sfomuseum",
    "media:status_id": 1,
    "media:uri_template": "https://static.sfomuseum.org/media/176/314/499/9/1763144999_{secret}_{label}.{extension}",
    "millsfield:aircraft_id": [
      1159291111
    ],
    "millsfield:airline_id": [
      1159284957
    ],
    "millsfield:category_id": 1511214235,
    "millsfield:collection_id": 1511214203,
    "millsfield:company_id": [
      1159293697
    ],
    "millsfield:images_colors": [
      {
        "hex": "#bbbbbc",
        "name": "#bbbbbc",
        "reference": "marekm4"
      },
      {
        "hex": "#c0c0c0",
        "name": "silver",
        "reference": "css4"
      },
      {
        "hex": "#b0b7c6",
        "name": "Cadet Blue",
        "reference": "crayola"
      },
      {
        "hex": "#524239",
        "name": "#524239",
        "reference": "marekm4"
      },
      {
        "hex": "#556b2f",
        "name": "darkolivegreen",
        "reference": "css4"
      },
      {
        "hex": "#414a4c",
        "name": "Outer Space",
        "reference": "crayola"
      }
    ],
    "millsfield:images_texts": [
      "ALAS\nWAYS\nPAA\nNC\n33665",
      "AIRWAYS",
      "33665\nPACIFIC ALASKA AIRWAYS\nVC336",
      "NC33665"
    ],
    "millsfield:images_texts_ids": [
      1763144987,
      1763144995,
      1763144997,
      1763144999
    ],
    "millsfield:similar": {
      "apple/mobileclip_s0": [
        {
          "distance": 0.39203054,
          "id": 1762897397
        },
        {
          "distance": 0.40115353,
          "id": 1762897467
        },
        {
          "distance": 0.41216835,
          "id": 1762897453
        },
        {
          "distance": 0.42660797,
          "id": 1763138113
        },
        {
          "distance": 0.42873034,
          "id": 1762897461
        },
        {
          "distance": 0.42902216,
          "id": 1527858247
        },
        {
          "distance": 0.43114558,
          "id": 1762897465
        },
        {
          "distance": 0.43448752,
          "id": 1763145215
        },
        {
          "distance": 0.4396184,
          "id": 1763144681
        },
        {
          "distance": 0.4401617,
          "id": 1763144689
        }
      ],
      "apple/mobileclip_s1": [
        {
          "distance": 0.2685584,
          "id": 1762897467
        },
        {
          "distance": 0.27677917,
          "id": 1763138113
        },
        {
          "distance": 0.2843882,
          "id": 1762897397
        },
        {
          "distance": 0.2852242,
          "id": 1762897453
        },
        {
          "distance": 0.30144557,
          "id": 1763145213
        },
        {
          "distance": 0.30385658,
          "id": 1763144993
        },
        {
          "distance": 0.3050253,
          "id": 1763144689
        },
        {
          "distance": 0.30900717,
          "id": 1763144681
        },
        {
          "distance": 0.3094072,
          "id": 1763145209
        },
        {
          "distance": 0.3130054,
          "id": 1762897461
        }
      ],
      "apple/mobileclip_s2": [
        {
          "distance": 0.34514087,
          "id": 1763145215
        },
        {
          "distance": 0.3887623,
          "id": 1763144689
        },
        {
          "distance": 0.3888049,
          "id": 1762897397
        },
        {
          "distance": 0.3945698,
          "id": 1763138113
        },
        {
          "distance": 0.41458213,
          "id": 1763144701
        },
        {
          "distance": 0.41928738,
          "id": 1763144993
        },
        {
          "distance": 0.4193306,
          "id": 1762897453
        },
        {
          "distance": 0.44089654,
          "id": 1762897467
        },
        {
          "distance": 0.4409299,
          "id": 1964039479
        },
        {
          "distance": 0.44556484,
          "id": 1763144647
        }
      ]
    },
    "millsfield:subcategory_id": 1511213161,
    "mz:is_current": 1,
    "sfomuseum:filename": "2012.147.039ab_06.tif",
    "sfomuseum:image_id": 163626,
    "sfomuseum:image_index": 5,
    "sfomuseum:image_type": "studio",
    "sfomuseum:object_id": 138121,
    "sfomuseum:placetype": "image",
    "sfomuseum:primary_image": 0,
    "src:geom": "sfomuseum",
    "wof:belongsto": [
      102527513,
      1159162825,
      102191575,
      85633793,
      102087579,
      85922583,
      1763143993,
      85688637,
      1159160869
    ],
    "wof:country": "XY",
    "wof:created": 1645692298,
    "wof:depicts": [
      1159284957,
      1159291111,
      1159293697,
      1763143993
    ],
    "wof:geomhash": "ed7c2ab3547fc3916b5edc33488deaa7",
    "wof:hierarchy": [
      {
        "building_id": -1,
        "campus_id": 102527513,
        "collection_id": 1159162825,
        "concourse_id": 1159162825,
        "continent_id": 102191575,
        "country_id": 85633793,
        "county_id": 102087579,
        "custom_id": 1763144999,
        "image_id": 1763144999,
        "locality_id": 85922583,
        "neighbourhood_id": -1,
        "object_id": 1763143993,
        "region_id": 85688637,
        "wing_id": 1159160869
      }
    ],
    "wof:id": 1763144999,
    "wof:lastmodified": 1788450950,
    "wof:name": "model airplane: Pacific Alaska Airways, Lockheed L-18 Lodestar",
    "wof:parent_id": 1763143993,
    "wof:placetype": "custom",
    "wof:placetype_alt": [
      "image"
    ],
    "wof:repo": "sfomuseum-data-media-collection",
    "wof:superseded_by": [],
    "wof:supersedes": []
  },
  "bbox": [
    -122.386472,
    37.616105,
    -122.385834,
    37.616611
  ],
  "geometry": {"type":"Polygon","coordinates":[[[-122.386472,37.616318],[-122.386435,37.616233],[-122.386376,37.616178],[-122.386301,37.616131],[-122.386161,37.616105],[-122.386022,37.616131],[-122.385914,37.616186],[-122.385855,37.616267],[-122.385834,37.616369],[-122.385871,37.616467],[-122.385941,37.616543],[-122.386054,37.616603],[-122.386183,37.616611],[-122.386306,37.616573],[-122.386419,37.616509],[-122.386467,37.616411],[-122.386472,37.616318]]]}
}
