{
  "id": 1897903369,
  "type": "Feature",
  "properties": {
    "date:cessation_lower": "1954-01-01",
    "date:cessation_upper": "1954-12-31",
    "date:inception_lower": "1954-01-01",
    "date:inception_upper": "1954-12-31",
    "edtf:cessation": "1954",
    "edtf:inception": "1954",
    "geom:area": 2.477324999997507e-7,
    "geom:bbox": "-122.386472,37.616105,-122.385834,37.616611",
    "geom:latitude": 37.61635756125121,
    "geom:longitude": -122.38615532866096,
    "media:fingerprint": "2a7e54409c482aca18a949344df6c5fc60c9c7ef",
    "media:imagehash_avg": "a:8d80890d1f1c1cff",
    "media:imagehash_diff": "d:3939395d5d717d75",
    "media:imagetext": "",
    "media:mimetype": "image/tiff",
    "media:properties": {
      "sizes": {
        "b": {
          "extension": "jpg",
          "height": 647,
          "mimetype": "image/jpeg",
          "secret": "5d2jYx9XyBpjHaoxGEaTCcK4Dxv7pGJ7",
          "width": 1024
        },
        "c": {
          "extension": "jpg",
          "height": 505,
          "mimetype": "image/jpeg",
          "secret": "5d2jYx9XyBpjHaoxGEaTCcK4Dxv7pGJ7",
          "width": 800
        },
        "dc": {
          "extension": "jpg",
          "height": 505,
          "mimetype": "image/jpeg",
          "secret": "5d2jYx9XyBpjHaoxGEaTCcK4Dxv7pGJ7",
          "width": 800
        },
        "ds": {
          "extension": "jpg",
          "height": 320,
          "mimetype": "image/jpeg",
          "secret": "5d2jYx9XyBpjHaoxGEaTCcK4Dxv7pGJ7",
          "width": 320
        },
        "k": {
          "extension": "jpg",
          "height": 1294,
          "mimetype": "image/jpeg",
          "secret": "5d2jYx9XyBpjHaoxGEaTCcK4Dxv7pGJ7",
          "width": 2048
        },
        "n": {
          "extension": "jpg",
          "height": 202,
          "mimetype": "image/jpeg",
          "secret": "5d2jYx9XyBpjHaoxGEaTCcK4Dxv7pGJ7",
          "width": 320
        },
        "o": {
          "extension": "jpg",
          "height": 1264,
          "mimetype": "image/jpeg",
          "secret": "AvDkIPltqalQCrpvdRcOruSRzFSsCoXz",
          "width": 2000
        },
        "s": {
          "extension": "jpg",
          "height": 320,
          "mimetype": "image/jpeg",
          "secret": "5d2jYx9XyBpjHaoxGEaTCcK4Dxv7pGJ7",
          "width": 320
        },
        "z": {
          "extension": "jpg",
          "height": 404,
          "mimetype": "image/jpeg",
          "secret": "5d2jYx9XyBpjHaoxGEaTCcK4Dxv7pGJ7",
          "width": 640
        }
      }
    },
    "media:source": "sfomuseum",
    "media:status_id": 1,
    "media:uri_template": "https://static.sfomuseum.org/media/189/790/336/9/1897903369_{secret}_{label}.{extension}",
    "millsfield:airline_id": [
      1159284989
    ],
    "millsfield:category_id": 1511214209,
    "millsfield:collection_id": 1511214207,
    "millsfield:company_id": [
      1159286839
    ],
    "millsfield:images_colors": [
      {
        "hex": "#2b2b2d",
        "name": "#2b2b2d",
        "reference": "marekm4"
      },
      {
        "hex": "#2f4f4f",
        "name": "darkslategrey",
        "reference": "css4"
      },
      {
        "hex": "#414a4c",
        "name": "Outer Space",
        "reference": "crayola"
      },
      {
        "hex": "#c7c4c3",
        "name": "#c7c4c3",
        "reference": "marekm4"
      },
      {
        "hex": "#c0c0c0",
        "name": "silver",
        "reference": "css4"
      },
      {
        "hex": "#cdc5c2",
        "name": "Silver",
        "reference": "crayola"
      }
    ],
    "millsfield:similar": {
      "apple/mobileclip_s0": [
        {
          "distance": 0.48265776,
          "id": 1897903371
        },
        {
          "distance": 0.53221244,
          "id": 1897903357
        },
        {
          "distance": 0.58210206,
          "id": 1913727899
        },
        {
          "distance": 0.6110214,
          "id": 1847515353
        },
        {
          "distance": 0.6202841,
          "id": 1762895077
        },
        {
          "distance": 0.63765854,
          "id": 1527835919
        },
        {
          "distance": 0.64211416,
          "id": 1762892441
        },
        {
          "distance": 0.6662828,
          "id": 1913679655
        },
        {
          "distance": 0.67790836,
          "id": 1913663645
        },
        {
          "distance": 0.680739,
          "id": 1897914417
        }
      ],
      "apple/mobileclip_s1": [
        {
          "distance": 0.39012372,
          "id": 1897903371
        },
        {
          "distance": 0.4920981,
          "id": 1897903357
        },
        {
          "distance": 0.50337744,
          "id": 1913663645
        },
        {
          "distance": 0.5306581,
          "id": 1847515353
        },
        {
          "distance": 0.5329367,
          "id": 1527835919
        },
        {
          "distance": 0.5330432,
          "id": 1897903419
        },
        {
          "distance": 0.5713396,
          "id": 1897914331
        },
        {
          "distance": 0.579335,
          "id": 1897903361
        },
        {
          "distance": 0.5811315,
          "id": 1762714301
        },
        {
          "distance": 0.5852188,
          "id": 1897914225
        }
      ],
      "apple/mobileclip_s2": [
        {
          "distance": 0.4849206,
          "id": 1897903371
        },
        {
          "distance": 0.5848675,
          "id": 1897903357
        },
        {
          "distance": 0.66521496,
          "id": 1847515353
        },
        {
          "distance": 0.73320377,
          "id": 1527854531
        },
        {
          "distance": 0.7440739,
          "id": 1913663645
        },
        {
          "distance": 0.74929607,
          "id": 1897903419
        },
        {
          "distance": 0.762483,
          "id": 1897903361
        },
        {
          "distance": 0.77613395,
          "id": 1897903353
        },
        {
          "distance": 0.77879363,
          "id": 1527835919
        },
        {
          "distance": 0.78647095,
          "id": 1527839081
        }
      ]
    },
    "millsfield:subcategory_id": 1511213367,
    "mz:is_current": 1,
    "sfomuseum:filename": "59332.tif",
    "sfomuseum:image_id": 59332,
    "sfomuseum:image_index": 5,
    "sfomuseum:image_type": "studio",
    "sfomuseum:object_id": 133963,
    "sfomuseum:placetype": "image",
    "sfomuseum:primary_image": 1,
    "src:geom": "sfomuseum",
    "wof:belongsto": [
      102527513,
      1159162825,
      102191575,
      85633793,
      102087579,
      85922583,
      1897902479,
      85688637,
      1159160869
    ],
    "wof:country": "XY",
    "wof:created": 1712907153,
    "wof:depicts": [
      1159286839,
      1897902479,
      1159284989
    ],
    "wof:geomhash": "ed7c2ab3547fc3916b5edc33488deaa7",
    "wof:hierarchy": [
      {
        "building_id": -1,
        "campus_id": 102527513,
        "collection_id": 1159162825,
        "concourse_id": 1159162825,
        "continent_id": 102191575,
        "country_id": 85633793,
        "county_id": 102087579,
        "custom_id": 1897903369,
        "image_id": 1897903369,
        "locality_id": 85922583,
        "neighbourhood_id": -1,
        "object_id": 1897902479,
        "region_id": 85688637,
        "wing_id": 1159160869
      }
    ],
    "wof:id": 1897903369,
    "wof:lastmodified": 1788452137,
    "wof:name": "photograph: Pan American World Airways, Hong Kong, Evelyn David",
    "wof:parent_id": 1897902479,
    "wof:placetype": "custom",
    "wof:placetype_alt": [
      "image"
    ],
    "wof:repo": "sfomuseum-data-media-collection",
    "wof:superseded_by": [],
    "wof:supersedes": []
  },
  "bbox": [
    -122.386472,
    37.616105,
    -122.385834,
    37.616611
  ],
  "geometry": {"type":"Polygon","coordinates":[[[-122.386472,37.616318],[-122.386435,37.616233],[-122.386376,37.616178],[-122.386301,37.616131],[-122.386161,37.616105],[-122.386022,37.616131],[-122.385914,37.616186],[-122.385855,37.616267],[-122.385834,37.616369],[-122.385871,37.616467],[-122.385941,37.616543],[-122.386054,37.616603],[-122.386183,37.616611],[-122.386306,37.616573],[-122.386419,37.616509],[-122.386467,37.616411],[-122.386472,37.616318]]]}
}
