{
  "id": 1964115867,
  "type": "Feature",
  "properties": {
    "date:cessation_lower": "1950-01-01",
    "date:cessation_upper": "1959-12-31",
    "date:inception_lower": "1950-01-01",
    "date:inception_upper": "1959-12-31",
    "edtf:cessation": "195X",
    "edtf:inception": "195X",
    "geom:area": 2.477324999997507e-7,
    "geom:bbox": "-122.386472,37.616105,-122.385834,37.616611",
    "geom:latitude": 37.61635756125121,
    "geom:longitude": -122.38615532866096,
    "media:fingerprint": "d43dd70ba51efde6579a8e4c35d25e79d13f3abf",
    "media:imagehash_avg": "a:e7e7e3e3e3e7e7e7",
    "media:imagehash_diff": "d:0e8e0ececf470f8e",
    "media:imagetext": "FECHE ANTES DE RISCAR\nPP-COW\nUNDADA EM 1927\nSERVIÇOS\nAÉREOS:\nCRUZEIRO\nDO SUL",
    "media:imagetext_created": 1787975149,
    "media:imagetext_source": "com.apple.visionkit.VNImageRequestHandler#Version 26.6.2 (Build 25G83)",
    "media:mimetype": "image/tiff",
    "media:properties": {
      "sizes": {
        "b": {
          "extension": "jpg",
          "height": 768,
          "mimetype": "image/jpeg",
          "secret": "d7EhGlU3loO2reY59E7pBMiqxBEXaSnO",
          "width": 965
        },
        "c": {
          "extension": "jpg",
          "height": 600,
          "mimetype": "image/jpeg",
          "secret": "d7EhGlU3loO2reY59E7pBMiqxBEXaSnO",
          "width": 754
        },
        "dc": {
          "extension": "jpg",
          "height": 1667,
          "mimetype": "image/jpeg",
          "secret": "d7EhGlU3loO2reY59E7pBMiqxBEXaSnO",
          "width": 2096
        },
        "ds": {
          "extension": "jpg",
          "height": 1667,
          "mimetype": "image/jpeg",
          "secret": "d7EhGlU3loO2reY59E7pBMiqxBEXaSnO",
          "width": 2096
        },
        "k": {
          "extension": "jpg",
          "height": 1536,
          "mimetype": "image/jpeg",
          "secret": "d7EhGlU3loO2reY59E7pBMiqxBEXaSnO",
          "width": 1931
        },
        "n": {
          "extension": "jpg",
          "height": 240,
          "mimetype": "image/jpeg",
          "secret": "d7EhGlU3loO2reY59E7pBMiqxBEXaSnO",
          "width": 301
        },
        "o": {
          "extension": "jpg",
          "height": 1667,
          "mimetype": "image/jpeg",
          "secret": "1GOGx9wSAk9FLcviLYj42sp0hxJxHYZO",
          "width": 2096
        },
        "s": {
          "extension": "jpg",
          "height": 1667,
          "mimetype": "image/jpeg",
          "secret": "d7EhGlU3loO2reY59E7pBMiqxBEXaSnO",
          "width": 2096
        },
        "z": {
          "extension": "jpg",
          "height": 480,
          "mimetype": "image/jpeg",
          "secret": "d7EhGlU3loO2reY59E7pBMiqxBEXaSnO",
          "width": 603
        }
      }
    },
    "media:source": "sfomuseum",
    "media:status_id": 1,
    "media:uri_template": "https://static.sfomuseum.org/media/196/411/586/7/1964115867_{secret}_{label}.{extention}",
    "millsfield:aircraft_id": [
      1159290199
    ],
    "millsfield:airline_id": [
      1159285949
    ],
    "millsfield:category_id": 1763416373,
    "millsfield:collection_id": 1511214203,
    "millsfield:company_id": [
      1159293605
    ],
    "millsfield:images_colors": [
      {
        "hex": "#acacaa",
        "name": "#acacaa",
        "reference": "marekm4"
      },
      {
        "hex": "#a9a9a9",
        "name": "darkgrey",
        "reference": "css4"
      },
      {
        "hex": "#979aaa",
        "name": "Manatee",
        "reference": "crayola"
      },
      {
        "hex": "#373935",
        "name": "#373935",
        "reference": "marekm4"
      },
      {
        "hex": "#2f4f4f",
        "name": "darkslategrey",
        "reference": "css4"
      },
      {
        "hex": "#414a4c",
        "name": "Outer Space",
        "reference": "crayola"
      }
    ],
    "millsfield:images_texts": [
      "FECHE ANTES DE RISCAR\nPP-COW\nUNDADA EM 1927\nSERVIÇOS\nAÉREOS:\nCRUZEIRO\nDO SUL"
    ],
    "millsfield:images_texts_ids": [
      1964115867
    ],
    "millsfield:similar": {
      "apple/mobileclip_s0": [
        {
          "distance": 0.5576159,
          "id": 1964107561
        },
        {
          "distance": 0.5604175,
          "id": 1964359193
        },
        {
          "distance": 0.5668213,
          "id": 1964167669
        },
        {
          "distance": 0.57166904,
          "id": 1964039323
        },
        {
          "distance": 0.5732732,
          "id": 1964359231
        },
        {
          "distance": 0.57559997,
          "id": 1964167741
        },
        {
          "distance": 0.5787195,
          "id": 1964115881
        },
        {
          "distance": 0.57926095,
          "id": 1964359211
        },
        {
          "distance": 0.579292,
          "id": 1964167627
        },
        {
          "distance": 0.58135456,
          "id": 1964167651
        }
      ],
      "apple/mobileclip_s1": [
        {
          "distance": 0.43875676,
          "id": 1964115881
        },
        {
          "distance": 0.45397002,
          "id": 1931110373
        },
        {
          "distance": 0.45869404,
          "id": 1964107567
        },
        {
          "distance": 0.4604316,
          "id": 2014778355
        },
        {
          "distance": 0.4605828,
          "id": 1763379847
        },
        {
          "distance": 0.46163985,
          "id": 1964359189
        },
        {
          "distance": 0.46362826,
          "id": 1897892351
        },
        {
          "distance": 0.46675697,
          "id": 1964359211
        },
        {
          "distance": 0.46824068,
          "id": 2014778347
        },
        {
          "distance": 0.46849102,
          "id": 1964107497
        }
      ],
      "apple/mobileclip_s2": [
        {
          "distance": 0.55940187,
          "id": 1964115881
        },
        {
          "distance": 0.5900094,
          "id": 1964359193
        },
        {
          "distance": 0.60029906,
          "id": 1964167733
        },
        {
          "distance": 0.6052868,
          "id": 1964115871
        },
        {
          "distance": 0.609201,
          "id": 1964106713
        },
        {
          "distance": 0.61390615,
          "id": 1964167635
        },
        {
          "distance": 0.61656284,
          "id": 1964167647
        },
        {
          "distance": 0.6167254,
          "id": 1964359231
        },
        {
          "distance": 0.61832315,
          "id": 1964039325
        },
        {
          "distance": 0.6186866,
          "id": 1964107497
        }
      ]
    },
    "millsfield:subcategory_id": 1511213677,
    "mz:is_current": 1,
    "sfomuseum:filename": "113927.tif",
    "sfomuseum:image_id": 113927,
    "sfomuseum:image_index": 5,
    "sfomuseum:image_type": "studio",
    "sfomuseum:object_id": 130522,
    "sfomuseum:placetype": "image",
    "sfomuseum:primary_image": 1,
    "src:geom": "sfomuseum",
    "wof:belongsto": [
      102527513,
      1159162825,
      102191575,
      85633793,
      102087579,
      85922583,
      1964115781,
      85688637,
      1159160869
    ],
    "wof:country": "XY",
    "wof:created": 1743027949,
    "wof:depicts": [
      1964115781,
      1159285949,
      1159290199,
      1159293605
    ],
    "wof:geomhash": "ed7c2ab3547fc3916b5edc33488deaa7",
    "wof:hierarchy": [
      {
        "building_id": -1,
        "campus_id": 102527513,
        "collection_id": 1159162825,
        "concourse_id": 1159162825,
        "continent_id": 102191575,
        "country_id": 85633793,
        "county_id": 102087579,
        "custom_id": 1964115867,
        "locality_id": 85922583,
        "neighbourhood_id": -1,
        "object_id": 1964115781,
        "region_id": 85688637,
        "wing_id": 1159160869
      }
    ],
    "wof:id": 1964115867,
    "wof:lastmodified": 1788452552,
    "wof:name": "matchbook: Serviços Aéreos Cruzeiro Do Sul",
    "wof:parent_id": 1964115781,
    "wof:placetype": "custom",
    "wof:repo": "sfomuseum-data-media-collection",
    "wof:superseded_by": [],
    "wof:supersedes": []
  },
  "bbox": [
    -122.386472,
    37.616105,
    -122.385834,
    37.616611
  ],
  "geometry": {"type":"Polygon","coordinates":[[[-122.386472,37.616318],[-122.386435,37.616233],[-122.386376,37.616178],[-122.386301,37.616131],[-122.386161,37.616105],[-122.386022,37.616131],[-122.385914,37.616186],[-122.385855,37.616267],[-122.385834,37.616369],[-122.385871,37.616467],[-122.385941,37.616543],[-122.386054,37.616603],[-122.386183,37.616611],[-122.386306,37.616573],[-122.386419,37.616509],[-122.386467,37.616411],[-122.386472,37.616318]]]}
}
