{
  "id": 1762898431,
  "type": "Feature",
  "properties": {
    "date:cessation_lower": "1930-01-01",
    "date:cessation_upper": "1939-12-31",
    "date:inception_lower": "1930-01-01",
    "date:inception_upper": "1939-12-31",
    "edtf:cessation": "193X",
    "edtf:inception": "193X",
    "geom:area": 2.477324999997507e-7,
    "geom:bbox": "-122.386472,37.616105,-122.385834,37.616611",
    "geom:latitude": 37.61635756125121,
    "geom:longitude": -122.38615532866096,
    "media:fingerprint": "23c6206592f9944e1bcf5c00dcd2daae505d880d",
    "media:imagehash_avg": "a:ff8381c181c3ffff",
    "media:imagehash_diff": "d:1f373717073f0303",
    "media:imagetext": "WESTERN\n4\nAIR\nEXPRESS\nNational Parks Route",
    "media:imagetext_created": 1787959692,
    "media:imagetext_source": "com.apple.visionkit.VNImageRequestHandler#Version 26.6.2 (Build 25G83)",
    "media:mimetype": "image/tiff",
    "media:properties": {
      "sizes": {
        "b": {
          "extension": "jpg",
          "height": 543,
          "mimetype": "image/jpeg",
          "secret": "K2zieuYwW7S67JwKSEWSNzXF2RonxYSE",
          "width": 1024
        },
        "c": {
          "extension": "jpg",
          "height": 424,
          "mimetype": "image/jpeg",
          "secret": "K2zieuYwW7S67JwKSEWSNzXF2RonxYSE",
          "width": 800
        },
        "dc": {
          "extension": "jpg",
          "height": 424,
          "mimetype": "image/jpeg",
          "secret": "K2zieuYwW7S67JwKSEWSNzXF2RonxYSE",
          "width": 800
        },
        "ds": {
          "extension": "jpg",
          "height": 320,
          "mimetype": "image/jpeg",
          "secret": "K2zieuYwW7S67JwKSEWSNzXF2RonxYSE",
          "width": 320
        },
        "k": {
          "extension": "jpg",
          "height": 1086,
          "mimetype": "image/jpeg",
          "secret": "K2zieuYwW7S67JwKSEWSNzXF2RonxYSE",
          "width": 2048
        },
        "n": {
          "extension": "jpg",
          "height": 169,
          "mimetype": "image/jpeg",
          "secret": "K2zieuYwW7S67JwKSEWSNzXF2RonxYSE",
          "width": 320
        },
        "o": {
          "extension": "jpg",
          "height": 916,
          "mimetype": "image/jpeg",
          "secret": "FHDl5TPmun3sz2BzcMWjSCqGxTD9KVPU",
          "width": 1726
        },
        "s": {
          "extension": "jpg",
          "height": 320,
          "mimetype": "image/jpeg",
          "secret": "K2zieuYwW7S67JwKSEWSNzXF2RonxYSE",
          "width": 320
        },
        "z": {
          "extension": "jpg",
          "height": 339,
          "mimetype": "image/jpeg",
          "secret": "K2zieuYwW7S67JwKSEWSNzXF2RonxYSE",
          "width": 640
        }
      }
    },
    "media:source": "sfomuseum",
    "media:status_id": 1,
    "media:uri_template": "https://static.sfomuseum.org/media/176/289/843/1/1762898431_{secret}_{label}.{extension}",
    "millsfield:airline_id": [
      1159285517
    ],
    "millsfield:category_id": 1763416397,
    "millsfield:collection_id": 1511214207,
    "millsfield:company_id": [
      1159288117
    ],
    "millsfield:images_colors": [
      {
        "hex": "#e5ddcf",
        "name": "#e5ddcf",
        "reference": "marekm4"
      },
      {
        "hex": "#dcdcdc",
        "name": "gainsboro",
        "reference": "css4"
      },
      {
        "hex": "#efdecd",
        "name": "Almond",
        "reference": "crayola"
      },
      {
        "hex": "#c53218",
        "name": "#c53218",
        "reference": "marekm4"
      },
      {
        "hex": "#b22222",
        "name": "firebrick",
        "reference": "css4"
      },
      {
        "hex": "#c46210",
        "name": "Alloy Orange",
        "reference": "crayola"
      },
      {
        "hex": "#2f1f18",
        "name": "#2f1f18",
        "reference": "marekm4"
      },
      {
        "hex": "#000000",
        "name": "black",
        "reference": "css4"
      },
      {
        "hex": "#000000",
        "name": "Black",
        "reference": "crayola"
      },
      {
        "hex": "#36469a",
        "name": "#36469a",
        "reference": "marekm4"
      },
      {
        "hex": "#483d8b",
        "name": "darkslateblue",
        "reference": "css4"
      },
      {
        "hex": "#2e5894",
        "name": "B'dazzled Blue",
        "reference": "crayola"
      }
    ],
    "millsfield:images_texts": [
      "WESTERN\n4\nAIR\nEXPRESS\nNational Parks Route"
    ],
    "millsfield:images_texts_ids": [
      1762898431
    ],
    "millsfield:similar": {
      "apple/mobileclip_s0": [
        {
          "distance": 0.21839865,
          "id": 1762893489
        },
        {
          "distance": 0.2362045,
          "id": 1762897015
        },
        {
          "distance": 0.62504005,
          "id": 1762898425
        },
        {
          "distance": 0.6427686,
          "id": 1762897013
        },
        {
          "distance": 0.6548299,
          "id": 1762898429
        },
        {
          "distance": 0.72178787,
          "id": 1762890503
        },
        {
          "distance": 0.72781575,
          "id": 1762898433
        },
        {
          "distance": 0.7517405,
          "id": 1527835017
        },
        {
          "distance": 0.7568665,
          "id": 1762897485
        },
        {
          "distance": 0.7570521,
          "id": 1762899395
        }
      ],
      "apple/mobileclip_s1": [
        {
          "distance": 0.13648888,
          "id": 1762897015
        },
        {
          "distance": 0.14149998,
          "id": 1762893489
        },
        {
          "distance": 0.47064695,
          "id": 1762898425
        },
        {
          "distance": 0.47583526,
          "id": 1762897013
        },
        {
          "distance": 0.48588115,
          "id": 1762898429
        },
        {
          "distance": 0.4901037,
          "id": 1527835017
        },
        {
          "distance": 0.49616536,
          "id": 1762893673
        },
        {
          "distance": 0.5010386,
          "id": 1762893677
        },
        {
          "distance": 0.5060551,
          "id": 1527818205
        },
        {
          "distance": 0.513735,
          "id": 1762898433
        }
      ],
      "apple/mobileclip_s2": [
        {
          "distance": 0.15764211,
          "id": 1762897015
        },
        {
          "distance": 0.17399976,
          "id": 1762893489
        },
        {
          "distance": 0.59532636,
          "id": 1762897013
        },
        {
          "distance": 0.599708,
          "id": 1762898425
        },
        {
          "distance": 0.6268553,
          "id": 1762898429
        },
        {
          "distance": 0.6867389,
          "id": 1527818205
        },
        {
          "distance": 0.69583654,
          "id": 1762893673
        },
        {
          "distance": 0.70105004,
          "id": 1762890503
        },
        {
          "distance": 0.7014609,
          "id": 1762899395
        },
        {
          "distance": 0.7022514,
          "id": 1527835017
        }
      ]
    },
    "millsfield:subcategory_id": 1511213315,
    "mz:is_current": 1,
    "sfomuseum:filename": "2015.168.320.tif",
    "sfomuseum:image_id": 190509,
    "sfomuseum:image_index": 5,
    "sfomuseum:image_type": "studio",
    "sfomuseum:object_id": 175880,
    "sfomuseum:placetype": "image",
    "sfomuseum:primary_image": 1,
    "src:geom": "sfomuseum",
    "wof:belongsto": [
      102527513,
      1159162825,
      102191575,
      85633793,
      102087579,
      85922583,
      1762888335,
      85688637,
      1159160869
    ],
    "wof:country": "XY",
    "wof:created": 1643415508,
    "wof:depicts": [
      1159288117,
      1762888335,
      1159285517
    ],
    "wof:geomhash": "ed7c2ab3547fc3916b5edc33488deaa7",
    "wof:hierarchy": [
      {
        "building_id": -1,
        "campus_id": 102527513,
        "collection_id": 1159162825,
        "concourse_id": 1159162825,
        "continent_id": 102191575,
        "country_id": 85633793,
        "county_id": 102087579,
        "custom_id": 1762898431,
        "image_id": 1762898431,
        "locality_id": 85922583,
        "neighbourhood_id": -1,
        "object_id": 1762888335,
        "region_id": 85688637,
        "wing_id": 1159160869
      }
    ],
    "wof:id": 1762898431,
    "wof:lastmodified": 1788450831,
    "wof:name": "luggage label: Western Air Express",
    "wof:parent_id": 1762888335,
    "wof:placetype": "custom",
    "wof:placetype_alt": [
      "image"
    ],
    "wof:repo": "sfomuseum-data-media-collection",
    "wof:superseded_by": [],
    "wof:supersedes": []
  },
  "bbox": [
    -122.386472,
    37.616105,
    -122.385834,
    37.616611
  ],
  "geometry": {"type":"Polygon","coordinates":[[[-122.386472,37.616318],[-122.386435,37.616233],[-122.386376,37.616178],[-122.386301,37.616131],[-122.386161,37.616105],[-122.386022,37.616131],[-122.385914,37.616186],[-122.385855,37.616267],[-122.385834,37.616369],[-122.385871,37.616467],[-122.385941,37.616543],[-122.386054,37.616603],[-122.386183,37.616611],[-122.386306,37.616573],[-122.386419,37.616509],[-122.386467,37.616411],[-122.386472,37.616318]]]}
}
