{
  "id": 1527849739,
  "type": "Feature",
  "properties": {
    "date:cessation_lower": "1984-01-01",
    "date:cessation_upper": "1984-12-31",
    "date:inception_lower": "1984-01-01",
    "date:inception_upper": "1984-12-31",
    "edtf:cessation": "1984",
    "edtf:date": "1984",
    "edtf:inception": "1984",
    "geom:area": 0,
    "geom:bbox": "-122.386155,37.616358,-122.386155,37.616358",
    "geom:latitude": 37.616358,
    "geom:longitude": -122.386155,
    "iso:country": "XX",
    "media:fingerprint": "044aded0db1c5e4eaad52c73cd78d58f6f9aff98",
    "media:imagehash_avg": "a:ff8181f1818181bf",
    "media:imagehash_diff": "d:416d47434f075373",
    "media:imagetext": "Wien Alaska\nSYSTEM\nTIMETABLE\nEffective\nJune 1, 1984",
    "media:imagetext_created": 1787952841,
    "media:imagetext_source": "com.apple.visionkit.VNImageRequestHandler#Version 26.6.2 (Build 25G83)",
    "media:medium": "image",
    "media:mimetype": "image/tiff",
    "media:properties": {
      "sizes": {
        "b": {
          "extension": "jpg",
          "height": 768,
          "mimetype": "image/jpeg",
          "secret": "hi65s1czxRsQYWMaEhqhepIAq57ADL2b",
          "width": 345
        },
        "c": {
          "extension": "jpg",
          "height": 600,
          "mimetype": "image/jpeg",
          "secret": "hi65s1czxRsQYWMaEhqhepIAq57ADL2b",
          "width": 269
        },
        "dc": {
          "extension": "jpg",
          "height": 600,
          "mimetype": "image/jpeg",
          "secret": "hi65s1czxRsQYWMaEhqhepIAq57ADL2b",
          "width": 269
        },
        "ds": {
          "extension": "jpg",
          "height": 320,
          "mimetype": "image/jpeg",
          "secret": "hi65s1czxRsQYWMaEhqhepIAq57ADL2b",
          "width": 320
        },
        "k": {
          "extension": "jpg",
          "height": 1536,
          "mimetype": "image/jpeg",
          "secret": "hi65s1czxRsQYWMaEhqhepIAq57ADL2b",
          "width": 690
        },
        "n": {
          "extension": "jpg",
          "height": 240,
          "mimetype": "image/jpeg",
          "secret": "hi65s1czxRsQYWMaEhqhepIAq57ADL2b",
          "width": 107
        },
        "o": {
          "extension": "jpg",
          "height": 2737,
          "mimetype": "image/jpeg",
          "secret": "LZwzne9FEaoThUBTmZir7r8uzHSxNj9V",
          "width": 1230
        },
        "s": {
          "extension": "jpg",
          "height": 320,
          "mimetype": "image/jpeg",
          "secret": "hi65s1czxRsQYWMaEhqhepIAq57ADL2b",
          "width": 320
        },
        "z": {
          "extension": "jpg",
          "height": 480,
          "mimetype": "image/jpeg",
          "secret": "hi65s1czxRsQYWMaEhqhepIAq57ADL2b",
          "width": 215
        }
      }
    },
    "media:source": "sfomuseum",
    "media:status_id": 1,
    "media:uri_template": "https://static.sfomuseum.org/media/152/784/973/9/1527849739_{secret}_{label}.{extension}",
    "millsfield:airline_id": [
      1159285529
    ],
    "millsfield:category_id": 1511214223,
    "millsfield:collection_id": 1511214207,
    "millsfield:company_id": [
      1159287341
    ],
    "millsfield:images_colors": [
      {
        "hex": "#3e2d33",
        "name": "#3e2d33",
        "reference": "marekm4"
      },
      {
        "hex": "#2f4f4f",
        "name": "darkslategrey",
        "reference": "css4"
      },
      {
        "hex": "#414a4c",
        "name": "Outer Space",
        "reference": "crayola"
      },
      {
        "hex": "#9a2916",
        "name": "#9a2916",
        "reference": "marekm4"
      },
      {
        "hex": "#a52a2a",
        "name": "brown",
        "reference": "css4"
      },
      {
        "hex": "#9c2542",
        "name": "Big Dip O' Ruby",
        "reference": "crayola"
      },
      {
        "hex": "#d9d4c8",
        "name": "#d9d4c8",
        "reference": "marekm4"
      },
      {
        "hex": "#d3d3d3",
        "name": "lightgrey",
        "reference": "css4"
      },
      {
        "hex": "#dbd7d2",
        "name": "Timberwolf",
        "reference": "crayola"
      },
      {
        "hex": "#335390",
        "name": "#335390",
        "reference": "marekm4"
      },
      {
        "hex": "#483d8b",
        "name": "darkslateblue",
        "reference": "css4"
      },
      {
        "hex": "#2e5894",
        "name": "B'dazzled Blue",
        "reference": "crayola"
      }
    ],
    "millsfield:images_texts": [
      "Wien Alaska\nSYSTEM\nTIMETABLE\nEffective\nJune 1, 1984",
      "Wien Aska\nFOR RESERVATIONS\nAND INFORMATION\nCALL TOLL FREE:\n(PREFIX 1 OR 101 MAY BE REQUIRED)\nAnchorage, AK\nAniak, AK\nAspen, CO\nAtlanta, GA\nBarrow, AK\nBethel, AK\nBoise, ID\nBoulder, CO\nButte, MT\nChicago, IL\nColorado Springs, CO\nCordova, AK\nCorvallis, OR\nDallas/Ft. Worth, TX\nDenver, CO\nDillingham, AK\nEugene, OR\nFairbanks, AK\nFlagstaff, AZ\nFt. Collins, CO\nFt. Yukon, AK\nGalena, AK\nGrand Junction, CO\nGreeley, CO\nHomer, AK\nHouston, TX\nliamna, AK\n243-4100\nKenai, AK\n(800) 562-5222\nKing Salmon, AK\n800) 562-5222\nKodiak, AK\n(800) 562-5222\nKotzebue, AK\n(800) 562-5222\nLos Angeles, CA\n(800) 562-5222\nMcGrath, AK\n344-4387\nMedford, OR\n800) 562-5222\nMinneapolis, St. Paul, MN\n800) 562-5222\nNome, AK\n800) 562-5222\nOakland, CA\n800) 562-5222\nPhoenix, AZ\n800) 562-5222\nPortland, OR\n800) 562-5222\nPrescott. AZ\n800) 562-5222\nPrudhoe Bay, AK\n592-1727\nPueblo, CO\n800) 562-5222\nReno, NV\n(800) 562-5222\nSalt Lake City, UT\n452-8201\nSan Francisco, CA\n800) 562-5222\nSeattle, WA\n800) 562-5222\nSpokane, WA\n800) 562-5222\nSt. Marys, AK\n(800) 562-5222\nTacoma, WA\n(800) 562-5222\nTuscon, AZ\n(800) 562-5222\nUnalakleet, AK\n(800) 562-5222\nVancouver, WA\n(800) 562-5222\nValdez, AK\n800) 562-5222 Yuma, AZ\n283-3221\n(800) 562-5222\n486-6151\n(800) 562-5222\n800) 562-5222\n800) 562-5222\n800) 562-5222\n(800) 562-5222\n800) 562-5222\n893-1055\n252-3248\n226-6611\n800) 562-5222\n(800) 562-5222\n(800) 562-5222\n329-9300\n521-8314\n800) 562-5222\n433-5285\n(800) 562-5222\n(800) 562-5222\n(800) 562-5222\n(800)\n562-5222\n(800) 562-5222\n(800) 562-5222\n(800) 562-5222\n(800) 562-5222\nPrudhoe Ba\nDillingha\nFairbanks\nAnchorage\n• Valdez\n\u0026 Cordova\nSeattle\nPortland\nBoise\nSan Francisco Bay Area\nOakland\nReno\n• Salt Lake\nCity-\n• Denver\nPhoenix\nFor areas not listed above, call toll free 800-562-5222.\nFor Anchorage flight arrival information call: 243-7737.\nFor Seattle flight arrival information call: 433-1970.\nCONNECTING CITY CODES\nANC - Anchorage, AK\nFAI - Fairbanks, AK\nSEA - Seattle, WA\nPUO - Prudhoe Bay, AK\n* Flight 24 737 - Anchorage - 727-200\n400 and 700 Series Flight numbers indicate TWIN PROP-JET SERVICE\nSchedule is subject to change without notice.\nAir Cargo is carried on all flights.\nWien Alaska\nCover Photo - Alaska Photo by John Johnson"
    ],
    "millsfield:images_texts_ids": [
      1527849739,
      1527851405
    ],
    "millsfield:similar": {
      "apple/mobileclip_s0": [
        {
          "distance": 0.5547781,
          "id": 1762698787
        },
        {
          "distance": 0.57336956,
          "id": 1762697423
        },
        {
          "distance": 0.57358813,
          "id": 1527836243
        },
        {
          "distance": 0.60305214,
          "id": 1863469703
        },
        {
          "distance": 0.6038034,
          "id": 1762701619
        },
        {
          "distance": 0.6071203,
          "id": 1527836219
        },
        {
          "distance": 0.61324364,
          "id": 1762698849
        },
        {
          "distance": 0.61580414,
          "id": 1762699439
        },
        {
          "distance": 0.61580414,
          "id": 1762699441
        },
        {
          "distance": 0.61580414,
          "id": 1762699443
        }
      ],
      "apple/mobileclip_s1": [
        {
          "distance": 0.41321668,
          "id": 1763256289
        },
        {
          "distance": 0.42665398,
          "id": 1527836219
        },
        {
          "distance": 0.43358225,
          "id": 1762698787
        },
        {
          "distance": 0.46359205,
          "id": 1762699439
        },
        {
          "distance": 0.46359205,
          "id": 1762699441
        },
        {
          "distance": 0.46359205,
          "id": 1762699443
        },
        {
          "distance": 0.46809524,
          "id": 1762714623
        },
        {
          "distance": 0.47219184,
          "id": 1527832095
        },
        {
          "distance": 0.47553882,
          "id": 1762697423
        },
        {
          "distance": 0.47620696,
          "id": 1527846205
        }
      ],
      "apple/mobileclip_s2": [
        {
          "distance": 0.58515006,
          "id": 1763256289
        },
        {
          "distance": 0.5962313,
          "id": 1527836219
        },
        {
          "distance": 0.6167079,
          "id": 1527836243
        },
        {
          "distance": 0.6463359,
          "id": 1527839277
        },
        {
          "distance": 0.6645326,
          "id": 1762698787
        },
        {
          "distance": 0.66918266,
          "id": 1762699439
        },
        {
          "distance": 0.66918266,
          "id": 1762699441
        },
        {
          "distance": 0.66918266,
          "id": 1762699443
        },
        {
          "distance": 0.6700654,
          "id": 1527846951
        },
        {
          "distance": 0.6712136,
          "id": 1527832095
        }
      ]
    },
    "millsfield:subcategory_id": 1511213425,
    "mz:hierarchy_label": 1,
    "mz:is_current": -1,
    "sfomuseum:filename": "2003.105.114.002.tif",
    "sfomuseum:image_id": 75361,
    "sfomuseum:image_index": 5,
    "sfomuseum:image_type": "studio",
    "sfomuseum:object_id": 100449,
    "sfomuseum:placetype": "image",
    "sfomuseum:primary_image": 1,
    "src:geom": "sfomuseum",
    "wof:belongsto": [
      1511214223,
      1511939831,
      102527513,
      102191575,
      85633793,
      1511213425,
      85922583,
      102087579,
      1511214277,
      1511214203,
      85688637
    ],
    "wof:breaches": [],
    "wof:country": "XX",
    "wof:created": 1578954076,
    "wof:depicts": [
      1511939831,
      1159285529,
      1159287341
    ],
    "wof:geomhash": "bd906905ce4be6c0651c90b0fc24804c",
    "wof:hierarchy": [
      {
        "arcade_id": 1511213425,
        "building_id": 1511214277,
        "campus_id": 102527513,
        "concourse_id": 1511214223,
        "continent_id": 102191575,
        "country_id": 85633793,
        "county_id": 102087579,
        "custom_id": 1527849739,
        "image_id": 1527849739,
        "locality_id": 85922583,
        "media_id": 1527849739,
        "neighbourhood_id": -1,
        "region_id": 85688637,
        "venue_id": 1511939831,
        "wing_id": 1511214203
      }
    ],
    "wof:id": 1527849739,
    "wof:lastmodified": 1788450164,
    "wof:name": "timetable: Wien Air Alaska",
    "wof:parent_id": 1511939831,
    "wof:placetype": "custom",
    "wof:placetype_alt": [
      "image"
    ],
    "wof:repo": "sfomuseum-data-media-collection",
    "wof:superseded_by": [],
    "wof:supersedes": [],
    "wof:tags": []
  },
  "bbox": [
    -122.386155,
    37.616358,
    -122.386155,
    37.616358
  ],
  "geometry": {"type":"Point","coordinates":[-122.386155,37.616358]}
}
