{
  "id": 1527840213,
  "type": "Feature",
  "properties": {
    "date:cessation_lower": "2008-01-01",
    "date:cessation_upper": "2008-12-31",
    "date:inception_lower": "2008-01-01",
    "date:inception_upper": "2008-12-31",
    "edtf:cessation": "2008",
    "edtf:date": "2008",
    "edtf:inception": "2008",
    "geom:area": 0,
    "geom:bbox": "-122.386155,37.616358,-122.386155,37.616358",
    "geom:latitude": 37.616358,
    "geom:longitude": -122.386155,
    "iso:country": "XX",
    "media:fingerprint": "584238cfc73f66a876274a44fc8b37df4c6752a9",
    "media:imagehash_avg": "a:03f00004007f7fff",
    "media:imagehash_diff": "d:4fc76e7ce9f1f8d9",
    "media:imagetext": "Effective Winter 2008-2009\nJAL'S NETWORK TO ASIA",
    "media:imagetext_created": 1787950846,
    "media:imagetext_source": "com.apple.visionkit.VNImageRequestHandler#Version 26.6.2 (Build 25G83)",
    "media:medium": "image",
    "media:mimetype": "image/tiff",
    "media:properties": {
      "sizes": {
        "b": {
          "extension": "jpg",
          "height": 767,
          "mimetype": "image/jpeg",
          "secret": "UhYpBQE4vBfSQoukL1R0Zn5Rl6iMHhQa",
          "width": 319
        },
        "c": {
          "extension": "jpg",
          "height": 600,
          "mimetype": "image/jpeg",
          "secret": "UhYpBQE4vBfSQoukL1R0Zn5Rl6iMHhQa",
          "width": 249
        },
        "dc": {
          "extension": "jpg",
          "height": 600,
          "mimetype": "image/jpeg",
          "secret": "UhYpBQE4vBfSQoukL1R0Zn5Rl6iMHhQa",
          "width": 249
        },
        "ds": {
          "extension": "jpg",
          "height": 320,
          "mimetype": "image/jpeg",
          "secret": "UhYpBQE4vBfSQoukL1R0Zn5Rl6iMHhQa",
          "width": 320
        },
        "k": {
          "extension": "jpg",
          "height": 1535,
          "mimetype": "image/jpeg",
          "secret": "UhYpBQE4vBfSQoukL1R0Zn5Rl6iMHhQa",
          "width": 639
        },
        "n": {
          "extension": "jpg",
          "height": 240,
          "mimetype": "image/jpeg",
          "secret": "UhYpBQE4vBfSQoukL1R0Zn5Rl6iMHhQa",
          "width": 99
        },
        "o": {
          "extension": "jpg",
          "height": 2547,
          "mimetype": "image/jpeg",
          "secret": "wiPfj7rv4P8BRdjQnL2wHO4JNVrvo1cF",
          "width": 1061
        },
        "s": {
          "extension": "jpg",
          "height": 320,
          "mimetype": "image/jpeg",
          "secret": "UhYpBQE4vBfSQoukL1R0Zn5Rl6iMHhQa",
          "width": 320
        },
        "z": {
          "extension": "jpg",
          "height": 480,
          "mimetype": "image/jpeg",
          "secret": "UhYpBQE4vBfSQoukL1R0Zn5Rl6iMHhQa",
          "width": 199
        }
      }
    },
    "media:source": "sfomuseum",
    "media:status_id": 1,
    "media:uri_template": "https://static.sfomuseum.org/media/152/784/021/3/1527840213_{secret}_{label}.{extension}",
    "millsfield:airline_id": [
      1159284563
    ],
    "millsfield:category_id": 1511214223,
    "millsfield:collection_id": 1511214207,
    "millsfield:company_id": [
      1159288585
    ],
    "millsfield:images_colors": [
      {
        "hex": "#2e48a1",
        "name": "#2e48a1",
        "reference": "marekm4"
      },
      {
        "hex": "#483d8b",
        "name": "darkslateblue",
        "reference": "css4"
      },
      {
        "hex": "#324ab2",
        "name": "Violet Blue",
        "reference": "crayola"
      },
      {
        "hex": "#bec2d4",
        "name": "#bec2d4",
        "reference": "marekm4"
      },
      {
        "hex": "#b0c4de",
        "name": "lightsteelblue",
        "reference": "css4"
      },
      {
        "hex": "#b0b7c6",
        "name": "Cadet Blue",
        "reference": "crayola"
      },
      {
        "hex": "#2b344a",
        "name": "#2b344a",
        "reference": "marekm4"
      },
      {
        "hex": "#2f4f4f",
        "name": "darkslategrey",
        "reference": "css4"
      },
      {
        "hex": "#414a4c",
        "name": "Outer Space",
        "reference": "crayola"
      },
      {
        "hex": "#6a8ec9",
        "name": "#6a8ec9",
        "reference": "marekm4"
      },
      {
        "hex": "#6495ed",
        "name": "cornflowerblue",
        "reference": "css4"
      },
      {
        "hex": "#6699cc",
        "name": "Blue Gray",
        "reference": "crayola"
      }
    ],
    "millsfield:images_texts": [
      "Effective Winter 2008-2009\nJAL'S NETWORK TO ASIA"
    ],
    "millsfield:images_texts_ids": [
      1527840213
    ],
    "millsfield:similar": {
      "apple/mobileclip_s0": [
        {
          "distance": 0.7640607,
          "id": 1762699841
        },
        {
          "distance": 0.76455116,
          "id": 1527840041
        },
        {
          "distance": 0.7705644,
          "id": 1762699837
        },
        {
          "distance": 0.7739821,
          "id": 1762699829
        },
        {
          "distance": 0.7764617,
          "id": 1527851319
        },
        {
          "distance": 0.78861356,
          "id": 2048167779
        },
        {
          "distance": 0.7904027,
          "id": 1762699839
        },
        {
          "distance": 0.7909591,
          "id": 1762699831
        },
        {
          "distance": 0.79289645,
          "id": 1762698711
        },
        {
          "distance": 0.79441833,
          "id": 2048165051
        }
      ],
      "apple/mobileclip_s1": [
        {
          "distance": 0.53364784,
          "id": 1880236451
        },
        {
          "distance": 0.5426075,
          "id": 1527840073
        },
        {
          "distance": 0.5541817,
          "id": 1527840211
        },
        {
          "distance": 0.5566127,
          "id": 1527851347
        },
        {
          "distance": 0.5578469,
          "id": 1931096161
        },
        {
          "distance": 0.5593321,
          "id": 1527841649
        },
        {
          "distance": 0.55953854,
          "id": 1913928735
        },
        {
          "distance": 0.5633066,
          "id": 1779436831
        },
        {
          "distance": 0.56548274,
          "id": 1964107315
        },
        {
          "distance": 0.56569654,
          "id": 1913928731
        }
      ],
      "apple/mobileclip_s2": [
        {
          "distance": 0.7044629,
          "id": 1527840211
        },
        {
          "distance": 0.743317,
          "id": 1527840041
        },
        {
          "distance": 0.7519741,
          "id": 1964107097
        },
        {
          "distance": 0.759107,
          "id": 2048167725
        },
        {
          "distance": 0.75986916,
          "id": 1779436847
        },
        {
          "distance": 0.7644756,
          "id": 1779436831
        },
        {
          "distance": 0.76559126,
          "id": 1527840073
        },
        {
          "distance": 0.7657751,
          "id": 1931110421
        },
        {
          "distance": 0.76811427,
          "id": 1964107101
        },
        {
          "distance": 0.7717398,
          "id": 1964107315
        }
      ]
    },
    "millsfield:subcategory_id": 1511213425,
    "mz:hierarchy_label": 1,
    "mz:is_current": -1,
    "sfomuseum:filename": "2011.126.022.008.tif",
    "sfomuseum:image_id": 66320,
    "sfomuseum:image_index": 5,
    "sfomuseum:image_type": "studio",
    "sfomuseum:object_id": 121693,
    "sfomuseum:placetype": "image",
    "sfomuseum:primary_image": 1,
    "src:geom": "sfomuseum",
    "wof:belongsto": [
      1511214223,
      1511950981,
      102527513,
      102191575,
      85633793,
      1511213425,
      85922583,
      102087579,
      1511214277,
      1511214203,
      85688637
    ],
    "wof:breaches": [],
    "wof:country": "XX",
    "wof:created": 1578952517,
    "wof:depicts": [
      1159288585,
      1159284563,
      1511950981
    ],
    "wof:geomhash": "bd906905ce4be6c0651c90b0fc24804c",
    "wof:hierarchy": [
      {
        "arcade_id": 1511213425,
        "building_id": 1511214277,
        "campus_id": 102527513,
        "concourse_id": 1511214223,
        "continent_id": 102191575,
        "country_id": 85633793,
        "county_id": 102087579,
        "custom_id": 1527840213,
        "image_id": 1527840213,
        "locality_id": 85922583,
        "media_id": 1527840213,
        "neighbourhood_id": -1,
        "region_id": 85688637,
        "venue_id": 1511950981,
        "wing_id": 1511214203
      }
    ],
    "wof:id": 1527840213,
    "wof:lastmodified": 1788450014,
    "wof:name": "timetable: JAL (Japan Airlines), winter schedule",
    "wof:parent_id": 1511950981,
    "wof:placetype": "custom",
    "wof:placetype_alt": [
      "image"
    ],
    "wof:repo": "sfomuseum-data-media-collection",
    "wof:superseded_by": [],
    "wof:supersedes": [],
    "wof:tags": []
  },
  "bbox": [
    -122.386155,
    37.616358,
    -122.386155,
    37.616358
  ],
  "geometry": {"type":"Point","coordinates":[-122.386155,37.616358]}
}
