{
  "id": 1762704215,
  "type": "Feature",
  "properties": {
    "date:cessation_lower": "1980-01-01",
    "date:cessation_upper": "1989-12-31",
    "date:inception_lower": "1980-01-01",
    "date:inception_upper": "1989-12-31",
    "edtf:cessation": "198X",
    "edtf:inception": "198X",
    "geom:area": 2.477324999997507e-7,
    "geom:bbox": "-122.386472,37.616105,-122.385834,37.616611",
    "geom:latitude": 37.61635756125121,
    "geom:longitude": -122.38615532866096,
    "media:fingerprint": "3d306311860d1931d822ec8fb73498169c6d6a42",
    "media:imagehash_avg": "a:ff818181870f1f3f",
    "media:imagehash_diff": "d:597d1b1f1f367475",
    "media:imagetext": "Condor",
    "media:imagetext_created": 1787956755,
    "media:imagetext_source": "com.apple.visionkit.VNImageRequestHandler#Version 26.6.2 (Build 25G83)",
    "media:mimetype": "image/tiff",
    "media:properties": {
      "sizes": {
        "b": {
          "extension": "jpg",
          "height": 731,
          "mimetype": "image/jpeg",
          "secret": "vUBPGMpFUkz2DFyD0yL3eVCabzKbtJH3",
          "width": 1024
        },
        "c": {
          "extension": "jpg",
          "height": 571,
          "mimetype": "image/jpeg",
          "secret": "vUBPGMpFUkz2DFyD0yL3eVCabzKbtJH3",
          "width": 800
        },
        "dc": {
          "extension": "jpg",
          "height": 571,
          "mimetype": "image/jpeg",
          "secret": "vUBPGMpFUkz2DFyD0yL3eVCabzKbtJH3",
          "width": 800
        },
        "ds": {
          "extension": "jpg",
          "height": 320,
          "mimetype": "image/jpeg",
          "secret": "vUBPGMpFUkz2DFyD0yL3eVCabzKbtJH3",
          "width": 320
        },
        "k": {
          "extension": "jpg",
          "height": 1462,
          "mimetype": "image/jpeg",
          "secret": "vUBPGMpFUkz2DFyD0yL3eVCabzKbtJH3",
          "width": 2048
        },
        "n": {
          "extension": "jpg",
          "height": 228,
          "mimetype": "image/jpeg",
          "secret": "vUBPGMpFUkz2DFyD0yL3eVCabzKbtJH3",
          "width": 320
        },
        "o": {
          "extension": "jpg",
          "height": 1301,
          "mimetype": "image/jpeg",
          "secret": "GUL5e14gqjqVNXS24EsTaKa3Wp7QHNca",
          "width": 1822
        },
        "s": {
          "extension": "jpg",
          "height": 320,
          "mimetype": "image/jpeg",
          "secret": "vUBPGMpFUkz2DFyD0yL3eVCabzKbtJH3",
          "width": 320
        },
        "z": {
          "extension": "jpg",
          "height": 456,
          "mimetype": "image/jpeg",
          "secret": "vUBPGMpFUkz2DFyD0yL3eVCabzKbtJH3",
          "width": 640
        }
      }
    },
    "media:source": "sfomuseum",
    "media:status_id": 1,
    "media:uri_template": "https://static.sfomuseum.org/media/176/270/421/5/1762704215_{secret}_{label}.{extension}",
    "millsfield:aircraft_id": [
      1159289389
    ],
    "millsfield:airline_id": [
      1159284193
    ],
    "millsfield:category_id": 1511214215,
    "millsfield:collection_id": 1511214207,
    "millsfield:company_id": [
      1159293829
    ],
    "millsfield:images_colors": [
      {
        "hex": "#bcc3bc",
        "name": "#bcc3bc",
        "reference": "marekm4"
      },
      {
        "hex": "#c0c0c0",
        "name": "silver",
        "reference": "css4"
      },
      {
        "hex": "#cdc5c2",
        "name": "Silver",
        "reference": "crayola"
      },
      {
        "hex": "#67889e",
        "name": "#67889e",
        "reference": "marekm4"
      },
      {
        "hex": "#778899",
        "name": "lightslategrey",
        "reference": "css4"
      },
      {
        "hex": "#757575",
        "name": "Sonic Silver",
        "reference": "crayola"
      },
      {
        "hex": "#2d4856",
        "name": "#2d4856",
        "reference": "marekm4"
      },
      {
        "hex": "#2f4f4f",
        "name": "darkslategrey",
        "reference": "css4"
      },
      {
        "hex": "#414a4c",
        "name": "Outer Space",
        "reference": "crayola"
      },
      {
        "hex": "#537893",
        "name": "#537893",
        "reference": "marekm4"
      },
      {
        "hex": "#708090",
        "name": "slategrey",
        "reference": "css4"
      },
      {
        "hex": "#4a646c",
        "name": "Deep Space Sparkle",
        "reference": "crayola"
      }
    ],
    "millsfield:images_texts": [
      "Condor",
      "Airbus A 300 Condor\nPrinted in Switzerland on behalf of AVIATION HOBBY SHOP\n4, Horton Parade, West Drayton, Middx. UK\nCOURTESY AIRBUS INDUSTRIE\nAHS 4\n2015.166.0482"
    ],
    "millsfield:images_texts_ids": [
      1762704215,
      1762704217
    ],
    "millsfield:similar": {
      "apple/mobileclip_s0": [
        {
          "distance": 0.49441388,
          "id": 1762704319
        },
        {
          "distance": 0.54324174,
          "id": 1762705857
        },
        {
          "distance": 0.5536356,
          "id": 1762707163
        },
        {
          "distance": 0.5716019,
          "id": 1762702557
        },
        {
          "distance": 0.57281137,
          "id": 1762706401
        },
        {
          "distance": 0.5766025,
          "id": 1897892391
        },
        {
          "distance": 0.5849866,
          "id": 1762704599
        },
        {
          "distance": 0.59897417,
          "id": 1762703627
        },
        {
          "distance": 0.6017444,
          "id": 1762708141
        },
        {
          "distance": 0.6079655,
          "id": 1762704911
        }
      ],
      "apple/mobileclip_s1": [
        {
          "distance": 0.36227268,
          "id": 1762704319
        },
        {
          "distance": 0.37945876,
          "id": 1762705857
        },
        {
          "distance": 0.41690734,
          "id": 1762709923
        },
        {
          "distance": 0.41750664,
          "id": 1897892391
        },
        {
          "distance": 0.4197925,
          "id": 1762708611
        },
        {
          "distance": 0.42840785,
          "id": 1762704911
        },
        {
          "distance": 0.432939,
          "id": 1762709919
        },
        {
          "distance": 0.44056678,
          "id": 1762702557
        },
        {
          "distance": 0.44060495,
          "id": 1762704627
        },
        {
          "distance": 0.4425642,
          "id": 1762703627
        }
      ],
      "apple/mobileclip_s2": [
        {
          "distance": 0.5373559,
          "id": 1762704319
        },
        {
          "distance": 0.54420376,
          "id": 1762707163
        },
        {
          "distance": 0.5520879,
          "id": 1897892391
        },
        {
          "distance": 0.5790977,
          "id": 1762704599
        },
        {
          "distance": 0.5938197,
          "id": 1762702547
        },
        {
          "distance": 0.60084766,
          "id": 1762708611
        },
        {
          "distance": 0.6018728,
          "id": 1762705857
        },
        {
          "distance": 0.60224915,
          "id": 1762708055
        },
        {
          "distance": 0.6030876,
          "id": 1762708765
        },
        {
          "distance": 0.60428244,
          "id": 1762708589
        }
      ]
    },
    "millsfield:subcategory_id": 1511213363,
    "mz:is_current": 1,
    "sfomuseum:filename": "2015.166.0482_ft.tif",
    "sfomuseum:image_id": 153098,
    "sfomuseum:image_index": 5,
    "sfomuseum:image_type": "studio",
    "sfomuseum:object_id": 180099,
    "sfomuseum:placetype": "image",
    "sfomuseum:primary_image": 1,
    "src:geom": "sfomuseum",
    "wof:belongsto": [
      102527513,
      1159162825,
      102191575,
      85633793,
      102087579,
      85922583,
      1762693935,
      85688637,
      1159160869
    ],
    "wof:country": "XY",
    "wof:created": 1641347821,
    "wof:depicts": [
      1159289389,
      1159293829,
      1159284193,
      1159286945,
      1762693935
    ],
    "wof:geomhash": "ed7c2ab3547fc3916b5edc33488deaa7",
    "wof:hierarchy": [
      {
        "building_id": -1,
        "campus_id": 102527513,
        "collection_id": 1159162825,
        "concourse_id": 1159162825,
        "continent_id": 102191575,
        "country_id": 85633793,
        "county_id": 102087579,
        "custom_id": 1762704215,
        "image_id": 1762704215,
        "locality_id": 85922583,
        "neighbourhood_id": -1,
        "object_id": 1762693935,
        "region_id": 85688637,
        "wing_id": 1159160869
      }
    ],
    "wof:id": 1762704215,
    "wof:lastmodified": 1788450513,
    "wof:name": "postcard: Condor, Airbus A300",
    "wof:parent_id": 1762693935,
    "wof:placetype": "custom",
    "wof:placetype_alt": [
      "image"
    ],
    "wof:repo": "sfomuseum-data-media-collection",
    "wof:superseded_by": [],
    "wof:supersedes": []
  },
  "bbox": [
    -122.386472,
    37.616105,
    -122.385834,
    37.616611
  ],
  "geometry": {"type":"Polygon","coordinates":[[[-122.386472,37.616318],[-122.386435,37.616233],[-122.386376,37.616178],[-122.386301,37.616131],[-122.386161,37.616105],[-122.386022,37.616131],[-122.385914,37.616186],[-122.385855,37.616267],[-122.385834,37.616369],[-122.385871,37.616467],[-122.385941,37.616543],[-122.386054,37.616603],[-122.386183,37.616611],[-122.386306,37.616573],[-122.386419,37.616509],[-122.386467,37.616411],[-122.386472,37.616318]]]}
}
