{
  "id": 1527820071,
  "type": "Feature",
  "properties": {
    "date:cessation_lower": "1927-04-21",
    "date:cessation_upper": "1927-04-21",
    "date:inception_lower": "1927-04-21",
    "date:inception_upper": "1927-04-21",
    "edtf:cessation": "1927-04-21",
    "edtf:date": "1927-04-21",
    "edtf:inception": "1927-04-21",
    "geom:area": 0,
    "geom:bbox": "-122.386155,37.616358,-122.386155,37.616358",
    "geom:latitude": 37.616358,
    "geom:longitude": -122.386155,
    "iso:country": "US",
    "media:fingerprint": "14cf7ecc337392419e2a167f89af883cb7831c29",
    "media:imagehash_avg": "a:f9b0b1bf07179fbf",
    "media:imagehash_diff": "d:6363636b6d7f3771",
    "media:imagetext": "FIRST FLIGHT\nPITTSBURGH\nto\nMCKEESPORT\nINAUGUR\nAIR MAIL\nAPRIL\nP: 21.\n1927\nTING\nROUTE\n* SBUA\nАРГ 21\n2 PM\nP\nA\n1927*\nPITTSBURGH\n..'\nWorkshöp\nof the World\nc.J. Buckstein,\n1729 Atlantic Ave..\n: ATLANTIC CITY,\nN.J.",
    "media:imagetext_created": 1787947883,
    "media:imagetext_source": "com.apple.visionkit.VNImageRequestHandler#Version 26.6.2 (Build 25G83)",
    "media:medium": "image",
    "media:mimetype": "image/tiff",
    "media:properties": {
      "sizes": {
        "b": {
          "extension": "jpg",
          "height": 606,
          "mimetype": "image/jpeg",
          "secret": "uK7BfhZtzmjIlTiNhvkBY0qd1dAJ52Vb",
          "width": 1024
        },
        "c": {
          "extension": "jpg",
          "height": 473,
          "mimetype": "image/jpeg",
          "secret": "uK7BfhZtzmjIlTiNhvkBY0qd1dAJ52Vb",
          "width": 800
        },
        "dc": {
          "extension": "jpg",
          "height": 473,
          "mimetype": "image/jpeg",
          "secret": "uK7BfhZtzmjIlTiNhvkBY0qd1dAJ52Vb",
          "width": 800
        },
        "ds": {
          "extension": "jpg",
          "height": 320,
          "mimetype": "image/jpeg",
          "secret": "uK7BfhZtzmjIlTiNhvkBY0qd1dAJ52Vb",
          "width": 320
        },
        "k": {
          "extension": "jpg",
          "height": 1213,
          "mimetype": "image/jpeg",
          "secret": "uK7BfhZtzmjIlTiNhvkBY0qd1dAJ52Vb",
          "width": 2048
        },
        "n": {
          "extension": "jpg",
          "height": 189,
          "mimetype": "image/jpeg",
          "secret": "uK7BfhZtzmjIlTiNhvkBY0qd1dAJ52Vb",
          "width": 320
        },
        "o": {
          "extension": "jpg",
          "height": 1093,
          "mimetype": "image/jpeg",
          "secret": "ONtwMPifUSKZvRdJd3JVAwqw8Q6jt9MY",
          "width": 1845
        },
        "s": {
          "extension": "jpg",
          "height": 320,
          "mimetype": "image/jpeg",
          "secret": "uK7BfhZtzmjIlTiNhvkBY0qd1dAJ52Vb",
          "width": 320
        },
        "z": {
          "extension": "jpg",
          "height": 379,
          "mimetype": "image/jpeg",
          "secret": "uK7BfhZtzmjIlTiNhvkBY0qd1dAJ52Vb",
          "width": 640
        }
      }
    },
    "media:source": "sfomuseum",
    "media:status_id": 1,
    "media:uri_template": "https://static.sfomuseum.org/media/152/782/007/1/1527820071_{secret}_{label}.{extension}",
    "millsfield:category_id": 1511214215,
    "millsfield:collection_id": 1511214207,
    "millsfield:images_colors": [
      {
        "hex": "#e0cd90",
        "name": "#e0cd90",
        "reference": "marekm4"
      },
      {
        "hex": "#deb887",
        "name": "burlywood",
        "reference": "css4"
      },
      {
        "hex": "#e7c697",
        "name": "Gold",
        "reference": "crayola"
      },
      {
        "hex": "#d4bd7b",
        "name": "#d4bd7b",
        "reference": "marekm4"
      },
      {
        "hex": "#deaa88",
        "name": "Tumbleweed",
        "reference": "crayola"
      },
      {
        "hex": "#423e4a",
        "name": "#423e4a",
        "reference": "marekm4"
      },
      {
        "hex": "#2f4f4f",
        "name": "darkslategrey",
        "reference": "css4"
      },
      {
        "hex": "#414a4c",
        "name": "Outer Space",
        "reference": "crayola"
      },
      {
        "hex": "#a54f4a",
        "name": "#a54f4a",
        "reference": "marekm4"
      },
      {
        "hex": "#a0522d",
        "name": "sienna",
        "reference": "css4"
      },
      {
        "hex": "#a5694f",
        "name": "Sepia",
        "reference": "crayola"
      }
    ],
    "millsfield:images_texts": [
      "FIRST FLIGHT\nPITTSBURGH\nto\nMCKEESPORT\nINAUGUR\nAIR MAIL\nAPRIL\nP: 21.\n1927\nTING\nROUTE\n* SBUA\nАРГ 21\n2 PM\nP\nA\n1927*\nPITTSBURGH\n..'\nWorkshöp\nof the World\nc.J. Buckstein,\n1729 Atlantic Ave..\n: ATLANTIC CITY,\nN.J.",
      "/IN4/07/ B5\nGK\nP M\n1920\nREC'\n2002.011.014\nNAH"
    ],
    "millsfield:images_texts_ids": [
      1527820071,
      1527820073
    ],
    "millsfield:similar": {
      "apple/mobileclip_s0": [
        {
          "distance": 0.5213469,
          "id": 1527829949
        },
        {
          "distance": 0.5250614,
          "id": 1527820491
        },
        {
          "distance": 0.5491218,
          "id": 1527852449
        },
        {
          "distance": 0.5504146,
          "id": 1527828951
        },
        {
          "distance": 0.5513266,
          "id": 1527828947
        },
        {
          "distance": 0.55842143,
          "id": 1527833735
        },
        {
          "distance": 0.5587661,
          "id": 1527819887
        },
        {
          "distance": 0.55887306,
          "id": 1527833271
        },
        {
          "distance": 0.56032383,
          "id": 1527852023
        },
        {
          "distance": 0.5608631,
          "id": 1527833255
        }
      ],
      "apple/mobileclip_s1": [
        {
          "distance": 0.40822816,
          "id": 1527820127
        },
        {
          "distance": 0.41528338,
          "id": 1527820059
        },
        {
          "distance": 0.4158634,
          "id": 1527834049
        },
        {
          "distance": 0.41793716,
          "id": 1527819713
        },
        {
          "distance": 0.41909245,
          "id": 1527820167
        },
        {
          "distance": 0.4192691,
          "id": 1527830197
        },
        {
          "distance": 0.42001033,
          "id": 1527856539
        },
        {
          "distance": 0.42118645,
          "id": 1527856471
        },
        {
          "distance": 0.42151892,
          "id": 1527819999
        },
        {
          "distance": 0.42242154,
          "id": 1913822889
        }
      ],
      "apple/mobileclip_s2": [
        {
          "distance": 0.5878901,
          "id": 1527856463
        },
        {
          "distance": 0.5910341,
          "id": 1527856557
        },
        {
          "distance": 0.59444076,
          "id": 1527856553
        },
        {
          "distance": 0.5947355,
          "id": 1527820007
        },
        {
          "distance": 0.5949679,
          "id": 1527834081
        },
        {
          "distance": 0.59586686,
          "id": 1527820087
        },
        {
          "distance": 0.6011013,
          "id": 1527834075
        },
        {
          "distance": 0.60120124,
          "id": 1527820059
        },
        {
          "distance": 0.60203046,
          "id": 1527856471
        },
        {
          "distance": 0.61035764,
          "id": 1527856433
        }
      ]
    },
    "millsfield:subcategory_id": 1511213159,
    "mz:hierarchy_label": 1,
    "mz:is_current": -1,
    "sfomuseum:filename": "31312.tif",
    "sfomuseum:image_id": 31312,
    "sfomuseum:image_index": 5,
    "sfomuseum:image_type": "studio",
    "sfomuseum:object_id": 64877,
    "sfomuseum:placetype": "image",
    "sfomuseum:primary_image": 1,
    "src:geom": "sfomuseum",
    "wof:belongsto": [
      1511214215,
      85922583,
      136253057,
      102087579,
      85688637,
      102191575,
      1511214203,
      102527513,
      85633793,
      1511214277,
      1511922837,
      1511213159
    ],
    "wof:breaches": [],
    "wof:country": "US",
    "wof:created": 1578949359,
    "wof:depicts": [
      1511922837
    ],
    "wof:geomhash": "bd906905ce4be6c0651c90b0fc24804c",
    "wof:hierarchy": [
      {
        "arcade_id": 1511213159,
        "building_id": 1511214277,
        "campus_id": 102527513,
        "concourse_id": 1511214215,
        "continent_id": 102191575,
        "country_id": 85633793,
        "county_id": 102087579,
        "custom_id": 1527820071,
        "image_id": 1527820071,
        "locality_id": 85922583,
        "media_id": 1527820071,
        "neighbourhood_id": -1,
        "region_id": 85688637,
        "venue_id": 1511922837,
        "wing_id": 1511214203
      },
      {
        "continent_id": 102191575,
        "country_id": 85633793,
        "custom_id": 1527820071,
        "empire_id": 136253057,
        "image_id": 1527820071,
        "media_id": 1527820071,
        "venue_id": 1511922837
      }
    ],
    "wof:id": 1527820071,
    "wof:lastmodified": 1788449730,
    "wof:name": "airmail flight cover: First airmail flight, CAM, Cleveland - Pittsburgh route",
    "wof:parent_id": 1511922837,
    "wof:placetype": "custom",
    "wof:placetype_alt": [
      "image"
    ],
    "wof:repo": "sfomuseum-data-media-collection",
    "wof:superseded_by": [],
    "wof:supersedes": [],
    "wof:tags": []
  },
  "bbox": [
    -122.386155,
    37.616358,
    -122.386155,
    37.616358
  ],
  "geometry": {"type":"Point","coordinates":[-122.386155,37.616358]}
}
