{
  "id": 1964368119,
  "type": "Feature",
  "properties": {
    "date:cessation_lower": "1970-01-01",
    "date:cessation_upper": "1979-12-31",
    "date:inception_lower": "1970-01-01",
    "date:inception_upper": "1979-12-31",
    "edtf:cessation": "197X",
    "edtf:inception": "197X",
    "geom:area": 2.477324999997507e-7,
    "geom:bbox": "-122.386472,37.616105,-122.385834,37.616611",
    "geom:latitude": 37.61635756125121,
    "geom:longitude": -122.38615532866096,
    "media:fingerprint": "51f7af87a7e4ba4ff7005e8e4296cd9b78459d79",
    "media:imagehash_avg": "a:ffffc3c3c3c3ffff",
    "media:imagehash_diff": "d:8e8e8f8f87878f86",
    "media:imagetext": "Fly with\nexperience.\nPAN AMi",
    "media:imagetext_created": 1787975298,
    "media:imagetext_source": "com.apple.visionkit.VNImageRequestHandler#Version 26.6.2 (Build 25G83)",
    "media:mimetype": "image/tiff",
    "media:properties": {
      "sizes": {
        "b": {
          "extension": "jpg",
          "height": 768,
          "mimetype": "image/jpeg",
          "secret": "n3pKhytuw6ompxJVfcdy5M6anTEln0rc",
          "width": 966
        },
        "c": {
          "extension": "jpg",
          "height": 600,
          "mimetype": "image/jpeg",
          "secret": "n3pKhytuw6ompxJVfcdy5M6anTEln0rc",
          "width": 754
        },
        "dc": {
          "extension": "jpg",
          "height": 1667,
          "mimetype": "image/jpeg",
          "secret": "n3pKhytuw6ompxJVfcdy5M6anTEln0rc",
          "width": 2097
        },
        "ds": {
          "extension": "jpg",
          "height": 1667,
          "mimetype": "image/jpeg",
          "secret": "n3pKhytuw6ompxJVfcdy5M6anTEln0rc",
          "width": 2097
        },
        "k": {
          "extension": "jpg",
          "height": 1536,
          "mimetype": "image/jpeg",
          "secret": "n3pKhytuw6ompxJVfcdy5M6anTEln0rc",
          "width": 1932
        },
        "n": {
          "extension": "jpg",
          "height": 240,
          "mimetype": "image/jpeg",
          "secret": "n3pKhytuw6ompxJVfcdy5M6anTEln0rc",
          "width": 301
        },
        "o": {
          "extension": "jpg",
          "height": 1667,
          "mimetype": "image/jpeg",
          "secret": "W8FKgKq8tuRgfMByjcNXDQ8WLmV4qzy0",
          "width": 2097
        },
        "s": {
          "extension": "jpg",
          "height": 1667,
          "mimetype": "image/jpeg",
          "secret": "n3pKhytuw6ompxJVfcdy5M6anTEln0rc",
          "width": 2097
        },
        "z": {
          "extension": "jpg",
          "height": 480,
          "mimetype": "image/jpeg",
          "secret": "n3pKhytuw6ompxJVfcdy5M6anTEln0rc",
          "width": 603
        }
      }
    },
    "media:source": "sfomuseum",
    "media:status_id": 1,
    "media:uri_template": "https://static.sfomuseum.org/media/196/436/811/9/1964368119_{secret}_{label}.{extention}",
    "millsfield:airline_id": [
      1159284989
    ],
    "millsfield:category_id": 1763416373,
    "millsfield:collection_id": 1511214203,
    "millsfield:company_id": [
      1159286839
    ],
    "millsfield:images_colors": [
      {
        "hex": "#adadad",
        "name": "#adadad",
        "reference": "marekm4"
      },
      {
        "hex": "#a9a9a9",
        "name": "darkgrey",
        "reference": "css4"
      },
      {
        "hex": "#b0b7c6",
        "name": "Cadet Blue",
        "reference": "crayola"
      },
      {
        "hex": "#942922",
        "name": "#942922",
        "reference": "marekm4"
      },
      {
        "hex": "#a52a2a",
        "name": "brown",
        "reference": "css4"
      },
      {
        "hex": "#9c2542",
        "name": "Big Dip O' Ruby",
        "reference": "crayola"
      },
      {
        "hex": "#5f4b38",
        "name": "#5f4b38",
        "reference": "marekm4"
      },
      {
        "hex": "#556b2f",
        "name": "darkolivegreen",
        "reference": "css4"
      },
      {
        "hex": "#714b23",
        "name": "Raw Umber",
        "reference": "crayola"
      }
    ],
    "millsfield:images_texts": [
      "23713\nHOPEL\nINTER CONTINENTAL",
      "Fly with\nexperience.\nPAN AMi"
    ],
    "millsfield:images_texts_ids": [
      1964368117,
      1964368119
    ],
    "millsfield:similar": {
      "apple/mobileclip_s0": [
        {
          "distance": 0.4120073,
          "id": 1964368115
        },
        {
          "distance": 0.49890125,
          "id": 1964167811
        },
        {
          "distance": 0.62644047,
          "id": 2014778863
        },
        {
          "distance": 0.633152,
          "id": 1763379667
        },
        {
          "distance": 0.63325787,
          "id": 1779914695
        },
        {
          "distance": 0.6345448,
          "id": 1964167795
        },
        {
          "distance": 0.6373415,
          "id": 1964107385
        },
        {
          "distance": 0.6410202,
          "id": 1763379663
        },
        {
          "distance": 0.64238536,
          "id": 1763380477
        },
        {
          "distance": 0.642398,
          "id": 1763456189
        }
      ],
      "apple/mobileclip_s1": [
        {
          "distance": 0.3243535,
          "id": 1964167811
        },
        {
          "distance": 0.38604972,
          "id": 1931110469
        },
        {
          "distance": 0.40143737,
          "id": 1964368151
        },
        {
          "distance": 0.40223026,
          "id": 1964368149
        },
        {
          "distance": 0.40497145,
          "id": 1964368115
        },
        {
          "distance": 0.4201875,
          "id": 1964107385
        },
        {
          "distance": 0.4304514,
          "id": 1763444533
        },
        {
          "distance": 0.4448347,
          "id": 1763456149
        },
        {
          "distance": 0.44886205,
          "id": 1964368099
        },
        {
          "distance": 0.45462376,
          "id": 1964368081
        }
      ],
      "apple/mobileclip_s2": [
        {
          "distance": 0.32231832,
          "id": 1964368115
        },
        {
          "distance": 0.40460217,
          "id": 1964167811
        },
        {
          "distance": 0.5579729,
          "id": 1964368151
        },
        {
          "distance": 0.5649148,
          "id": 1931110469
        },
        {
          "distance": 0.5743426,
          "id": 1964107385
        },
        {
          "distance": 0.5838443,
          "id": 2014778033
        },
        {
          "distance": 0.5900946,
          "id": 1964167779
        },
        {
          "distance": 0.5952848,
          "id": 1763444533
        },
        {
          "distance": 0.59582967,
          "id": 1964167761
        },
        {
          "distance": 0.6046853,
          "id": 1964368149
        }
      ]
    },
    "millsfield:subcategory_id": 1511213677,
    "mz:is_current": 1,
    "sfomuseum:filename": "113610.tif",
    "sfomuseum:image_id": 113610,
    "sfomuseum:image_index": 5,
    "sfomuseum:image_type": "studio",
    "sfomuseum:object_id": 154339,
    "sfomuseum:placetype": "image",
    "sfomuseum:primary_image": 1,
    "src:geom": "sfomuseum",
    "wof:belongsto": [
      102527513,
      1159162825,
      102191575,
      85633793,
      102087579,
      85922583,
      1964367941,
      85688637,
      1159160869
    ],
    "wof:country": "XY",
    "wof:created": 1745566376,
    "wof:depicts": [
      1159286839,
      1964367941,
      1159284989
    ],
    "wof:geomhash": "ed7c2ab3547fc3916b5edc33488deaa7",
    "wof:hierarchy": [
      {
        "building_id": -1,
        "campus_id": 102527513,
        "collection_id": 1159162825,
        "concourse_id": 1159162825,
        "continent_id": 102191575,
        "country_id": 85633793,
        "county_id": 102087579,
        "custom_id": 1964368119,
        "locality_id": 85922583,
        "neighbourhood_id": -1,
        "object_id": 1964367941,
        "region_id": 85688637,
        "wing_id": 1159160869
      }
    ],
    "wof:id": 1964368119,
    "wof:lastmodified": 1788452570,
    "wof:name": "matchbox: Pan American World Airways, Hotel Inter-Continental Tehran",
    "wof:parent_id": 1964367941,
    "wof:placetype": "custom",
    "wof:repo": "sfomuseum-data-media-collection",
    "wof:superseded_by": [],
    "wof:supersedes": []
  },
  "bbox": [
    -122.386472,
    37.616105,
    -122.385834,
    37.616611
  ],
  "geometry": {"type":"Polygon","coordinates":[[[-122.386472,37.616318],[-122.386435,37.616233],[-122.386376,37.616178],[-122.386301,37.616131],[-122.386161,37.616105],[-122.386022,37.616131],[-122.385914,37.616186],[-122.385855,37.616267],[-122.385834,37.616369],[-122.385871,37.616467],[-122.385941,37.616543],[-122.386054,37.616603],[-122.386183,37.616611],[-122.386306,37.616573],[-122.386419,37.616509],[-122.386467,37.616411],[-122.386472,37.616318]]]}
}
