{
  "id": 1527849917,
  "type": "Feature",
  "properties": {
    "date:cessation_lower": "1979-01-01",
    "date:cessation_upper": "1979-12-31",
    "date:inception_lower": "1979-01-01",
    "date:inception_upper": "1979-12-31",
    "edtf:cessation": "1979",
    "edtf:date": "1979",
    "edtf:inception": "1979",
    "geom:area": 0,
    "geom:bbox": "-122.386155,37.616358,-122.386155,37.616358",
    "geom:latitude": 37.616358,
    "geom:longitude": -122.386155,
    "iso:country": "XX",
    "media:fingerprint": "d2669efbc92fcde2eb92039bb5201f51e740af18",
    "media:imagehash_avg": "a:ff81ffff8100031f",
    "media:imagehash_diff": "d:2323333e3f73777c",
    "media:imagetext": "British\nall ways\nEuropean\nand Mediterranean Area\nTimetable\n1 April - 27 October 1979\nIncluding Inter-Britain Services\nfrom and to London\nNo. 1\n7",
    "media:imagetext_created": 1787952876,
    "media:imagetext_source": "com.apple.visionkit.VNImageRequestHandler#Version 26.6.2 (Build 25G83)",
    "media:medium": "image",
    "media:mimetype": "image/tiff",
    "media:properties": {
      "sizes": {
        "b": {
          "extension": "jpg",
          "height": 768,
          "mimetype": "image/jpeg",
          "secret": "Gq72H06FCu6sdwt3CaxpYjXaRzaTMiWY",
          "width": 446
        },
        "c": {
          "extension": "jpg",
          "height": 600,
          "mimetype": "image/jpeg",
          "secret": "Gq72H06FCu6sdwt3CaxpYjXaRzaTMiWY",
          "width": 348
        },
        "dc": {
          "extension": "jpg",
          "height": 600,
          "mimetype": "image/jpeg",
          "secret": "Gq72H06FCu6sdwt3CaxpYjXaRzaTMiWY",
          "width": 348
        },
        "ds": {
          "extension": "jpg",
          "height": 320,
          "mimetype": "image/jpeg",
          "secret": "Gq72H06FCu6sdwt3CaxpYjXaRzaTMiWY",
          "width": 320
        },
        "k": {
          "extension": "jpg",
          "height": 1536,
          "mimetype": "image/jpeg",
          "secret": "Gq72H06FCu6sdwt3CaxpYjXaRzaTMiWY",
          "width": 892
        },
        "n": {
          "extension": "jpg",
          "height": 240,
          "mimetype": "image/jpeg",
          "secret": "Gq72H06FCu6sdwt3CaxpYjXaRzaTMiWY",
          "width": 139
        },
        "o": {
          "extension": "jpg",
          "height": 2449,
          "mimetype": "image/jpeg",
          "secret": "FkbC6B39NxeykymqcvB6MGmbZ5zRGB9p",
          "width": 1423
        },
        "s": {
          "extension": "jpg",
          "height": 320,
          "mimetype": "image/jpeg",
          "secret": "Gq72H06FCu6sdwt3CaxpYjXaRzaTMiWY",
          "width": 320
        },
        "z": {
          "extension": "jpg",
          "height": 480,
          "mimetype": "image/jpeg",
          "secret": "Gq72H06FCu6sdwt3CaxpYjXaRzaTMiWY",
          "width": 278
        }
      }
    },
    "media:source": "sfomuseum",
    "media:status_id": 1,
    "media:uri_template": "https://static.sfomuseum.org/media/152/784/991/7/1527849917_{secret}_{label}.{extension}",
    "millsfield:airline_id": [
      1159284021
    ],
    "millsfield:category_id": 1511214223,
    "millsfield:collection_id": 1511214207,
    "millsfield:company_id": [
      1159287729
    ],
    "millsfield:images_colors": [
      {
        "hex": "#ece5d7",
        "name": "#ece5d7",
        "reference": "marekm4"
      },
      {
        "hex": "#faebd7",
        "name": "antiquewhite",
        "reference": "css4"
      },
      {
        "hex": "#efdecd",
        "name": "Almond",
        "reference": "crayola"
      },
      {
        "hex": "#c30a0d",
        "name": "#c30a0d",
        "reference": "marekm4"
      },
      {
        "hex": "#b22222",
        "name": "firebrick",
        "reference": "css4"
      },
      {
        "hex": "#9c2542",
        "name": "Big Dip O' Ruby",
        "reference": "crayola"
      },
      {
        "hex": "#0d1155",
        "name": "#0d1155",
        "reference": "marekm4"
      },
      {
        "hex": "#191970",
        "name": "midnightblue",
        "reference": "css4"
      },
      {
        "hex": "#1a4876",
        "name": "Midnight Blue",
        "reference": "crayola"
      }
    ],
    "millsfield:images_texts": [
      "British\nall ways\nEuropean\nand Mediterranean Area\nTimetable\n1 April - 27 October 1979\nIncluding Inter-Britain Services\nfrom and to London\nNo. 1\n7"
    ],
    "millsfield:images_texts_ids": [
      1527849917
    ],
    "millsfield:similar": {
      "apple/mobileclip_s0": [
        {
          "distance": 0.30371028,
          "id": 1527849907
        },
        {
          "distance": 0.31196138,
          "id": 1527849925
        },
        {
          "distance": 0.3264062,
          "id": 1527849923
        },
        {
          "distance": 0.34614012,
          "id": 1527849915
        },
        {
          "distance": 0.36489686,
          "id": 1527849921
        },
        {
          "distance": 0.37769422,
          "id": 1527849905
        },
        {
          "distance": 0.38874534,
          "id": 1527849933
        },
        {
          "distance": 0.38980645,
          "id": 1527849901
        },
        {
          "distance": 0.3980374,
          "id": 1527849937
        },
        {
          "distance": 0.4198516,
          "id": 1527849919
        }
      ],
      "apple/mobileclip_s1": [
        {
          "distance": 0.17369923,
          "id": 1527849907
        },
        {
          "distance": 0.25488958,
          "id": 1527849919
        },
        {
          "distance": 0.2639437,
          "id": 1527849923
        },
        {
          "distance": 0.27186328,
          "id": 1527849901
        },
        {
          "distance": 0.27689058,
          "id": 1527849915
        },
        {
          "distance": 0.28392896,
          "id": 1527849937
        },
        {
          "distance": 0.2913339,
          "id": 1527849921
        },
        {
          "distance": 0.2975803,
          "id": 1527849905
        },
        {
          "distance": 0.29848155,
          "id": 1527849933
        },
        {
          "distance": 0.3142299,
          "id": 1527849925
        }
      ],
      "apple/mobileclip_s2": [
        {
          "distance": 0.19028965,
          "id": 1527849907
        },
        {
          "distance": 0.23074569,
          "id": 1527849925
        },
        {
          "distance": 0.24322267,
          "id": 1527849901
        },
        {
          "distance": 0.24525915,
          "id": 1527849933
        },
        {
          "distance": 0.24995418,
          "id": 1527849915
        },
        {
          "distance": 0.25412133,
          "id": 1527849923
        },
        {
          "distance": 0.26033133,
          "id": 1527849921
        },
        {
          "distance": 0.2700309,
          "id": 1527849937
        },
        {
          "distance": 0.27096206,
          "id": 1527849919
        },
        {
          "distance": 0.29274905,
          "id": 1527849905
        }
      ]
    },
    "millsfield:subcategory_id": 1511213425,
    "mz:hierarchy_label": 1,
    "mz:is_current": -1,
    "sfomuseum:filename": "2009.122.217.tif",
    "sfomuseum:image_id": 75532,
    "sfomuseum:image_index": 5,
    "sfomuseum:image_type": "studio",
    "sfomuseum:object_id": 103220,
    "sfomuseum:placetype": "image",
    "sfomuseum:primary_image": 1,
    "src:geom": "sfomuseum",
    "wof:belongsto": [
      1511214223,
      1511940397,
      102527513,
      102191575,
      85633793,
      1511213425,
      85922583,
      102087579,
      1511214277,
      1511214203,
      85688637
    ],
    "wof:breaches": [],
    "wof:country": "XX",
    "wof:created": 1578954104,
    "wof:depicts": [
      1159284021,
      1159287729,
      1511940397
    ],
    "wof:geomhash": "bd906905ce4be6c0651c90b0fc24804c",
    "wof:hierarchy": [
      {
        "arcade_id": 1511213425,
        "building_id": 1511214277,
        "campus_id": 102527513,
        "concourse_id": 1511214223,
        "continent_id": 102191575,
        "country_id": 85633793,
        "county_id": 102087579,
        "custom_id": 1527849917,
        "image_id": 1527849917,
        "locality_id": 85922583,
        "media_id": 1527849917,
        "neighbourhood_id": -1,
        "region_id": 85688637,
        "venue_id": 1511940397,
        "wing_id": 1511214203
      }
    ],
    "wof:id": 1527849917,
    "wof:lastmodified": 1788450167,
    "wof:name": "timetable: British Airways",
    "wof:parent_id": 1511940397,
    "wof:placetype": "custom",
    "wof:placetype_alt": [
      "image"
    ],
    "wof:repo": "sfomuseum-data-media-collection",
    "wof:superseded_by": [],
    "wof:supersedes": [],
    "wof:tags": []
  },
  "bbox": [
    -122.386155,
    37.616358,
    -122.386155,
    37.616358
  ],
  "geometry": {"type":"Point","coordinates":[-122.386155,37.616358]}
}
