{
  "id": 1527818759,
  "type": "Feature",
  "properties": {
    "date:cessation_lower": "1967-01-01",
    "date:cessation_upper": "1967-12-31",
    "date:inception_lower": "1967-01-01",
    "date:inception_upper": "1967-12-31",
    "edtf:cessation": "1967",
    "edtf:date": "1967",
    "edtf:inception": "1967",
    "geom:area": 0,
    "geom:bbox": "-122.386155,37.616358,-122.386155,37.616358",
    "geom:latitude": 37.616358,
    "geom:longitude": -122.386155,
    "iso:country": "US",
    "media:fingerprint": "c6e66e02cb18a71e51a7604cf5b6e57127577b87",
    "media:imagehash_avg": "a:ff818181818181bf",
    "media:imagehash_diff": "d:4d6f75773f7d7b7f",
    "media:imagetext": "WEST COAST\nAIRLINES\nTIMETABLE\nEFFECTIVE:\nJULY 15, 1967",
    "media:imagetext_created": 1787947749,
    "media:imagetext_source": "com.apple.visionkit.VNImageRequestHandler#Version 26.6.2 (Build 25G83)",
    "media:medium": "image",
    "media:mimetype": "image/tiff",
    "media:properties": {
      "sizes": {
        "b": {
          "extension": "jpg",
          "height": 768,
          "mimetype": "image/jpeg",
          "secret": "AJyDXmV0ZDeDhEsMWUf406bi2V83x2V6",
          "width": 360
        },
        "c": {
          "extension": "jpg",
          "height": 600,
          "mimetype": "image/jpeg",
          "secret": "AJyDXmV0ZDeDhEsMWUf406bi2V83x2V6",
          "width": 281
        },
        "dc": {
          "extension": "jpg",
          "height": 600,
          "mimetype": "image/jpeg",
          "secret": "AJyDXmV0ZDeDhEsMWUf406bi2V83x2V6",
          "width": 281
        },
        "ds": {
          "extension": "jpg",
          "height": 320,
          "mimetype": "image/jpeg",
          "secret": "AJyDXmV0ZDeDhEsMWUf406bi2V83x2V6",
          "width": 320
        },
        "k": {
          "extension": "jpg",
          "height": 1536,
          "mimetype": "image/jpeg",
          "secret": "AJyDXmV0ZDeDhEsMWUf406bi2V83x2V6",
          "width": 721
        },
        "n": {
          "extension": "jpg",
          "height": 240,
          "mimetype": "image/jpeg",
          "secret": "AJyDXmV0ZDeDhEsMWUf406bi2V83x2V6",
          "width": 112
        },
        "o": {
          "extension": "jpg",
          "height": 688,
          "mimetype": "image/jpeg",
          "secret": "GiBrGndZvlx2tBdLcMngvPzdv1XiN1Iw",
          "width": 323
        },
        "s": {
          "extension": "jpg",
          "height": 320,
          "mimetype": "image/jpeg",
          "secret": "AJyDXmV0ZDeDhEsMWUf406bi2V83x2V6",
          "width": 320
        },
        "z": {
          "extension": "jpg",
          "height": 480,
          "mimetype": "image/jpeg",
          "secret": "AJyDXmV0ZDeDhEsMWUf406bi2V83x2V6",
          "width": 225
        }
      }
    },
    "media:source": "sfomuseum",
    "media:status_id": 1,
    "media:uri_template": "https://static.sfomuseum.org/media/152/781/875/9/1527818759_{secret}_{label}.{extension}",
    "millsfield:airline_id": [
      1159285505
    ],
    "millsfield:category_id": 1511214223,
    "millsfield:collection_id": 1511214207,
    "millsfield:company_id": [
      1159287343
    ],
    "millsfield:images_colors": [
      {
        "hex": "#b79f0d",
        "name": "#b79f0d",
        "reference": "marekm4"
      },
      {
        "hex": "#b8860b",
        "name": "darkgoldenrod",
        "reference": "css4"
      },
      {
        "hex": "#9c7c38",
        "name": "Metallic Sunburst",
        "reference": "crayola"
      },
      {
        "hex": "#f8f7f3",
        "name": "#f8f7f3",
        "reference": "marekm4"
      },
      {
        "hex": "#f5f5f5",
        "name": "whitesmoke",
        "reference": "css4"
      },
      {
        "hex": "#ffffff",
        "name": "White",
        "reference": "crayola"
      },
      {
        "hex": "#a2760c",
        "name": "#a2760c",
        "reference": "marekm4"
      },
      {
        "hex": "#c46210",
        "name": "Alloy Orange",
        "reference": "crayola"
      }
    ],
    "millsfield:images_texts": [
      "WEST COAST\nAIRLINES\nTIMETABLE\nEFFECTIVE:\nJULY 15, 1967",
      "Calgary\nALBERTA\nPort Angeles\nOlympia\nAberdeen / Hoquiam\nAstoria\nCorvallis / Albany\nRose\nburg\nCoos Bay /N Bend\nEugene\nMedford\nWASHINGTON\nSeattle\nSpokane\nWenatchee\nMoses L\nTacoma\nEphrata\nYakima\nRichland\nPasco\nKenn\nWalla/ Walla\nPortland / Vancouver\nOREGON\nBaker\nBend Redmond\nPayette / Ontario\nKlamath Falls\nKalispell\nGreat Falls\nMoscow\nPullman\nLewiston / Clarkston\nIDAHO\nSun Valley / Hailey / Ketchum\nMONTANA\nBoise\nIdaho Falls\nPocatello\nTwin Falls\nBurley/\nRupert\nDISCOVER AMERICA\nSalt Lake City\nUTAH\nSan Francisco\nSacramento\n) Oakland\nCALIFORNIA"
    ],
    "millsfield:images_texts_ids": [
      1527818759,
      1527851245
    ],
    "millsfield:similar": {
      "apple/mobileclip_s0": [
        {
          "distance": 0.24862893,
          "id": 1527842959
        },
        {
          "distance": 0.31509876,
          "id": 1762700611
        },
        {
          "distance": 0.3446908,
          "id": 1527842963
        },
        {
          "distance": 0.35090485,
          "id": 1763241343
        },
        {
          "distance": 0.3537532,
          "id": 1527818403
        },
        {
          "distance": 0.36753717,
          "id": 1762700615
        },
        {
          "distance": 0.3689068,
          "id": 1762714963
        },
        {
          "distance": 0.37075943,
          "id": 1527842965
        },
        {
          "distance": 0.3750541,
          "id": 1762700621
        },
        {
          "distance": 0.3847691,
          "id": 1527818763
        }
      ],
      "apple/mobileclip_s1": [
        {
          "distance": 0.2276684,
          "id": 1527842959
        },
        {
          "distance": 0.2548531,
          "id": 1762700611
        },
        {
          "distance": 0.27428558,
          "id": 1527842963
        },
        {
          "distance": 0.2890614,
          "id": 1527842965
        },
        {
          "distance": 0.29603332,
          "id": 1527818763
        },
        {
          "distance": 0.30982107,
          "id": 1763241343
        },
        {
          "distance": 0.31305754,
          "id": 1527818403
        },
        {
          "distance": 0.32118082,
          "id": 1762700621
        },
        {
          "distance": 0.33137307,
          "id": 1527818761
        },
        {
          "distance": 0.34276688,
          "id": 1527842955
        }
      ],
      "apple/mobileclip_s2": [
        {
          "distance": 0.2624159,
          "id": 1762700611
        },
        {
          "distance": 0.30836198,
          "id": 1527842959
        },
        {
          "distance": 0.33971277,
          "id": 1527842965
        },
        {
          "distance": 0.34728095,
          "id": 1762700621
        },
        {
          "distance": 0.3513465,
          "id": 1527842963
        },
        {
          "distance": 0.36975515,
          "id": 1763241343
        },
        {
          "distance": 0.37501997,
          "id": 1527818403
        },
        {
          "distance": 0.38847932,
          "id": 1762700619
        },
        {
          "distance": 0.40240097,
          "id": 1527842953
        },
        {
          "distance": 0.40519738,
          "id": 1762700617
        }
      ]
    },
    "millsfield:subcategory_id": 1511213425,
    "mz:hierarchy_label": 1,
    "mz:is_current": -1,
    "sfomuseum:filename": "19257.tif",
    "sfomuseum:image_id": 19257,
    "sfomuseum:image_index": 5,
    "sfomuseum:image_type": "studio",
    "sfomuseum:object_id": 48978,
    "sfomuseum:placetype": "image",
    "sfomuseum:primary_image": 1,
    "src:geom": "sfomuseum",
    "wof:belongsto": [
      102191575,
      1511909231,
      85633793,
      136253057,
      1511214223,
      102527513,
      1511213425,
      85922583,
      102087579,
      1511214277,
      1511214203,
      85688637
    ],
    "wof:breaches": [],
    "wof:country": "US",
    "wof:created": 1578949154,
    "wof:depicts": [
      1511909231,
      1159285505,
      1159287343
    ],
    "wof:geomhash": "bd906905ce4be6c0651c90b0fc24804c",
    "wof:hierarchy": [
      {
        "continent_id": 102191575,
        "country_id": 85633793,
        "custom_id": 1527818759,
        "empire_id": 136253057,
        "image_id": 1527818759,
        "media_id": 1527818759,
        "venue_id": 1511909231
      },
      {
        "arcade_id": 1511213425,
        "building_id": 1511214277,
        "campus_id": 102527513,
        "concourse_id": 1511214223,
        "continent_id": 102191575,
        "country_id": 85633793,
        "county_id": 102087579,
        "custom_id": 1527818759,
        "image_id": 1527818759,
        "locality_id": 85922583,
        "media_id": 1527818759,
        "neighbourhood_id": -1,
        "region_id": 85688637,
        "venue_id": 1511909231,
        "wing_id": 1511214203
      }
    ],
    "wof:id": 1527818759,
    "wof:lastmodified": 1788449715,
    "wof:name": "timetable: West Coast Airlines",
    "wof:parent_id": 1511909231,
    "wof:placetype": "custom",
    "wof:placetype_alt": [
      "image"
    ],
    "wof:repo": "sfomuseum-data-media-collection",
    "wof:superseded_by": [],
    "wof:supersedes": [],
    "wof:tags": []
  },
  "bbox": [
    -122.386155,
    37.616358,
    -122.386155,
    37.616358
  ],
  "geometry": {"type":"Point","coordinates":[-122.386155,37.616358]}
}
