{
  "id": 1762700847,
  "type": "Feature",
  "properties": {
    "date:cessation_lower": "1963-04-01",
    "date:cessation_upper": "1963-04-30",
    "date:inception_lower": "1963-04-01",
    "date:inception_upper": "1963-04-30",
    "edtf:cessation": "1963-04",
    "edtf:inception": "1963-04",
    "geom:area": 2.477324999997507e-7,
    "geom:bbox": "-122.386472,37.616105,-122.385834,37.616611",
    "geom:latitude": 37.61635756125121,
    "geom:longitude": -122.38615532866096,
    "media:fingerprint": "57d1dfbc8ab8e1ebf29cfe53a76517838188f263",
    "media:imagehash_avg": "a:81808081fbcf8181",
    "media:imagehash_diff": "d:332f0f27033f1d7d",
    "media:imagetext": "AEROLINEAS ARGENTINAS\nORARI E TARIFFE\nAprile 1963\n13",
    "media:imagetext_created": 1787956171,
    "media:imagetext_source": "com.apple.visionkit.VNImageRequestHandler#Version 26.6.2 (Build 25G83)",
    "media:mimetype": "image/tiff",
    "media:properties": {
      "sizes": {
        "b": {
          "extension": "jpg",
          "height": 768,
          "mimetype": "image/jpeg",
          "secret": "nEgp8E0fM0i3sWYy4xK5GrxsUno9EDQr",
          "width": 383
        },
        "c": {
          "extension": "jpg",
          "height": 600,
          "mimetype": "image/jpeg",
          "secret": "nEgp8E0fM0i3sWYy4xK5GrxsUno9EDQr",
          "width": 299
        },
        "dc": {
          "extension": "jpg",
          "height": 600,
          "mimetype": "image/jpeg",
          "secret": "nEgp8E0fM0i3sWYy4xK5GrxsUno9EDQr",
          "width": 299
        },
        "ds": {
          "extension": "jpg",
          "height": 320,
          "mimetype": "image/jpeg",
          "secret": "nEgp8E0fM0i3sWYy4xK5GrxsUno9EDQr",
          "width": 320
        },
        "k": {
          "extension": "jpg",
          "height": 1536,
          "mimetype": "image/jpeg",
          "secret": "nEgp8E0fM0i3sWYy4xK5GrxsUno9EDQr",
          "width": 766
        },
        "n": {
          "extension": "jpg",
          "height": 240,
          "mimetype": "image/jpeg",
          "secret": "nEgp8E0fM0i3sWYy4xK5GrxsUno9EDQr",
          "width": 119
        },
        "o": {
          "extension": "jpg",
          "height": 2574,
          "mimetype": "image/jpeg",
          "secret": "U7yhwdtE5y2SxMojG2SvYRqu5QIkUjei",
          "width": 1284
        },
        "s": {
          "extension": "jpg",
          "height": 320,
          "mimetype": "image/jpeg",
          "secret": "nEgp8E0fM0i3sWYy4xK5GrxsUno9EDQr",
          "width": 320
        },
        "z": {
          "extension": "jpg",
          "height": 480,
          "mimetype": "image/jpeg",
          "secret": "nEgp8E0fM0i3sWYy4xK5GrxsUno9EDQr",
          "width": 239
        }
      }
    },
    "media:source": "sfomuseum",
    "media:status_id": 1,
    "media:uri_template": "https://static.sfomuseum.org/media/176/270/084/7/1762700847_{secret}_{label}.{extension}",
    "millsfield:airline_id": [
      1159283531
    ],
    "millsfield:category_id": 1511214223,
    "millsfield:collection_id": 1511214207,
    "millsfield:company_id": [
      1159287703
    ],
    "millsfield:images_colors": [
      {
        "hex": "#439bca",
        "name": "#439bca",
        "reference": "marekm4"
      },
      {
        "hex": "#4682b4",
        "name": "steelblue",
        "reference": "css4"
      },
      {
        "hex": "#6699cc",
        "name": "Blue Gray",
        "reference": "crayola"
      },
      {
        "hex": "#f1e8d9",
        "name": "#f1e8d9",
        "reference": "marekm4"
      },
      {
        "hex": "#faebd7",
        "name": "antiquewhite",
        "reference": "css4"
      },
      {
        "hex": "#efdecd",
        "name": "Almond",
        "reference": "crayola"
      },
      {
        "hex": "#c91904",
        "name": "#c91904",
        "reference": "marekm4"
      },
      {
        "hex": "#b22222",
        "name": "firebrick",
        "reference": "css4"
      },
      {
        "hex": "#ff2b2b",
        "name": "Orange Red",
        "reference": "crayola"
      },
      {
        "hex": "#18508d",
        "name": "#18508d",
        "reference": "marekm4"
      },
      {
        "hex": "#483d8b",
        "name": "darkslateblue",
        "reference": "css4"
      },
      {
        "hex": "#1a4876",
        "name": "Midnight Blue",
        "reference": "crayola"
      }
    ],
    "millsfield:images_texts": [
      "AEROLINEAS ARGENTINAS\nORARI E TARIFFE\nAprile 1963\n13"
    ],
    "millsfield:images_texts_ids": [
      1762700847
    ],
    "millsfield:similar": {
      "apple/mobileclip_s0": [
        {
          "distance": 0.57102054,
          "id": 1762698005
        },
        {
          "distance": 0.5717583,
          "id": 1527821107
        },
        {
          "distance": 0.57567793,
          "id": 1762698007
        },
        {
          "distance": 0.5785921,
          "id": 1763241153
        },
        {
          "distance": 0.5798676,
          "id": 1527842311
        },
        {
          "distance": 0.5886689,
          "id": 1527837217
        },
        {
          "distance": 0.5902586,
          "id": 1762697973
        },
        {
          "distance": 0.59541595,
          "id": 1762699097
        },
        {
          "distance": 0.59612584,
          "id": 1527842309
        },
        {
          "distance": 0.597084,
          "id": 1762699435
        }
      ],
      "apple/mobileclip_s1": [
        {
          "distance": 0.4033973,
          "id": 1527849943
        },
        {
          "distance": 0.40710568,
          "id": 1762700011
        },
        {
          "distance": 0.40971363,
          "id": 1527842309
        },
        {
          "distance": 0.423722,
          "id": 1762699097
        },
        {
          "distance": 0.42563024,
          "id": 1527842311
        },
        {
          "distance": 0.42571142,
          "id": 1762898487
        },
        {
          "distance": 0.42971036,
          "id": 1762697895
        },
        {
          "distance": 0.4297143,
          "id": 1762701721
        },
        {
          "distance": 0.43028313,
          "id": 1527846773
        },
        {
          "distance": 0.43078318,
          "id": 1763241153
        }
      ],
      "apple/mobileclip_s2": [
        {
          "distance": 0.51325625,
          "id": 1762698003
        },
        {
          "distance": 0.5344952,
          "id": 1762697999
        },
        {
          "distance": 0.53867406,
          "id": 1527842309
        },
        {
          "distance": 0.54276717,
          "id": 1762698007
        },
        {
          "distance": 0.54642475,
          "id": 1527846773
        },
        {
          "distance": 0.5507927,
          "id": 1762698001
        },
        {
          "distance": 0.55135983,
          "id": 1762700011
        },
        {
          "distance": 0.5522255,
          "id": 1762699097
        },
        {
          "distance": 0.5543732,
          "id": 1762699435
        },
        {
          "distance": 0.55695015,
          "id": 1527842307
        }
      ]
    },
    "millsfield:subcategory_id": 1511213425,
    "mz:is_current": 1,
    "sfomuseum:filename": "2015.167.005.tif",
    "sfomuseum:image_id": 148796,
    "sfomuseum:image_index": 5,
    "sfomuseum:image_type": "studio",
    "sfomuseum:object_id": 173986,
    "sfomuseum:placetype": "image",
    "sfomuseum:primary_image": 1,
    "src:geom": "sfomuseum",
    "wof:belongsto": [
      102527513,
      1159162825,
      102191575,
      85633793,
      102087579,
      85922583,
      1762692929,
      85688637,
      1159160869
    ],
    "wof:country": "XY",
    "wof:created": 1641346589,
    "wof:depicts": [
      1159283531,
      1159287703,
      1762692929
    ],
    "wof:geomhash": "ed7c2ab3547fc3916b5edc33488deaa7",
    "wof:hierarchy": [
      {
        "building_id": -1,
        "campus_id": 102527513,
        "collection_id": 1159162825,
        "concourse_id": 1159162825,
        "continent_id": 102191575,
        "country_id": 85633793,
        "county_id": 102087579,
        "custom_id": 1762700847,
        "image_id": 1762700847,
        "locality_id": 85922583,
        "neighbourhood_id": -1,
        "object_id": 1762692929,
        "region_id": 85688637,
        "wing_id": 1159160869
      }
    ],
    "wof:id": 1762700847,
    "wof:lastmodified": 1788450458,
    "wof:name": "timetable: Aerolineas Argentinas",
    "wof:parent_id": 1762692929,
    "wof:placetype": "custom",
    "wof:placetype_alt": [
      "image"
    ],
    "wof:repo": "sfomuseum-data-media-collection",
    "wof:superseded_by": [],
    "wof:supersedes": []
  },
  "bbox": [
    -122.386472,
    37.616105,
    -122.385834,
    37.616611
  ],
  "geometry": {"type":"Polygon","coordinates":[[[-122.386472,37.616318],[-122.386435,37.616233],[-122.386376,37.616178],[-122.386301,37.616131],[-122.386161,37.616105],[-122.386022,37.616131],[-122.385914,37.616186],[-122.385855,37.616267],[-122.385834,37.616369],[-122.385871,37.616467],[-122.385941,37.616543],[-122.386054,37.616603],[-122.386183,37.616611],[-122.386306,37.616573],[-122.386419,37.616509],[-122.386467,37.616411],[-122.386472,37.616318]]]}
}
