{
  "id": 1527843395,
  "type": "Feature",
  "properties": {
    "date:cessation_lower": "1963-01-01",
    "date:cessation_upper": "1963-12-31",
    "date:inception_lower": "1963-01-01",
    "date:inception_upper": "1963-12-31",
    "edtf:cessation": "1963",
    "edtf:date": "1963",
    "edtf:inception": "1963",
    "geom:area": 0,
    "geom:bbox": "-122.386155,37.616358,-122.386155,37.616358",
    "geom:latitude": 37.616358,
    "geom:longitude": -122.386155,
    "iso:country": "US",
    "media:fingerprint": "12c1bbfd3b7ab95a72220e1f57f958e87e1c1e3f",
    "media:imagehash_avg": "a:7f290139290f69ff",
    "media:imagehash_diff": "d:c9cbb3e3d39b8b8d",
    "media:imagetext": "VANCOUVER\n• CALGARY\nSEATTLE C\nTACOMA\nPORTLAND\nHELENA\nBUTTE •\nIDAMO FALLS\nPOCATELLO\nRENO\nSALT LAKE\nCITY\nGREAT FALLS\nBILLINGS\nSHERIDAN\nRAPID CITY\nCASPER\nCHEYENNE\nPIERRE\nHURON\nMINNEAPOLIS\nST. PAUL\nSIOUX FALLS\nSACRAMENTO\nSAN FRANCISCO.\nOAKLAND!\nDENVER\nLAS VEGAS\nONTARIOP ALM\nSPRINGS\nLOS ANGELES\nLONG BEACH\nSAN DIEGO\nPHOENIX\nMEXICO CITY\nACAPULCO\n017:100:844:704\nWESTERN\nAIRLINES\nJET SKYWAY OF THE WEST",
    "media:imagetext_created": 1787951462,
    "media:imagetext_source": "com.apple.visionkit.VNImageRequestHandler#Version 26.6.2 (Build 25G83)",
    "media:medium": "image",
    "media:mimetype": "image/tiff",
    "media:properties": {
      "sizes": {
        "b": {
          "extension": "jpg",
          "height": 431,
          "mimetype": "image/jpeg",
          "secret": "Om1Kc0xCary0Wl8sYUDuqGDY4TA0NU0e",
          "width": 1024
        },
        "c": {
          "extension": "jpg",
          "height": 337,
          "mimetype": "image/jpeg",
          "secret": "Om1Kc0xCary0Wl8sYUDuqGDY4TA0NU0e",
          "width": 800
        },
        "dc": {
          "extension": "jpg",
          "height": 337,
          "mimetype": "image/jpeg",
          "secret": "Om1Kc0xCary0Wl8sYUDuqGDY4TA0NU0e",
          "width": 800
        },
        "ds": {
          "extension": "jpg",
          "height": 320,
          "mimetype": "image/jpeg",
          "secret": "Om1Kc0xCary0Wl8sYUDuqGDY4TA0NU0e",
          "width": 320
        },
        "k": {
          "extension": "jpg",
          "height": 863,
          "mimetype": "image/jpeg",
          "secret": "Om1Kc0xCary0Wl8sYUDuqGDY4TA0NU0e",
          "width": 2048
        },
        "n": {
          "extension": "jpg",
          "height": 134,
          "mimetype": "image/jpeg",
          "secret": "Om1Kc0xCary0Wl8sYUDuqGDY4TA0NU0e",
          "width": 320
        },
        "o": {
          "extension": "jpg",
          "height": 1017,
          "mimetype": "image/jpeg",
          "secret": "aPkB3GmHPy8EvEcpYiy5iFLbX1YRceyM",
          "width": 2412
        },
        "s": {
          "extension": "jpg",
          "height": 320,
          "mimetype": "image/jpeg",
          "secret": "Om1Kc0xCary0Wl8sYUDuqGDY4TA0NU0e",
          "width": 320
        },
        "z": {
          "extension": "jpg",
          "height": 269,
          "mimetype": "image/jpeg",
          "secret": "Om1Kc0xCary0Wl8sYUDuqGDY4TA0NU0e",
          "width": 640
        }
      }
    },
    "media:source": "sfomuseum",
    "media:status_id": 1,
    "media:uri_template": "https://static.sfomuseum.org/media/152/784/339/5/1527843395_{secret}_{label}.{extension}",
    "millsfield:airline_id": [
      1159294431
    ],
    "millsfield:category_id": 1511214223,
    "millsfield:collection_id": 1511214207,
    "millsfield:company_id": [
      1159287595
    ],
    "millsfield:images_colors": [
      {
        "hex": "#e3d4bc",
        "name": "#e3d4bc",
        "reference": "marekm4"
      },
      {
        "hex": "#f5deb3",
        "name": "wheat",
        "reference": "css4"
      },
      {
        "hex": "#efcdb8",
        "name": "Desert Sand",
        "reference": "crayola"
      },
      {
        "hex": "#c11210",
        "name": "#c11210",
        "reference": "marekm4"
      },
      {
        "hex": "#b22222",
        "name": "firebrick",
        "reference": "css4"
      },
      {
        "hex": "#9c2542",
        "name": "Big Dip O' Ruby",
        "reference": "crayola"
      },
      {
        "hex": "#100e0b",
        "name": "#100e0b",
        "reference": "marekm4"
      },
      {
        "hex": "#000000",
        "name": "black",
        "reference": "css4"
      },
      {
        "hex": "#000000",
        "name": "Black",
        "reference": "crayola"
      }
    ],
    "millsfield:images_texts": [
      "CONDITIONS OF CONTRACT\nto transpod not, cod \"cat, rickin\" des the pair cart Tisset and Bs ticket Chd al, in care\"s eat eart\nthe air carrier\nissuing this ticket and all air carriers that carry\nair carriage to mage heldes death, hijury, delay ers of other damage of othereerine ine antal to such\nor other damage of whatsoever nature arising out o\nr in connection with carriage or other services performed by carrier incidental thereto. Carriage to be performe\nhereunder by several successive carriers is regarded as a single operation.\nsaage a3 defined\nthe Convention.\nparture shown opposite the first abbreviation of carrier's name\nConvention the agreed stopping places (which may be altered by carrier in case of necessity) are those\nexcept the place\nplan ticket issued heleceith, de asture an in carriers timetables as\nof departure and the place of destination, set forth in this ticket and any conjunc\nscheduled stopping places on the pas\nsenger's route.\n(b) To the extent not in conflict with the foregoing,\nall carriage hereunder and other services performed\nby each game rules ou thet to ven top to le lage incid is not tomats in mender the doned in the\nside thereof, and also between\nregulations and timetables\na place in Canada and any\nrie Existing expreer the preded or appliere a contained shall waive any limitation of liablity of car-\nevent the liability of carrier shall be limited to such higher declared value. In no case\nliability exceed the actual loss suffered by the passenger.\nshall the carrier's\nAll claims are subject to proof of amount of loss.\n(e) Any exclusion or limitation of liability of carrier under these conditions shall apply to agents, servants\nor representatives of the carrier acting within the\nscope of their employment and also to any person whose\naircraft is used by carrier for carriage and his agents, servants or representatives acting within the scope\n(5.) Checked baggage carried hereunder\nwill be delivered to the bearer of the baggage check upon pay-\nment of all unpaid sums due carrier under carrier's contract of carriage or tariff.\naccommodations have\ncarriage on the date\nand flight for which\nwhen flight coupons are issued on an \"open date\"\ntions will be reserved upon application subject to availability of space.\npassenger and baggage\nor\ncompletion of\nor omit the stopping\nout nolice. Carrier agsumes no responsity for mating conceit. Schedules are subject to change with-\nfixed, sufficiently\ntime fixed by carrier or,\nfailure to comply with this\nthis contracent, servant or representative of carrier has authority to alter, modify or waive any provision of\nand, at the latest, within seven days from\nat his disposal. Every complaint must be\nas part of the contract\n(4) Subject to the foregoing: (a) Liability of carrier for\nof checked baggage as to\nissuing a ticket\nnotice was not given due to fraud on the part\nthe negligence of carrier.\n(ears reckoned from dam date of instarat the destinext or foom the date ad\nan action is brought within two\nregulations, orders or\nCALETEE\nwhich the aircraft ought\nto have arrived, or from the date on which the carriage stopped\nThe method of calculating the period o\nlimitation shall be determined by the law of the court seized of the case\nSOLD SUBJECT TO TARIFF REGULATIONS\nclared in advance and additional charges are paid pursuant to carrier's tariffs or regulations. In that\nISSUED BY WESTERN AIR LINES, INC.\nPRICE OF THIS TICKET IS SUBJECT TO CHANGE PRIOR TO COMMENCEMENT OF TRAVEL.\n1947.",
      "VANCOUVER\n• CALGARY\nSEATTLE C\nTACOMA\nPORTLAND\nHELENA\nBUTTE •\nIDAMO FALLS\nPOCATELLO\nRENO\nSALT LAKE\nCITY\nGREAT FALLS\nBILLINGS\nSHERIDAN\nRAPID CITY\nCASPER\nCHEYENNE\nPIERRE\nHURON\nMINNEAPOLIS\nST. PAUL\nSIOUX FALLS\nSACRAMENTO\nSAN FRANCISCO.\nOAKLAND!\nDENVER\nLAS VEGAS\nONTARIOP ALM\nSPRINGS\nLOS ANGELES\nLONG BEACH\nSAN DIEGO\nPHOENIX\nMEXICO CITY\nACAPULCO\n017:100:844:704\nWESTERN\nAIRLINES\nJET SKYWAY OF THE WEST",
      "ITO ALASKA AND THE ORIENTI\n(TO EDMONTON AND NORTHERN CANADA)\n• VANCOUVER\n• CALGARY\nIPEG\nSEATTLE\nTACOMA\nSPOKANE\n80\nGREAT FALLS\nPORTLAND\nDULUTH\nHELENA\nBUTTE\nIDAHO FALLS\nPOCATELLO\nBILLINGS\nSHERIDAN\nRAPID CITY\nHURON\nMNEAPOLIS\nST. PAUL\nPIERRE\nMILWAUKEE\nSIOUX FALLS\nCASPER\nCHICAGO\nRENO\nSALT LAKE\nCITY\nOMAHA\nSACRAMENTO\nSAN FRANCISCO\nOAKLAND\nCHEYENNE\nDEI\nKANSAS CITY\nST. LOUIS\nALAS VEGAS\nONTARIO\nPALM\no TULSA\nLOS ANGELES•\nLONG BEACH\nSAN DIEGO\n*O OKLAHOMA CITY\nTUCSON\nATLANTA\n•••\nDALLAS\nFORT WORTH\nNEW\nORLEANS\nHOUSTON\n20=\nSAM ANTONIO\nLEGEND\nWESTERN ROUTES\nCONNECTING ROUTES\nWESTERN\nAIRLINES\n(TO MIAMI AND\nTHE CARIBBEAN)\nMEXICO CITY.\nACAPULCO\nITO CENTRAN\nSOUTH AMERICA)\nFOR RESERVATIONS, INFORMATION CALL:\nAcapulco, Mex..\nAnaheim, Calif..\nBeverly Hills, Calif\nBillings, Mont...\nBremerton, Wash.\nBurbank, Calif..\nButte, Mont...\nCalgary, Alta..\nCasper, Wyo...\nCheyenne, Wyo.\nDallas, Tex.....\nDenver 2, Colo...\nEdmonton, Alta..\nGreat Falls, Mont.\nHelena, Mont....\nHollywood 28, Calif...\nHuntington Park, Calif.\nHuron, S.D....\nIdaho Falls, Idaho\nLas Vegas, Nev..\nLong Beach 2, Calif\nLos Angeles 14, Calif.\nMexico City, D.F.....\nMinneapolis 2, Minn..\nOakland 12, Calif...\n... NO 2-2628\nOntario, Calif..\nYUkon 6-1119\nJEfferson 4-0881\nPalm Springs, Calif\nFAirview 5-2709\nCRestview 4-7881\nPalo Alto, Calif......\n324-4451\nALpine 2-5161\nPanorama City, Calif..... CRestview 4-7881\n.....ZEnith 9979\nPasadena 1, Calif.....\nSYcamore 5-7751\nTHornwall 2-2101\nPhoenix, Ariz..\nALpine 8-8881\n...729-6555\nPierre, S.D....\nCApital 4-7372\nCRestview 7-0176\nPocatello, Idaho.\n. CEdar 2-8756\n23 5-2721\nPortland 5, Oregon\nATlantic 8-5771\n63 8-8916\nRapid City, S.D...\nFlllmore 2-7110\nRiverside 8-8841\nReno, Nev.\nFAirview 3-1801\nDUdley 8-6262\nSt. Paul 2, Minn.\nFEderal 9-0771\n...ZEnith 0-7264\nSacramento, Calif\n421-6460\nGLendale 3-4355\nSalt Lake City, Utah\n328-1155\n..Hickory 2-8550\nSan Bernardino, Calif.\n. YUkon 6-1119\nMAdison 6-4242\nSan Diego 1, Calif.....\nCYpress 8-8861\nMAdison 6-4242\nSan Francisco 2, Calif\n.. EXbrook 7-5500\n.. ELgin 2-8601\nSanta Monica, Calif.\nCRestview 4-7881\nJAckson 2-8161\nSeattle 1, Wash..\nCHerry 4-5700\n. REgent 3-1131\nSheridan, Wyo..\n672-2424\nHArrison 1-8271\nSioux Falis, S.D.\n336-1410\nMAdison 6-4242\nTacoma 2, Wash\nBRoadway 2-5188\n....46-90-40\nVancouver, B.C\n.. MUtual 2-2641\nFEderal 9-0771\nVancouver, Wash\nOXford 3-4331\nTEmplebar 4-9080\nWestchester, Calif\nOSborne 9-1796\nOR SEE YOUR FRIENDLY TRAVEL AGENT\n1997.19.286\nPRINTED IN U.S.A.",
      "TICKETS FOR:\nWESTERN\nAIRLINES\nGATE PASS\nFLIGHT/DATE\n638 13\nDESTINATION\nLAS\nNUMBER IN PARTY\nDEPARTURE GATE\nCOACH"
    ],
    "millsfield:images_texts_ids": [
      1527843391,
      1527843395,
      1527850201,
      1527850203
    ],
    "millsfield:similar": {
      "apple/mobileclip_s0": [
        {
          "distance": 0.72169846,
          "id": 1527818773
        },
        {
          "distance": 0.72876537,
          "id": 1762899395
        },
        {
          "distance": 0.7483599,
          "id": 1931096641
        },
        {
          "distance": 0.7627481,
          "id": 1763588861
        },
        {
          "distance": 0.7679963,
          "id": 1762700443
        },
        {
          "distance": 0.7679963,
          "id": 1762700447
        },
        {
          "distance": 0.7719569,
          "id": 1779436897
        },
        {
          "distance": 0.773436,
          "id": 1527850289
        },
        {
          "distance": 0.77389866,
          "id": 1762708309
        },
        {
          "distance": 0.77552265,
          "id": 1527851585
        }
      ],
      "apple/mobileclip_s1": [
        {
          "distance": 0.4976464,
          "id": 1763205227
        },
        {
          "distance": 0.5037544,
          "id": 1762898433
        },
        {
          "distance": 0.50705636,
          "id": 1527855071
        },
        {
          "distance": 0.5108135,
          "id": 1762698223
        },
        {
          "distance": 0.51537716,
          "id": 1527854541
        },
        {
          "distance": 0.5169121,
          "id": 1763205229
        },
        {
          "distance": 0.51785684,
          "id": 1527853397
        },
        {
          "distance": 0.5218157,
          "id": 1527837227
        },
        {
          "distance": 0.52187765,
          "id": 1779968935
        },
        {
          "distance": 0.52205765,
          "id": 1762899395
        }
      ],
      "apple/mobileclip_s2": [
        {
          "distance": 0.7161568,
          "id": 1527837227
        },
        {
          "distance": 0.7334433,
          "id": 1527853397
        },
        {
          "distance": 0.7406203,
          "id": 1763249347
        },
        {
          "distance": 0.740954,
          "id": 1527855071
        },
        {
          "distance": 0.7509267,
          "id": 1762898433
        },
        {
          "distance": 0.7522477,
          "id": 1527855079
        },
        {
          "distance": 0.75237685,
          "id": 1527854541
        },
        {
          "distance": 0.7578815,
          "id": 1527818773
        },
        {
          "distance": 0.7647853,
          "id": 1527837225
        },
        {
          "distance": 0.77069706,
          "id": 1527837889
        }
      ]
    },
    "millsfield:subcategory_id": 1511213421,
    "mz:hierarchy_label": 1,
    "mz:is_current": -1,
    "sfomuseum:filename": "1997.19.28a.tif",
    "sfomuseum:image_id": 68173,
    "sfomuseum:image_index": 5,
    "sfomuseum:image_type": "studio",
    "sfomuseum:object_id": 44504,
    "sfomuseum:placetype": "image",
    "sfomuseum:primary_image": 1,
    "src:geom": "sfomuseum",
    "wof:belongsto": [
      1511214223,
      1511907657,
      102527513,
      102191575,
      85633793,
      1511213421,
      85922583,
      102087579,
      1511214277,
      1511214203,
      85688637,
      136253057
    ],
    "wof:breaches": [],
    "wof:country": "US",
    "wof:created": 1578953032,
    "wof:depicts": [
      1159294431,
      1159287595,
      1511907657
    ],
    "wof:geomhash": "bd906905ce4be6c0651c90b0fc24804c",
    "wof:hierarchy": [
      {
        "arcade_id": 1511213421,
        "building_id": 1511214277,
        "campus_id": 102527513,
        "concourse_id": 1511214223,
        "continent_id": 102191575,
        "country_id": 85633793,
        "county_id": 102087579,
        "custom_id": 1527843395,
        "image_id": 1527843395,
        "locality_id": 85922583,
        "media_id": 1527843395,
        "neighbourhood_id": -1,
        "region_id": 85688637,
        "venue_id": 1511907657,
        "wing_id": 1511214203
      },
      {
        "continent_id": 102191575,
        "country_id": 85633793,
        "custom_id": 1527843395,
        "empire_id": 136253057,
        "image_id": 1527843395,
        "media_id": 1527843395,
        "venue_id": 1511907657
      }
    ],
    "wof:id": 1527843395,
    "wof:lastmodified": 1788160814,
    "wof:name": "ticket: Western Airlines",
    "wof:parent_id": 1511907657,
    "wof:placetype": "custom",
    "wof:placetype_alt": [
      "image"
    ],
    "wof:repo": "sfomuseum-data-media-collection",
    "wof:superseded_by": [],
    "wof:supersedes": [],
    "wof:tags": []
  },
  "bbox": [
    -122.386155,
    37.616358,
    -122.386155,
    37.616358
  ],
  "geometry": {"type":"Point","coordinates":[-122.386155,37.616358]}
}
