{
  "id": 1763110047,
  "type": "Feature",
  "properties": {
    "date:cessation_lower": "1970-01-01",
    "date:cessation_upper": "1979-12-31",
    "date:inception_lower": "1970-01-01",
    "date:inception_upper": "1979-12-31",
    "edtf:cessation": "197X",
    "edtf:inception": "197X",
    "geom:area": 2.477324999997507e-7,
    "geom:bbox": "-122.386472,37.616105,-122.385834,37.616611",
    "geom:latitude": 37.61635756125121,
    "geom:longitude": -122.38615532866096,
    "media:fingerprint": "31be682521da47bb90b462cddcaee18b7443c1d9",
    "media:imagehash_avg": "a:fffbf3c3e7c3c3ff",
    "media:imagehash_diff": "d:0002160f0e0f0f1f",
    "media:imagetext": "Trans Internationa\nDC-10\n.....",
    "media:imagetext_created": 1787960391,
    "media:imagetext_source": "com.apple.visionkit.VNImageRequestHandler#Version 26.6.2 (Build 25G83)",
    "media:mimetype": "image/tiff",
    "media:properties": {
      "sizes": {
        "b": {
          "extension": "jpg",
          "height": 768,
          "mimetype": "image/jpeg",
          "secret": "JzFT43pfdbEB4yBNYlVNiwQrCqhjwu1y",
          "width": 965
        },
        "c": {
          "extension": "jpg",
          "height": 600,
          "mimetype": "image/jpeg",
          "secret": "JzFT43pfdbEB4yBNYlVNiwQrCqhjwu1y",
          "width": 754
        },
        "dc": {
          "extension": "jpg",
          "height": 600,
          "mimetype": "image/jpeg",
          "secret": "JzFT43pfdbEB4yBNYlVNiwQrCqhjwu1y",
          "width": 754
        },
        "ds": {
          "extension": "jpg",
          "height": 320,
          "mimetype": "image/jpeg",
          "secret": "JzFT43pfdbEB4yBNYlVNiwQrCqhjwu1y",
          "width": 320
        },
        "k": {
          "extension": "jpg",
          "height": 1536,
          "mimetype": "image/jpeg",
          "secret": "JzFT43pfdbEB4yBNYlVNiwQrCqhjwu1y",
          "width": 1931
        },
        "n": {
          "extension": "jpg",
          "height": 240,
          "mimetype": "image/jpeg",
          "secret": "JzFT43pfdbEB4yBNYlVNiwQrCqhjwu1y",
          "width": 301
        },
        "o": {
          "extension": "jpg",
          "height": 1667,
          "mimetype": "image/jpeg",
          "secret": "FN5PjsuJzxQCoHRZNaTj8AZIcJABm07Q",
          "width": 2096
        },
        "s": {
          "extension": "jpg",
          "height": 320,
          "mimetype": "image/jpeg",
          "secret": "JzFT43pfdbEB4yBNYlVNiwQrCqhjwu1y",
          "width": 320
        },
        "z": {
          "extension": "jpg",
          "height": 480,
          "mimetype": "image/jpeg",
          "secret": "JzFT43pfdbEB4yBNYlVNiwQrCqhjwu1y",
          "width": 603
        }
      }
    },
    "media:source": "sfomuseum",
    "media:status_id": 1,
    "media:uri_template": "https://static.sfomuseum.org/media/176/311/004/7/1763110047_{secret}_{label}.{extension}",
    "millsfield:aircraft_id": [
      1159291259
    ],
    "millsfield:airline_id": [
      1159285319
    ],
    "millsfield:category_id": 1511214235,
    "millsfield:collection_id": 1511214203,
    "millsfield:company_id": [
      1159293561
    ],
    "millsfield:has_coloring_book": 1,
    "millsfield:images_colors": [
      {
        "hex": "#bab9b8",
        "name": "#bab9b8",
        "reference": "marekm4"
      },
      {
        "hex": "#c0c0c0",
        "name": "silver",
        "reference": "css4"
      },
      {
        "hex": "#b0b7c6",
        "name": "Cadet Blue",
        "reference": "crayola"
      },
      {
        "hex": "#474c4b",
        "name": "#474c4b",
        "reference": "marekm4"
      },
      {
        "hex": "#2f4f4f",
        "name": "darkslategrey",
        "reference": "css4"
      },
      {
        "hex": "#414a4c",
        "name": "Outer Space",
        "reference": "crayola"
      }
    ],
    "millsfield:images_texts": [
      "Trans International\nLA..\nNIOITY\nA Dс-10\nTIA\nDC-10",
      "Trans Internationa\nDC-10\n.....",
      "DC:10\nTrans International\n30000000003",
      "TIA\nDC-10\nTrans International,"
    ],
    "millsfield:images_texts_ids": [
      1763110045,
      1763110047,
      1763110051,
      1763110055
    ],
    "millsfield:similar": {
      "apple/mobileclip_s0": [
        {
          "distance": 0.20909278,
          "id": 1763110051
        },
        {
          "distance": 0.39377928,
          "id": 1763109979
        },
        {
          "distance": 0.39725834,
          "id": 1763110055
        },
        {
          "distance": 0.41516912,
          "id": 1763138231
        },
        {
          "distance": 0.42234212,
          "id": 1914633067
        },
        {
          "distance": 0.42254788,
          "id": 1930431029
        },
        {
          "distance": 0.4257385,
          "id": 1763109985
        },
        {
          "distance": 0.42601246,
          "id": 1763144599
        },
        {
          "distance": 0.42845863,
          "id": 1527857511
        },
        {
          "distance": 0.43310994,
          "id": 1527857493
        }
      ],
      "apple/mobileclip_s1": [
        {
          "distance": 0.17790793,
          "id": 1763110051
        },
        {
          "distance": 0.2393264,
          "id": 1763110055
        },
        {
          "distance": 0.25060555,
          "id": 1763110045
        },
        {
          "distance": 0.2723185,
          "id": 1763137127
        },
        {
          "distance": 0.28071037,
          "id": 1763138267
        },
        {
          "distance": 0.28571662,
          "id": 1763137123
        },
        {
          "distance": 0.28827295,
          "id": 1880440297
        },
        {
          "distance": 0.2935404,
          "id": 1763137131
        },
        {
          "distance": 0.29459867,
          "id": 1763110155
        },
        {
          "distance": 0.29565513,
          "id": 1880255107
        }
      ],
      "apple/mobileclip_s2": [
        {
          "distance": 0.1998187,
          "id": 1763110051
        },
        {
          "distance": 0.36598924,
          "id": 1763110045
        },
        {
          "distance": 0.37701365,
          "id": 1763110055
        },
        {
          "distance": 0.3936489,
          "id": 1763137133
        },
        {
          "distance": 0.41171283,
          "id": 1763137131
        },
        {
          "distance": 0.42536566,
          "id": 1880255103
        },
        {
          "distance": 0.4301727,
          "id": 1763137123
        },
        {
          "distance": 0.43265367,
          "id": 1763112025
        },
        {
          "distance": 0.43369585,
          "id": 1763110115
        },
        {
          "distance": 0.4343927,
          "id": 1763137127
        }
      ]
    },
    "millsfield:subcategory_id": 1511213161,
    "mz:is_current": 1,
    "sfomuseum:filename": "1999.061.049ab_02.tif",
    "sfomuseum:image_id": 161152,
    "sfomuseum:image_index": 5,
    "sfomuseum:image_type": "studio",
    "sfomuseum:object_id": 49302,
    "sfomuseum:placetype": "image",
    "sfomuseum:primary_image": 0,
    "src:geom": "sfomuseum",
    "wof:belongsto": [
      102527513,
      1159162825,
      102191575,
      85633793,
      102087579,
      85922583,
      1763109789,
      85688637,
      1159160869
    ],
    "wof:country": "XY",
    "wof:created": 1645220466,
    "wof:depicts": [
      1159291259,
      1159293561,
      1159285319,
      1159287739,
      1763109789
    ],
    "wof:geomhash": "ed7c2ab3547fc3916b5edc33488deaa7",
    "wof:hierarchy": [
      {
        "building_id": -1,
        "campus_id": 102527513,
        "collection_id": 1159162825,
        "concourse_id": 1159162825,
        "continent_id": 102191575,
        "country_id": 85633793,
        "county_id": 102087579,
        "custom_id": 1763110047,
        "image_id": 1763110047,
        "locality_id": 85922583,
        "neighbourhood_id": -1,
        "object_id": 1763109789,
        "region_id": 85688637,
        "wing_id": 1159160869
      }
    ],
    "wof:id": 1763110047,
    "wof:lastmodified": 1788450904,
    "wof:name": "model airplane: Trans International Airlines, McDonnell Douglas DC-10",
    "wof:parent_id": 1763109789,
    "wof:placetype": "custom",
    "wof:placetype_alt": [
      "image"
    ],
    "wof:repo": "sfomuseum-data-media-collection",
    "wof:superseded_by": [],
    "wof:supersedes": []
  },
  "bbox": [
    -122.386472,
    37.616105,
    -122.385834,
    37.616611
  ],
  "geometry": {"type":"Polygon","coordinates":[[[-122.386472,37.616318],[-122.386435,37.616233],[-122.386376,37.616178],[-122.386301,37.616131],[-122.386161,37.616105],[-122.386022,37.616131],[-122.385914,37.616186],[-122.385855,37.616267],[-122.385834,37.616369],[-122.385871,37.616467],[-122.385941,37.616543],[-122.386054,37.616603],[-122.386183,37.616611],[-122.386306,37.616573],[-122.386419,37.616509],[-122.386467,37.616411],[-122.386472,37.616318]]]}
}
