{
  "id": 1914623045,
  "type": "Feature",
  "properties": {
    "date:cessation_lower": "1991-01-01",
    "date:cessation_upper": "1991-12-31",
    "date:inception_lower": "1991-01-01",
    "date:inception_upper": "1991-12-31",
    "edtf:cessation": "1991",
    "edtf:inception": "1991",
    "geom:area": 2.477324999997507e-7,
    "geom:bbox": "-122.386472,37.616105,-122.385834,37.616611",
    "geom:latitude": 37.61635756125121,
    "geom:longitude": -122.38615532866096,
    "media:fingerprint": "a257488f82d945ef4e1e5fffbb67feed6d7e3113",
    "media:imagehash_avg": "a:00f13f11f3fff300",
    "media:imagehash_diff": "d:45cf6f676fcfc727",
    "media:imagetext": "Safety\nSicherheit\nSécurité\nSeguridad\nB-B7\nUNITED\nIf you are sitting in an exit row\nand you can not read this card\nor can not see well enough to\nfollow these instructions,\nplease tell a crew member.\nWenn sie neben einem ausgang sitzen und sie verstehen\nkein Englisch, bitte verständigen sie die flugzeugbesatzung.\nSi vous êtes assis dans une rangée de sièges à côté\nd'une sortie, et vous ne comprenez pas la langue\nanglaise, veuillez le dire à un membre de l'équipage.\nSi usted se encuentra sentado/a en una fila de asientos\na la par de una salida u usted no entiende el idioma\ninglés, favor de avisarle a un tripulante.\nEmergency exits are often heavy, awkward to lift, push,\npull, and maneuver when opening. Because of this, and\nTor the satety ot all passengers, Federal Law requires\nthat we only seat qualified passengers next to exits.\nIf you are sitting in an exit row, you may be asked to\nopen the exit and assist our crew in the event of an\nemergency. Please ask to be reseated if you:\n•Have a physical condition which may not be visible and\nwhich may prevent you from helping.\n•Think you lack the strength, mobility, dexterity, or\nbalance required to open the exit and assist our crew.\n•Do not think you could reach the exit, open it, and get\nout quickly.\n•Believe the physical exertion required to open the exit\nwould injure you.\n•Are hearing impaired and could not hear commands\nfrom our crew.\n•Are not able to give oral commands to others.\n•Do not understand the instructions in this brochure.\n•Have other responsibilities (such as a small child to\ncare for) which would prevent you from helping.\n•Are less than 15 years old.\n•Do not wish to help in this way\nFederal regulations require all passengers,\nregardless of where they are sitting or their physical\ncondition, to review this card, for their safety.\nFollow these instructions, the directions of crew\nmembers, and placarded signs.\nWhen finished reviewing this card please return it\nto the seat pocket for our next customer.",
    "media:imagetext_created": 1787973893,
    "media:imagetext_source": "com.apple.visionkit.VNImageRequestHandler#Version 26.6.2 (Build 25G83)",
    "media:mimetype": "image/tiff",
    "media:properties": {
      "sizes": {
        "b": {
          "extension": "jpg",
          "height": 768,
          "mimetype": "image/jpeg",
          "secret": "PAdwMbYRm52kK9WZbZFkQrlvOL9wQKBx",
          "width": 379
        },
        "c": {
          "extension": "jpg",
          "height": 600,
          "mimetype": "image/jpeg",
          "secret": "PAdwMbYRm52kK9WZbZFkQrlvOL9wQKBx",
          "width": 296
        },
        "dc": {
          "extension": "jpg",
          "height": 600,
          "mimetype": "image/jpeg",
          "secret": "PAdwMbYRm52kK9WZbZFkQrlvOL9wQKBx",
          "width": 296
        },
        "ds": {
          "extension": "jpg",
          "height": 320,
          "mimetype": "image/jpeg",
          "secret": "PAdwMbYRm52kK9WZbZFkQrlvOL9wQKBx",
          "width": 320
        },
        "k": {
          "extension": "jpg",
          "height": 1536,
          "mimetype": "image/jpeg",
          "secret": "PAdwMbYRm52kK9WZbZFkQrlvOL9wQKBx",
          "width": 758
        },
        "n": {
          "extension": "jpg",
          "height": 240,
          "mimetype": "image/jpeg",
          "secret": "PAdwMbYRm52kK9WZbZFkQrlvOL9wQKBx",
          "width": 118
        },
        "o": {
          "extension": "jpg",
          "height": 2000,
          "mimetype": "image/jpeg",
          "secret": "TIYjhMQ0EDYGU9WhecphBwa2nS302DMF",
          "width": 988
        },
        "s": {
          "extension": "jpg",
          "height": 320,
          "mimetype": "image/jpeg",
          "secret": "PAdwMbYRm52kK9WZbZFkQrlvOL9wQKBx",
          "width": 320
        },
        "z": {
          "extension": "jpg",
          "height": 480,
          "mimetype": "image/jpeg",
          "secret": "PAdwMbYRm52kK9WZbZFkQrlvOL9wQKBx",
          "width": 237
        }
      }
    },
    "media:source": "sfomuseum",
    "media:status_id": 1,
    "media:uri_template": "https://static.sfomuseum.org/media/191/462/304/5/1914623045_{secret}_{label}.{extention}",
    "millsfield:aircraft_id": [
      1159289819
    ],
    "millsfield:airline_id": [
      1159285413
    ],
    "millsfield:category_id": 1762671311,
    "millsfield:collection_id": 1511214207,
    "millsfield:company_id": [
      1159293593
    ],
    "millsfield:images_colors": [
      {
        "hex": "#e7e4d7",
        "name": "#e7e4d7",
        "reference": "marekm4"
      },
      {
        "hex": "#dcdcdc",
        "name": "gainsboro",
        "reference": "css4"
      },
      {
        "hex": "#efdecd",
        "name": "Almond",
        "reference": "crayola"
      },
      {
        "hex": "#3f1a42",
        "name": "#3f1a42",
        "reference": "marekm4"
      },
      {
        "hex": "#2f4f4f",
        "name": "darkslategrey",
        "reference": "css4"
      },
      {
        "hex": "#414a4c",
        "name": "Outer Space",
        "reference": "crayola"
      }
    ],
    "millsfield:images_texts": [
      "Safety\nSicherheit\nSécurité\nSeguridad\nB-B7\nUNITED\nIf you are sitting in an exit row\nand you can not read this card\nor can not see well enough to\nfollow these instructions,\nplease tell a crew member.\nWenn sie neben einem ausgang sitzen und sie verstehen\nkein Englisch, bitte verständigen sie die flugzeugbesatzung.\nSi vous êtes assis dans une rangée de sièges à côté\nd'une sortie, et vous ne comprenez pas la langue\nanglaise, veuillez le dire à un membre de l'équipage.\nSi usted se encuentra sentado/a en una fila de asientos\na la par de una salida u usted no entiende el idioma\ninglés, favor de avisarle a un tripulante.\nEmergency exits are often heavy, awkward to lift, push,\npull, and maneuver when opening. Because of this, and\nTor the satety ot all passengers, Federal Law requires\nthat we only seat qualified passengers next to exits.\nIf you are sitting in an exit row, you may be asked to\nopen the exit and assist our crew in the event of an\nemergency. Please ask to be reseated if you:\n•Have a physical condition which may not be visible and\nwhich may prevent you from helping.\n•Think you lack the strength, mobility, dexterity, or\nbalance required to open the exit and assist our crew.\n•Do not think you could reach the exit, open it, and get\nout quickly.\n•Believe the physical exertion required to open the exit\nwould injure you.\n•Are hearing impaired and could not hear commands\nfrom our crew.\n•Are not able to give oral commands to others.\n•Do not understand the instructions in this brochure.\n•Have other responsibilities (such as a small child to\ncare for) which would prevent you from helping.\n•Are less than 15 years old.\n•Do not wish to help in this way\nFederal regulations require all passengers,\nregardless of where they are sitting or their physical\ncondition, to review this card, for their safety.\nFollow these instructions, the directions of crew\nmembers, and placarded signs.\nWhen finished reviewing this card please return it\nto the seat pocket for our next customer.",
      "CA 344 4/91\nPrinted in the U.S.A.",
      "Take-off \u0026 Landing\nStart und landung\nDécollage et atterissage\nAl salir y aterrizar\nBefore opening an exit,\nquickly look through a\nwindow to check outside\nfor the following:\nSmoke\nIf smoke is so thick vou can not see out\ndirect passengers to other exits.\nFire\nIf there is fire outside the aircraft.\ndirect passengers to other exits.\nDebris/\nObstructions\nIf there is metal debris or obstructions,\ndirect passengers to other exits.\nNo smoking\nNicht rauchen\nDéfense de fumer\nNo fumar\nEmergency exits\n#*0\n53W0\n831 47\nNotausgang\nSorties de secours\nSalidas de emergencia\nA\nA\nA\nEXIT\nDirect passengers\naway from aircraft.\nExit\n#*0\n#0\n47\nAusgang\nSortie\nSalida\nB\nOxygen\nNE723\nSauerstoff\nOxygène\nOxigeno\n2\nCheck that the slide has properly\ninflated and is in good condition.\nUse handles to stabilize slide.\nCopvright © Aero Safety Graphics Inc. 1991. All richts reserved"
    ],
    "millsfield:images_texts_ids": [
      1914623045,
      1914623047,
      1914623049
    ],
    "millsfield:similar": {
      "apple/mobileclip_s0": [
        {
          "distance": 0.22179599,
          "id": 1914623051
        },
        {
          "distance": 0.23465031,
          "id": 1931109497
        },
        {
          "distance": 0.23707178,
          "id": 1914623059
        },
        {
          "distance": 0.25600508,
          "id": 1931109575
        },
        {
          "distance": 0.26014954,
          "id": 1914623099
        },
        {
          "distance": 0.27641305,
          "id": 1914623065
        },
        {
          "distance": 0.2934435,
          "id": 1931122651
        },
        {
          "distance": 0.30884293,
          "id": 1931109517
        },
        {
          "distance": 0.31615105,
          "id": 1931109549
        },
        {
          "distance": 0.3184315,
          "id": 1931109523
        }
      ],
      "apple/mobileclip_s1": [
        {
          "distance": 0.17537513,
          "id": 1914623065
        },
        {
          "distance": 0.18535952,
          "id": 1914623059
        },
        {
          "distance": 0.18865599,
          "id": 1931109497
        },
        {
          "distance": 0.19211788,
          "id": 1914623051
        },
        {
          "distance": 0.19338185,
          "id": 1931122651
        },
        {
          "distance": 0.20408869,
          "id": 1931109575
        },
        {
          "distance": 0.20721424,
          "id": 1914623099
        },
        {
          "distance": 0.24501693,
          "id": 1931109563
        },
        {
          "distance": 0.2468459,
          "id": 1931109549
        },
        {
          "distance": 0.2608874,
          "id": 1914623085
        }
      ],
      "apple/mobileclip_s2": [
        {
          "distance": 0.23103558,
          "id": 1914623059
        },
        {
          "distance": 0.23397323,
          "id": 1931122651
        },
        {
          "distance": 0.2359003,
          "id": 1914623065
        },
        {
          "distance": 0.24315341,
          "id": 1914623051
        },
        {
          "distance": 0.28198278,
          "id": 1931109575
        },
        {
          "distance": 0.28206918,
          "id": 1914623099
        },
        {
          "distance": 0.3207606,
          "id": 1931109549
        },
        {
          "distance": 0.32816273,
          "id": 1931109523
        },
        {
          "distance": 0.33101085,
          "id": 1931109517
        },
        {
          "distance": 0.34467232,
          "id": 1931109497
        }
      ]
    },
    "millsfield:subcategory_id": 1511213703,
    "mz:is_current": 1,
    "sfomuseum:filename": "80847.tif",
    "sfomuseum:image_id": 80847,
    "sfomuseum:image_index": 5,
    "sfomuseum:image_type": "studio",
    "sfomuseum:object_id": 70145,
    "sfomuseum:placetype": "image",
    "sfomuseum:primary_image": 1,
    "src:geom": "sfomuseum",
    "wof:belongsto": [
      102527513,
      1159162825,
      102191575,
      85633793,
      102087579,
      85922583,
      1914622329,
      85688637,
      1159160869
    ],
    "wof:country": "XY",
    "wof:created": 1721029278,
    "wof:depicts": [
      1159293593,
      1914622329,
      1159285413,
      1159289819
    ],
    "wof:geomhash": "ed7c2ab3547fc3916b5edc33488deaa7",
    "wof:hierarchy": [
      {
        "building_id": -1,
        "campus_id": 102527513,
        "collection_id": 1159162825,
        "concourse_id": 1159162825,
        "continent_id": 102191575,
        "country_id": 85633793,
        "county_id": 102087579,
        "custom_id": 1914623045,
        "locality_id": 85922583,
        "neighbourhood_id": -1,
        "object_id": 1914622329,
        "region_id": 85688637,
        "wing_id": 1159160869
      }
    ],
    "wof:id": 1914623045,
    "wof:lastmodified": 1788452406,
    "wof:name": "safety information card: United Airlines, Boeing 737",
    "wof:parent_id": 1914622329,
    "wof:placetype": "custom",
    "wof:repo": "sfomuseum-data-media-collection",
    "wof:superseded_by": [],
    "wof:supersedes": []
  },
  "bbox": [
    -122.386472,
    37.616105,
    -122.385834,
    37.616611
  ],
  "geometry": {"type":"Polygon","coordinates":[[[-122.386472,37.616318],[-122.386435,37.616233],[-122.386376,37.616178],[-122.386301,37.616131],[-122.386161,37.616105],[-122.386022,37.616131],[-122.385914,37.616186],[-122.385855,37.616267],[-122.385834,37.616369],[-122.385871,37.616467],[-122.385941,37.616543],[-122.386054,37.616603],[-122.386183,37.616611],[-122.386306,37.616573],[-122.386419,37.616509],[-122.386467,37.616411],[-122.386472,37.616318]]]}
}
