{
  "id": 1527851833,
  "type": "Feature",
  "properties": {
    "date:cessation_lower": "1935-10-05",
    "date:cessation_upper": "1935-10-05",
    "date:inception_lower": "1935-10-05",
    "date:inception_upper": "1935-10-05",
    "edtf:cessation": "1935-10-05",
    "edtf:date": "1935-10-05",
    "edtf:inception": "1935-10-05",
    "geom:area": 0,
    "geom:bbox": "-122.386155,37.616358,-122.386155,37.616358",
    "geom:latitude": 37.616358,
    "geom:longitude": -122.386155,
    "iso:country": "XX",
    "media:fingerprint": "0fa761396444b613f47feba56d6cae3d25237939",
    "media:imagehash_avg": "a:8f80889cbcbc3dff",
    "media:imagehash_diff": "d:6d48497979617963",
    "media:imagetext": "12\nCALLE\nBARFIEL\nCENTS\nGUAM.\nOCT 16\n15 AM\n1935\nGUAN•\na. Ena. Bronson\nsulmerille\nPa\nVIA SAN FRANCISCO. CALIF. AND GUAM\nCAL FRANCE\nGO. CALIE\nOCT\n5\n2-P\nM\nPAN AMERICAN CLIPPER\nWESTBOUND\nFIRST.\nFLIGHT TRANSPACIFIC",
    "media:imagetext_created": 1787953326,
    "media:imagetext_source": "com.apple.visionkit.VNImageRequestHandler#Version 26.6.2 (Build 25G83)",
    "media:medium": "image",
    "media:mimetype": "image/tiff",
    "media:properties": {
      "sizes": {
        "b": {
          "extension": "jpg",
          "height": 575,
          "mimetype": "image/jpeg",
          "secret": "gJkJomgSgcbMXVE5LCsIE5i0GA9EWIPv",
          "width": 1023
        },
        "c": {
          "extension": "jpg",
          "height": 449,
          "mimetype": "image/jpeg",
          "secret": "gJkJomgSgcbMXVE5LCsIE5i0GA9EWIPv",
          "width": 800
        },
        "dc": {
          "extension": "jpg",
          "height": 449,
          "mimetype": "image/jpeg",
          "secret": "gJkJomgSgcbMXVE5LCsIE5i0GA9EWIPv",
          "width": 800
        },
        "ds": {
          "extension": "jpg",
          "height": 320,
          "mimetype": "image/jpeg",
          "secret": "gJkJomgSgcbMXVE5LCsIE5i0GA9EWIPv",
          "width": 320
        },
        "k": {
          "extension": "jpg",
          "height": 1150,
          "mimetype": "image/jpeg",
          "secret": "gJkJomgSgcbMXVE5LCsIE5i0GA9EWIPv",
          "width": 2047
        },
        "n": {
          "extension": "jpg",
          "height": 179,
          "mimetype": "image/jpeg",
          "secret": "gJkJomgSgcbMXVE5LCsIE5i0GA9EWIPv",
          "width": 320
        },
        "o": {
          "extension": "jpg",
          "height": 1892,
          "mimetype": "image/jpeg",
          "secret": "s027DLGO7fCKAwhAr8cJyI0FUxCsH1NY",
          "width": 3367
        },
        "s": {
          "extension": "jpg",
          "height": 320,
          "mimetype": "image/jpeg",
          "secret": "gJkJomgSgcbMXVE5LCsIE5i0GA9EWIPv",
          "width": 320
        },
        "z": {
          "extension": "jpg",
          "height": 359,
          "mimetype": "image/jpeg",
          "secret": "gJkJomgSgcbMXVE5LCsIE5i0GA9EWIPv",
          "width": 640
        }
      }
    },
    "media:source": "sfomuseum",
    "media:status_id": 1,
    "media:uri_template": "https://static.sfomuseum.org/media/152/785/183/3/1527851833_{secret}_{label}.{extension}",
    "millsfield:airline_id": [
      1159284991
    ],
    "millsfield:category_id": 1511214215,
    "millsfield:collection_id": 1511214207,
    "millsfield:company_id": [
      1159286839
    ],
    "millsfield:images_colors": [
      {
        "hex": "#cbbb97",
        "name": "#cbbb97",
        "reference": "marekm4"
      },
      {
        "hex": "#d2b48c",
        "name": "tan",
        "reference": "css4"
      },
      {
        "hex": "#deaa88",
        "name": "Tumbleweed",
        "reference": "crayola"
      },
      {
        "hex": "#5e595d",
        "name": "#5e595d",
        "reference": "marekm4"
      },
      {
        "hex": "#696969",
        "name": "dimgrey",
        "reference": "css4"
      },
      {
        "hex": "#6e5160",
        "name": "Eggplant",
        "reference": "crayola"
      },
      {
        "hex": "#bd9e6c",
        "name": "#bd9e6c",
        "reference": "marekm4"
      },
      {
        "hex": "#bdb76b",
        "name": "darkkhaki",
        "reference": "css4"
      },
      {
        "hex": "#cd9575",
        "name": "Antique Brass",
        "reference": "crayola"
      },
      {
        "hex": "#ba673c",
        "name": "#ba673c",
        "reference": "marekm4"
      },
      {
        "hex": "#cd853f",
        "name": "peru",
        "reference": "css4"
      },
      {
        "hex": "#b4674d",
        "name": "Brown",
        "reference": "crayola"
      },
      {
        "hex": "#67867a",
        "name": "#67867a",
        "reference": "marekm4"
      },
      {
        "hex": "#708090",
        "name": "slategrey",
        "reference": "css4"
      },
      {
        "hex": "#757575",
        "name": "Sonic Silver",
        "reference": "crayola"
      }
    ],
    "millsfield:images_texts": [
      "12\nCALLE\nBARFIEL\nCENTS\nGUAM.\nOCT 16\n15 AM\n1935\nGUAN•\na. Ena. Bronson\nsulmerille\nPa\nVIA SAN FRANCISCO. CALIF. AND GUAM\nCAL FRANCE\nGO. CALIE\nOCT\n5\n2-P\nM\nPAN AMERICAN CLIPPER\nWESTBOUND\nFIRST.\nFLIGHT TRANSPACIFIC"
    ],
    "millsfield:images_texts_ids": [
      1527851833
    ],
    "millsfield:similar": {
      "apple/mobileclip_s0": [
        {
          "distance": 0.57163537,
          "id": 1527851755
        },
        {
          "distance": 0.5821269,
          "id": 1746281319
        },
        {
          "distance": 0.59236985,
          "id": 1527853061
        },
        {
          "distance": 0.5965049,
          "id": 1527834205
        },
        {
          "distance": 0.5986886,
          "id": 1527830053
        },
        {
          "distance": 0.5997178,
          "id": 1527851821
        },
        {
          "distance": 0.60029393,
          "id": 1527831735
        },
        {
          "distance": 0.605128,
          "id": 1913822979
        },
        {
          "distance": 0.6075185,
          "id": 1527818297
        },
        {
          "distance": 0.60962546,
          "id": 1527818365
        }
      ],
      "apple/mobileclip_s1": [
        {
          "distance": 0.42205817,
          "id": 1527831735
        },
        {
          "distance": 0.42234027,
          "id": 1527853061
        },
        {
          "distance": 0.42652044,
          "id": 1746281319
        },
        {
          "distance": 0.4275002,
          "id": 1527820553
        },
        {
          "distance": 0.42852142,
          "id": 1527852449
        },
        {
          "distance": 0.42934877,
          "id": 1527832969
        },
        {
          "distance": 0.4311956,
          "id": 1527829175
        },
        {
          "distance": 0.43147537,
          "id": 1762706755
        },
        {
          "distance": 0.4353176,
          "id": 1527853767
        },
        {
          "distance": 0.43614888,
          "id": 1527832909
        }
      ],
      "apple/mobileclip_s2": [
        {
          "distance": 0.5246963,
          "id": 1527853767
        },
        {
          "distance": 0.526204,
          "id": 1527818365
        },
        {
          "distance": 0.54615015,
          "id": 1746281319
        },
        {
          "distance": 0.5477221,
          "id": 1527852449
        },
        {
          "distance": 0.54846144,
          "id": 1746281415
        },
        {
          "distance": 0.5526434,
          "id": 1527820553
        },
        {
          "distance": 0.5636271,
          "id": 1762710157
        },
        {
          "distance": 0.5645259,
          "id": 1527853501
        },
        {
          "distance": 0.56795985,
          "id": 1527852423
        },
        {
          "distance": 0.56845075,
          "id": 1762706737
        }
      ]
    },
    "millsfield:subcategory_id": 1511213159,
    "mz:hierarchy_label": 1,
    "mz:is_current": -1,
    "sfomuseum:filename": "85198.tif",
    "sfomuseum:image_id": 85198,
    "sfomuseum:image_index": 5,
    "sfomuseum:image_type": "studio",
    "sfomuseum:object_id": 91258,
    "sfomuseum:placetype": "image",
    "sfomuseum:primary_image": 1,
    "src:geom": "sfomuseum",
    "wof:belongsto": [
      1511214215,
      1511931665,
      102527513,
      102191575,
      85633793,
      1511213159,
      85922583,
      102087579,
      1511214277,
      1511214203,
      85688637
    ],
    "wof:breaches": [],
    "wof:country": "XX",
    "wof:created": 1578954418,
    "wof:depicts": [
      1159284991,
      1159286839,
      1511931665
    ],
    "wof:geomhash": "bd906905ce4be6c0651c90b0fc24804c",
    "wof:hierarchy": [
      {
        "arcade_id": 1511213159,
        "building_id": 1511214277,
        "campus_id": 102527513,
        "concourse_id": 1511214215,
        "continent_id": 102191575,
        "country_id": 85633793,
        "county_id": 102087579,
        "custom_id": 1527851833,
        "image_id": 1527851833,
        "locality_id": 85922583,
        "media_id": 1527851833,
        "neighbourhood_id": -1,
        "region_id": 85688637,
        "venue_id": 1511931665,
        "wing_id": 1511214203
      }
    ],
    "wof:id": 1527851833,
    "wof:lastmodified": 1788450194,
    "wof:name": "airmail flight cover: Pan American Airways, Fourth Pacific survey flight, San Francisco to Guam",
    "wof:parent_id": 1511931665,
    "wof:placetype": "custom",
    "wof:placetype_alt": [
      "image"
    ],
    "wof:repo": "sfomuseum-data-media-collection",
    "wof:superseded_by": [],
    "wof:supersedes": [],
    "wof:tags": []
  },
  "bbox": [
    -122.386155,
    37.616358,
    -122.386155,
    37.616358
  ],
  "geometry": {"type":"Point","coordinates":[-122.386155,37.616358]}
}
