{
  "id": 1763443283,
  "type": "Feature",
  "properties": {
    "date:cessation_lower": "2001-01-01",
    "date:cessation_upper": "2001-12-31",
    "date:inception_lower": "2001-01-01",
    "date:inception_upper": "2001-12-31",
    "edtf:cessation": "2001",
    "edtf:date": "2001",
    "edtf:inception": "2001",
    "geom:area": 0,
    "geom:bbox": "-80.138518,26.074860,-80.138518,26.074860",
    "geom:latitude": 26.07486,
    "geom:longitude": -80.138518,
    "iso:country": "US",
    "media:fingerprint": "b757a4116fb5a5ea168a1e4d3df4dc12aa2a33e4",
    "media:imagehash_avg": "a:007e7e7e7c67ff46",
    "media:imagehash_diff": "d:c0c0c0a0c9ce8e9c",
    "media:imagetext": "MIDWEST EXPRESS",
    "media:imagetext_created": 1787963039,
    "media:imagetext_source": "com.apple.visionkit.VNImageRequestHandler#Version 26.6.2 (Build 25G83)",
    "media:mimetype": "image/tiff",
    "media:properties": {
      "sizes": {
        "b": {
          "extension": "jpg",
          "height": 706,
          "mimetype": "image/jpeg",
          "secret": "elrsvDkN1m1yMmlOgFHiXAv47u37ESIK",
          "width": 1024
        },
        "c": {
          "extension": "jpg",
          "height": 552,
          "mimetype": "image/jpeg",
          "secret": "elrsvDkN1m1yMmlOgFHiXAv47u37ESIK",
          "width": 800
        },
        "dc": {
          "extension": "jpg",
          "height": 552,
          "mimetype": "image/jpeg",
          "secret": "elrsvDkN1m1yMmlOgFHiXAv47u37ESIK",
          "width": 800
        },
        "ds": {
          "extension": "jpg",
          "height": 320,
          "mimetype": "image/jpeg",
          "secret": "elrsvDkN1m1yMmlOgFHiXAv47u37ESIK",
          "width": 320
        },
        "k": {
          "extension": "jpg",
          "height": 1413,
          "mimetype": "image/jpeg",
          "secret": "elrsvDkN1m1yMmlOgFHiXAv47u37ESIK",
          "width": 2048
        },
        "n": {
          "extension": "jpg",
          "height": 220,
          "mimetype": "image/jpeg",
          "secret": "elrsvDkN1m1yMmlOgFHiXAv47u37ESIK",
          "width": 320
        },
        "o": {
          "extension": "jpg",
          "height": 577,
          "mimetype": "image/jpeg",
          "secret": "yzGeDMXtisDStBY8rvmhn2wGlGo94CDi",
          "width": 836
        },
        "s": {
          "extension": "jpg",
          "height": 320,
          "mimetype": "image/jpeg",
          "secret": "elrsvDkN1m1yMmlOgFHiXAv47u37ESIK",
          "width": 320
        },
        "z": {
          "extension": "jpg",
          "height": 441,
          "mimetype": "image/jpeg",
          "secret": "elrsvDkN1m1yMmlOgFHiXAv47u37ESIK",
          "width": 640
        }
      }
    },
    "media:source": "sfomuseum",
    "media:status_id": 1,
    "media:uri_template": "https://static.sfomuseum.org/media/176/344/328/3/1763443283_{secret}_{label}.{extension}",
    "millsfield:aircraft_id": [
      1159291285
    ],
    "millsfield:airline_id": [
      1159284803
    ],
    "millsfield:airport_id": [
      102530841
    ],
    "millsfield:category_id": 1511214209,
    "millsfield:collection_id": 1511214207,
    "millsfield:company_id": [
      1159293561
    ],
    "millsfield:images_colors": [
      {
        "hex": "#6b95f0",
        "name": "#6b95f0",
        "reference": "marekm4"
      },
      {
        "hex": "#6495ed",
        "name": "cornflowerblue",
        "reference": "css4"
      },
      {
        "hex": "#6699cc",
        "name": "Blue Gray",
        "reference": "crayola"
      },
      {
        "hex": "#97b4f9",
        "name": "#97b4f9",
        "reference": "marekm4"
      },
      {
        "hex": "#87cefa",
        "name": "lightskyblue",
        "reference": "css4"
      },
      {
        "hex": "#9aceeb",
        "name": "Cornflower",
        "reference": "crayola"
      },
      {
        "hex": "#181d30",
        "name": "#181d30",
        "reference": "marekm4"
      },
      {
        "hex": "#000000",
        "name": "black",
        "reference": "css4"
      },
      {
        "hex": "#000000",
        "name": "Black",
        "reference": "crayola"
      },
      {
        "hex": "#5270be",
        "name": "#5270be",
        "reference": "marekm4"
      },
      {
        "hex": "#4682b4",
        "name": "steelblue",
        "reference": "css4"
      },
      {
        "hex": "#5d76cb",
        "name": "Indigo",
        "reference": "crayola"
      }
    ],
    "millsfield:images_texts": [
      "MIDWEST EXPRESS"
    ],
    "millsfield:images_texts_ids": [
      1763443283
    ],
    "millsfield:similar": {
      "apple/mobileclip_s0": [
        {
          "distance": 0.48048484,
          "id": 1763443073
        },
        {
          "distance": 0.5054387,
          "id": 1762898241
        },
        {
          "distance": 0.5136019,
          "id": 1763445005
        },
        {
          "distance": 0.51870877,
          "id": 1763389177
        },
        {
          "distance": 0.51941675,
          "id": 1762898223
        },
        {
          "distance": 0.52344126,
          "id": 1763442069
        },
        {
          "distance": 0.5254991,
          "id": 1913663261
        },
        {
          "distance": 0.5262523,
          "id": 1763388795
        },
        {
          "distance": 0.52919066,
          "id": 1763442245
        },
        {
          "distance": 0.5331402,
          "id": 1763442723
        }
      ],
      "apple/mobileclip_s1": [
        {
          "distance": 0.39090398,
          "id": 1762898241
        },
        {
          "distance": 0.40486732,
          "id": 1763442825
        },
        {
          "distance": 0.41617978,
          "id": 1762899263
        },
        {
          "distance": 0.41729498,
          "id": 1763389091
        },
        {
          "distance": 0.41856483,
          "id": 1763442209
        },
        {
          "distance": 0.41911054,
          "id": 1763443073
        },
        {
          "distance": 0.42522544,
          "id": 1763442069
        },
        {
          "distance": 0.42566073,
          "id": 1763388795
        },
        {
          "distance": 0.4264333,
          "id": 1763442617
        },
        {
          "distance": 0.42728785,
          "id": 1763442723
        }
      ],
      "apple/mobileclip_s2": [
        {
          "distance": 0.4913258,
          "id": 1762898241
        },
        {
          "distance": 0.50355875,
          "id": 1763443073
        },
        {
          "distance": 0.52935404,
          "id": 1763442381
        },
        {
          "distance": 0.5477055,
          "id": 1763445035
        },
        {
          "distance": 0.55398715,
          "id": 1763443227
        },
        {
          "distance": 0.5741368,
          "id": 1763445241
        },
        {
          "distance": 0.5754041,
          "id": 1763442069
        },
        {
          "distance": 0.5763695,
          "id": 1763389099
        },
        {
          "distance": 0.5811282,
          "id": 1763442617
        },
        {
          "distance": 0.5825773,
          "id": 1763388995
        }
      ]
    },
    "millsfield:subcategory_id": 1511213401,
    "mz:is_current": 1,
    "sfomuseum:filename": "126250.tif",
    "sfomuseum:image_id": 126250,
    "sfomuseum:image_index": 5,
    "sfomuseum:image_type": "studio",
    "sfomuseum:object_id": 77878,
    "sfomuseum:placetype": "image",
    "sfomuseum:primary_image": 1,
    "src:geom": "sfomuseum",
    "wof:belongsto": [
      102527513,
      1159162825,
      102191575,
      85633793,
      102087579,
      85922583,
      1511926471,
      85688637,
      1159160869,
      102530841,
      102084727,
      85932397,
      85829891,
      85688651
    ],
    "wof:country": "US",
    "wof:created": 1649404532,
    "wof:depicts": [
      102530841,
      1159291285,
      1159293561,
      1159288163,
      1511926471,
      1159284803
    ],
    "wof:geomhash": "02b54ebffcdb2c149f38df4438aa3915",
    "wof:hierarchy": [
      {
        "building_id": -1,
        "campus_id": 102527513,
        "collection_id": 1159162825,
        "concourse_id": 1159162825,
        "continent_id": 102191575,
        "country_id": 85633793,
        "county_id": 102087579,
        "custom_id": 1763443283,
        "image_id": 1763443283,
        "locality_id": 85922583,
        "neighbourhood_id": -1,
        "object_id": 1511926471,
        "region_id": 85688637,
        "wing_id": 1159160869
      },
      {
        "campus_id": 102530841,
        "continent_id": 102191575,
        "country_id": 85633793,
        "county_id": 102084727,
        "custom_id": 1763443283,
        "image_id": 1763443283,
        "locality_id": 85932397,
        "neighbourhood_id": 85829891,
        "object_id": 1511926471,
        "region_id": 85688651
      }
    ],
    "wof:id": 1763443283,
    "wof:lastmodified": 1788451172,
    "wof:name": "slide: Midwest Express, McDonnell Douglas MD-80, Fort Lauderdale-Hollywood International Airport (FLL)",
    "wof:parent_id": 1511926471,
    "wof:placetype": "custom",
    "wof:placetype_alt": [
      "image"
    ],
    "wof:repo": "sfomuseum-data-media-collection",
    "wof:superseded_by": [],
    "wof:supersedes": []
  },
  "bbox": [
    -80.138518,
    26.07486,
    -80.138518,
    26.07486
  ],
  "geometry": {"type":"MultiPoint","coordinates":[[-80.138518,26.07486]]}
}
