{
  "id": 1527820787,
  "type": "Feature",
  "properties": {
    "date:cessation_lower": "1959-01-01",
    "date:cessation_upper": "1959-12-31",
    "date:inception_lower": "1959-01-01",
    "date:inception_upper": "1959-12-31",
    "edtf:cessation": "1959",
    "edtf:date": "1959",
    "edtf:inception": "1959",
    "geom:area": 0,
    "geom:bbox": "-122.386155,37.616358,-122.386155,37.616358",
    "geom:latitude": 37.616358,
    "geom:longitude": -122.386155,
    "iso:country": "XX",
    "media:fingerprint": "2263e135730e2cb943c9c9e67f556b9c7e4c0f76",
    "media:imagehash_avg": "a:8181ffff07018080",
    "media:imagehash_diff": "d:2f3719c91f172767",
    "media:imagetext": "FACTS\nabout the new\nJET\nFLAGSHIPS\nAMERICA\nAMERICAN AIRLINES",
    "media:imagetext_created": 1787947990,
    "media:imagetext_source": "com.apple.visionkit.VNImageRequestHandler#Version 26.6.2 (Build 25G83)",
    "media:medium": "image",
    "media:mimetype": "image/jpeg",
    "media:properties": {
      "sizes": {
        "b": {
          "extension": "jpg",
          "height": 768,
          "mimetype": "image/jpeg",
          "secret": "erbdR2ZF0B4q8tMN4nJAYlgFwihlOliQ",
          "width": 357
        },
        "c": {
          "extension": "jpg",
          "height": 600,
          "mimetype": "image/jpeg",
          "secret": "erbdR2ZF0B4q8tMN4nJAYlgFwihlOliQ",
          "width": 279
        },
        "dc": {
          "extension": "jpg",
          "height": 600,
          "mimetype": "image/jpeg",
          "secret": "erbdR2ZF0B4q8tMN4nJAYlgFwihlOliQ",
          "width": 279
        },
        "ds": {
          "extension": "jpg",
          "height": 320,
          "mimetype": "image/jpeg",
          "secret": "erbdR2ZF0B4q8tMN4nJAYlgFwihlOliQ",
          "width": 320
        },
        "k": {
          "extension": "jpg",
          "height": 1536,
          "mimetype": "image/jpeg",
          "secret": "erbdR2ZF0B4q8tMN4nJAYlgFwihlOliQ",
          "width": 715
        },
        "n": {
          "extension": "jpg",
          "height": 240,
          "mimetype": "image/jpeg",
          "secret": "erbdR2ZF0B4q8tMN4nJAYlgFwihlOliQ",
          "width": 111
        },
        "o": {
          "extension": "jpg",
          "height": 2647,
          "mimetype": "image/jpeg",
          "secret": "7vGmeJjN6nW0SdyUDEzs3Jl4Ns3VCRCI",
          "width": 1233
        },
        "s": {
          "extension": "jpg",
          "height": 320,
          "mimetype": "image/jpeg",
          "secret": "erbdR2ZF0B4q8tMN4nJAYlgFwihlOliQ",
          "width": 320
        },
        "z": {
          "extension": "jpg",
          "height": 480,
          "mimetype": "image/jpeg",
          "secret": "erbdR2ZF0B4q8tMN4nJAYlgFwihlOliQ",
          "width": 223
        }
      }
    },
    "media:source": "sfomuseum",
    "media:status_id": 1,
    "media:uri_template": "https://static.sfomuseum.org/media/152/782/078/7/1527820787_{secret}_{label}.{extension}",
    "millsfield:aircraft_id": [
      1159289653
    ],
    "millsfield:airline_id": [
      1159283849
    ],
    "millsfield:category_id": 1763416397,
    "millsfield:collection_id": 1511214207,
    "millsfield:company_id": [
      1159293593
    ],
    "millsfield:images_colors": [
      {
        "hex": "#c7ccd4",
        "name": "#c7ccd4",
        "reference": "marekm4"
      },
      {
        "hex": "#d3d3d3",
        "name": "lightgrey",
        "reference": "css4"
      },
      {
        "hex": "#c5d0e6",
        "name": "Periwinkle",
        "reference": "crayola"
      },
      {
        "hex": "#2f2e3a",
        "name": "#2f2e3a",
        "reference": "marekm4"
      },
      {
        "hex": "#2f4f4f",
        "name": "darkslategrey",
        "reference": "css4"
      },
      {
        "hex": "#414a4c",
        "name": "Outer Space",
        "reference": "crayola"
      },
      {
        "hex": "#4e8ed5",
        "name": "#4e8ed5",
        "reference": "marekm4"
      },
      {
        "hex": "#6495ed",
        "name": "cornflowerblue",
        "reference": "css4"
      },
      {
        "hex": "#6699cc",
        "name": "Blue Gray",
        "reference": "crayola"
      },
      {
        "hex": "#c15d4c",
        "name": "#c15d4c",
        "reference": "marekm4"
      },
      {
        "hex": "#cd5c5c",
        "name": "indianred",
        "reference": "css4"
      },
      {
        "hex": "#bc5d58",
        "name": "Chestnut",
        "reference": "crayola"
      },
      {
        "hex": "#ba9072",
        "name": "#ba9072",
        "reference": "marekm4"
      },
      {
        "hex": "#bc8f8f",
        "name": "rosybrown",
        "reference": "css4"
      },
      {
        "hex": "#cd9575",
        "name": "Antique Brass",
        "reference": "crayola"
      }
    ],
    "millsfield:images_texts": [
      "FACTS\nabout the new\nJET\nFLAGSHIPS\nAMERICA\nAMERICAN AIRLINES"
    ],
    "millsfield:images_texts_ids": [
      1527820787
    ],
    "millsfield:similar": {
      "apple/mobileclip_s0": [
        {
          "distance": 0.69812965,
          "id": 1762705633
        },
        {
          "distance": 0.7025887,
          "id": 1527837283
        },
        {
          "distance": 0.71626955,
          "id": 1863471099
        },
        {
          "distance": 0.7189131,
          "id": 1763196689
        },
        {
          "distance": 0.7361086,
          "id": 1846756211
        },
        {
          "distance": 0.73772174,
          "id": 1527830249
        },
        {
          "distance": 0.7377576,
          "id": 1930979779
        },
        {
          "distance": 0.7384799,
          "id": 1762702891
        },
        {
          "distance": 0.73929167,
          "id": 1527843363
        },
        {
          "distance": 0.74109024,
          "id": 1729566599
        }
      ],
      "apple/mobileclip_s1": [
        {
          "distance": 0.5065704,
          "id": 1763196125
        },
        {
          "distance": 0.50863373,
          "id": 1527838007
        },
        {
          "distance": 0.5110667,
          "id": 1527838003
        },
        {
          "distance": 0.5120188,
          "id": 1527837991
        },
        {
          "distance": 0.5121878,
          "id": 1527838005
        },
        {
          "distance": 0.5125168,
          "id": 1527837983
        },
        {
          "distance": 0.5211434,
          "id": 1527838001
        },
        {
          "distance": 0.5213536,
          "id": 1527858623
        },
        {
          "distance": 0.5215575,
          "id": 1762698449
        },
        {
          "distance": 0.5238165,
          "id": 1527820327
        }
      ],
      "apple/mobileclip_s2": [
        {
          "distance": 0.69515693,
          "id": 1779436499
        },
        {
          "distance": 0.72859824,
          "id": 1964107115
        },
        {
          "distance": 0.72990346,
          "id": 1763196125
        },
        {
          "distance": 0.73706955,
          "id": 1762893601
        },
        {
          "distance": 0.7379932,
          "id": 1762710951
        },
        {
          "distance": 0.73940843,
          "id": 1527819469
        },
        {
          "distance": 0.74153304,
          "id": 1527846715
        },
        {
          "distance": 0.7417851,
          "id": 1527837983
        },
        {
          "distance": 0.7444352,
          "id": 1796509559
        },
        {
          "distance": 0.74570847,
          "id": 1931109473
        }
      ]
    },
    "millsfield:subcategory_id": 1511213631,
    "mz:hierarchy_label": 1,
    "mz:is_current": -1,
    "sfomuseum:filename": "33058.jpg",
    "sfomuseum:image_id": 33058,
    "sfomuseum:image_index": 5,
    "sfomuseum:image_type": "studio",
    "sfomuseum:object_id": 59627,
    "sfomuseum:placetype": "image",
    "sfomuseum:primary_image": 1,
    "src:geom": "sfomuseum",
    "wof:belongsto": [
      1511214205,
      1511921183,
      102527513,
      102191575,
      85633793,
      1511213631,
      85922583,
      102087579,
      1511214277,
      1511214203,
      85688637
    ],
    "wof:breaches": [],
    "wof:country": "XX",
    "wof:created": 1578949474,
    "wof:depicts": [
      1159289653,
      1159293593,
      1159283849,
      1511921183,
      1360700619
    ],
    "wof:geomhash": "bd906905ce4be6c0651c90b0fc24804c",
    "wof:hierarchy": [
      {
        "arcade_id": 1511213631,
        "building_id": 1511214277,
        "campus_id": 102527513,
        "concourse_id": 1511214205,
        "continent_id": 102191575,
        "country_id": 85633793,
        "county_id": 102087579,
        "custom_id": 1527820787,
        "image_id": 1527820787,
        "locality_id": 85922583,
        "media_id": 1527820787,
        "neighbourhood_id": -1,
        "region_id": 85688637,
        "venue_id": 1511921183,
        "wing_id": 1511214203
      }
    ],
    "wof:id": 1527820787,
    "wof:lastmodified": 1788449740,
    "wof:name": "brochure: American Airlines, Boeing 707",
    "wof:parent_id": 1511921183,
    "wof:placetype": "custom",
    "wof:placetype_alt": [
      "image"
    ],
    "wof:repo": "sfomuseum-data-media-collection",
    "wof:superseded_by": [],
    "wof:supersedes": [],
    "wof:tags": []
  },
  "bbox": [
    -122.386155,
    37.616358,
    -122.386155,
    37.616358
  ],
  "geometry": {"type":"Point","coordinates":[-122.386155,37.616358]}
}
