{
  "id": 1762705801,
  "type": "Feature",
  "properties": {
    "date:cessation_lower": "1970-01-01",
    "date:cessation_upper": "1979-12-31",
    "date:inception_lower": "1970-01-01",
    "date:inception_upper": "1979-12-31",
    "edtf:cessation": "197X",
    "edtf:inception": "197X",
    "geom:area": 2.477324999997507e-7,
    "geom:bbox": "-122.386472,37.616105,-122.385834,37.616611",
    "geom:latitude": 37.61635756125121,
    "geom:longitude": -122.38615532866096,
    "media:fingerprint": "e8bafbae92377f3227d9fa4fd9ce09a3596dfe97",
    "media:imagehash_avg": "a:a2e2e7edccee868c",
    "media:imagehash_diff": "d:4c4c0d0c98183c31",
    "media:imagetext": "B-727 JET COURIER\nPOST CARD\nROUTE OF THE COURIERS\nJAPAN AIR LINES\nPRINTED IN JAPAN\n2015166.0824",
    "media:imagetext_created": 1787956985,
    "media:imagetext_source": "com.apple.visionkit.VNImageRequestHandler#Version 26.6.2 (Build 25G83)",
    "media:mimetype": "image/tiff",
    "media:properties": {
      "sizes": {
        "b": {
          "extension": "jpg",
          "height": 742,
          "mimetype": "image/jpeg",
          "secret": "1HoVr3LHEuWRn2lmiU8zEKyDHKQdCZch",
          "width": 1023
        },
        "c": {
          "extension": "jpg",
          "height": 580,
          "mimetype": "image/jpeg",
          "secret": "1HoVr3LHEuWRn2lmiU8zEKyDHKQdCZch",
          "width": 800
        },
        "dc": {
          "extension": "jpg",
          "height": 580,
          "mimetype": "image/jpeg",
          "secret": "1HoVr3LHEuWRn2lmiU8zEKyDHKQdCZch",
          "width": 800
        },
        "ds": {
          "extension": "jpg",
          "height": 320,
          "mimetype": "image/jpeg",
          "secret": "1HoVr3LHEuWRn2lmiU8zEKyDHKQdCZch",
          "width": 320
        },
        "k": {
          "extension": "jpg",
          "height": 1484,
          "mimetype": "image/jpeg",
          "secret": "1HoVr3LHEuWRn2lmiU8zEKyDHKQdCZch",
          "width": 2047
        },
        "n": {
          "extension": "jpg",
          "height": 232,
          "mimetype": "image/jpeg",
          "secret": "1HoVr3LHEuWRn2lmiU8zEKyDHKQdCZch",
          "width": 320
        },
        "o": {
          "extension": "jpg",
          "height": 1271,
          "mimetype": "image/jpeg",
          "secret": "LBI1JKbmK94J43FdLSvD2vRpLmwLwyYr",
          "width": 1753
        },
        "s": {
          "extension": "jpg",
          "height": 320,
          "mimetype": "image/jpeg",
          "secret": "1HoVr3LHEuWRn2lmiU8zEKyDHKQdCZch",
          "width": 320
        },
        "z": {
          "extension": "jpg",
          "height": 464,
          "mimetype": "image/jpeg",
          "secret": "1HoVr3LHEuWRn2lmiU8zEKyDHKQdCZch",
          "width": 640
        }
      }
    },
    "media:source": "sfomuseum",
    "media:status_id": 1,
    "media:uri_template": "https://static.sfomuseum.org/media/176/270/580/1/1762705801_{secret}_{label}.{extension}",
    "millsfield:aircraft_id": [
      1159289759
    ],
    "millsfield:airline_id": [
      1159285785
    ],
    "millsfield:category_id": 1511214215,
    "millsfield:collection_id": 1511214207,
    "millsfield:company_id": [
      1159293593
    ],
    "millsfield:images_colors": [
      {
        "hex": "#f3e9d5",
        "name": "#f3e9d5",
        "reference": "marekm4"
      },
      {
        "hex": "#faebd7",
        "name": "antiquewhite",
        "reference": "css4"
      },
      {
        "hex": "#efdecd",
        "name": "Almond",
        "reference": "crayola"
      }
    ],
    "millsfield:images_texts": [
      "B\nAN\nJAPAN\nA",
      "B-727 JET COURIER\nPOST CARD\nROUTE OF THE COURIERS\nJAPAN AIR LINES\nPRINTED IN JAPAN\n2015166.0824"
    ],
    "millsfield:images_texts_ids": [
      1762705799,
      1762705801
    ],
    "millsfield:similar": {
      "apple/mobileclip_s0": [
        {
          "distance": 0.28941607,
          "id": 1762705819
        },
        {
          "distance": 0.3044574,
          "id": 1762706129
        },
        {
          "distance": 0.30992535,
          "id": 1762706125
        },
        {
          "distance": 0.3172759,
          "id": 1762706057
        },
        {
          "distance": 0.3190776,
          "id": 1762705815
        },
        {
          "distance": 0.32119426,
          "id": 1762705805
        },
        {
          "distance": 0.32483384,
          "id": 1762705823
        },
        {
          "distance": 0.36222106,
          "id": 1762706053
        },
        {
          "distance": 0.3899148,
          "id": 1762705811
        },
        {
          "distance": 0.41518942,
          "id": 1762705729
        }
      ],
      "apple/mobileclip_s1": [
        {
          "distance": 0.18177013,
          "id": 1762705805
        },
        {
          "distance": 0.19536097,
          "id": 1762705815
        },
        {
          "distance": 0.20416765,
          "id": 1762706053
        },
        {
          "distance": 0.21034022,
          "id": 1762706057
        },
        {
          "distance": 0.21108778,
          "id": 1762705811
        },
        {
          "distance": 0.23677172,
          "id": 1762706125
        },
        {
          "distance": 0.23820892,
          "id": 1762705823
        },
        {
          "distance": 0.2403109,
          "id": 1762705819
        },
        {
          "distance": 0.25653958,
          "id": 1762706129
        },
        {
          "distance": 0.26021525,
          "id": 1762705751
        }
      ],
      "apple/mobileclip_s2": [
        {
          "distance": 0.29875138,
          "id": 1762705815
        },
        {
          "distance": 0.3198278,
          "id": 1762705805
        },
        {
          "distance": 0.32432315,
          "id": 1762706129
        },
        {
          "distance": 0.32498506,
          "id": 1762705823
        },
        {
          "distance": 0.3292316,
          "id": 1762705811
        },
        {
          "distance": 0.36714062,
          "id": 1762705819
        },
        {
          "distance": 0.37605238,
          "id": 1762706057
        },
        {
          "distance": 0.38400644,
          "id": 1762706125
        },
        {
          "distance": 0.38603526,
          "id": 1762706053
        },
        {
          "distance": 0.40898195,
          "id": 1762705751
        }
      ]
    },
    "millsfield:subcategory_id": 1511213363,
    "mz:is_current": 1,
    "sfomuseum:filename": "2015.166.0824_bk.tif",
    "sfomuseum:image_id": 153803,
    "sfomuseum:image_index": 5,
    "sfomuseum:image_type": "studio",
    "sfomuseum:object_id": 180441,
    "sfomuseum:placetype": "image",
    "sfomuseum:primary_image": 0,
    "src:geom": "sfomuseum",
    "wof:belongsto": [
      102527513,
      1159162825,
      102191575,
      85633793,
      102087579,
      85922583,
      1762693275,
      85688637,
      1159160869
    ],
    "wof:country": "XY",
    "wof:created": 1641348494,
    "wof:depicts": [
      1159288505,
      1159289759,
      1159293593,
      1762693275,
      1159285785
    ],
    "wof:geomhash": "ed7c2ab3547fc3916b5edc33488deaa7",
    "wof:hierarchy": [
      {
        "building_id": -1,
        "campus_id": 102527513,
        "collection_id": 1159162825,
        "concourse_id": 1159162825,
        "continent_id": 102191575,
        "country_id": 85633793,
        "county_id": 102087579,
        "custom_id": 1762705801,
        "image_id": 1762705801,
        "locality_id": 85922583,
        "neighbourhood_id": -1,
        "object_id": 1762693275,
        "region_id": 85688637,
        "wing_id": 1159160869
      }
    ],
    "wof:id": 1762705801,
    "wof:lastmodified": 1788450540,
    "wof:name": "postcard: JAL (Japan Air Lines), Boeing 727",
    "wof:parent_id": 1762693275,
    "wof:placetype": "custom",
    "wof:placetype_alt": [
      "image"
    ],
    "wof:repo": "sfomuseum-data-media-collection",
    "wof:superseded_by": [],
    "wof:supersedes": []
  },
  "bbox": [
    -122.386472,
    37.616105,
    -122.385834,
    37.616611
  ],
  "geometry": {"type":"Polygon","coordinates":[[[-122.386472,37.616318],[-122.386435,37.616233],[-122.386376,37.616178],[-122.386301,37.616131],[-122.386161,37.616105],[-122.386022,37.616131],[-122.385914,37.616186],[-122.385855,37.616267],[-122.385834,37.616369],[-122.385871,37.616467],[-122.385941,37.616543],[-122.386054,37.616603],[-122.386183,37.616611],[-122.386306,37.616573],[-122.386419,37.616509],[-122.386467,37.616411],[-122.386472,37.616318]]]}
}
