{
  "id": 1762707471,
  "type": "Feature",
  "properties": {
    "date:cessation_lower": "1950-01-01",
    "date:cessation_upper": "1959-12-31",
    "date:inception_lower": "1950-01-01",
    "date:inception_upper": "1959-12-31",
    "edtf:cessation": "195X",
    "edtf:inception": "195X",
    "geom:area": 2.477324999997507e-7,
    "geom:bbox": "-122.386472,37.616105,-122.385834,37.616611",
    "geom:latitude": 37.61635756125121,
    "geom:longitude": -122.38615532866096,
    "media:fingerprint": "1a3d3ad146a7fecdb2d841c7255328528e61d121",
    "media:imagehash_avg": "a:1f1ffffffff0ffff",
    "media:imagehash_diff": "d:7979482c69654149",
    "media:imagetext": "SWISSAIR\nDOUGLAS DC-6B\n150\nJEAN GABERELL AG. THALWIL",
    "media:imagetext_created": 1787957227,
    "media:imagetext_source": "com.apple.visionkit.VNImageRequestHandler#Version 26.6.2 (Build 25G83)",
    "media:mimetype": "image/tiff",
    "media:properties": {
      "sizes": {
        "b": {
          "extension": "jpg",
          "height": 666,
          "mimetype": "image/jpeg",
          "secret": "B1tICv2EDaGHpGxTQ6SZhlCB9Oi3ktpr",
          "width": 1024
        },
        "c": {
          "extension": "jpg",
          "height": 520,
          "mimetype": "image/jpeg",
          "secret": "B1tICv2EDaGHpGxTQ6SZhlCB9Oi3ktpr",
          "width": 800
        },
        "dc": {
          "extension": "jpg",
          "height": 520,
          "mimetype": "image/jpeg",
          "secret": "B1tICv2EDaGHpGxTQ6SZhlCB9Oi3ktpr",
          "width": 800
        },
        "ds": {
          "extension": "jpg",
          "height": 320,
          "mimetype": "image/jpeg",
          "secret": "B1tICv2EDaGHpGxTQ6SZhlCB9Oi3ktpr",
          "width": 320
        },
        "k": {
          "extension": "jpg",
          "height": 1332,
          "mimetype": "image/jpeg",
          "secret": "B1tICv2EDaGHpGxTQ6SZhlCB9Oi3ktpr",
          "width": 2048
        },
        "n": {
          "extension": "jpg",
          "height": 208,
          "mimetype": "image/jpeg",
          "secret": "B1tICv2EDaGHpGxTQ6SZhlCB9Oi3ktpr",
          "width": 320
        },
        "o": {
          "extension": "jpg",
          "height": 1107,
          "mimetype": "image/jpeg",
          "secret": "yAg1XOJ09pvWTP1F7asFQpUI20JyQeXg",
          "width": 1702
        },
        "s": {
          "extension": "jpg",
          "height": 320,
          "mimetype": "image/jpeg",
          "secret": "B1tICv2EDaGHpGxTQ6SZhlCB9Oi3ktpr",
          "width": 320
        },
        "z": {
          "extension": "jpg",
          "height": 416,
          "mimetype": "image/jpeg",
          "secret": "B1tICv2EDaGHpGxTQ6SZhlCB9Oi3ktpr",
          "width": 640
        }
      }
    },
    "media:source": "sfomuseum",
    "media:status_id": 1,
    "media:uri_template": "https://static.sfomuseum.org/media/176/270/747/1/1762707471_{secret}_{label}.{extension}",
    "millsfield:aircraft_id": [
      1159290431
    ],
    "millsfield:airline_id": [
      1159285589
    ],
    "millsfield:category_id": 1511214215,
    "millsfield:collection_id": 1511214207,
    "millsfield:company_id": [
      1159290427
    ],
    "millsfield:images_colors": [
      {
        "hex": "#f2e8c9",
        "name": "#f2e8c9",
        "reference": "marekm4"
      },
      {
        "hex": "#ffebcd",
        "name": "blanchedalmond",
        "reference": "css4"
      },
      {
        "hex": "#efdecd",
        "name": "Almond",
        "reference": "crayola"
      },
      {
        "hex": "#201d13",
        "name": "#201d13",
        "reference": "marekm4"
      },
      {
        "hex": "#000000",
        "name": "black",
        "reference": "css4"
      },
      {
        "hex": "#000000",
        "name": "Black",
        "reference": "crayola"
      }
    ],
    "millsfield:images_texts": [
      "AIR\nLINES\nHB-IBA:",
      "SWISSAIR\nDOUGLAS DC-6B\n150\nJEAN GABERELL AG. THALWIL"
    ],
    "millsfield:images_texts_ids": [
      1762707469,
      1762707471
    ],
    "millsfield:similar": {
      "apple/mobileclip_s0": [
        {
          "distance": 0.35276696,
          "id": 1762707467
        },
        {
          "distance": 0.44578412,
          "id": 1762707475
        },
        {
          "distance": 0.51444083,
          "id": 1762708655
        },
        {
          "distance": 0.52471983,
          "id": 1762705347
        },
        {
          "distance": 0.52648276,
          "id": 1762708997
        },
        {
          "distance": 0.5329354,
          "id": 1762702585
        },
        {
          "distance": 0.5388535,
          "id": 1762705217
        },
        {
          "distance": 0.54970396,
          "id": 1762704231
        },
        {
          "distance": 0.55444926,
          "id": 1762710679
        },
        {
          "distance": 0.55920774,
          "id": 1762702581
        }
      ],
      "apple/mobileclip_s1": [
        {
          "distance": 0.15977469,
          "id": 1762707467
        },
        {
          "distance": 0.37679088,
          "id": 1762707475
        },
        {
          "distance": 0.4030227,
          "id": 1762705347
        },
        {
          "distance": 0.40377957,
          "id": 1762713689
        },
        {
          "distance": 0.40998337,
          "id": 1762707453
        },
        {
          "distance": 0.41208088,
          "id": 1762707461
        },
        {
          "distance": 0.42338806,
          "id": 1762703477
        },
        {
          "distance": 0.42551404,
          "id": 1762702585
        },
        {
          "distance": 0.4264654,
          "id": 1762705693
        },
        {
          "distance": 0.43060985,
          "id": 1762704217
        }
      ],
      "apple/mobileclip_s2": [
        {
          "distance": 0.18661557,
          "id": 1762707467
        },
        {
          "distance": 0.5538509,
          "id": 1762707461
        },
        {
          "distance": 0.5585876,
          "id": 1762705217
        },
        {
          "distance": 0.56624025,
          "id": 1762707475
        },
        {
          "distance": 0.58792007,
          "id": 1762713689
        },
        {
          "distance": 0.59864634,
          "id": 1762705693
        },
        {
          "distance": 0.6017531,
          "id": 1762707453
        },
        {
          "distance": 0.6140423,
          "id": 1762710383
        },
        {
          "distance": 0.61562616,
          "id": 1762713385
        },
        {
          "distance": 0.6169724,
          "id": 1762713381
        }
      ]
    },
    "millsfield:subcategory_id": 1511213363,
    "millsfield:tail_numbers": [
      "HB-IBA"
    ],
    "millsfield:tailnumbers": [
      "HB-IBA"
    ],
    "mz:is_current": 1,
    "sfomuseum:filename": "2015.166.1417_bk.tif",
    "sfomuseum:image_id": 155323,
    "sfomuseum:image_index": 5,
    "sfomuseum:image_type": "studio",
    "sfomuseum:object_id": 181034,
    "sfomuseum:placetype": "image",
    "sfomuseum:primary_image": 0,
    "src:geom": "sfomuseum",
    "wof:belongsto": [
      102527513,
      1159162825,
      102191575,
      85633793,
      102087579,
      85922583,
      1762689101,
      85688637,
      1159160869
    ],
    "wof:country": "XY",
    "wof:created": 1641349074,
    "wof:depicts": [
      1159285589,
      1159290431,
      1159290427,
      1159288009,
      1762689101
    ],
    "wof:geomhash": "ed7c2ab3547fc3916b5edc33488deaa7",
    "wof:hierarchy": [
      {
        "building_id": -1,
        "campus_id": 102527513,
        "collection_id": 1159162825,
        "concourse_id": 1159162825,
        "continent_id": 102191575,
        "country_id": 85633793,
        "county_id": 102087579,
        "custom_id": 1762707471,
        "image_id": 1762707471,
        "locality_id": 85922583,
        "neighbourhood_id": -1,
        "object_id": 1762689101,
        "region_id": 85688637,
        "wing_id": 1159160869
      }
    ],
    "wof:id": 1762707471,
    "wof:lastmodified": 1788450566,
    "wof:name": "postcard: Swissair, Douglas DC-6B",
    "wof:parent_id": 1762689101,
    "wof:placetype": "custom",
    "wof:placetype_alt": [
      "image"
    ],
    "wof:repo": "sfomuseum-data-media-collection",
    "wof:superseded_by": [],
    "wof:supersedes": []
  },
  "bbox": [
    -122.386472,
    37.616105,
    -122.385834,
    37.616611
  ],
  "geometry": {"type":"Polygon","coordinates":[[[-122.386472,37.616318],[-122.386435,37.616233],[-122.386376,37.616178],[-122.386301,37.616131],[-122.386161,37.616105],[-122.386022,37.616131],[-122.385914,37.616186],[-122.385855,37.616267],[-122.385834,37.616369],[-122.385871,37.616467],[-122.385941,37.616543],[-122.386054,37.616603],[-122.386183,37.616611],[-122.386306,37.616573],[-122.386419,37.616509],[-122.386467,37.616411],[-122.386472,37.616318]]]}
}
