{
  "id": 1897882121,
  "type": "Feature",
  "properties": {
    "date:cessation_lower": "1920-01-01",
    "date:cessation_upper": "1929-12-31",
    "date:inception_lower": "1920-01-01",
    "date:inception_upper": "1929-12-31",
    "edtf:cessation": "192X",
    "edtf:inception": "192X",
    "geom:area": 2.477324999997507e-7,
    "geom:bbox": "-122.386472,37.616105,-122.385834,37.616611",
    "geom:latitude": 37.61635756125121,
    "geom:longitude": -122.38615532866096,
    "media:fingerprint": "0b41665e7e73c9f29c0e84da96b3968620f0f606",
    "media:imagehash_avg": "a:ff8d9981818181ff",
    "media:imagehash_diff": "d:7d79733333333b29",
    "media:imagetext": "TRANSCONTINEN\nNON-STOP RECORD HOLDER\nWASP LOCKHEED \"AIR EXPRESS\"\nTE)\nCO\n(19Hg 10M.\nXE 27: 28 7923\n18 HOURS 122 MINUTES\nFEB 4-5 1929\nTHE TEX\nPETROLEU",
    "media:imagetext_created": 1787971316,
    "media:imagetext_source": "com.apple.visionkit.VNImageRequestHandler#Version 26.6.2 (Build 25G83)",
    "media:mimetype": "image/tiff",
    "media:properties": {
      "sizes": {
        "b": {
          "extension": "jpg",
          "height": 768,
          "mimetype": "image/jpeg",
          "secret": "PE8a2tQ9lmr8472OxGWJMtlU8fRWFN4g",
          "width": 626
        },
        "c": {
          "extension": "jpg",
          "height": 600,
          "mimetype": "image/jpeg",
          "secret": "PE8a2tQ9lmr8472OxGWJMtlU8fRWFN4g",
          "width": 489
        },
        "dc": {
          "extension": "jpg",
          "height": 600,
          "mimetype": "image/jpeg",
          "secret": "PE8a2tQ9lmr8472OxGWJMtlU8fRWFN4g",
          "width": 489
        },
        "ds": {
          "extension": "jpg",
          "height": 320,
          "mimetype": "image/jpeg",
          "secret": "PE8a2tQ9lmr8472OxGWJMtlU8fRWFN4g",
          "width": 320
        },
        "k": {
          "extension": "jpg",
          "height": 1536,
          "mimetype": "image/jpeg",
          "secret": "PE8a2tQ9lmr8472OxGWJMtlU8fRWFN4g",
          "width": 1253
        },
        "n": {
          "extension": "jpg",
          "height": 240,
          "mimetype": "image/jpeg",
          "secret": "PE8a2tQ9lmr8472OxGWJMtlU8fRWFN4g",
          "width": 195
        },
        "o": {
          "extension": "jpg",
          "height": 2000,
          "mimetype": "image/jpeg",
          "secret": "GtdGbedWUCqaAa2Xx0F9PCK7UESk64gE",
          "width": 1632
        },
        "s": {
          "extension": "jpg",
          "height": 320,
          "mimetype": "image/jpeg",
          "secret": "PE8a2tQ9lmr8472OxGWJMtlU8fRWFN4g",
          "width": 320
        },
        "z": {
          "extension": "jpg",
          "height": 480,
          "mimetype": "image/jpeg",
          "secret": "PE8a2tQ9lmr8472OxGWJMtlU8fRWFN4g",
          "width": 391
        }
      }
    },
    "media:source": "sfomuseum",
    "media:status_id": 1,
    "media:uri_template": "https://static.sfomuseum.org/media/189/788/212/1/1897882121_{secret}_{label}.{extension}",
    "millsfield:category_id": 1511214209,
    "millsfield:collection_id": 1511214207,
    "millsfield:images_colors": [
      {
        "hex": "#594814",
        "name": "#594814",
        "reference": "marekm4"
      },
      {
        "hex": "#556b2f",
        "name": "darkolivegreen",
        "reference": "css4"
      },
      {
        "hex": "#714b23",
        "name": "Raw Umber",
        "reference": "crayola"
      },
      {
        "hex": "#e3d5b2",
        "name": "#e3d5b2",
        "reference": "marekm4"
      },
      {
        "hex": "#f5deb3",
        "name": "wheat",
        "reference": "css4"
      },
      {
        "hex": "#efcdb8",
        "name": "Desert Sand",
        "reference": "crayola"
      },
      {
        "hex": "#b29c61",
        "name": "#b29c61",
        "reference": "marekm4"
      },
      {
        "hex": "#bdb76b",
        "name": "darkkhaki",
        "reference": "css4"
      },
      {
        "hex": "#bab86c",
        "name": "Olive Green",
        "reference": "crayola"
      },
      {
        "hex": "#897233",
        "name": "#897233",
        "reference": "marekm4"
      },
      {
        "hex": "#a0522d",
        "name": "sienna",
        "reference": "css4"
      },
      {
        "hex": "#9c7c38",
        "name": "Metallic Sunburst",
        "reference": "crayola"
      }
    ],
    "millsfield:images_texts": [
      "TRANSCONTINEN\nNON-STOP RECORD HOLDER\nWASP LOCKHEED \"AIR EXPRESS\"\nTE)\nCO\n(19Hg 10M.\nXE 27: 28 7923\n18 HOURS 122 MINUTES\nFEB 4-5 1929\nTHE TEX\nPETROLEU"
    ],
    "millsfield:images_texts_ids": [
      1897882121
    ],
    "millsfield:similar": {
      "apple/mobileclip_s0": [
        {
          "distance": 0.7409142,
          "id": 1897779443
        },
        {
          "distance": 0.742212,
          "id": 1897872203
        },
        {
          "distance": 0.7454747,
          "id": 1913800839
        },
        {
          "distance": 0.7656434,
          "id": 1897872185
        },
        {
          "distance": 0.7699095,
          "id": 1897882141
        },
        {
          "distance": 0.77361596,
          "id": 1897779449
        },
        {
          "distance": 0.7736966,
          "id": 1762892329
        },
        {
          "distance": 0.77520597,
          "id": 1998537229
        },
        {
          "distance": 0.7762268,
          "id": 1913727849
        },
        {
          "distance": 0.7776435,
          "id": 1897882143
        }
      ],
      "apple/mobileclip_s1": [
        {
          "distance": 0.51380956,
          "id": 1913727849
        },
        {
          "distance": 0.5166083,
          "id": 1897903283
        },
        {
          "distance": 0.52249473,
          "id": 1998537241
        },
        {
          "distance": 0.52912086,
          "id": 1897872203
        },
        {
          "distance": 0.5344453,
          "id": 1762713257
        },
        {
          "distance": 0.5412844,
          "id": 1897872207
        },
        {
          "distance": 0.54320925,
          "id": 1762713267
        },
        {
          "distance": 0.5584313,
          "id": 1527855473
        },
        {
          "distance": 0.55857277,
          "id": 1897882123
        },
        {
          "distance": 0.5601883,
          "id": 1762896065
        }
      ],
      "apple/mobileclip_s2": [
        {
          "distance": 0.72310454,
          "id": 1762713267
        },
        {
          "distance": 0.7311901,
          "id": 1897872203
        },
        {
          "distance": 0.7474498,
          "id": 1762896065
        },
        {
          "distance": 0.753539,
          "id": 1762713263
        },
        {
          "distance": 0.75898844,
          "id": 1897872191
        },
        {
          "distance": 0.76032484,
          "id": 1897903283
        },
        {
          "distance": 0.7623233,
          "id": 1762713257
        },
        {
          "distance": 0.770229,
          "id": 1913727849
        },
        {
          "distance": 0.7753332,
          "id": 1913822737
        },
        {
          "distance": 0.781631,
          "id": 1813516501
        }
      ]
    },
    "millsfield:subcategory_id": 1511213367,
    "mz:is_current": 1,
    "sfomuseum:filename": "2019.121.0351.tif",
    "sfomuseum:image_id": 230686,
    "sfomuseum:image_index": 0,
    "sfomuseum:image_type": "studio",
    "sfomuseum:object_id": 210626,
    "sfomuseum:placetype": "image",
    "sfomuseum:primary_image": 1,
    "src:geom": "sfomuseum",
    "wof:belongsto": [
      102527513,
      1159162825,
      102191575,
      85633793,
      102087579,
      85922583,
      1897881937,
      85688637,
      1159160869
    ],
    "wof:country": "XY",
    "wof:created": 1712734275,
    "wof:depicts": [
      1897881937
    ],
    "wof:geomhash": "ed7c2ab3547fc3916b5edc33488deaa7",
    "wof:hierarchy": [
      {
        "building_id": -1,
        "campus_id": 102527513,
        "collection_id": 1159162825,
        "concourse_id": 1159162825,
        "continent_id": 102191575,
        "country_id": 85633793,
        "county_id": 102087579,
        "custom_id": 1897882121,
        "image_id": 1897882121,
        "locality_id": 85922583,
        "neighbourhood_id": -1,
        "object_id": 1897881937,
        "region_id": 85688637,
        "wing_id": 1159160869
      }
    ],
    "wof:id": 1897882121,
    "wof:lastmodified": 1788452126,
    "wof:name": "photograph: early aviation",
    "wof:parent_id": 1897881937,
    "wof:placetype": "custom",
    "wof:placetype_alt": [
      "image"
    ],
    "wof:repo": "sfomuseum-data-media-collection",
    "wof:superseded_by": [],
    "wof:supersedes": []
  },
  "bbox": [
    -122.386472,
    37.616105,
    -122.385834,
    37.616611
  ],
  "geometry": {"type":"Polygon","coordinates":[[[-122.386472,37.616318],[-122.386435,37.616233],[-122.386376,37.616178],[-122.386301,37.616131],[-122.386161,37.616105],[-122.386022,37.616131],[-122.385914,37.616186],[-122.385855,37.616267],[-122.385834,37.616369],[-122.385871,37.616467],[-122.385941,37.616543],[-122.386054,37.616603],[-122.386183,37.616611],[-122.386306,37.616573],[-122.386419,37.616509],[-122.386467,37.616411],[-122.386472,37.616318]]]}
}
