{
  "id": 1762898813,
  "type": "Feature",
  "properties": {
    "date:cessation_lower": "1950-01-01",
    "date:cessation_upper": "1959-12-31",
    "date:inception_lower": "1950-01-01",
    "date:inception_upper": "1959-12-31",
    "edtf:cessation": "195X",
    "edtf:inception": "195X",
    "geom:area": 2.477324999997507e-7,
    "geom:bbox": "-122.386472,37.616105,-122.385834,37.616611",
    "geom:latitude": 37.61635756125121,
    "geom:longitude": -122.38615532866096,
    "media:fingerprint": "1014d751421c4773081209666ada482c5c9eeef5",
    "media:imagehash_avg": "a:e7e3e781818181c3",
    "media:imagehash_diff": "d:0e1e0f070f4d6d0f",
    "media:imagetext": "EL\nConquistador\nGRANIAN\nInternational\nLinking The Americas",
    "media:imagetext_created": 1787959738,
    "media:imagetext_source": "com.apple.visionkit.VNImageRequestHandler#Version 26.6.2 (Build 25G83)",
    "media:mimetype": "image/tiff",
    "media:properties": {
      "sizes": {
        "b": {
          "extension": "jpg",
          "height": 768,
          "mimetype": "image/jpeg",
          "secret": "Ap8Wd8vXtcBmCTs8QovU7XuJvbpRj8WV",
          "width": 614
        },
        "c": {
          "extension": "jpg",
          "height": 600,
          "mimetype": "image/jpeg",
          "secret": "Ap8Wd8vXtcBmCTs8QovU7XuJvbpRj8WV",
          "width": 479
        },
        "dc": {
          "extension": "jpg",
          "height": 600,
          "mimetype": "image/jpeg",
          "secret": "Ap8Wd8vXtcBmCTs8QovU7XuJvbpRj8WV",
          "width": 479
        },
        "ds": {
          "extension": "jpg",
          "height": 320,
          "mimetype": "image/jpeg",
          "secret": "Ap8Wd8vXtcBmCTs8QovU7XuJvbpRj8WV",
          "width": 320
        },
        "k": {
          "extension": "jpg",
          "height": 1536,
          "mimetype": "image/jpeg",
          "secret": "Ap8Wd8vXtcBmCTs8QovU7XuJvbpRj8WV",
          "width": 1228
        },
        "n": {
          "extension": "jpg",
          "height": 240,
          "mimetype": "image/jpeg",
          "secret": "Ap8Wd8vXtcBmCTs8QovU7XuJvbpRj8WV",
          "width": 191
        },
        "o": {
          "extension": "jpg",
          "height": 1536,
          "mimetype": "image/jpeg",
          "secret": "Ycv1RtclP5KET9sRA6f81lUuHVz4pDNt",
          "width": 1228
        },
        "s": {
          "extension": "jpg",
          "height": 320,
          "mimetype": "image/jpeg",
          "secret": "Ap8Wd8vXtcBmCTs8QovU7XuJvbpRj8WV",
          "width": 320
        },
        "z": {
          "extension": "jpg",
          "height": 480,
          "mimetype": "image/jpeg",
          "secret": "Ap8Wd8vXtcBmCTs8QovU7XuJvbpRj8WV",
          "width": 383
        }
      }
    },
    "media:source": "sfomuseum",
    "media:status_id": 1,
    "media:uri_template": "https://static.sfomuseum.org/media/176/289/881/3/1762898813_{secret}_{label}.{extension}",
    "millsfield:airline_id": [
      1159284009
    ],
    "millsfield:category_id": 1763416397,
    "millsfield:collection_id": 1511214207,
    "millsfield:company_id": [
      1159286951
    ],
    "millsfield:images_colors": [
      {
        "hex": "#ece6d8",
        "name": "#ece6d8",
        "reference": "marekm4"
      },
      {
        "hex": "#faebd7",
        "name": "antiquewhite",
        "reference": "css4"
      },
      {
        "hex": "#efdecd",
        "name": "Almond",
        "reference": "crayola"
      },
      {
        "hex": "#231633",
        "name": "#231633",
        "reference": "marekm4"
      },
      {
        "hex": "#191970",
        "name": "midnightblue",
        "reference": "css4"
      },
      {
        "hex": "#414a4c",
        "name": "Outer Space",
        "reference": "crayola"
      },
      {
        "hex": "#ba2017",
        "name": "#ba2017",
        "reference": "marekm4"
      },
      {
        "hex": "#b22222",
        "name": "firebrick",
        "reference": "css4"
      },
      {
        "hex": "#9c2542",
        "name": "Big Dip O' Ruby",
        "reference": "crayola"
      },
      {
        "hex": "#d9b617",
        "name": "#d9b617",
        "reference": "marekm4"
      },
      {
        "hex": "#daa520",
        "name": "goldenrod",
        "reference": "css4"
      },
      {
        "hex": "#ffae42",
        "name": "Yellow Orange",
        "reference": "crayola"
      }
    ],
    "millsfield:images_texts": [
      "EL\nConquistador\nGRANIAN\nInternational\nLinking The Americas"
    ],
    "millsfield:images_texts_ids": [
      1762898813
    ],
    "millsfield:similar": {
      "apple/mobileclip_s0": [
        {
          "distance": 0.26563507,
          "id": 1762890653
        },
        {
          "distance": 0.54532015,
          "id": 1762897009
        },
        {
          "distance": 0.5841318,
          "id": 1762890655
        },
        {
          "distance": 0.5908805,
          "id": 1762701125
        },
        {
          "distance": 0.59776187,
          "id": 1762701121
        },
        {
          "distance": 0.60990536,
          "id": 1762893491
        },
        {
          "distance": 0.6821415,
          "id": 1762890657
        },
        {
          "distance": 0.6826793,
          "id": 1762891555
        },
        {
          "distance": 0.70162874,
          "id": 1527841205
        },
        {
          "distance": 0.7102318,
          "id": 1762701133
        }
      ],
      "apple/mobileclip_s1": [
        {
          "distance": 0.15660134,
          "id": 1762890653
        },
        {
          "distance": 0.3267311,
          "id": 1762897009
        },
        {
          "distance": 0.37111655,
          "id": 1762701121
        },
        {
          "distance": 0.38767967,
          "id": 1762701125
        },
        {
          "distance": 0.3965988,
          "id": 1762893491
        },
        {
          "distance": 0.4331864,
          "id": 1762890655
        },
        {
          "distance": 0.44702274,
          "id": 1762701155
        },
        {
          "distance": 0.4491552,
          "id": 1762701133
        },
        {
          "distance": 0.45437294,
          "id": 1762891555
        },
        {
          "distance": 0.45868224,
          "id": 1527841205
        }
      ],
      "apple/mobileclip_s2": [
        {
          "distance": 0.22219758,
          "id": 1762890653
        },
        {
          "distance": 0.47434953,
          "id": 1762897009
        },
        {
          "distance": 0.47605,
          "id": 1762701121
        },
        {
          "distance": 0.48210093,
          "id": 1762890655
        },
        {
          "distance": 0.48543972,
          "id": 1762893491
        },
        {
          "distance": 0.49296123,
          "id": 1762701125
        },
        {
          "distance": 0.6579292,
          "id": 1527841205
        },
        {
          "distance": 0.69665116,
          "id": 1762701133
        },
        {
          "distance": 0.70610213,
          "id": 1762896169
        },
        {
          "distance": 0.7333238,
          "id": 1762891553
        }
      ]
    },
    "millsfield:subcategory_id": 1511213315,
    "mz:is_current": 1,
    "sfomuseum:filename": "2015.168.082.tif",
    "sfomuseum:image_id": 194211,
    "sfomuseum:image_index": 5,
    "sfomuseum:image_type": "studio",
    "sfomuseum:object_id": 175642,
    "sfomuseum:placetype": "image",
    "sfomuseum:primary_image": 1,
    "src:geom": "sfomuseum",
    "wof:belongsto": [
      102527513,
      1159162825,
      102191575,
      85633793,
      102087579,
      85922583,
      1762889513,
      85688637,
      1159160869
    ],
    "wof:country": "XY",
    "wof:created": 1643415651,
    "wof:depicts": [
      1159286951,
      1762889513,
      1159284009
    ],
    "wof:geomhash": "ed7c2ab3547fc3916b5edc33488deaa7",
    "wof:hierarchy": [
      {
        "building_id": -1,
        "campus_id": 102527513,
        "collection_id": 1159162825,
        "concourse_id": 1159162825,
        "continent_id": 102191575,
        "country_id": 85633793,
        "county_id": 102087579,
        "custom_id": 1762898813,
        "image_id": 1762898813,
        "locality_id": 85922583,
        "neighbourhood_id": -1,
        "object_id": 1762889513,
        "region_id": 85688637,
        "wing_id": 1159160869
      }
    ],
    "wof:id": 1762898813,
    "wof:lastmodified": 1788450838,
    "wof:name": "luggage label: Braniff International Airways",
    "wof:parent_id": 1762889513,
    "wof:placetype": "custom",
    "wof:placetype_alt": [
      "image"
    ],
    "wof:repo": "sfomuseum-data-media-collection",
    "wof:superseded_by": [],
    "wof:supersedes": []
  },
  "bbox": [
    -122.386472,
    37.616105,
    -122.385834,
    37.616611
  ],
  "geometry": {"type":"Polygon","coordinates":[[[-122.386472,37.616318],[-122.386435,37.616233],[-122.386376,37.616178],[-122.386301,37.616131],[-122.386161,37.616105],[-122.386022,37.616131],[-122.385914,37.616186],[-122.385855,37.616267],[-122.385834,37.616369],[-122.385871,37.616467],[-122.385941,37.616543],[-122.386054,37.616603],[-122.386183,37.616611],[-122.386306,37.616573],[-122.386419,37.616509],[-122.386467,37.616411],[-122.386472,37.616318]]]}
}
