{
  "id": 1913802051,
  "type": "Feature",
  "properties": {
    "date:cessation_lower": "1936-05-26",
    "date:cessation_upper": "1936-05-26",
    "date:inception_lower": "1936-05-26",
    "date:inception_upper": "1936-05-26",
    "edtf:cessation": "1936-05-26",
    "edtf:inception": "1936-05-26",
    "geom:area": 2.477324999997507e-7,
    "geom:bbox": "-122.386472,37.616105,-122.385834,37.616611",
    "geom:latitude": 37.61635756125121,
    "geom:longitude": -122.38615532866096,
    "media:fingerprint": "cfd0904f0de909ea5469297e552607e7db8d810f",
    "media:imagehash_avg": "a:ffbfc381818181ff",
    "media:imagehash_diff": "d:4f292f171b331b0f",
    "media:imagetext": "THE ALUMNI COUNCIL OF AMHERST COLLEGE\nTHE ALUMNI FUND\n113 Class Agent\nHenry S. Loonis,\n42 Claremont Ave.,\nit. Vernon, N.Y.\nMay 26, 1936.\nDear Thirteeners:\nHere's a treat for all of us - a letter from Steamer Bixby. It\nis also noteworthy in heing a letter written in an airplane, probably the\nfirst most of us have ever received.\nApril 20, 1936\nFlying from Shanghai to Nanking.\nDear Dick:\nDuring the last twelve months I have lived in a suitcase. My\ntravels have carried me sometimes rather quickly from 20 below zero to\n100 above•\nFrom Peiping on the north, Chengtu on the west in the shadow\nof the high mountains of Tibet, to Manila in the south. One becomes\nsomething of a Houdini packing clothes for these extremes; woolens and\nwhites, dinner coat and mess jacket, all within the fifteen kilo (33 1bs)\nweight limit.\nMy office has been a brief case in which my record of\nnever having the particular document needed is practically 100%. During\nthis time I have neglected my correspondence but rolled up quite a mile-\nage which I have just computed roughly as follows:\nAirplane miles (mostly over China)\nSteamship miles\nRailroad\n25,000\n14,000\n2,500\nAutomobile, bus, ricksha, sedan chair and wheelbarrow have contributed a\nmiscellaneous and undetermined additional mileage.\nIhe toughest travel\nof all is up country where there are no roads, and the narrow footpath\nwinding through the rice paddies permits only of transportation by sedan\nchair or wheelbarrow.\nMy experience with the latter did not last over 100\nyards. After jolting that far in that springless contraption I decided to\nwalk, concluding that I'd get tired either way, and walking offered the\nadvantage of being able to sit down at the end of my journey.\nMy work in China has been largely as an aviation missionary for Pan\nAmerican Airways.\nThe latter company is a partner with the Chinese Govern-\nment in the ornership of China National Aviation Corporation, the routes\nof which company cover an area almost the size of the United States.\nThe\n6.N.A.C. uses American airplanes flown by American pilots on schedules trat\ncall for more than a million airplane miles per annum. Beyond attempting\nto keep in touch with the C.N.A.C. my efforts have been directed toward as-\nsisting to work out at this end some of the mechanical and political details\nin connection with the trans-Tacific service.\nI was in Manila when the\nChina Clipper arrived and you can imagine that I got quite a kick out of\nseeing that ship land on the waters of Manila Bay.\nPlease make checks payable to Amherst Alumni Fund",
    "media:imagetext_created": 1787972732,
    "media:imagetext_source": "com.apple.visionkit.VNImageRequestHandler#Version 26.6.2 (Build 25G83)",
    "media:mimetype": "image/tiff",
    "media:properties": {
      "sizes": {
        "b": {
          "extension": "jpg",
          "height": 768,
          "mimetype": "image/jpeg",
          "secret": "LemQprJ6swdpeTzdvCKkgDEP9P9s4QJv",
          "width": 597
        },
        "c": {
          "extension": "jpg",
          "height": 600,
          "mimetype": "image/jpeg",
          "secret": "LemQprJ6swdpeTzdvCKkgDEP9P9s4QJv",
          "width": 467
        },
        "dc": {
          "extension": "jpg",
          "height": 600,
          "mimetype": "image/jpeg",
          "secret": "LemQprJ6swdpeTzdvCKkgDEP9P9s4QJv",
          "width": 467
        },
        "ds": {
          "extension": "jpg",
          "height": 320,
          "mimetype": "image/jpeg",
          "secret": "LemQprJ6swdpeTzdvCKkgDEP9P9s4QJv",
          "width": 320
        },
        "k": {
          "extension": "jpg",
          "height": 1536,
          "mimetype": "image/jpeg",
          "secret": "LemQprJ6swdpeTzdvCKkgDEP9P9s4QJv",
          "width": 1195
        },
        "n": {
          "extension": "jpg",
          "height": 240,
          "mimetype": "image/jpeg",
          "secret": "LemQprJ6swdpeTzdvCKkgDEP9P9s4QJv",
          "width": 186
        },
        "o": {
          "extension": "jpg",
          "height": 2000,
          "mimetype": "image/jpeg",
          "secret": "3fCpuD7xuPOgMz41IRvCKWw7IlnUfnTC",
          "width": 1557
        },
        "s": {
          "extension": "jpg",
          "height": 320,
          "mimetype": "image/jpeg",
          "secret": "LemQprJ6swdpeTzdvCKkgDEP9P9s4QJv",
          "width": 320
        },
        "z": {
          "extension": "jpg",
          "height": 480,
          "mimetype": "image/jpeg",
          "secret": "LemQprJ6swdpeTzdvCKkgDEP9P9s4QJv",
          "width": 373
        }
      }
    },
    "media:source": "sfomuseum",
    "media:status_id": 1,
    "media:uri_template": "https://static.sfomuseum.org/media/191/380/205/1/1913802051_{secret}_{label}.{extension}",
    "millsfield:airline_id": [
      1159284991
    ],
    "millsfield:category_id": 1511214251,
    "millsfield:collection_id": 1511214207,
    "millsfield:company_id": [
      1159286839
    ],
    "millsfield:images_colors": [
      {
        "hex": "#f0e8d3",
        "name": "#f0e8d3",
        "reference": "marekm4"
      },
      {
        "hex": "#faebd7",
        "name": "antiquewhite",
        "reference": "css4"
      },
      {
        "hex": "#efdecd",
        "name": "Almond",
        "reference": "crayola"
      },
      {
        "hex": "#55523e",
        "name": "#55523e",
        "reference": "marekm4"
      },
      {
        "hex": "#556b2f",
        "name": "darkolivegreen",
        "reference": "css4"
      },
      {
        "hex": "#414a4c",
        "name": "Outer Space",
        "reference": "crayola"
      }
    ],
    "millsfield:images_texts": [
      "THE ALUMNI COUNCIL OF AMHERST COLLEGE\nTHE ALUMNI FUND\n113 Class Agent\nHenry S. Loonis,\n42 Claremont Ave.,\nit. Vernon, N.Y.\nMay 26, 1936.\nDear Thirteeners:\nHere's a treat for all of us - a letter from Steamer Bixby. It\nis also noteworthy in heing a letter written in an airplane, probably the\nfirst most of us have ever received.\nApril 20, 1936\nFlying from Shanghai to Nanking.\nDear Dick:\nDuring the last twelve months I have lived in a suitcase. My\ntravels have carried me sometimes rather quickly from 20 below zero to\n100 above•\nFrom Peiping on the north, Chengtu on the west in the shadow\nof the high mountains of Tibet, to Manila in the south. One becomes\nsomething of a Houdini packing clothes for these extremes; woolens and\nwhites, dinner coat and mess jacket, all within the fifteen kilo (33 1bs)\nweight limit.\nMy office has been a brief case in which my record of\nnever having the particular document needed is practically 100%. During\nthis time I have neglected my correspondence but rolled up quite a mile-\nage which I have just computed roughly as follows:\nAirplane miles (mostly over China)\nSteamship miles\nRailroad\n25,000\n14,000\n2,500\nAutomobile, bus, ricksha, sedan chair and wheelbarrow have contributed a\nmiscellaneous and undetermined additional mileage.\nIhe toughest travel\nof all is up country where there are no roads, and the narrow footpath\nwinding through the rice paddies permits only of transportation by sedan\nchair or wheelbarrow.\nMy experience with the latter did not last over 100\nyards. After jolting that far in that springless contraption I decided to\nwalk, concluding that I'd get tired either way, and walking offered the\nadvantage of being able to sit down at the end of my journey.\nMy work in China has been largely as an aviation missionary for Pan\nAmerican Airways.\nThe latter company is a partner with the Chinese Govern-\nment in the ornership of China National Aviation Corporation, the routes\nof which company cover an area almost the size of the United States.\nThe\n6.N.A.C. uses American airplanes flown by American pilots on schedules trat\ncall for more than a million airplane miles per annum. Beyond attempting\nto keep in touch with the C.N.A.C. my efforts have been directed toward as-\nsisting to work out at this end some of the mechanical and political details\nin connection with the trans-Tacific service.\nI was in Manila when the\nChina Clipper arrived and you can imagine that I got quite a kick out of\nseeing that ship land on the waters of Manila Bay.\nPlease make checks payable to Amherst Alumni Fund",
      "-2-\nI wish that my training in English literature had included a course\nin modern fiction so that I could tell you many exciting adventures.\nI\nhave been in cities under martial law which made the headlines in American\npapers but I knew nothing about the situation until said American papers\nreached here some thirty days later.\nMy travels have taken me over section\nwhich according to American press reports were ravished by war, communists,\nbandits, or floods, but all I could see were industrious and friendly\nChinese working in the fields. Possibly the bandits know that I was for-\nmerly a banker and cleared out before ny arrival.\nAm on my way back to Shanghai now in a Douglas DC2 which left\nChengtu this morning and is scheduled to arrive in Shanghai at 5 p.m.\nWe are flying 170 miles per house, fourteen passengers mostly Chinese\nplus a four man crew consisting of an American pilot, Chinese copilot,\nand radio operator and steward.\nThe fastest surface transportation between\nShanghai and Chengtu takes 16 days.\nI was glad to find your several letters waiting for me a few days\nago when I returned from Manila - especially the one of March l6th about\nEli Marsh.\nI am hoping that we shall get together somewhere in this part\nof the world.\nIf your Silver Senators would just leave us Chinese alone\nSee you in 138.\nRegards,\nBix\nNote: Since writing the above Mr. Bixby has left for the Philippines.\n***************\nThat \"See you in 138\" sounds especially good. Steamer's fourth\nparngraph fooled us the first time we read it -- of course you got it!\nWe refuse to believe that so many miles around and over such a country\ncould be as devoid of adventure as he'd have us believe.\nWhen we gather\n'round that '13 dinner table in '38, I believe it's up to Bix to chip off\nhis shell of modesty and tell us a few tall stories.\nYours for the Alumni Fund,\nDick."
    ],
    "millsfield:images_texts_ids": [
      1913802051,
      1913802053
    ],
    "millsfield:similar": {
      "apple/mobileclip_s0": [
        {
          "distance": 0.23000163,
          "id": 1527856985
        },
        {
          "distance": 0.2509508,
          "id": 1762897107
        },
        {
          "distance": 0.2560646,
          "id": 1913797519
        },
        {
          "distance": 0.2661165,
          "id": 1913801847
        },
        {
          "distance": 0.27660275,
          "id": 1913802743
        },
        {
          "distance": 0.27817795,
          "id": 1762897209
        },
        {
          "distance": 0.2787399,
          "id": 1527856969
        },
        {
          "distance": 0.28163713,
          "id": 1762897223
        },
        {
          "distance": 0.28617203,
          "id": 1762897195
        },
        {
          "distance": 0.2862798,
          "id": 1913799113
        }
      ],
      "apple/mobileclip_s1": [
        {
          "distance": 0.21391456,
          "id": 1913801847
        },
        {
          "distance": 0.2207191,
          "id": 1913799157
        },
        {
          "distance": 0.22330639,
          "id": 1762897117
        },
        {
          "distance": 0.22868828,
          "id": 1527856969
        },
        {
          "distance": 0.22882143,
          "id": 1762897153
        },
        {
          "distance": 0.2335444,
          "id": 1913801113
        },
        {
          "distance": 0.235379,
          "id": 1762897063
        },
        {
          "distance": 0.23627804,
          "id": 1913801665
        },
        {
          "distance": 0.23754661,
          "id": 1913799129
        },
        {
          "distance": 0.23960467,
          "id": 1913797519
        }
      ],
      "apple/mobileclip_s2": [
        {
          "distance": 0.26900098,
          "id": 1527856985
        },
        {
          "distance": 0.2727838,
          "id": 1762897199
        },
        {
          "distance": 0.28251413,
          "id": 1913799157
        },
        {
          "distance": 0.28428888,
          "id": 1762897187
        },
        {
          "distance": 0.28958616,
          "id": 1913797519
        },
        {
          "distance": 0.29456067,
          "id": 1913799661
        },
        {
          "distance": 0.29866052,
          "id": 1913799911
        },
        {
          "distance": 0.29900897,
          "id": 1762897107
        },
        {
          "distance": 0.3025573,
          "id": 1527856969
        },
        {
          "distance": 0.30557057,
          "id": 1913799945
        }
      ]
    },
    "millsfield:subcategory_id": 1511213489,
    "mz:is_current": 1,
    "sfomuseum:filename": "2019.121.0889a.tif",
    "sfomuseum:image_id": 230960,
    "sfomuseum:image_index": 0,
    "sfomuseum:image_type": "studio",
    "sfomuseum:object_id": 211242,
    "sfomuseum:placetype": "image",
    "sfomuseum:primary_image": 1,
    "src:geom": "sfomuseum",
    "wof:belongsto": [
      102527513,
      1159162825,
      102191575,
      85633793,
      102087579,
      85922583,
      1913795629,
      85688637,
      1159160869
    ],
    "wof:country": "XY",
    "wof:created": 1714551677,
    "wof:depicts": [
      1913795629,
      1159284991,
      1159286839
    ],
    "wof:geomhash": "ed7c2ab3547fc3916b5edc33488deaa7",
    "wof:hierarchy": [
      {
        "building_id": -1,
        "campus_id": 102527513,
        "collection_id": 1159162825,
        "concourse_id": 1159162825,
        "continent_id": 102191575,
        "country_id": 85633793,
        "county_id": 102087579,
        "custom_id": 1913802051,
        "image_id": 1913802051,
        "locality_id": 85922583,
        "neighbourhood_id": -1,
        "object_id": 1913795629,
        "region_id": 85688637,
        "wing_id": 1159160869
      }
    ],
    "wof:id": 1913802051,
    "wof:lastmodified": 1788160876,
    "wof:name": "correspondence: Harold M. Bixby",
    "wof:parent_id": 1913795629,
    "wof:placetype": "custom",
    "wof:placetype_alt": [
      "image"
    ],
    "wof:repo": "sfomuseum-data-media-collection",
    "wof:superseded_by": [],
    "wof:supersedes": []
  },
  "bbox": [
    -122.386472,
    37.616105,
    -122.385834,
    37.616611
  ],
  "geometry": {"type":"Polygon","coordinates":[[[-122.386472,37.616318],[-122.386435,37.616233],[-122.386376,37.616178],[-122.386301,37.616131],[-122.386161,37.616105],[-122.386022,37.616131],[-122.385914,37.616186],[-122.385855,37.616267],[-122.385834,37.616369],[-122.385871,37.616467],[-122.385941,37.616543],[-122.386054,37.616603],[-122.386183,37.616611],[-122.386306,37.616573],[-122.386419,37.616509],[-122.386467,37.616411],[-122.386472,37.616318]]]}
}
