{
  "id": 1527833649,
  "type": "Feature",
  "properties": {
    "date:cessation_lower": "1968-04-28",
    "date:cessation_upper": "1968-04-28",
    "date:inception_lower": "1968-04-28",
    "date:inception_upper": "1968-04-28",
    "edtf:cessation": "1968-04-28",
    "edtf:date": "1968-04-28",
    "edtf:inception": "1968-04-28",
    "geom:area": 0,
    "geom:bbox": "-122.386155,37.616358,-122.386155,37.616358",
    "geom:latitude": 37.616358,
    "geom:longitude": -122.386155,
    "iso:country": "XX",
    "media:fingerprint": "e7b1d2750417cc5b1719d78397d9c4146eb868a9",
    "media:imagehash_avg": "a:f0f0f0fbffffff0b",
    "media:imagehash_diff": "d:21c323a3b4f3f23b",
    "media:imagetext": "FIRST DIRECT SERVICE\nNew York - Freeport\nNow York\nFreeport\nDAN AMERICAN\nN\n1968\nP.M.\nKENNED\nU.S. AIR MAIL\nU.S. AIR MAIL\nVIA AIR MAIL\nOSCAR H. FATOUT\n4000 E. 5TH ST.\nLONG BEACH\nCALIF 908/4",
    "media:imagetext_created": 1787949628,
    "media:imagetext_source": "com.apple.visionkit.VNImageRequestHandler#Version 26.6.2 (Build 25G83)",
    "media:medium": "image",
    "media:mimetype": "image/tiff",
    "media:properties": {
      "sizes": {
        "b": {
          "extension": "jpg",
          "height": 571,
          "mimetype": "image/jpeg",
          "secret": "6UIcGgxgnXF3KZqQeudX6lX5iX2FiFxL",
          "width": 1024
        },
        "c": {
          "extension": "jpg",
          "height": 446,
          "mimetype": "image/jpeg",
          "secret": "6UIcGgxgnXF3KZqQeudX6lX5iX2FiFxL",
          "width": 800
        },
        "dc": {
          "extension": "jpg",
          "height": 446,
          "mimetype": "image/jpeg",
          "secret": "6UIcGgxgnXF3KZqQeudX6lX5iX2FiFxL",
          "width": 800
        },
        "ds": {
          "extension": "jpg",
          "height": 320,
          "mimetype": "image/jpeg",
          "secret": "6UIcGgxgnXF3KZqQeudX6lX5iX2FiFxL",
          "width": 320
        },
        "k": {
          "extension": "jpg",
          "height": 1143,
          "mimetype": "image/jpeg",
          "secret": "6UIcGgxgnXF3KZqQeudX6lX5iX2FiFxL",
          "width": 2048
        },
        "n": {
          "extension": "jpg",
          "height": 178,
          "mimetype": "image/jpeg",
          "secret": "6UIcGgxgnXF3KZqQeudX6lX5iX2FiFxL",
          "width": 320
        },
        "o": {
          "extension": "jpg",
          "height": 1095,
          "mimetype": "image/jpeg",
          "secret": "Asl6jn5QgiT1J0gYh8ajliYnh6bq4IyR",
          "width": 1961
        },
        "s": {
          "extension": "jpg",
          "height": 320,
          "mimetype": "image/jpeg",
          "secret": "6UIcGgxgnXF3KZqQeudX6lX5iX2FiFxL",
          "width": 320
        },
        "z": {
          "extension": "jpg",
          "height": 357,
          "mimetype": "image/jpeg",
          "secret": "6UIcGgxgnXF3KZqQeudX6lX5iX2FiFxL",
          "width": 640
        }
      }
    },
    "media:source": "sfomuseum",
    "media:status_id": 1,
    "media:uri_template": "https://static.sfomuseum.org/media/152/783/364/9/1527833649_{secret}_{label}.{extension}",
    "millsfield:airline_id": [
      1159284989
    ],
    "millsfield:category_id": 1511214215,
    "millsfield:collection_id": 1511214207,
    "millsfield:company_id": [
      1159286839
    ],
    "millsfield:images_colors": [
      {
        "hex": "#e9e0ca",
        "name": "#e9e0ca",
        "reference": "marekm4"
      },
      {
        "hex": "#dcdcdc",
        "name": "gainsboro",
        "reference": "css4"
      },
      {
        "hex": "#efdecd",
        "name": "Almond",
        "reference": "crayola"
      },
      {
        "hex": "#af302c",
        "name": "#af302c",
        "reference": "marekm4"
      },
      {
        "hex": "#a52a2a",
        "name": "brown",
        "reference": "css4"
      },
      {
        "hex": "#9c2542",
        "name": "Big Dip O' Ruby",
        "reference": "crayola"
      },
      {
        "hex": "#443a4f",
        "name": "#443a4f",
        "reference": "marekm4"
      },
      {
        "hex": "#2f4f4f",
        "name": "darkslategrey",
        "reference": "css4"
      },
      {
        "hex": "#414a4c",
        "name": "Outer Space",
        "reference": "crayola"
      },
      {
        "hex": "#273b89",
        "name": "#273b89",
        "reference": "marekm4"
      },
      {
        "hex": "#483d8b",
        "name": "darkslateblue",
        "reference": "css4"
      },
      {
        "hex": "#1a4876",
        "name": "Midnight Blue",
        "reference": "crayola"
      }
    ],
    "millsfield:images_texts": [
      "FIRST DIRECT SERVICE\nNew York - Freeport\nNow York\nFreeport\nDAN AMERICAN\nN\n1968\nP.M.\nKENNED\nU.S. AIR MAIL\nU.S. AIR MAIL\nVIA AIR MAIL\nOSCAR H. FATOUT\n4000 E. 5TH ST.\nLONG BEACH\nCALIF 908/4",
      "TREEPOR\n28APR68\nЗАНАМА\n2012.149.1915"
    ],
    "millsfield:images_texts_ids": [
      1527833649,
      1527833651
    ],
    "millsfield:similar": {
      "apple/mobileclip_s0": [
        {
          "distance": 0.45702967,
          "id": 1527833729
        },
        {
          "distance": 0.47306564,
          "id": 1527833669
        },
        {
          "distance": 0.48568168,
          "id": 1527833661
        },
        {
          "distance": 0.5308383,
          "id": 1527834439
        },
        {
          "distance": 0.540585,
          "id": 1527834485
        },
        {
          "distance": 0.5495865,
          "id": 1527853811
        },
        {
          "distance": 0.5503349,
          "id": 1527834427
        },
        {
          "distance": 0.55783534,
          "id": 1527834799
        },
        {
          "distance": 0.56387687,
          "id": 1527832847
        },
        {
          "distance": 0.56417173,
          "id": 1527833677
        }
      ],
      "apple/mobileclip_s1": [
        {
          "distance": 0.25606608,
          "id": 1527833661
        },
        {
          "distance": 0.2985814,
          "id": 1527833729
        },
        {
          "distance": 0.3007548,
          "id": 1527833669
        },
        {
          "distance": 0.32057106,
          "id": 1527833677
        },
        {
          "distance": 0.3314883,
          "id": 1527834799
        },
        {
          "distance": 0.3351876,
          "id": 1527834439
        },
        {
          "distance": 0.33674327,
          "id": 1527834457
        },
        {
          "distance": 0.33999336,
          "id": 1527833641
        },
        {
          "distance": 0.34124875,
          "id": 1527834239
        },
        {
          "distance": 0.34550187,
          "id": 1527832861
        }
      ],
      "apple/mobileclip_s2": [
        {
          "distance": 0.40992326,
          "id": 1527833661
        },
        {
          "distance": 0.419721,
          "id": 1527833729
        },
        {
          "distance": 0.44549826,
          "id": 1527833669
        },
        {
          "distance": 0.5278809,
          "id": 1527833609
        },
        {
          "distance": 0.5331912,
          "id": 1527833413
        },
        {
          "distance": 0.53530914,
          "id": 1527833641
        },
        {
          "distance": 0.53695995,
          "id": 1527834439
        },
        {
          "distance": 0.54459983,
          "id": 1527833473
        },
        {
          "distance": 0.5453987,
          "id": 1527833539
        },
        {
          "distance": 0.5522575,
          "id": 1527833677
        }
      ]
    },
    "millsfield:subcategory_id": 1511213159,
    "mz:hierarchy_label": 1,
    "mz:is_current": -1,
    "sfomuseum:filename": "62589.tif",
    "sfomuseum:image_id": 62589,
    "sfomuseum:image_index": 5,
    "sfomuseum:image_type": "studio",
    "sfomuseum:object_id": 139279,
    "sfomuseum:placetype": "image",
    "sfomuseum:primary_image": 1,
    "src:geom": "sfomuseum",
    "wof:belongsto": [
      1511214215,
      1511953863,
      102527513,
      102191575,
      85633793,
      1511213159,
      85922583,
      102087579,
      1511214277,
      1511214203,
      85688637
    ],
    "wof:breaches": [],
    "wof:country": "XX",
    "wof:created": 1578951494,
    "wof:depicts": [
      1511953863,
      1159286839,
      1159284989
    ],
    "wof:geomhash": "bd906905ce4be6c0651c90b0fc24804c",
    "wof:hierarchy": [
      {
        "arcade_id": 1511213159,
        "building_id": 1511214277,
        "campus_id": 102527513,
        "concourse_id": 1511214215,
        "continent_id": 102191575,
        "country_id": 85633793,
        "county_id": 102087579,
        "custom_id": 1527833649,
        "image_id": 1527833649,
        "locality_id": 85922583,
        "media_id": 1527833649,
        "neighbourhood_id": -1,
        "region_id": 85688637,
        "venue_id": 1511953863,
        "wing_id": 1511214203
      }
    ],
    "wof:id": 1527833649,
    "wof:lastmodified": 1788449910,
    "wof:name": "airmail flight cover: Pan American World Airways, New York - Freeport route",
    "wof:parent_id": 1511953863,
    "wof:placetype": "custom",
    "wof:placetype_alt": [
      "image"
    ],
    "wof:repo": "sfomuseum-data-media-collection",
    "wof:superseded_by": [],
    "wof:supersedes": [],
    "wof:tags": []
  },
  "bbox": [
    -122.386155,
    37.616358,
    -122.386155,
    37.616358
  ],
  "geometry": {"type":"Point","coordinates":[-122.386155,37.616358]}
}
