{
  "id": 1527823293,
  "type": "Feature",
  "properties": {
    "date:cessation_lower": "1963-01-01",
    "date:cessation_upper": "1963-12-31",
    "date:inception_lower": "1963-01-01",
    "date:inception_upper": "1963-12-31",
    "edtf:cessation": "1963",
    "edtf:date": "1963",
    "edtf:inception": "1963",
    "geom:area": 0,
    "geom:bbox": "-122.386155,37.616358,-122.386155,37.616358",
    "geom:latitude": 37.616358,
    "geom:longitude": -122.386155,
    "iso:country": "US",
    "media:fingerprint": "7515c1af8c35bdf15949b642d78f26c41a0d99dc",
    "media:imagehash_avg": "a:fffff81c00000000",
    "media:imagehash_diff": "d:e0c380b8b39b98cd",
    "media:medium": "image",
    "media:mimetype": "image/tiff",
    "media:properties": {
      "sizes": {
        "b": {
          "extension": "jpg",
          "height": 768,
          "mimetype": "image/jpeg",
          "secret": "8GtvfMQI0WADrZfIqhXIa21ZPt3z5oAY",
          "width": 969
        },
        "c": {
          "extension": "jpg",
          "height": 600,
          "mimetype": "image/jpeg",
          "secret": "8GtvfMQI0WADrZfIqhXIa21ZPt3z5oAY",
          "width": 757
        },
        "dc": {
          "extension": "jpg",
          "height": 600,
          "mimetype": "image/jpeg",
          "secret": "8GtvfMQI0WADrZfIqhXIa21ZPt3z5oAY",
          "width": 757
        },
        "ds": {
          "extension": "jpg",
          "height": 320,
          "mimetype": "image/jpeg",
          "secret": "8GtvfMQI0WADrZfIqhXIa21ZPt3z5oAY",
          "width": 320
        },
        "k": {
          "extension": "jpg",
          "height": 1536,
          "mimetype": "image/jpeg",
          "secret": "8GtvfMQI0WADrZfIqhXIa21ZPt3z5oAY",
          "width": 1939
        },
        "n": {
          "extension": "jpg",
          "height": 240,
          "mimetype": "image/jpeg",
          "secret": "8GtvfMQI0WADrZfIqhXIa21ZPt3z5oAY",
          "width": 303
        },
        "o": {
          "extension": "jpg",
          "height": 2181,
          "mimetype": "image/jpeg",
          "secret": "2HAESIgUgtU2QWdGxinWI9ZRNtNlQ4o1",
          "width": 2754
        },
        "s": {
          "extension": "jpg",
          "height": 320,
          "mimetype": "image/jpeg",
          "secret": "8GtvfMQI0WADrZfIqhXIa21ZPt3z5oAY",
          "width": 320
        },
        "z": {
          "extension": "jpg",
          "height": 480,
          "mimetype": "image/jpeg",
          "secret": "8GtvfMQI0WADrZfIqhXIa21ZPt3z5oAY",
          "width": 606
        }
      }
    },
    "media:source": "sfomuseum",
    "media:status_id": 1,
    "media:uri_template": "https://static.sfomuseum.org/media/152/782/329/3/1527823293_{secret}_{label}.{extension}",
    "millsfield:airport_id": [
      102527513
    ],
    "millsfield:category_id": 1511214209,
    "millsfield:collection_id": 1511214207,
    "millsfield:images_colors": [
      {
        "hex": "#4b4b4b",
        "name": "#4b4b4b",
        "reference": "marekm4"
      },
      {
        "hex": "#2f4f4f",
        "name": "darkslategrey",
        "reference": "css4"
      },
      {
        "hex": "#414a4c",
        "name": "Outer Space",
        "reference": "crayola"
      },
      {
        "hex": "#cbcbcb",
        "name": "#cbcbcb",
        "reference": "marekm4"
      },
      {
        "hex": "#d3d3d3",
        "name": "lightgrey",
        "reference": "css4"
      },
      {
        "hex": "#cdc5c2",
        "name": "Silver",
        "reference": "crayola"
      }
    ],
    "millsfield:similar": {
      "apple/mobileclip_s0": [
        {
          "distance": 0.5221355,
          "id": 1527823291
        },
        {
          "distance": 0.602166,
          "id": 1527823297
        },
        {
          "distance": 0.6062682,
          "id": 1527822291
        },
        {
          "distance": 0.6134975,
          "id": 1527823295
        },
        {
          "distance": 0.6178131,
          "id": 1527825109
        },
        {
          "distance": 0.6234384,
          "id": 1527822287
        },
        {
          "distance": 0.6234384,
          "id": 1527822289
        },
        {
          "distance": 0.63175046,
          "id": 1527823285
        },
        {
          "distance": 0.6415481,
          "id": 1527826433
        },
        {
          "distance": 0.6453442,
          "id": 1527822277
        }
      ],
      "apple/mobileclip_s1": [
        {
          "distance": 0.33647653,
          "id": 1527823291
        },
        {
          "distance": 0.37006027,
          "id": 1527823297
        },
        {
          "distance": 0.39424953,
          "id": 1527823285
        },
        {
          "distance": 0.3981706,
          "id": 1527822277
        },
        {
          "distance": 0.40093467,
          "id": 1527822287
        },
        {
          "distance": 0.40093467,
          "id": 1527822289
        },
        {
          "distance": 0.4274983,
          "id": 1527823295
        },
        {
          "distance": 0.43653256,
          "id": 1527824287
        },
        {
          "distance": 0.43945333,
          "id": 1527822291
        },
        {
          "distance": 0.44022802,
          "id": 1763441995
        }
      ],
      "apple/mobileclip_s2": [
        {
          "distance": 0.42738998,
          "id": 1527823291
        },
        {
          "distance": 0.5052852,
          "id": 1527823297
        },
        {
          "distance": 0.52726537,
          "id": 1527822287
        },
        {
          "distance": 0.52726537,
          "id": 1527822289
        },
        {
          "distance": 0.5519935,
          "id": 1527823295
        },
        {
          "distance": 0.5565784,
          "id": 1527822277
        },
        {
          "distance": 0.56459695,
          "id": 1527824181
        },
        {
          "distance": 0.57819486,
          "id": 1527823285
        },
        {
          "distance": 0.5791537,
          "id": 1527824105
        },
        {
          "distance": 0.58153015,
          "id": 1527822359
        }
      ]
    },
    "millsfield:subcategory_id": 1511213801,
    "mz:hierarchy_label": 1,
    "mz:is_current": -1,
    "sfomuseum:filename": "41484.tif",
    "sfomuseum:image_id": 41484,
    "sfomuseum:image_index": 5,
    "sfomuseum:image_type": "studio",
    "sfomuseum:object_id": 114918,
    "sfomuseum:placetype": "image",
    "sfomuseum:primary_image": 1,
    "src:geom": "sfomuseum",
    "wof:belongsto": [
      1511214209,
      1511945195,
      102527513,
      102191575,
      85633793,
      1511213801,
      85922583,
      102087579,
      1511214277,
      1511214203,
      85688637
    ],
    "wof:breaches": [],
    "wof:country": "US",
    "wof:created": 1578949879,
    "wof:depicts": [
      102527513,
      1511945195
    ],
    "wof:geomhash": "bd906905ce4be6c0651c90b0fc24804c",
    "wof:hierarchy": [
      {
        "arcade_id": 1511213801,
        "building_id": 1511214277,
        "campus_id": 102527513,
        "concourse_id": 1511214209,
        "continent_id": 102191575,
        "country_id": 85633793,
        "county_id": 102087579,
        "custom_id": 1527823293,
        "image_id": 1527823293,
        "locality_id": 85922583,
        "media_id": 1527823293,
        "neighbourhood_id": -1,
        "region_id": 85688637,
        "venue_id": 1511945195,
        "wing_id": 1511214203
      }
    ],
    "wof:id": 1527823293,
    "wof:lastmodified": 1788449773,
    "wof:name": "negative: San Francisco International Airport (SFO), drainage canals",
    "wof:parent_id": 1511945195,
    "wof:placetype": "custom",
    "wof:placetype_alt": [
      "image"
    ],
    "wof:repo": "sfomuseum-data-media-collection",
    "wof:superseded_by": [],
    "wof:supersedes": [],
    "wof:tags": []
  },
  "bbox": [
    -122.386155,
    37.616358,
    -122.386155,
    37.616358
  ],
  "geometry": {"type":"Point","coordinates":[-122.386155,37.616358]}
}
