{
  "id": 1780288553,
  "type": "Feature",
  "properties": {
    "date:cessation_lower": "1980-01-01",
    "date:cessation_upper": "1989-12-31",
    "date:inception_lower": "1980-01-01",
    "date:inception_upper": "1989-12-31",
    "edtf:cessation": "198X",
    "edtf:inception": "198X",
    "geom:area": 2.477324999997507e-7,
    "geom:bbox": "-122.386472,37.616105,-122.385834,37.616611",
    "geom:latitude": 37.61635756125121,
    "geom:longitude": -122.38615532866096,
    "media:fingerprint": "d981e155a06ecd78f6cd2a0732a5bd7f38865bb5",
    "media:imagehash_avg": "a:ff7f7f3e3c100000",
    "media:imagehash_diff": "d:f0f0fcf8e0d0f0f0",
    "media:imagetext": "«Wardair",
    "media:imagetext_created": 1787965985,
    "media:imagetext_source": "com.apple.visionkit.VNImageRequestHandler#Version 26.6.2 (Build 25G83)",
    "media:mimetype": "image/tiff",
    "media:properties": {
      "sizes": {
        "b": {
          "extension": "jpg",
          "height": 768,
          "mimetype": "image/jpeg",
          "secret": "kRxF0aQ3POJgL4q1VlftDsHtkesCMKst",
          "width": 965
        },
        "c": {
          "extension": "jpg",
          "height": 600,
          "mimetype": "image/jpeg",
          "secret": "kRxF0aQ3POJgL4q1VlftDsHtkesCMKst",
          "width": 754
        },
        "dc": {
          "extension": "jpg",
          "height": 600,
          "mimetype": "image/jpeg",
          "secret": "kRxF0aQ3POJgL4q1VlftDsHtkesCMKst",
          "width": 754
        },
        "ds": {
          "extension": "jpg",
          "height": 320,
          "mimetype": "image/jpeg",
          "secret": "kRxF0aQ3POJgL4q1VlftDsHtkesCMKst",
          "width": 320
        },
        "k": {
          "extension": "jpg",
          "height": 1536,
          "mimetype": "image/jpeg",
          "secret": "kRxF0aQ3POJgL4q1VlftDsHtkesCMKst",
          "width": 1931
        },
        "n": {
          "extension": "jpg",
          "height": 240,
          "mimetype": "image/jpeg",
          "secret": "kRxF0aQ3POJgL4q1VlftDsHtkesCMKst",
          "width": 301
        },
        "o": {
          "extension": "jpg",
          "height": 1667,
          "mimetype": "image/jpeg",
          "secret": "c6efYGCvtbBNtz1XhEjsmt4IHZgj1I7d",
          "width": 2096
        },
        "s": {
          "extension": "jpg",
          "height": 320,
          "mimetype": "image/jpeg",
          "secret": "kRxF0aQ3POJgL4q1VlftDsHtkesCMKst",
          "width": 320
        },
        "z": {
          "extension": "jpg",
          "height": 480,
          "mimetype": "image/jpeg",
          "secret": "kRxF0aQ3POJgL4q1VlftDsHtkesCMKst",
          "width": 603
        }
      }
    },
    "media:source": "sfomuseum",
    "media:status_id": 1,
    "media:uri_template": "https://static.sfomuseum.org/media/178/028/855/3/1780288553_{secret}_{label}.{extension}",
    "millsfield:airline_id": [
      1159285497
    ],
    "millsfield:category_id": 1746152533,
    "millsfield:collection_id": 1511214203,
    "millsfield:company_id": [
      1159288235
    ],
    "millsfield:images_colors": [
      {
        "hex": "#aeaead",
        "name": "#aeaead",
        "reference": "marekm4"
      },
      {
        "hex": "#a9a9a9",
        "name": "darkgrey",
        "reference": "css4"
      },
      {
        "hex": "#b0b7c6",
        "name": "Cadet Blue",
        "reference": "crayola"
      }
    ],
    "millsfield:images_texts": [
      "«Wardair"
    ],
    "millsfield:images_texts_ids": [
      1780288553
    ],
    "millsfield:similar": {
      "apple/mobileclip_s0": [
        {
          "distance": 0.25089437,
          "id": 1780288441
        },
        {
          "distance": 0.29437417,
          "id": 1780288591
        },
        {
          "distance": 0.32416603,
          "id": 1780288437
        },
        {
          "distance": 0.34092164,
          "id": 1780288435
        },
        {
          "distance": 0.45784044,
          "id": 1780288439
        },
        {
          "distance": 0.5217294,
          "id": 1779744633
        },
        {
          "distance": 0.52644867,
          "id": 1780288921
        },
        {
          "distance": 0.52975345,
          "id": 1779744715
        },
        {
          "distance": 0.53751814,
          "id": 1780288357
        },
        {
          "distance": 0.5402602,
          "id": 1779744731
        }
      ],
      "apple/mobileclip_s1": [
        {
          "distance": 0.21220908,
          "id": 1780288435
        },
        {
          "distance": 0.22267836,
          "id": 1780288441
        },
        {
          "distance": 0.22688684,
          "id": 1780288591
        },
        {
          "distance": 0.24104081,
          "id": 1780288437
        },
        {
          "distance": 0.34477246,
          "id": 1780288439
        },
        {
          "distance": 0.4182632,
          "id": 1779744955
        },
        {
          "distance": 0.42069265,
          "id": 1779744633
        },
        {
          "distance": 0.4319215,
          "id": 1780288445
        },
        {
          "distance": 0.43775398,
          "id": 1780288617
        },
        {
          "distance": 0.43977022,
          "id": 1780288557
        }
      ],
      "apple/mobileclip_s2": [
        {
          "distance": 0.23666948,
          "id": 1780288435
        },
        {
          "distance": 0.2466964,
          "id": 1780288441
        },
        {
          "distance": 0.2863048,
          "id": 1780288591
        },
        {
          "distance": 0.33115253,
          "id": 1780288437
        },
        {
          "distance": 0.504294,
          "id": 1780288439
        },
        {
          "distance": 0.6167306,
          "id": 1779744955
        },
        {
          "distance": 0.6334843,
          "id": 1779744369
        },
        {
          "distance": 0.6401262,
          "id": 1779744355
        },
        {
          "distance": 0.6409177,
          "id": 1779744633
        },
        {
          "distance": 0.6472238,
          "id": 1779744953
        }
      ]
    },
    "millsfield:subcategory_id": 1511213833,
    "mz:is_current": 1,
    "sfomuseum:filename": "110367.tif",
    "sfomuseum:image_id": 110367,
    "sfomuseum:image_index": 5,
    "sfomuseum:image_type": "studio",
    "sfomuseum:object_id": 121765,
    "sfomuseum:placetype": "image",
    "sfomuseum:primary_image": 1,
    "src:geom": "sfomuseum",
    "wof:belongsto": [
      102527513,
      1159162825,
      102191575,
      85633793,
      102087579,
      85922583,
      1780287697,
      85688637,
      1159160869
    ],
    "wof:country": "XY",
    "wof:created": 1660809574,
    "wof:depicts": [
      1159288235,
      1780287697,
      1159285497
    ],
    "wof:geomhash": "ed7c2ab3547fc3916b5edc33488deaa7",
    "wof:hierarchy": [
      {
        "building_id": -1,
        "campus_id": 102527513,
        "collection_id": 1159162825,
        "concourse_id": 1159162825,
        "continent_id": 102191575,
        "country_id": 85633793,
        "county_id": 102087579,
        "custom_id": 1780288553,
        "image_id": 1780288553,
        "locality_id": 85922583,
        "neighbourhood_id": -1,
        "object_id": 1780287697,
        "region_id": 85688637,
        "wing_id": 1159160869
      }
    ],
    "wof:id": 1780288553,
    "wof:lastmodified": 1788451469,
    "wof:name": "swizzle stick: Wardair Canada",
    "wof:parent_id": 1780287697,
    "wof:placetype": "custom",
    "wof:placetype_alt": [
      "image"
    ],
    "wof:repo": "sfomuseum-data-media-collection",
    "wof:superseded_by": [],
    "wof:supersedes": []
  },
  "bbox": [
    -122.386472,
    37.616105,
    -122.385834,
    37.616611
  ],
  "geometry": {"type":"Polygon","coordinates":[[[-122.386472,37.616318],[-122.386435,37.616233],[-122.386376,37.616178],[-122.386301,37.616131],[-122.386161,37.616105],[-122.386022,37.616131],[-122.385914,37.616186],[-122.385855,37.616267],[-122.385834,37.616369],[-122.385871,37.616467],[-122.385941,37.616543],[-122.386054,37.616603],[-122.386183,37.616611],[-122.386306,37.616573],[-122.386419,37.616509],[-122.386467,37.616411],[-122.386472,37.616318]]]}
}
