{
  "id": 1527835413,
  "type": "Feature",
  "properties": {
    "date:cessation_lower": "1968-01-01",
    "date:cessation_upper": "1968-12-31",
    "date:inception_lower": "1968-01-01",
    "date:inception_upper": "1968-12-31",
    "edtf:cessation": "1968",
    "edtf:date": "1968",
    "edtf:inception": "1968",
    "geom:area": 0,
    "geom:bbox": "-122.386155,37.616358,-122.386155,37.616358",
    "geom:latitude": 37.616358,
    "geom:longitude": -122.386155,
    "iso:country": "XX",
    "media:fingerprint": "5658d97e2189cc593c25a4c5a1a3a2b55f094b08",
    "media:imagehash_avg": "a:ffffff0000000080",
    "media:imagehash_diff": "d:0f0d0f6f4d49434e",
    "media:imagetext": "EFFECTIVE OCTOBER 1, 1968\nTWA\nTHE ALL-JET AIRLINE\nupupandaway TWA\n*Service mark owned exclusiveiy by Trans world Airlines, Inc.\nWORLOWIDE SYSTEM TIMETABLE",
    "media:imagetext_created": 1787949876,
    "media:imagetext_source": "com.apple.visionkit.VNImageRequestHandler#Version 26.6.2 (Build 25G83)",
    "media:medium": "image",
    "media:mimetype": "image/tiff",
    "media:properties": {
      "sizes": {
        "b": {
          "extension": "jpg",
          "height": 768,
          "mimetype": "image/jpeg",
          "secret": "o1pPUxmqrbWeQq1rbZe1nQ6z9oy7S893",
          "width": 347
        },
        "c": {
          "extension": "jpg",
          "height": 600,
          "mimetype": "image/jpeg",
          "secret": "o1pPUxmqrbWeQq1rbZe1nQ6z9oy7S893",
          "width": 271
        },
        "dc": {
          "extension": "jpg",
          "height": 600,
          "mimetype": "image/jpeg",
          "secret": "o1pPUxmqrbWeQq1rbZe1nQ6z9oy7S893",
          "width": 271
        },
        "ds": {
          "extension": "jpg",
          "height": 320,
          "mimetype": "image/jpeg",
          "secret": "o1pPUxmqrbWeQq1rbZe1nQ6z9oy7S893",
          "width": 320
        },
        "k": {
          "extension": "jpg",
          "height": 1536,
          "mimetype": "image/jpeg",
          "secret": "o1pPUxmqrbWeQq1rbZe1nQ6z9oy7S893",
          "width": 694
        },
        "n": {
          "extension": "jpg",
          "height": 240,
          "mimetype": "image/jpeg",
          "secret": "o1pPUxmqrbWeQq1rbZe1nQ6z9oy7S893",
          "width": 108
        },
        "o": {
          "extension": "jpg",
          "height": 2646,
          "mimetype": "image/jpeg",
          "secret": "RnlxalT4mIMQZcKuy2g6h4cnpnEs0Q4n",
          "width": 1196
        },
        "s": {
          "extension": "jpg",
          "height": 320,
          "mimetype": "image/jpeg",
          "secret": "o1pPUxmqrbWeQq1rbZe1nQ6z9oy7S893",
          "width": 320
        },
        "z": {
          "extension": "jpg",
          "height": 480,
          "mimetype": "image/jpeg",
          "secret": "o1pPUxmqrbWeQq1rbZe1nQ6z9oy7S893",
          "width": 216
        }
      }
    },
    "media:source": "sfomuseum",
    "media:status_id": 1,
    "media:uri_template": "https://static.sfomuseum.org/media/152/783/541/3/1527835413_{secret}_{label}.{extension}",
    "millsfield:airline_id": [
      1159285393
    ],
    "millsfield:category_id": 1511214223,
    "millsfield:collection_id": 1511214207,
    "millsfield:company_id": [
      1159287531
    ],
    "millsfield:images_colors": [
      {
        "hex": "#be1612",
        "name": "#be1612",
        "reference": "marekm4"
      },
      {
        "hex": "#b22222",
        "name": "firebrick",
        "reference": "css4"
      },
      {
        "hex": "#9c2542",
        "name": "Big Dip O' Ruby",
        "reference": "crayola"
      },
      {
        "hex": "#e4d7c8",
        "name": "#e4d7c8",
        "reference": "marekm4"
      },
      {
        "hex": "#d3d3d3",
        "name": "lightgrey",
        "reference": "css4"
      },
      {
        "hex": "#dbd7d2",
        "name": "Timberwolf",
        "reference": "crayola"
      },
      {
        "hex": "#1e1b3d",
        "name": "#1e1b3d",
        "reference": "marekm4"
      },
      {
        "hex": "#191970",
        "name": "midnightblue",
        "reference": "css4"
      },
      {
        "hex": "#414a4c",
        "name": "Outer Space",
        "reference": "crayola"
      }
    ],
    "millsfield:images_texts": [
      "EFFECTIVE OCTOBER 1, 1968\nTWA\nTHE ALL-JET AIRLINE\nupupandaway TWA\n*Service mark owned exclusiveiy by Trans world Airlines, Inc.\nWORLOWIDE SYSTEM TIMETABLE"
    ],
    "millsfield:images_texts_ids": [
      1527835413
    ],
    "millsfield:similar": {
      "apple/mobileclip_s0": [
        {
          "distance": 0.14804803,
          "id": 1527835357
        },
        {
          "distance": 0.15958929,
          "id": 1527835409
        },
        {
          "distance": 0.1604377,
          "id": 1527835351
        },
        {
          "distance": 0.16199262,
          "id": 1762696957
        },
        {
          "distance": 0.17355633,
          "id": 1527835355
        },
        {
          "distance": 0.17868994,
          "id": 1762696959
        },
        {
          "distance": 0.18225707,
          "id": 1527835337
        },
        {
          "distance": 0.18289044,
          "id": 1527835341
        },
        {
          "distance": 0.18332657,
          "id": 1763195957
        },
        {
          "distance": 0.19817916,
          "id": 1527835343
        }
      ],
      "apple/mobileclip_s1": [
        {
          "distance": 0.10376876,
          "id": 1527835357
        },
        {
          "distance": 0.11611395,
          "id": 1527835341
        },
        {
          "distance": 0.11687197,
          "id": 1762696957
        },
        {
          "distance": 0.11780196,
          "id": 1762696959
        },
        {
          "distance": 0.12074472,
          "id": 1527835355
        },
        {
          "distance": 0.12703785,
          "id": 1763195957
        },
        {
          "distance": 0.12797005,
          "id": 1527835351
        },
        {
          "distance": 0.13428636,
          "id": 1527835353
        },
        {
          "distance": 0.13844134,
          "id": 1762696951
        },
        {
          "distance": 0.14613359,
          "id": 1527835337
        }
      ],
      "apple/mobileclip_s2": [
        {
          "distance": 0.10014445,
          "id": 1527835357
        },
        {
          "distance": 0.11136623,
          "id": 1527835351
        },
        {
          "distance": 0.11979002,
          "id": 1762696959
        },
        {
          "distance": 0.12281506,
          "id": 1763195957
        },
        {
          "distance": 0.1256893,
          "id": 1527835341
        },
        {
          "distance": 0.13704775,
          "id": 1527835353
        },
        {
          "distance": 0.14234908,
          "id": 1762696957
        },
        {
          "distance": 0.1425934,
          "id": 1527835343
        },
        {
          "distance": 0.14471798,
          "id": 1527835355
        },
        {
          "distance": 0.16348808,
          "id": 1527835337
        }
      ]
    },
    "millsfield:subcategory_id": 1511213425,
    "mz:hierarchy_label": 1,
    "mz:is_current": -1,
    "sfomuseum:filename": "63722.tif",
    "sfomuseum:image_id": 63722,
    "sfomuseum:image_index": 5,
    "sfomuseum:image_type": "studio",
    "sfomuseum:object_id": 81456,
    "sfomuseum:placetype": "image",
    "sfomuseum:primary_image": 1,
    "src:geom": "sfomuseum",
    "wof:belongsto": [
      1511214223,
      1511928175,
      102527513,
      102191575,
      85633793,
      1511213425,
      85922583,
      102087579,
      1511214277,
      1511214203,
      85688637
    ],
    "wof:breaches": [],
    "wof:country": "XX",
    "wof:created": 1578951770,
    "wof:depicts": [
      1511928175,
      1159287531,
      1159285393
    ],
    "wof:geomhash": "bd906905ce4be6c0651c90b0fc24804c",
    "wof:hierarchy": [
      {
        "arcade_id": 1511213425,
        "building_id": 1511214277,
        "campus_id": 102527513,
        "concourse_id": 1511214223,
        "continent_id": 102191575,
        "country_id": 85633793,
        "county_id": 102087579,
        "custom_id": 1527835413,
        "image_id": 1527835413,
        "locality_id": 85922583,
        "media_id": 1527835413,
        "neighbourhood_id": -1,
        "region_id": 85688637,
        "venue_id": 1511928175,
        "wing_id": 1511214203
      }
    ],
    "wof:id": 1527835413,
    "wof:lastmodified": 1788449936,
    "wof:name": "timetable: TWA (Trans World Airlines)",
    "wof:parent_id": 1511928175,
    "wof:placetype": "custom",
    "wof:placetype_alt": [
      "image"
    ],
    "wof:repo": "sfomuseum-data-media-collection",
    "wof:superseded_by": [],
    "wof:supersedes": [],
    "wof:tags": []
  },
  "bbox": [
    -122.386155,
    37.616358,
    -122.386155,
    37.616358
  ],
  "geometry": {"type":"Point","coordinates":[-122.386155,37.616358]}
}
