{
  "id": 1896967031,
  "type": "Feature",
  "properties": {
    "date:cessation_lower": "1960-01-01",
    "date:cessation_upper": "1960-12-31",
    "date:inception_lower": "1960-01-01",
    "date:inception_upper": "1960-12-31",
    "edtf:cessation": "1960",
    "edtf:inception": "1960",
    "geom:area": 2.477324999997507e-7,
    "geom:bbox": "-122.386472,37.616105,-122.385834,37.616611",
    "geom:latitude": 37.61635756125121,
    "geom:longitude": -122.38615532866096,
    "media:fingerprint": "5012bee913398e46eb3c5ecc451ad07c6a4e8e8b",
    "media:imagehash_avg": "a:ffffc7c3c381c3c3",
    "media:imagehash_diff": "d:f0cc0f1f17171707",
    "media:imagetext": "",
    "media:mimetype": "image/tiff",
    "media:properties": {
      "sizes": {
        "b": {
          "extension": "jpg",
          "height": 768,
          "mimetype": "image/jpeg",
          "secret": "BuLVoOhCahl6GVzXdsKNsbt14j0fn8AK",
          "width": 960
        },
        "c": {
          "extension": "jpg",
          "height": 600,
          "mimetype": "image/jpeg",
          "secret": "BuLVoOhCahl6GVzXdsKNsbt14j0fn8AK",
          "width": 750
        },
        "dc": {
          "extension": "jpg",
          "height": 600,
          "mimetype": "image/jpeg",
          "secret": "BuLVoOhCahl6GVzXdsKNsbt14j0fn8AK",
          "width": 750
        },
        "ds": {
          "extension": "jpg",
          "height": 320,
          "mimetype": "image/jpeg",
          "secret": "BuLVoOhCahl6GVzXdsKNsbt14j0fn8AK",
          "width": 320
        },
        "k": {
          "extension": "jpg",
          "height": 1536,
          "mimetype": "image/jpeg",
          "secret": "BuLVoOhCahl6GVzXdsKNsbt14j0fn8AK",
          "width": 1920
        },
        "n": {
          "extension": "jpg",
          "height": 240,
          "mimetype": "image/jpeg",
          "secret": "BuLVoOhCahl6GVzXdsKNsbt14j0fn8AK",
          "width": 300
        },
        "o": {
          "extension": "jpg",
          "height": 1680,
          "mimetype": "image/jpeg",
          "secret": "5YLgrKPVdRuX596wpui3kQLgKZOsQLIQ",
          "width": 2100
        },
        "s": {
          "extension": "jpg",
          "height": 320,
          "mimetype": "image/jpeg",
          "secret": "BuLVoOhCahl6GVzXdsKNsbt14j0fn8AK",
          "width": 320
        },
        "z": {
          "extension": "jpg",
          "height": 480,
          "mimetype": "image/jpeg",
          "secret": "BuLVoOhCahl6GVzXdsKNsbt14j0fn8AK",
          "width": 600
        }
      }
    },
    "media:source": "sfomuseum",
    "media:status_id": 1,
    "media:uri_template": "https://static.sfomuseum.org/media/189/696/703/1/1896967031_{secret}_{label}.{extension}",
    "millsfield:airline_id": [
      1159285393
    ],
    "millsfield:category_id": 1763416393,
    "millsfield:collection_id": 1511214203,
    "millsfield:company_id": [
      1159287531
    ],
    "millsfield:images_colors": [
      {
        "hex": "#adb2b0",
        "name": "#adb2b0",
        "reference": "marekm4"
      },
      {
        "hex": "#a9a9a9",
        "name": "darkgrey",
        "reference": "css4"
      },
      {
        "hex": "#b0b7c6",
        "name": "Cadet Blue",
        "reference": "crayola"
      },
      {
        "hex": "#3a2f2e",
        "name": "#3a2f2e",
        "reference": "marekm4"
      },
      {
        "hex": "#2f4f4f",
        "name": "darkslategrey",
        "reference": "css4"
      },
      {
        "hex": "#414a4c",
        "name": "Outer Space",
        "reference": "crayola"
      }
    ],
    "millsfield:images_texts": [
      "Don Jogaer\nTWA"
    ],
    "millsfield:images_texts_ids": [
      1896967029
    ],
    "millsfield:similar": {
      "apple/mobileclip_s0": [
        {
          "distance": 0.32954246,
          "id": 1897432819
        },
        {
          "distance": 0.35611668,
          "id": 1896966663
        },
        {
          "distance": 0.3647381,
          "id": 1880407733
        },
        {
          "distance": 0.36524126,
          "id": 1880874039
        },
        {
          "distance": 0.3655466,
          "id": 1880369735
        },
        {
          "distance": 0.36722174,
          "id": 1880713275
        },
        {
          "distance": 0.36789456,
          "id": 1896966581
        },
        {
          "distance": 0.3685783,
          "id": 1914309449
        },
        {
          "distance": 0.36952737,
          "id": 1746777179
        },
        {
          "distance": 0.37756,
          "id": 1881101353
        }
      ],
      "apple/mobileclip_s1": [
        {
          "distance": 0.2573875,
          "id": 1881101353
        },
        {
          "distance": 0.2573875,
          "id": 1896922493
        },
        {
          "distance": 0.26328903,
          "id": 1897432819
        },
        {
          "distance": 0.2688,
          "id": 1914309449
        },
        {
          "distance": 0.27027896,
          "id": 1896966667
        },
        {
          "distance": 0.27029374,
          "id": 1746777179
        },
        {
          "distance": 0.27054706,
          "id": 1880407733
        },
        {
          "distance": 0.28354856,
          "id": 1880498599
        },
        {
          "distance": 0.29400188,
          "id": 1880713275
        },
        {
          "distance": 0.29484513,
          "id": 1880369735
        }
      ],
      "apple/mobileclip_s2": [
        {
          "distance": 0.36545646,
          "id": 1897432819
        },
        {
          "distance": 0.4005555,
          "id": 1880407733
        },
        {
          "distance": 0.41022256,
          "id": 1880498599
        },
        {
          "distance": 0.4140653,
          "id": 1880439925
        },
        {
          "distance": 0.41858897,
          "id": 1746777179
        },
        {
          "distance": 0.42832628,
          "id": 1746865263
        },
        {
          "distance": 0.43027782,
          "id": 1880713275
        },
        {
          "distance": 0.4310759,
          "id": 1896966663
        },
        {
          "distance": 0.435025,
          "id": 1896966667
        },
        {
          "distance": 0.4394936,
          "id": 1880874039
        }
      ]
    },
    "millsfield:subcategory_id": 1511213457,
    "mz:is_current": 1,
    "sfomuseum:filename": "2022.060.014_2.tif",
    "sfomuseum:image_id": 274406,
    "sfomuseum:image_index": 0,
    "sfomuseum:image_type": "studio",
    "sfomuseum:object_id": 230525,
    "sfomuseum:placetype": "image",
    "sfomuseum:primary_image": 0,
    "src:geom": "sfomuseum",
    "wof:belongsto": [
      102527513,
      1159162825,
      102191575,
      85633793,
      102087579,
      85922583,
      1896965663,
      85688637,
      1159160869
    ],
    "wof:country": "XY",
    "wof:created": 1703666430,
    "wof:depicts": [
      1896965663,
      1159285393,
      1159287531
    ],
    "wof:geomhash": "ed7c2ab3547fc3916b5edc33488deaa7",
    "wof:hierarchy": [
      {
        "building_id": -1,
        "campus_id": 102527513,
        "collection_id": 1159162825,
        "concourse_id": 1159162825,
        "continent_id": 102191575,
        "country_id": 85633793,
        "county_id": 102087579,
        "custom_id": 1896967031,
        "image_id": 1896967031,
        "locality_id": 85922583,
        "neighbourhood_id": -1,
        "object_id": 1896965663,
        "region_id": 85688637,
        "wing_id": 1159160869
      }
    ],
    "wof:id": 1896967031,
    "wof:lastmodified": 1788452022,
    "wof:name": "air hostess jacket: TWA (Trans World Airlines), winter",
    "wof:parent_id": 1896965663,
    "wof:placetype": "custom",
    "wof:placetype_alt": [
      "image"
    ],
    "wof:repo": "sfomuseum-data-media-collection",
    "wof:superseded_by": [],
    "wof:supersedes": []
  },
  "bbox": [
    -122.386472,
    37.616105,
    -122.385834,
    37.616611
  ],
  "geometry": {"type":"Polygon","coordinates":[[[-122.386472,37.616318],[-122.386435,37.616233],[-122.386376,37.616178],[-122.386301,37.616131],[-122.386161,37.616105],[-122.386022,37.616131],[-122.385914,37.616186],[-122.385855,37.616267],[-122.385834,37.616369],[-122.385871,37.616467],[-122.385941,37.616543],[-122.386054,37.616603],[-122.386183,37.616611],[-122.386306,37.616573],[-122.386419,37.616509],[-122.386467,37.616411],[-122.386472,37.616318]]]}
}
