{
  "id": 1527825225,
  "type": "Feature",
  "properties": {
    "date:cessation_lower": "1964-01-01",
    "date:cessation_upper": "1964-12-31",
    "date:inception_lower": "1964-01-01",
    "date:inception_upper": "1964-12-31",
    "edtf:cessation": "1964",
    "edtf:date": "1964",
    "edtf:inception": "1964",
    "geom:area": 0,
    "geom:bbox": "-122.386155,37.616358,-122.386155,37.616358",
    "geom:latitude": 37.616358,
    "geom:longitude": -122.386155,
    "iso:country": "US",
    "media:fingerprint": "ac3eb6ef1e1e8a8b193cc1c3fe80707ace46217c",
    "media:imagehash_avg": "a:ffffff1f0f070000",
    "media:imagehash_diff": "d:f0f8f87e1f1fb85f",
    "media:medium": "image",
    "media:mimetype": "image/tiff",
    "media:properties": {
      "sizes": {
        "b": {
          "extension": "jpg",
          "height": 768,
          "mimetype": "image/jpeg",
          "secret": "fgloVrDqbkqnfLfCT1mr2LR7QAPbNTN9",
          "width": 768
        },
        "c": {
          "extension": "jpg",
          "height": 600,
          "mimetype": "image/jpeg",
          "secret": "fgloVrDqbkqnfLfCT1mr2LR7QAPbNTN9",
          "width": 600
        },
        "dc": {
          "extension": "jpg",
          "height": 600,
          "mimetype": "image/jpeg",
          "secret": "fgloVrDqbkqnfLfCT1mr2LR7QAPbNTN9",
          "width": 600
        },
        "ds": {
          "extension": "jpg",
          "height": 320,
          "mimetype": "image/jpeg",
          "secret": "fgloVrDqbkqnfLfCT1mr2LR7QAPbNTN9",
          "width": 320
        },
        "k": {
          "extension": "jpg",
          "height": 1536,
          "mimetype": "image/jpeg",
          "secret": "fgloVrDqbkqnfLfCT1mr2LR7QAPbNTN9",
          "width": 1536
        },
        "n": {
          "extension": "jpg",
          "height": 239,
          "mimetype": "image/jpeg",
          "secret": "fgloVrDqbkqnfLfCT1mr2LR7QAPbNTN9",
          "width": 239
        },
        "o": {
          "extension": "jpg",
          "height": 2563,
          "mimetype": "image/jpeg",
          "secret": "SgrR2QvkBZWLPW7rwV7vHIlmR1Fj5apG",
          "width": 2563
        },
        "s": {
          "extension": "jpg",
          "height": 320,
          "mimetype": "image/jpeg",
          "secret": "fgloVrDqbkqnfLfCT1mr2LR7QAPbNTN9",
          "width": 320
        },
        "z": {
          "extension": "jpg",
          "height": 479,
          "mimetype": "image/jpeg",
          "secret": "fgloVrDqbkqnfLfCT1mr2LR7QAPbNTN9",
          "width": 479
        }
      }
    },
    "media:source": "sfomuseum",
    "media:status_id": 1,
    "media:uri_template": "https://static.sfomuseum.org/media/152/782/522/5/1527825225_{secret}_{label}.{extension}",
    "millsfield:airport_id": [
      102527513
    ],
    "millsfield:category_id": 1511214209,
    "millsfield:collection_id": 1511214207,
    "millsfield:images_colors": [
      {
        "hex": "#dbdbdb",
        "name": "#dbdbdb",
        "reference": "marekm4"
      },
      {
        "hex": "#dcdcdc",
        "name": "gainsboro",
        "reference": "css4"
      },
      {
        "hex": "#dbd7d2",
        "name": "Timberwolf",
        "reference": "crayola"
      },
      {
        "hex": "#2c2c2c",
        "name": "#2c2c2c",
        "reference": "marekm4"
      },
      {
        "hex": "#2f4f4f",
        "name": "darkslategrey",
        "reference": "css4"
      },
      {
        "hex": "#414a4c",
        "name": "Outer Space",
        "reference": "crayola"
      }
    ],
    "millsfield:similar": {
      "apple/mobileclip_s0": [
        {
          "distance": 0.47284263,
          "id": 1527828491
        },
        {
          "distance": 0.48545203,
          "id": 1527826891
        },
        {
          "distance": 0.5011892,
          "id": 1527826321
        },
        {
          "distance": 0.51448864,
          "id": 1527827907
        },
        {
          "distance": 0.5208215,
          "id": 1527825227
        },
        {
          "distance": 0.5250611,
          "id": 1527825833
        },
        {
          "distance": 0.53363705,
          "id": 1527825407
        },
        {
          "distance": 0.5364145,
          "id": 1527825149
        },
        {
          "distance": 0.5497388,
          "id": 1527827917
        },
        {
          "distance": 0.5569412,
          "id": 1527826907
        }
      ],
      "apple/mobileclip_s1": [
        {
          "distance": 0.3721392,
          "id": 1527828491
        },
        {
          "distance": 0.39723185,
          "id": 1527825227
        },
        {
          "distance": 0.4056768,
          "id": 1527822725
        },
        {
          "distance": 0.4123592,
          "id": 1527825833
        },
        {
          "distance": 0.41882148,
          "id": 1527821957
        },
        {
          "distance": 0.42067122,
          "id": 1527828495
        },
        {
          "distance": 0.42272958,
          "id": 1527827907
        },
        {
          "distance": 0.4244689,
          "id": 1527823271
        },
        {
          "distance": 0.4291274,
          "id": 1527827903
        },
        {
          "distance": 0.4338266,
          "id": 1527826321
        }
      ],
      "apple/mobileclip_s2": [
        {
          "distance": 0.49844545,
          "id": 1527828495
        },
        {
          "distance": 0.49937376,
          "id": 1527822725
        },
        {
          "distance": 0.5047906,
          "id": 1527825227
        },
        {
          "distance": 0.53643215,
          "id": 1763441467
        },
        {
          "distance": 0.5430779,
          "id": 1527825833
        },
        {
          "distance": 0.54374456,
          "id": 1527826263
        },
        {
          "distance": 0.54845476,
          "id": 1527828515
        },
        {
          "distance": 0.5499595,
          "id": 1763441457
        },
        {
          "distance": 0.5530328,
          "id": 1527822627
        },
        {
          "distance": 0.56084454,
          "id": 1763441313
        }
      ]
    },
    "millsfield:subcategory_id": 1511213801,
    "mz:hierarchy_label": 1,
    "mz:is_current": -1,
    "sfomuseum:filename": "43036.tif",
    "sfomuseum:image_id": 43036,
    "sfomuseum:image_index": 5,
    "sfomuseum:image_type": "studio",
    "sfomuseum:object_id": 115590,
    "sfomuseum:placetype": "image",
    "sfomuseum:primary_image": 1,
    "src:geom": "sfomuseum",
    "wof:belongsto": [
      1511214209,
      1511946151,
      102527513,
      102191575,
      85633793,
      1511213801,
      85922583,
      102087579,
      1511214277,
      1511214203,
      85688637
    ],
    "wof:breaches": [],
    "wof:country": "US",
    "wof:created": 1578950180,
    "wof:depicts": [
      102527513,
      1511946151
    ],
    "wof:geomhash": "bd906905ce4be6c0651c90b0fc24804c",
    "wof:hierarchy": [
      {
        "arcade_id": 1511213801,
        "building_id": 1511214277,
        "campus_id": 102527513,
        "concourse_id": 1511214209,
        "continent_id": 102191575,
        "country_id": 85633793,
        "county_id": 102087579,
        "custom_id": 1527825225,
        "image_id": 1527825225,
        "locality_id": 85922583,
        "media_id": 1527825225,
        "neighbourhood_id": -1,
        "region_id": 85688637,
        "venue_id": 1511946151,
        "wing_id": 1511214203
      }
    ],
    "wof:id": 1527825225,
    "wof:lastmodified": 1788449802,
    "wof:name": "negative: San Francisco International Airport (SFO), parking garage construction",
    "wof:parent_id": 1511946151,
    "wof:placetype": "custom",
    "wof:placetype_alt": [
      "image"
    ],
    "wof:repo": "sfomuseum-data-media-collection",
    "wof:superseded_by": [],
    "wof:supersedes": [],
    "wof:tags": []
  },
  "bbox": [
    -122.386155,
    37.616358,
    -122.386155,
    37.616358
  ],
  "geometry": {"type":"Point","coordinates":[-122.386155,37.616358]}
}
