{
  "id": 1527819245,
  "type": "Feature",
  "properties": {
    "date:cessation_lower": "1962-01-01",
    "date:cessation_upper": "1962-12-31",
    "date:inception_lower": "1962-01-01",
    "date:inception_upper": "1962-12-31",
    "edtf:cessation": "1962",
    "edtf:date": "1962",
    "edtf:inception": "1962",
    "geom:area": 0,
    "geom:bbox": "-122.386155,37.616358,-122.386155,37.616358",
    "geom:latitude": 37.616358,
    "geom:longitude": -122.386155,
    "iso:country": "XX",
    "media:fingerprint": "c0ec3aa988604ad900e2ae35cb9954e754edee14",
    "media:imagehash_avg": "a:0000f0f0f0f8fcf8",
    "media:imagehash_diff": "d:c440200004010101",
    "media:imagetext": "From JULY Ist. to SEPTEMBER 30th., 1962.\nMEXICANA\nCMA\nAIRLINES\nMEXICO'S FIRST AIRLINE SINCE 1924.\nTIMETABLES \u0026 FARES\nPAN\nAMERICAN AFFILIATE",
    "media:imagetext_created": 1787947766,
    "media:imagetext_source": "com.apple.visionkit.VNImageRequestHandler#Version 26.6.2 (Build 25G83)",
    "media:medium": "image",
    "media:mimetype": "image/jpeg",
    "media:properties": {
      "sizes": {
        "b": {
          "extension": "jpg",
          "height": 768,
          "mimetype": "image/jpeg",
          "secret": "DVstMnIeYvx3Q5qMwc4ih0LGdS76CQnm",
          "width": 351
        },
        "c": {
          "extension": "jpg",
          "height": 600,
          "mimetype": "image/jpeg",
          "secret": "DVstMnIeYvx3Q5qMwc4ih0LGdS76CQnm",
          "width": 274
        },
        "dc": {
          "extension": "jpg",
          "height": 600,
          "mimetype": "image/jpeg",
          "secret": "DVstMnIeYvx3Q5qMwc4ih0LGdS76CQnm",
          "width": 274
        },
        "ds": {
          "extension": "jpg",
          "height": 320,
          "mimetype": "image/jpeg",
          "secret": "DVstMnIeYvx3Q5qMwc4ih0LGdS76CQnm",
          "width": 320
        },
        "k": {
          "extension": "jpg",
          "height": 1536,
          "mimetype": "image/jpeg",
          "secret": "DVstMnIeYvx3Q5qMwc4ih0LGdS76CQnm",
          "width": 703
        },
        "n": {
          "extension": "jpg",
          "height": 240,
          "mimetype": "image/jpeg",
          "secret": "DVstMnIeYvx3Q5qMwc4ih0LGdS76CQnm",
          "width": 109
        },
        "o": {
          "extension": "jpg",
          "height": 3367,
          "mimetype": "image/jpeg",
          "secret": "yNt2wNsgjbDWA48lANcAH1tQPMPVF6Lu",
          "width": 1543
        },
        "s": {
          "extension": "jpg",
          "height": 320,
          "mimetype": "image/jpeg",
          "secret": "DVstMnIeYvx3Q5qMwc4ih0LGdS76CQnm",
          "width": 320
        },
        "z": {
          "extension": "jpg",
          "height": 480,
          "mimetype": "image/jpeg",
          "secret": "DVstMnIeYvx3Q5qMwc4ih0LGdS76CQnm",
          "width": 219
        }
      }
    },
    "media:source": "sfomuseum",
    "media:status_id": 1,
    "media:uri_template": "https://static.sfomuseum.org/media/152/781/924/5/1527819245_{secret}_{label}.{extension}",
    "millsfield:airline_id": [
      1159284781
    ],
    "millsfield:category_id": 1511214223,
    "millsfield:collection_id": 1511214207,
    "millsfield:company_id": [
      1159287451
    ],
    "millsfield:images_colors": [
      {
        "hex": "#96692c",
        "name": "#96692c",
        "reference": "marekm4"
      },
      {
        "hex": "#a0522d",
        "name": "sienna",
        "reference": "css4"
      },
      {
        "hex": "#9c7c38",
        "name": "Metallic Sunburst",
        "reference": "crayola"
      },
      {
        "hex": "#c29852",
        "name": "#c29852",
        "reference": "marekm4"
      },
      {
        "hex": "#cd853f",
        "name": "peru",
        "reference": "css4"
      },
      {
        "hex": "#d68a59",
        "name": "Raw Sienna",
        "reference": "crayola"
      },
      {
        "hex": "#34210e",
        "name": "#34210e",
        "reference": "marekm4"
      },
      {
        "hex": "#000000",
        "name": "black",
        "reference": "css4"
      },
      {
        "hex": "#000000",
        "name": "Black",
        "reference": "crayola"
      },
      {
        "hex": "#ead0a9",
        "name": "#ead0a9",
        "reference": "marekm4"
      },
      {
        "hex": "#f5deb3",
        "name": "wheat",
        "reference": "css4"
      },
      {
        "hex": "#edd19c",
        "name": "Maize",
        "reference": "crayola"
      }
    ],
    "millsfield:images_texts": [
      "From JULY Ist. to SEPTEMBER 30th., 1962.\nMEXICANA\nCMA\nAIRLINES\nMEXICO'S FIRST AIRLINE SINCE 1924.\nTIMETABLES \u0026 FARES\nPAN\nAMERICAN AFFILIATE"
    ],
    "millsfield:images_texts_ids": [
      1527819245
    ],
    "millsfield:similar": {
      "apple/mobileclip_s0": [
        {
          "distance": 0.66697437,
          "id": 1527844003
        },
        {
          "distance": 0.6759713,
          "id": 1913823129
        },
        {
          "distance": 0.6925876,
          "id": 1527854635
        },
        {
          "distance": 0.7029347,
          "id": 1527841105
        },
        {
          "distance": 0.7034859,
          "id": 1527844449
        },
        {
          "distance": 0.70725906,
          "id": 1527841103
        },
        {
          "distance": 0.7129307,
          "id": 1762705095
        },
        {
          "distance": 0.71878046,
          "id": 1527843471
        },
        {
          "distance": 0.7198949,
          "id": 1527851399
        },
        {
          "distance": 0.7250106,
          "id": 1762704709
        }
      ],
      "apple/mobileclip_s1": [
        {
          "distance": 0.43962088,
          "id": 1527844449
        },
        {
          "distance": 0.46817777,
          "id": 1762700983
        },
        {
          "distance": 0.4729803,
          "id": 1762701241
        },
        {
          "distance": 0.47328326,
          "id": 1527844003
        },
        {
          "distance": 0.4788432,
          "id": 1527850661
        },
        {
          "distance": 0.4801025,
          "id": 1762698345
        },
        {
          "distance": 0.48175097,
          "id": 1527821737
        },
        {
          "distance": 0.48230734,
          "id": 1527851283
        },
        {
          "distance": 0.48277205,
          "id": 1762701019
        },
        {
          "distance": 0.4840822,
          "id": 1527855071
        }
      ],
      "apple/mobileclip_s2": [
        {
          "distance": 0.6210572,
          "id": 1527841235
        },
        {
          "distance": 0.6260807,
          "id": 1746542855
        },
        {
          "distance": 0.62618744,
          "id": 1527841237
        },
        {
          "distance": 0.62644386,
          "id": 1762701239
        },
        {
          "distance": 0.62667143,
          "id": 1527844449
        },
        {
          "distance": 0.6296946,
          "id": 1527841221
        },
        {
          "distance": 0.6346066,
          "id": 1762699165
        },
        {
          "distance": 0.6434429,
          "id": 1746542857
        },
        {
          "distance": 0.6451308,
          "id": 1527841225
        },
        {
          "distance": 0.6457171,
          "id": 1527841111
        }
      ]
    },
    "millsfield:subcategory_id": 1511213425,
    "mz:hierarchy_label": 1,
    "mz:is_current": -1,
    "sfomuseum:filename": "25156.jpg",
    "sfomuseum:image_id": 25156,
    "sfomuseum:image_index": 5,
    "sfomuseum:image_type": "studio",
    "sfomuseum:object_id": 98520,
    "sfomuseum:placetype": "image",
    "sfomuseum:primary_image": 1,
    "src:geom": "sfomuseum",
    "wof:belongsto": [
      1511214223,
      1511937967,
      102527513,
      102191575,
      85633793,
      1511213425,
      85922583,
      102087579,
      1511214277,
      1511214203,
      85688637
    ],
    "wof:breaches": [],
    "wof:country": "XX",
    "wof:created": 1578949228,
    "wof:depicts": [
      1159287451,
      1159284781,
      1511937967
    ],
    "wof:geomhash": "bd906905ce4be6c0651c90b0fc24804c",
    "wof:hierarchy": [
      {
        "arcade_id": 1511213425,
        "building_id": 1511214277,
        "campus_id": 102527513,
        "concourse_id": 1511214223,
        "continent_id": 102191575,
        "country_id": 85633793,
        "county_id": 102087579,
        "custom_id": 1527819245,
        "image_id": 1527819245,
        "locality_id": 85922583,
        "media_id": 1527819245,
        "neighbourhood_id": -1,
        "region_id": 85688637,
        "venue_id": 1511937967,
        "wing_id": 1511214203
      }
    ],
    "wof:id": 1527819245,
    "wof:lastmodified": 1788449718,
    "wof:name": "timetable: Mexicana Airlines",
    "wof:parent_id": 1511937967,
    "wof:placetype": "custom",
    "wof:placetype_alt": [
      "image"
    ],
    "wof:repo": "sfomuseum-data-media-collection",
    "wof:superseded_by": [],
    "wof:supersedes": [],
    "wof:tags": []
  },
  "bbox": [
    -122.386155,
    37.616358,
    -122.386155,
    37.616358
  ],
  "geometry": {"type":"Point","coordinates":[-122.386155,37.616358]}
}
