{
  "id": 1527842955,
  "type": "Feature",
  "properties": {
    "date:cessation_lower": "1966-01-01",
    "date:cessation_upper": "1966-12-31",
    "date:inception_lower": "1966-01-01",
    "date:inception_upper": "1966-12-31",
    "edtf:cessation": "1966",
    "edtf:date": "1966",
    "edtf:inception": "1966",
    "geom:area": 0,
    "geom:bbox": "-122.386155,37.616358,-122.386155,37.616358",
    "geom:latitude": 37.616358,
    "geom:longitude": -122.386155,
    "iso:country": "XX",
    "media:fingerprint": "c00bc85d5ada434ed504a139f68eceac79c49e79",
    "media:imagehash_avg": "a:01f7e70004bfffff",
    "media:imagehash_diff": "d:77e74f6d696b70e0",
    "media:imagetext": "WEST COAST\nAIRLINES\nTIMETABLE\nEFFECTIVE:\nDECEMBER 1, 1966",
    "media:imagetext_created": 1787951385,
    "media:imagetext_source": "com.apple.visionkit.VNImageRequestHandler#Version 26.6.2 (Build 25G83)",
    "media:medium": "image",
    "media:mimetype": "image/tiff",
    "media:properties": {
      "sizes": {
        "b": {
          "extension": "jpg",
          "height": 768,
          "mimetype": "image/jpeg",
          "secret": "aRcOh25wMPvM9mNcejkaCQpW6M78os4J",
          "width": 352
        },
        "c": {
          "extension": "jpg",
          "height": 600,
          "mimetype": "image/jpeg",
          "secret": "aRcOh25wMPvM9mNcejkaCQpW6M78os4J",
          "width": 275
        },
        "dc": {
          "extension": "jpg",
          "height": 600,
          "mimetype": "image/jpeg",
          "secret": "aRcOh25wMPvM9mNcejkaCQpW6M78os4J",
          "width": 275
        },
        "ds": {
          "extension": "jpg",
          "height": 320,
          "mimetype": "image/jpeg",
          "secret": "aRcOh25wMPvM9mNcejkaCQpW6M78os4J",
          "width": 320
        },
        "k": {
          "extension": "jpg",
          "height": 1536,
          "mimetype": "image/jpeg",
          "secret": "aRcOh25wMPvM9mNcejkaCQpW6M78os4J",
          "width": 704
        },
        "n": {
          "extension": "jpg",
          "height": 240,
          "mimetype": "image/jpeg",
          "secret": "aRcOh25wMPvM9mNcejkaCQpW6M78os4J",
          "width": 110
        },
        "o": {
          "extension": "jpg",
          "height": 2720,
          "mimetype": "image/jpeg",
          "secret": "a6rTVFaNJZFCxIUf30cK2SzeMHoObeah",
          "width": 1248
        },
        "s": {
          "extension": "jpg",
          "height": 320,
          "mimetype": "image/jpeg",
          "secret": "aRcOh25wMPvM9mNcejkaCQpW6M78os4J",
          "width": 320
        },
        "z": {
          "extension": "jpg",
          "height": 480,
          "mimetype": "image/jpeg",
          "secret": "aRcOh25wMPvM9mNcejkaCQpW6M78os4J",
          "width": 220
        }
      }
    },
    "media:source": "sfomuseum",
    "media:status_id": 1,
    "media:uri_template": "https://static.sfomuseum.org/media/152/784/295/5/1527842955_{secret}_{label}.{extension}",
    "millsfield:airline_id": [
      1159285505
    ],
    "millsfield:category_id": 1511214223,
    "millsfield:collection_id": 1511214207,
    "millsfield:company_id": [
      1159287343
    ],
    "millsfield:images_colors": [
      {
        "hex": "#ece2d5",
        "name": "#ece2d5",
        "reference": "marekm4"
      },
      {
        "hex": "#faebd7",
        "name": "antiquewhite",
        "reference": "css4"
      },
      {
        "hex": "#efdecd",
        "name": "Almond",
        "reference": "crayola"
      },
      {
        "hex": "#5f1315",
        "name": "#5f1315",
        "reference": "marekm4"
      },
      {
        "hex": "#800000",
        "name": "maroon",
        "reference": "css4"
      },
      {
        "hex": "#714b23",
        "name": "Raw Umber",
        "reference": "crayola"
      }
    ],
    "millsfield:images_texts": [
      "WEST COAST\nAIRLINES\nTIMETABLE\nEFFECTIVE:\nDECEMBER 1, 1966",
      "NEW\nDC-9\nFANJETS\nARE\nMAKING\nWEST COAST\nAberdeen / Hoquiam\nJET-POWERED\nAstoria\nTHROUGHOUT\nTHE\nNORTHERN\nCorvallis Albany\nWEST.\nRose\nburg\nCoos Bay. N Bend\nCalgary\nALBERTA\nPort Angeles\nOlympia\nSalem\nWASHINGTON\nSeattle\nSpokane\nWenatcher\nMoses 1\nTacoma\nEphrata\nYakıma\nRichland\nPasco\nKenn\nWalla/Walla\nPortland / Vancouver\nPendleton\nOREGON\nBaker\n) Eugene\nBend\nRedmond\nPayette / Ontario\nBurns\nMedford\nKlamath Falls\nKalıspell\nBoise\nCoeur\nd'Alene\nMoscow\n/ Pullman\nLewiston / Clarkston\nIDAHO\nSun Valley Harley / Ketchum\nTwin Falls\nGreat Falls\nMONTANA\nIdaho Falls\nPocatello\nNEVADA\nBurley Rupert\nSalt Lake Cify\nUTAH\nSan Francisco\nSacramento\nCALIFORNIA"
    ],
    "millsfield:images_texts_ids": [
      1527842955,
      1527851315
    ],
    "millsfield:similar": {
      "apple/mobileclip_s0": [
        {
          "distance": 0.2269673,
          "id": 1527818405
        },
        {
          "distance": 0.2522878,
          "id": 1527842957
        },
        {
          "distance": 0.2991668,
          "id": 1762700617
        },
        {
          "distance": 0.32441205,
          "id": 1762700613
        },
        {
          "distance": 0.40824515,
          "id": 1763241343
        },
        {
          "distance": 0.41827384,
          "id": 1527842963
        },
        {
          "distance": 0.4239734,
          "id": 1527818403
        },
        {
          "distance": 0.4379544,
          "id": 1527842959
        },
        {
          "distance": 0.44325006,
          "id": 1527818763
        },
        {
          "distance": 0.4468261,
          "id": 1527818761
        }
      ],
      "apple/mobileclip_s1": [
        {
          "distance": 0.2134858,
          "id": 1527818405
        },
        {
          "distance": 0.23687427,
          "id": 1762700617
        },
        {
          "distance": 0.25562024,
          "id": 1762700613
        },
        {
          "distance": 0.25903395,
          "id": 1527842957
        },
        {
          "distance": 0.31057906,
          "id": 1527842959
        },
        {
          "distance": 0.3120466,
          "id": 1527855095
        },
        {
          "distance": 0.31490016,
          "id": 1527818763
        },
        {
          "distance": 0.32825142,
          "id": 1527818761
        },
        {
          "distance": 0.32866696,
          "id": 1527818403
        },
        {
          "distance": 0.32955426,
          "id": 1527842949
        }
      ],
      "apple/mobileclip_s2": [
        {
          "distance": 0.22613889,
          "id": 1527818405
        },
        {
          "distance": 0.3224436,
          "id": 1762700617
        },
        {
          "distance": 0.3507554,
          "id": 1527842957
        },
        {
          "distance": 0.38781974,
          "id": 1762700613
        },
        {
          "distance": 0.39209485,
          "id": 1527842963
        },
        {
          "distance": 0.40911987,
          "id": 1763241343
        },
        {
          "distance": 0.43073264,
          "id": 1762700605
        },
        {
          "distance": 0.43956977,
          "id": 1527818759
        },
        {
          "distance": 0.44406158,
          "id": 1527842949
        },
        {
          "distance": 0.44889382,
          "id": 1527818761
        }
      ]
    },
    "millsfield:subcategory_id": 1511213425,
    "mz:hierarchy_label": 1,
    "mz:is_current": -1,
    "sfomuseum:filename": "2005.132.052.015.tif",
    "sfomuseum:image_id": 67891,
    "sfomuseum:image_index": 5,
    "sfomuseum:image_type": "studio",
    "sfomuseum:object_id": 98411,
    "sfomuseum:placetype": "image",
    "sfomuseum:primary_image": 1,
    "src:geom": "sfomuseum",
    "wof:belongsto": [
      1511214223,
      1511937749,
      102527513,
      102191575,
      85633793,
      1511213425,
      85922583,
      102087579,
      1511214277,
      1511214203,
      85688637
    ],
    "wof:breaches": [],
    "wof:country": "XX",
    "wof:created": 1578952959,
    "wof:depicts": [
      1511937749,
      1159287343,
      1159285505
    ],
    "wof:geomhash": "bd906905ce4be6c0651c90b0fc24804c",
    "wof:hierarchy": [
      {
        "arcade_id": 1511213425,
        "building_id": 1511214277,
        "campus_id": 102527513,
        "concourse_id": 1511214223,
        "continent_id": 102191575,
        "country_id": 85633793,
        "county_id": 102087579,
        "custom_id": 1527842955,
        "image_id": 1527842955,
        "locality_id": 85922583,
        "media_id": 1527842955,
        "neighbourhood_id": -1,
        "region_id": 85688637,
        "venue_id": 1511937749,
        "wing_id": 1511214203
      }
    ],
    "wof:id": 1527842955,
    "wof:lastmodified": 1788450059,
    "wof:name": "timetable: West Coast Airlines",
    "wof:parent_id": 1511937749,
    "wof:placetype": "custom",
    "wof:placetype_alt": [
      "image"
    ],
    "wof:repo": "sfomuseum-data-media-collection",
    "wof:superseded_by": [],
    "wof:supersedes": [],
    "wof:tags": []
  },
  "bbox": [
    -122.386155,
    37.616358,
    -122.386155,
    37.616358
  ],
  "geometry": {"type":"Point","coordinates":[-122.386155,37.616358]}
}
