{
  "id": 1881093353,
  "type": "Feature",
  "properties": {
    "date:cessation_lower": "2015-01-01",
    "date:cessation_upper": "2015-12-31",
    "date:inception_lower": "2015-01-01",
    "date:inception_upper": "2015-12-31",
    "edtf:cessation": "2015~",
    "edtf:inception": "2015~",
    "geom:area": 2.477324999997507e-7,
    "geom:bbox": "-122.386472,37.616105,-122.385834,37.616611",
    "geom:latitude": 37.61635756125121,
    "geom:longitude": -122.38615532866096,
    "media:fingerprint": "43f88d94632a2e9d1e9601dc05d7467cab10ae65",
    "media:imagehash_avg": "a:ffc381c3c3c3c3ff",
    "media:imagehash_diff": "d:cc0f171796969e96",
    "media:imagetext": "",
    "media:imagetext_created": 1701970852,
    "media:imagetext_source": "com.apple.visionkit.VNImageRequestHandler#Version 14.1.2 (Build 23B92)",
    "media:mimetype": "image/tiff",
    "media:properties": {
      "sizes": {
        "b": {
          "extension": "jpg",
          "height": 768,
          "mimetype": "image/jpeg",
          "secret": "I7ZVZ6ISosumZSVzuJlqzxkZaxSy19zu",
          "width": 960
        },
        "c": {
          "extension": "jpg",
          "height": 600,
          "mimetype": "image/jpeg",
          "secret": "I7ZVZ6ISosumZSVzuJlqzxkZaxSy19zu",
          "width": 750
        },
        "dc": {
          "extension": "jpg",
          "height": 600,
          "mimetype": "image/jpeg",
          "secret": "I7ZVZ6ISosumZSVzuJlqzxkZaxSy19zu",
          "width": 750
        },
        "ds": {
          "extension": "jpg",
          "height": 320,
          "mimetype": "image/jpeg",
          "secret": "I7ZVZ6ISosumZSVzuJlqzxkZaxSy19zu",
          "width": 320
        },
        "k": {
          "extension": "jpg",
          "height": 1536,
          "mimetype": "image/jpeg",
          "secret": "I7ZVZ6ISosumZSVzuJlqzxkZaxSy19zu",
          "width": 1920
        },
        "n": {
          "extension": "jpg",
          "height": 240,
          "mimetype": "image/jpeg",
          "secret": "I7ZVZ6ISosumZSVzuJlqzxkZaxSy19zu",
          "width": 300
        },
        "o": {
          "extension": "jpg",
          "height": 1680,
          "mimetype": "image/jpeg",
          "secret": "5OJPaZVAkwruNjYvACRWkl56FPw7A1aC",
          "width": 2100
        },
        "s": {
          "extension": "jpg",
          "height": 320,
          "mimetype": "image/jpeg",
          "secret": "I7ZVZ6ISosumZSVzuJlqzxkZaxSy19zu",
          "width": 320
        },
        "z": {
          "extension": "jpg",
          "height": 480,
          "mimetype": "image/jpeg",
          "secret": "I7ZVZ6ISosumZSVzuJlqzxkZaxSy19zu",
          "width": 600
        }
      }
    },
    "media:source": "sfomuseum",
    "media:status_id": 1,
    "media:uri_template": "https://static.sfomuseum.org/media/188/109/335/3/1881093353_{secret}_{label}.{extension}",
    "millsfield:airline_id": [
      1159285481
    ],
    "millsfield:category_id": 1763416373,
    "millsfield:collection_id": 1511214203,
    "millsfield:company_id": [
      1159288091
    ],
    "millsfield:images_colors": [
      {
        "hex": "#aeaca9",
        "name": "#aeaca9",
        "reference": "marekm4"
      },
      {
        "hex": "#a9a9a9",
        "name": "darkgrey",
        "reference": "css4"
      },
      {
        "hex": "#979aaa",
        "name": "Manatee",
        "reference": "crayola"
      },
      {
        "hex": "#090808",
        "name": "#090808",
        "reference": "marekm4"
      },
      {
        "hex": "#000000",
        "name": "black",
        "reference": "css4"
      },
      {
        "hex": "#000000",
        "name": "Black",
        "reference": "crayola"
      }
    ],
    "millsfield:images_texts": [
      "EWORLD IS YOUR\nRUNWA"
    ],
    "millsfield:images_texts_ids": [
      1880246191
    ],
    "millsfield:similar": {
      "apple/mobileclip_s0": [
        {
          "distance": 0.2846718,
          "id": 1880246191
        },
        {
          "distance": 0.5512464,
          "id": 1881093365
        },
        {
          "distance": 0.5632258,
          "id": 1881093335
        },
        {
          "distance": 0.5685314,
          "id": 1881093327
        },
        {
          "distance": 0.57167494,
          "id": 1880246183
        },
        {
          "distance": 0.57843393,
          "id": 1813534467
        },
        {
          "distance": 0.582576,
          "id": 1813534495
        },
        {
          "distance": 0.5826581,
          "id": 1813534447
        },
        {
          "distance": 0.583297,
          "id": 1881093371
        },
        {
          "distance": 0.5833662,
          "id": 1880246713
        }
      ],
      "apple/mobileclip_s1": [
        {
          "distance": 0.24329865,
          "id": 1880246191
        },
        {
          "distance": 0.47209516,
          "id": 1880246713
        },
        {
          "distance": 0.47941527,
          "id": 1881093365
        },
        {
          "distance": 0.4853613,
          "id": 1881093315
        },
        {
          "distance": 0.48841566,
          "id": 1880246111
        },
        {
          "distance": 0.49466464,
          "id": 1813534477
        },
        {
          "distance": 0.4957577,
          "id": 1813534505
        },
        {
          "distance": 0.5039202,
          "id": 1880246183
        },
        {
          "distance": 0.5075553,
          "id": 1881093335
        },
        {
          "distance": 0.5085498,
          "id": 1880246181
        }
      ],
      "apple/mobileclip_s2": [
        {
          "distance": 0.20506303,
          "id": 1880246191
        },
        {
          "distance": 0.63226146,
          "id": 1880246713
        },
        {
          "distance": 0.6481952,
          "id": 1881093365
        },
        {
          "distance": 0.6719576,
          "id": 1881093315
        },
        {
          "distance": 0.6823658,
          "id": 1880246111
        },
        {
          "distance": 0.68665993,
          "id": 1880246183
        },
        {
          "distance": 0.69138396,
          "id": 1881093335
        },
        {
          "distance": 0.7089949,
          "id": 1813534473
        },
        {
          "distance": 0.71381825,
          "id": 1880246195
        },
        {
          "distance": 0.7150109,
          "id": 1813534505
        }
      ]
    },
    "millsfield:subcategory_id": 1511213817,
    "mz:is_current": 1,
    "sfomuseum:filename": "2019.021.031_1.tif",
    "sfomuseum:image_id": 273425,
    "sfomuseum:image_index": 0,
    "sfomuseum:image_type": "studio",
    "sfomuseum:object_id": 202031,
    "sfomuseum:placetype": "image",
    "sfomuseum:primary_image": 1,
    "src:geom": "sfomuseum",
    "wof:belongsto": [
      102527513,
      1159162825,
      102191575,
      85633793,
      102087579,
      85922583,
      1880245607,
      85688637,
      1159160869
    ],
    "wof:country": "XY",
    "wof:created": 1701970852,
    "wof:depicts": [
      1159285481,
      1159288091,
      1880245607
    ],
    "wof:geomhash": "ed7c2ab3547fc3916b5edc33488deaa7",
    "wof:hierarchy": [
      {
        "building_id": -1,
        "campus_id": 102527513,
        "collection_id": 1159162825,
        "concourse_id": 1159162825,
        "continent_id": 102191575,
        "country_id": 85633793,
        "county_id": 102087579,
        "custom_id": 1881093353,
        "image_id": 1881093353,
        "locality_id": 85922583,
        "neighbourhood_id": -1,
        "object_id": 1880245607,
        "region_id": 85688637,
        "wing_id": 1159160869
      }
    ],
    "wof:id": 1881093353,
    "wof:lastmodified": 1788451991,
    "wof:name": "employee t-shirt: Virgin America",
    "wof:parent_id": 1880245607,
    "wof:placetype": "custom",
    "wof:placetype_alt": [
      "image"
    ],
    "wof:repo": "sfomuseum-data-media-collection",
    "wof:superseded_by": [],
    "wof:supersedes": []
  },
  "bbox": [
    -122.386472,
    37.616105,
    -122.385834,
    37.616611
  ],
  "geometry": {"type":"Polygon","coordinates":[[[-122.386472,37.616318],[-122.386435,37.616233],[-122.386376,37.616178],[-122.386301,37.616131],[-122.386161,37.616105],[-122.386022,37.616131],[-122.385914,37.616186],[-122.385855,37.616267],[-122.385834,37.616369],[-122.385871,37.616467],[-122.385941,37.616543],[-122.386054,37.616603],[-122.386183,37.616611],[-122.386306,37.616573],[-122.386419,37.616509],[-122.386467,37.616411],[-122.386472,37.616318]]]}
}
