{
  "id": 1914579955,
  "type": "Feature",
  "properties": {
    "date:cessation_lower": "1983-01-01",
    "date:cessation_upper": "1983-12-31",
    "date:inception_lower": "1983-01-01",
    "date:inception_upper": "1983-12-31",
    "edtf:cessation": "1983~",
    "edtf:inception": "1983~",
    "geom:area": 2.477324999997507e-7,
    "geom:bbox": "-122.386472,37.616105,-122.385834,37.616611",
    "geom:latitude": 37.61635756125121,
    "geom:longitude": -122.38615532866096,
    "media:fingerprint": "d46190307e8a296aaaa91d63446c1561838bdb88",
    "media:imagehash_avg": "a:ff9b80c080c1ffff",
    "media:imagehash_diff": "d:7f7323010513793d",
    "media:imagetext": "Pacific East Air\nDC-8\nIMPORTANT\nINFORMATION\nPacific East Air\n2 0E\nWELCOME ABOARD!\nPacific East Air-has taken every precaution to\nensure your safety during this flight and although we\ndo not anticipate any emergencies, this short\nbrochure has been prepared for your benefit. We\nwould appreciate it if you would take the time to\nread this brochure and familiarize yourself with the\nsafety features on board our aircraft, then sit back,\nrelax, and enjoy the flight.\n-PLEASE DO NOT REMOVE FROM AIRCRAFT-\nArchanay",
    "media:imagetext_created": 1787973708,
    "media:imagetext_source": "com.apple.visionkit.VNImageRequestHandler#Version 26.6.2 (Build 25G83)",
    "media:mimetype": "image/tiff",
    "media:properties": {
      "sizes": {
        "b": {
          "extension": "jpg",
          "height": 768,
          "mimetype": "image/jpeg",
          "secret": "cOKbpPY4B4ozMA2f9YoMabKi1Myo35CE",
          "width": 597
        },
        "c": {
          "extension": "jpg",
          "height": 600,
          "mimetype": "image/jpeg",
          "secret": "cOKbpPY4B4ozMA2f9YoMabKi1Myo35CE",
          "width": 466
        },
        "dc": {
          "extension": "jpg",
          "height": 600,
          "mimetype": "image/jpeg",
          "secret": "cOKbpPY4B4ozMA2f9YoMabKi1Myo35CE",
          "width": 466
        },
        "ds": {
          "extension": "jpg",
          "height": 320,
          "mimetype": "image/jpeg",
          "secret": "cOKbpPY4B4ozMA2f9YoMabKi1Myo35CE",
          "width": 320
        },
        "k": {
          "extension": "jpg",
          "height": 1536,
          "mimetype": "image/jpeg",
          "secret": "cOKbpPY4B4ozMA2f9YoMabKi1Myo35CE",
          "width": 1194
        },
        "n": {
          "extension": "jpg",
          "height": 240,
          "mimetype": "image/jpeg",
          "secret": "cOKbpPY4B4ozMA2f9YoMabKi1Myo35CE",
          "width": 186
        },
        "o": {
          "extension": "jpg",
          "height": 2000,
          "mimetype": "image/jpeg",
          "secret": "jeCh52UlQzHSgeTmGRcDM0fqEFXvP2YA",
          "width": 1555
        },
        "s": {
          "extension": "jpg",
          "height": 320,
          "mimetype": "image/jpeg",
          "secret": "cOKbpPY4B4ozMA2f9YoMabKi1Myo35CE",
          "width": 320
        },
        "z": {
          "extension": "jpg",
          "height": 480,
          "mimetype": "image/jpeg",
          "secret": "cOKbpPY4B4ozMA2f9YoMabKi1Myo35CE",
          "width": 373
        }
      }
    },
    "media:source": "sfomuseum",
    "media:status_id": 1,
    "media:uri_template": "https://static.sfomuseum.org/media/191/457/995/5/1914579955_{secret}_{label}.{extention}",
    "millsfield:aircraft_id": [
      1159290443
    ],
    "millsfield:airline_id": [
      1159284963
    ],
    "millsfield:category_id": 1762671311,
    "millsfield:collection_id": 1511214207,
    "millsfield:company_id": [],
    "millsfield:images_colors": [
      {
        "hex": "#73a0ad",
        "name": "#73a0ad",
        "reference": "marekm4"
      },
      {
        "hex": "#5f9ea0",
        "name": "cadetblue",
        "reference": "css4"
      },
      {
        "hex": "#6699cc",
        "name": "Blue Gray",
        "reference": "crayola"
      },
      {
        "hex": "#283235",
        "name": "#283235",
        "reference": "marekm4"
      },
      {
        "hex": "#2f4f4f",
        "name": "darkslategrey",
        "reference": "css4"
      },
      {
        "hex": "#414a4c",
        "name": "Outer Space",
        "reference": "crayola"
      },
      {
        "hex": "#8cb4bd",
        "name": "#8cb4bd",
        "reference": "marekm4"
      },
      {
        "hex": "#a9a9a9",
        "name": "darkgrey",
        "reference": "css4"
      },
      {
        "hex": "#a2add0",
        "name": "Wild Blue Yonder",
        "reference": "crayola"
      },
      {
        "hex": "#5a7b85",
        "name": "#5a7b85",
        "reference": "marekm4"
      },
      {
        "hex": "#708090",
        "name": "slategrey",
        "reference": "css4"
      },
      {
        "hex": "#757575",
        "name": "Sonic Silver",
        "reference": "crayola"
      }
    ],
    "millsfield:images_texts": [
      "Pacific East Air\nDC-8\nIMPORTANT\nINFORMATION\nPacific East Air\n2 0E\nWELCOME ABOARD!\nPacific East Air-has taken every precaution to\nensure your safety during this flight and although we\ndo not anticipate any emergencies, this short\nbrochure has been prepared for your benefit. We\nwould appreciate it if you would take the time to\nread this brochure and familiarize yourself with the\nsafety features on board our aircraft, then sit back,\nrelax, and enjoy the flight.\n-PLEASE DO NOT REMOVE FROM AIRCRAFT-\nArchanay",
      "DO NOT OPERATE THE FOLLOWING WHILE ABOARD THE AIRCRAFT\nNO SMOKING\nEVACUATION ON WATER\nThere are eleven (11) 25-MAN LIFE RAFTS located in compartments\nwithin the aircraft cabin, marked:\n\"LIFE RAFT\"\nRadios\nVisible Fluid Lighters\nElectric Computers\nFASTEN SEAT BELT\nIt is recommended that you\nkeep your Seat Belt\nLavatory\nfastened at all\ntimes while seated\nFasten\nBEFORE TAKEOFF AND LANDING\nSeat back up\nUnfasten\nBRACE POSITIONS\nEMERGENCY LANDING/DITCHING\nNine (9) LIFE RAFTS are\nstowed in the\noverhead (hatrack)\ncompartments.\nEach 25-MAN LIFE RAFT weighs approximately\n130Ibs. and should be removed by two able-bodied\npersons, carried to an EXIT, and secured to the aircraft\nprior to launching.\nTwo (2) LIFE RAFTS\nare stowed in the\naft ceiling\ncompartments.\nTray table up\nCarry-on\nbaggage under\nseat\nAUTOMATIC OXYGEN SYSTEM\nNO SMOKING\n• APACITY\nERSONS\nLIFE RAFT INFLATION\n1. OXYGEN MASK LOCATION\nOxygen masks are stored in\na compartment above each\nrow of passenger seats.\nShould oxygen be required,\nthe compartment door\nwill open automatically\nand oxygen masks will\nbe presented on the door.\n2. USING THE MASK\nShould oxygen masks appear,\nremain seated. Grasp nearest\nmask and remove it from its\nholder, at the same time pulling free the cord connect-\ning mask to the compartment. This will permit the\noxygen to flow. Place mask over nose and mouth and\nbreathe normally. Continue to use oxygen until other-\nwise directed by a crew member.\n3. ADJUSTING THE\nMASK\nThe oxygen mask has an\nadjustable head strap to\nprovide a comfortable fit.\nIf mask is too tight, hold mask in position and pull\ngently on headband with free hand. If mask is too\nloose, pull tabs located where headband connects\nto oxygen mask.\nORIAL CAPACITY\n25 PERSONS\n1. Pull release latch\nmarked \"LIFE RAFT\"\ntowards aisle. Lift cover\naway from compartment\nand stow in overhead\nrack.\n1. Stand beside the\ncompartment and\npull release latch\nmarked \"LIFE RAFT\"\ntowards floor. Allow\ncompartment door\nto swing open\ntowards floor.\n2. Pull RED tab to\nrelease seat belt holding\nLIFE RAFT. Pull white\nstrap to roll raft out of\ncompartment. Grab assist\nstraps at fore and aft end\nof raft and lower to floor.\n2. Grab assist\nstraps at fore\nand aft end of raft\nand lower to floor.\nClose ceiling\ncompartment.\nA. Unsnap RED pouch marked \"LANYARD CORD\" and\nsecure spring snap at end of cord to seat leg, fastened\nseat belt or exposed door hinge nearest the exit.\nB. Position LIFE RAFT on exit threshold and\nunsnap HOT-PINK flap containing inflation\nhandle. Grasp this handle and pull hard as\nyou push LIFE RAFT out of aircraft.\nLIFE RAFT will inflate in approximately\n15 seconds.\nWARNING!\nDO NOT INFLATE LIFE RAFT INSIDE AIRCRAFT.",
      "EMERGENCY EXITS\n(A)\nExit Doors\nJet Escape Doors\nOver-Wing Exit Windows\nEVACUATION ON LAND\nOur aircraft is fully equipped with emergency exits\nand facilities as illustrated on the diagram.\nPlacards are at each exit giving directions as to\ntheir use. All doors have escape slides - follow\nthe directions of your flight crew in their use.\nEXITI]\nEVACUATION SLIDES\n1. A special slide is installed at each of the four (4) Exit Doors (A) for rapid escape to the ground. All crew members know how to use\nthe slides. Obey their instructions.\n2. Additional self-inflating slides are located at the Jet Escape Doors (B).\n1. To open: Grasp handle and rotate\nforward, following arrow toward\n\"OPEN\". Push door open and\nout against fuselage.\n2. Pull RED inflation handle to\ninflate evacuation slide.\n--EXIT AIRCRAFT--\nJUMP DON'T SIT\nA EXIT DOOR\nTO A\nSAFE\nAREA\n1. To Open:\nRemove cover.\nGrasp handle\nand pull down\nsharply.\nB JET ESCAPE DOOR\n2. Release\nhandle and\nthe door will\nfall outward,\ninflating the\nevacuation slide\nautomatically.\n--EXIT AIRCRAFT--\nOVER-WING EXIT WINDOWS\nEMERGENCY EXIT\ncoooooo000000000\n1. To open: Grasp handle and pull\ndown sharply.\nC OVER-WING EXIT WINDOWS\n2. Roll window aft and onto passenger\nseat.\n--EXIT AIRCRAFT--",
      "LIFE VESTS\n1. Unsnap RED strap and remove\nLife Vest from under front of seat.\n2. Don Life Vest over head.\n3. Grasp pull straps from behind waist\nand bring around to front.\n4. Snap \"D\" rings on pull straps to\nharness buckles on front of Life Vest.\n5. Pull outward on straps until Vest is\nsnug around waist.\nWARNING!\nDO NOT INFLATE LIFE VEST\nINSIDE AIRCRAFT\n6. Inflate by sharp jerk on two RED\ninflation knobs.\n7. Oral inflation can be accomplished by\nblowing into oral inflation tubes on each\nside of Life Vest.\nINFANT LIFE VEST\n1. Obtain from flight attendant.\n2. Don Life Vest\nover infant's head.\n3. Bring pull straps\nthrough legs from back\nand snap \"D\" rings into\nharness buckles.\n4. Pull straps until\nVest is snug.\n6. Inflate by\nsharp jerk\non RED\ninflation\nknob.\n5. Tie neck\nstrap.\nSURVIVOR LOCATER LIGHT\nA light located on the shoulder\nof each Life Vest is illuminated,\nby a water-activated battery\nmounted just above the\nharness buckles. At\nnight remove the\nplastic plugs attached\nto battery and light will\nilluminate when battery\nsubmerges in water.\n2002.121.441"
    ],
    "millsfield:images_texts_ids": [
      1914579955,
      1914579957,
      1914579959,
      1914579961
    ],
    "millsfield:similar": {
      "apple/mobileclip_s0": [
        {
          "distance": 0.2797619,
          "id": 1931109713
        },
        {
          "distance": 0.40089563,
          "id": 1914579965
        },
        {
          "distance": 0.44444233,
          "id": 1914556531
        },
        {
          "distance": 0.65009445,
          "id": 1930980027
        },
        {
          "distance": 0.65810645,
          "id": 1527830249
        },
        {
          "distance": 0.66502565,
          "id": 1527844385
        },
        {
          "distance": 0.6654411,
          "id": 1930979719
        },
        {
          "distance": 0.67138565,
          "id": 1762894781
        },
        {
          "distance": 0.67497927,
          "id": 1527850005
        },
        {
          "distance": 0.6773032,
          "id": 1527853389
        }
      ],
      "apple/mobileclip_s1": [
        {
          "distance": 0.2332596,
          "id": 1931109713
        },
        {
          "distance": 0.2880365,
          "id": 1914579965
        },
        {
          "distance": 0.3237177,
          "id": 1914556531
        },
        {
          "distance": 0.4826447,
          "id": 1914556379
        },
        {
          "distance": 0.48633328,
          "id": 1762698029
        },
        {
          "distance": 0.4872132,
          "id": 1527830249
        },
        {
          "distance": 0.48969337,
          "id": 1930979705
        },
        {
          "distance": 0.4920572,
          "id": 1762701305
        },
        {
          "distance": 0.49339917,
          "id": 1527838247
        },
        {
          "distance": 0.4936674,
          "id": 1930979301
        }
      ],
      "apple/mobileclip_s2": [
        {
          "distance": 0.33085364,
          "id": 1931109713
        },
        {
          "distance": 0.48268834,
          "id": 1914579965
        },
        {
          "distance": 0.512263,
          "id": 1914556531
        },
        {
          "distance": 0.62568617,
          "id": 1527855087
        },
        {
          "distance": 0.63128376,
          "id": 1527838247
        },
        {
          "distance": 0.6625787,
          "id": 1762701305
        },
        {
          "distance": 0.6643245,
          "id": 1527836945
        },
        {
          "distance": 0.66448665,
          "id": 1527838297
        },
        {
          "distance": 0.6668782,
          "id": 1762705813
        },
        {
          "distance": 0.67526996,
          "id": 1931109629
        }
      ]
    },
    "millsfield:subcategory_id": 1511213703,
    "mz:is_current": 1,
    "sfomuseum:filename": "80345.tif",
    "sfomuseum:image_id": 80345,
    "sfomuseum:image_index": 5,
    "sfomuseum:image_type": "studio",
    "sfomuseum:object_id": 69122,
    "sfomuseum:placetype": "image",
    "sfomuseum:primary_image": 1,
    "src:geom": "sfomuseum",
    "wof:belongsto": [
      102527513,
      1159162825,
      102191575,
      85633793,
      102087579,
      85922583,
      1914579595,
      85688637,
      1159160869
    ],
    "wof:country": "XY",
    "wof:created": 1720683511,
    "wof:depicts": [
      1159290443,
      1914579595,
      1159284963
    ],
    "wof:geomhash": "ed7c2ab3547fc3916b5edc33488deaa7",
    "wof:hierarchy": [
      {
        "building_id": -1,
        "campus_id": 102527513,
        "collection_id": 1159162825,
        "concourse_id": 1159162825,
        "continent_id": 102191575,
        "country_id": 85633793,
        "county_id": 102087579,
        "custom_id": 1914579955,
        "locality_id": 85922583,
        "neighbourhood_id": -1,
        "object_id": 1914579595,
        "region_id": 85688637,
        "wing_id": 1159160869
      }
    ],
    "wof:id": 1914579955,
    "wof:lastmodified": 1788160824,
    "wof:name": "safety information card: Pacific East Air, Douglas DC-8",
    "wof:parent_id": 1914579595,
    "wof:placetype": "custom",
    "wof:repo": "sfomuseum-data-media-collection",
    "wof:superseded_by": [],
    "wof:supersedes": []
  },
  "bbox": [
    -122.386472,
    37.616105,
    -122.385834,
    37.616611
  ],
  "geometry": {"type":"Polygon","coordinates":[[[-122.386472,37.616318],[-122.386435,37.616233],[-122.386376,37.616178],[-122.386301,37.616131],[-122.386161,37.616105],[-122.386022,37.616131],[-122.385914,37.616186],[-122.385855,37.616267],[-122.385834,37.616369],[-122.385871,37.616467],[-122.385941,37.616543],[-122.386054,37.616603],[-122.386183,37.616611],[-122.386306,37.616573],[-122.386419,37.616509],[-122.386467,37.616411],[-122.386472,37.616318]]]}
}
