{
  "id": 1913796809,
  "type": "Feature",
  "properties": {
    "date:cessation_lower": "1954-01-18",
    "date:cessation_upper": "1954-01-18",
    "date:inception_lower": "1954-01-18",
    "date:inception_upper": "1954-01-18",
    "edtf:cessation": "1954-01-18",
    "edtf:inception": "1954-01-18",
    "geom:area": 2.477324999997507e-7,
    "geom:bbox": "-122.386472,37.616105,-122.385834,37.616611",
    "geom:latitude": 37.61635756125121,
    "geom:longitude": -122.38615532866096,
    "media:fingerprint": "c521af7909d22b804aaa3e9496ca1666d97ecb0b",
    "media:imagehash_avg": "a:ef878181808181ff",
    "media:imagehash_diff": "d:0f45555557212d29",
    "media:imagetext": "in madrid.\nTRe Pan m\nnamed Aleter and t\nwife is Austrian. She is\na Very athacter blonde whe\nspraks\nEnglish\nhardly\nany\naccant.\n42 kad\nan\noysta cocktal which coas\nreally\n→ deliccons - the oysters\nWhz corred\nWit cave ar\ntomato oner - decon\n-Then\n- consomme folland\nslices of lamb tendne,\nand\nafte\nsalad\nchocolate\nrum sauce.\njon cost yo wanes\nI do.\n20191211184 N",
    "media:imagetext_created": 1787971904,
    "media:imagetext_source": "com.apple.visionkit.VNImageRequestHandler#Version 26.6.2 (Build 25G83)",
    "media:mimetype": "image/tiff",
    "media:properties": {
      "sizes": {
        "b": {
          "extension": "jpg",
          "height": 768,
          "mimetype": "image/jpeg",
          "secret": "FxeQZn3uo1c6DkqoM7gcrZ4B3MYR90no",
          "width": 551
        },
        "c": {
          "extension": "jpg",
          "height": 600,
          "mimetype": "image/jpeg",
          "secret": "FxeQZn3uo1c6DkqoM7gcrZ4B3MYR90no",
          "width": 431
        },
        "dc": {
          "extension": "jpg",
          "height": 600,
          "mimetype": "image/jpeg",
          "secret": "FxeQZn3uo1c6DkqoM7gcrZ4B3MYR90no",
          "width": 431
        },
        "ds": {
          "extension": "jpg",
          "height": 320,
          "mimetype": "image/jpeg",
          "secret": "FxeQZn3uo1c6DkqoM7gcrZ4B3MYR90no",
          "width": 320
        },
        "k": {
          "extension": "jpg",
          "height": 1536,
          "mimetype": "image/jpeg",
          "secret": "FxeQZn3uo1c6DkqoM7gcrZ4B3MYR90no",
          "width": 1103
        },
        "n": {
          "extension": "jpg",
          "height": 240,
          "mimetype": "image/jpeg",
          "secret": "FxeQZn3uo1c6DkqoM7gcrZ4B3MYR90no",
          "width": 172
        },
        "o": {
          "extension": "jpg",
          "height": 2000,
          "mimetype": "image/jpeg",
          "secret": "kmflgZ3WysqFMIKvclbuGzyw9fJ2KNVa",
          "width": 1437
        },
        "s": {
          "extension": "jpg",
          "height": 320,
          "mimetype": "image/jpeg",
          "secret": "FxeQZn3uo1c6DkqoM7gcrZ4B3MYR90no",
          "width": 320
        },
        "z": {
          "extension": "jpg",
          "height": 480,
          "mimetype": "image/jpeg",
          "secret": "FxeQZn3uo1c6DkqoM7gcrZ4B3MYR90no",
          "width": 344
        }
      }
    },
    "media:source": "sfomuseum",
    "media:status_id": 1,
    "media:uri_template": "https://static.sfomuseum.org/media/191/379/680/9/1913796809_{secret}_{label}.{extension}",
    "millsfield:airline_id": [
      1159284989
    ],
    "millsfield:category_id": 1511214251,
    "millsfield:collection_id": 1511214207,
    "millsfield:company_id": [
      1159286839
    ],
    "millsfield:images_colors": [
      {
        "hex": "#eadeba",
        "name": "#eadeba",
        "reference": "marekm4"
      },
      {
        "hex": "#f5deb3",
        "name": "wheat",
        "reference": "css4"
      },
      {
        "hex": "#eceabe",
        "name": "Spring Green",
        "reference": "crayola"
      }
    ],
    "millsfield:images_texts": [
      "Monday\nAllantic Hotel Hamburg\n1/,8\n' 54\nDraurat Dibs -\nIin in\nthat same room\nthat ur had\nWhen you and\n9 wins\nhers\nbefore.\nIts now\n6:45 a.m and\nI'm waiting\nfor a cup of coffe\nthen wr\nleair fir the\ntr ain\nand hair\nbreakfast on board.\n2 dont\nthink her gaya likes\nto fly.\nLast night is had a\nwonderful dinner gurn len\nthe\neyes for the fan Am #!\nand his wife and ancien\nCouple\nmamed Norscher\nOurs and\nNa runa\na famous restairaunt",
      "in madrid.\nTRe Pan m\nnamed Aleter and t\nwife is Austrian. She is\na Very athacter blonde whe\nspraks\nEnglish\nhardly\nany\naccant.\n42 kad\nan\noysta cocktal which coas\nreally\n→ deliccons - the oysters\nWhz corred\nWit cave ar\ntomato oner - decon\n-Then\n- consomme folland\nslices of lamb tendne,\nand\nafte\nsalad\nchocolate\nrum sauce.\njon cost yo wanes\nI do.\n20191211184 N"
    ],
    "millsfield:images_texts_ids": [
      1913796807,
      1913796809
    ],
    "millsfield:similar": {
      "apple/mobileclip_s0": [
        {
          "distance": 0.26084924,
          "id": 1913801585
        },
        {
          "distance": 0.27401638,
          "id": 1913800801
        },
        {
          "distance": 0.287272,
          "id": 1913800733
        },
        {
          "distance": 0.28908902,
          "id": 1913801971
        },
        {
          "distance": 0.28986788,
          "id": 1913802277
        },
        {
          "distance": 0.29322436,
          "id": 1913802299
        },
        {
          "distance": 0.29327562,
          "id": 1913802245
        },
        {
          "distance": 0.29572353,
          "id": 1913801983
        },
        {
          "distance": 0.29676586,
          "id": 1913801341
        },
        {
          "distance": 0.29968685,
          "id": 1913799821
        }
      ],
      "apple/mobileclip_s1": [
        {
          "distance": 0.25322914,
          "id": 1913802517
        },
        {
          "distance": 0.2545267,
          "id": 1913799815
        },
        {
          "distance": 0.2554723,
          "id": 1913768925
        },
        {
          "distance": 0.25727886,
          "id": 1913801227
        },
        {
          "distance": 0.25981265,
          "id": 1913800979
        },
        {
          "distance": 0.26080278,
          "id": 1913801449
        },
        {
          "distance": 0.26397127,
          "id": 1913768981
        },
        {
          "distance": 0.2655978,
          "id": 1913799801
        },
        {
          "distance": 0.26715413,
          "id": 1913799985
        },
        {
          "distance": 0.26748335,
          "id": 1913801187
        }
      ],
      "apple/mobileclip_s2": [
        {
          "distance": 0.29058594,
          "id": 1913800371
        },
        {
          "distance": 0.2981199,
          "id": 1913801453
        },
        {
          "distance": 0.30514586,
          "id": 1913801281
        },
        {
          "distance": 0.30720896,
          "id": 1913800837
        },
        {
          "distance": 0.30924824,
          "id": 1913801585
        },
        {
          "distance": 0.3104305,
          "id": 1913799815
        },
        {
          "distance": 0.31452233,
          "id": 1913799821
        },
        {
          "distance": 0.31710345,
          "id": 1913801965
        },
        {
          "distance": 0.3178241,
          "id": 1913800227
        },
        {
          "distance": 0.31789196,
          "id": 1913800331
        }
      ]
    },
    "millsfield:subcategory_id": 1511213489,
    "mz:is_current": 1,
    "sfomuseum:filename": "2019.121.1184_2.tif",
    "sfomuseum:image_id": 219324,
    "sfomuseum:image_index": 5,
    "sfomuseum:image_type": "studio",
    "sfomuseum:object_id": 211547,
    "sfomuseum:placetype": "image",
    "sfomuseum:primary_image": 0,
    "src:geom": "sfomuseum",
    "wof:belongsto": [
      102527513,
      1159162825,
      102191575,
      85633793,
      102087579,
      85922583,
      1913796049,
      85688637,
      1159160869
    ],
    "wof:country": "XY",
    "wof:created": 1714549299,
    "wof:depicts": [
      1159286839,
      1913796049,
      1159284989
    ],
    "wof:geomhash": "ed7c2ab3547fc3916b5edc33488deaa7",
    "wof:hierarchy": [
      {
        "building_id": -1,
        "campus_id": 102527513,
        "collection_id": 1159162825,
        "concourse_id": 1159162825,
        "continent_id": 102191575,
        "country_id": 85633793,
        "county_id": 102087579,
        "custom_id": 1913796809,
        "image_id": 1913796809,
        "locality_id": 85922583,
        "neighbourhood_id": -1,
        "object_id": 1913796049,
        "region_id": 85688637,
        "wing_id": 1159160869
      }
    ],
    "wof:id": 1913796809,
    "wof:lastmodified": 1788452200,
    "wof:name": "correspondence: Harold M. Bixby to Debby Bixby",
    "wof:parent_id": 1913796049,
    "wof:placetype": "custom",
    "wof:placetype_alt": [
      "image"
    ],
    "wof:repo": "sfomuseum-data-media-collection",
    "wof:superseded_by": [],
    "wof:supersedes": []
  },
  "bbox": [
    -122.386472,
    37.616105,
    -122.385834,
    37.616611
  ],
  "geometry": {"type":"Polygon","coordinates":[[[-122.386472,37.616318],[-122.386435,37.616233],[-122.386376,37.616178],[-122.386301,37.616131],[-122.386161,37.616105],[-122.386022,37.616131],[-122.385914,37.616186],[-122.385855,37.616267],[-122.385834,37.616369],[-122.385871,37.616467],[-122.385941,37.616543],[-122.386054,37.616603],[-122.386183,37.616611],[-122.386306,37.616573],[-122.386419,37.616509],[-122.386467,37.616411],[-122.386472,37.616318]]]}
}
