{
  "id": 1527850165,
  "type": "Feature",
  "properties": {
    "date:cessation_lower": "1970-01-01",
    "date:cessation_upper": "1979-12-31",
    "date:inception_lower": "1970-01-01",
    "date:inception_upper": "1979-12-31",
    "edtf:cessation": "197X",
    "edtf:date": "197x",
    "edtf:inception": "197X",
    "geom:area": 0,
    "geom:bbox": "-122.386155,37.616358,-122.386155,37.616358",
    "geom:latitude": 37.616358,
    "geom:longitude": -122.386155,
    "iso:country": "XX",
    "media:fingerprint": "69355a45042585cb41de961ec8e6ff193294297d",
    "media:imagehash_avg": "a:ff07010301070307",
    "media:imagehash_diff": "d:1f4f5757c7ff87ff",
    "media:imagetext": "ALBUQUERQUE\nABO\n17-98-02\n17-98-02\nALBUQUERQUE\nBOUPAN AL",
    "media:imagetext_created": 1787952924,
    "media:imagetext_source": "com.apple.visionkit.VNImageRequestHandler#Version 26.6.2 (Build 25G83)",
    "media:medium": "image",
    "media:mimetype": "image/tiff",
    "media:properties": {
      "sizes": {
        "b": {
          "extension": "jpg",
          "height": 768,
          "mimetype": "image/jpeg",
          "secret": "wpnQzY1ax31BHXM606SW5aAxEzRNQFYS",
          "width": 527
        },
        "c": {
          "extension": "jpg",
          "height": 600,
          "mimetype": "image/jpeg",
          "secret": "wpnQzY1ax31BHXM606SW5aAxEzRNQFYS",
          "width": 412
        },
        "dc": {
          "extension": "jpg",
          "height": 600,
          "mimetype": "image/jpeg",
          "secret": "wpnQzY1ax31BHXM606SW5aAxEzRNQFYS",
          "width": 412
        },
        "ds": {
          "extension": "jpg",
          "height": 320,
          "mimetype": "image/jpeg",
          "secret": "wpnQzY1ax31BHXM606SW5aAxEzRNQFYS",
          "width": 320
        },
        "k": {
          "extension": "jpg",
          "height": 1536,
          "mimetype": "image/jpeg",
          "secret": "wpnQzY1ax31BHXM606SW5aAxEzRNQFYS",
          "width": 1055
        },
        "n": {
          "extension": "jpg",
          "height": 240,
          "mimetype": "image/jpeg",
          "secret": "wpnQzY1ax31BHXM606SW5aAxEzRNQFYS",
          "width": 164
        },
        "o": {
          "extension": "jpg",
          "height": 1144,
          "mimetype": "image/jpeg",
          "secret": "r04ZzcgLfz9cxrwphlLKkMBW1FAn0kWu",
          "width": 786
        },
        "s": {
          "extension": "jpg",
          "height": 320,
          "mimetype": "image/jpeg",
          "secret": "wpnQzY1ax31BHXM606SW5aAxEzRNQFYS",
          "width": 320
        },
        "z": {
          "extension": "jpg",
          "height": 480,
          "mimetype": "image/jpeg",
          "secret": "wpnQzY1ax31BHXM606SW5aAxEzRNQFYS",
          "width": 329
        }
      }
    },
    "media:source": "sfomuseum",
    "media:status_id": 1,
    "media:uri_template": "https://static.sfomuseum.org/media/152/785/016/5/1527850165_{secret}_{label}.{extension}",
    "millsfield:airline_id": [
      1159285591
    ],
    "millsfield:category_id": 1511214223,
    "millsfield:collection_id": 1511214207,
    "millsfield:company_id": [
      1360700737
    ],
    "millsfield:images_colors": [
      {
        "hex": "#cacbc1",
        "name": "#cacbc1",
        "reference": "marekm4"
      },
      {
        "hex": "#c0c0c0",
        "name": "silver",
        "reference": "css4"
      },
      {
        "hex": "#cdc5c2",
        "name": "Silver",
        "reference": "crayola"
      },
      {
        "hex": "#a72e2e",
        "name": "#a72e2e",
        "reference": "marekm4"
      },
      {
        "hex": "#a52a2a",
        "name": "brown",
        "reference": "css4"
      },
      {
        "hex": "#9c2542",
        "name": "Big Dip O' Ruby",
        "reference": "crayola"
      },
      {
        "hex": "#2b1f1e",
        "name": "#2b1f1e",
        "reference": "marekm4"
      },
      {
        "hex": "#000000",
        "name": "black",
        "reference": "css4"
      },
      {
        "hex": "#000000",
        "name": "Black",
        "reference": "crayola"
      }
    ],
    "millsfield:images_texts": [
      "ALBUQUERQUE\nABO\n17-98-02\n17-98-02\nALBUQUERQUE\nBOUPAN AL"
    ],
    "millsfield:images_texts_ids": [
      1527850165
    ],
    "millsfield:similar": {
      "apple/mobileclip_s0": [
        {
          "distance": 0.5613459,
          "id": 1729566275
        },
        {
          "distance": 0.67078775,
          "id": 1763379823
        },
        {
          "distance": 0.6725306,
          "id": 2048166973
        },
        {
          "distance": 0.672854,
          "id": 1964359193
        },
        {
          "distance": 0.6753812,
          "id": 1762699639
        },
        {
          "distance": 0.67740625,
          "id": 1964167725
        },
        {
          "distance": 0.679515,
          "id": 2048167095
        },
        {
          "distance": 0.684238,
          "id": 2048167101
        },
        {
          "distance": 0.68485874,
          "id": 1763379663
        },
        {
          "distance": 0.6861035,
          "id": 1763379827
        }
      ],
      "apple/mobileclip_s1": [
        {
          "distance": 0.46789238,
          "id": 2048166973
        },
        {
          "distance": 0.5159991,
          "id": 1729566275
        },
        {
          "distance": 0.53468055,
          "id": 1964107005
        },
        {
          "distance": 0.53618765,
          "id": 1964106961
        },
        {
          "distance": 0.5394808,
          "id": 1964039341
        },
        {
          "distance": 0.5394808,
          "id": 1964039343
        },
        {
          "distance": 0.54070485,
          "id": 1779968719
        },
        {
          "distance": 0.54134566,
          "id": 1779946489
        },
        {
          "distance": 0.541371,
          "id": 1527850151
        },
        {
          "distance": 0.5450033,
          "id": 1779946493
        }
      ],
      "apple/mobileclip_s2": [
        {
          "distance": 0.7035287,
          "id": 1729566275
        },
        {
          "distance": 0.7113191,
          "id": 2048166973
        },
        {
          "distance": 0.7694122,
          "id": 1527850151
        },
        {
          "distance": 0.784267,
          "id": 2048167101
        },
        {
          "distance": 0.7843562,
          "id": 1763380373
        },
        {
          "distance": 0.7881058,
          "id": 2048176385
        },
        {
          "distance": 0.796954,
          "id": 1897892341
        },
        {
          "distance": 0.7986245,
          "id": 1964106961
        },
        {
          "distance": 0.79863375,
          "id": 2048176381
        },
        {
          "distance": 0.7987324,
          "id": 2048167095
        }
      ]
    },
    "millsfield:subcategory_id": 1511213663,
    "mz:hierarchy_label": 1,
    "mz:is_current": -1,
    "sfomuseum:filename": "2003.200.061.001.tif",
    "sfomuseum:image_id": 79836,
    "sfomuseum:image_index": 5,
    "sfomuseum:image_type": "studio",
    "sfomuseum:object_id": 83655,
    "sfomuseum:placetype": "image",
    "sfomuseum:primary_image": 1,
    "src:geom": "sfomuseum",
    "wof:belongsto": [
      1511214223,
      1511929417,
      102527513,
      102191575,
      85633793,
      1511213663,
      85922583,
      102087579,
      1511214277,
      1511214203,
      85688637
    ],
    "wof:breaches": [],
    "wof:country": "XX",
    "wof:created": 1578954144,
    "wof:depicts": [
      1360700737,
      1159285591,
      1511929417
    ],
    "wof:geomhash": "bd906905ce4be6c0651c90b0fc24804c",
    "wof:hierarchy": [
      {
        "arcade_id": 1511213663,
        "building_id": 1511214277,
        "campus_id": 102527513,
        "concourse_id": 1511214223,
        "continent_id": 102191575,
        "country_id": 85633793,
        "county_id": 102087579,
        "custom_id": 1527850165,
        "image_id": 1527850165,
        "locality_id": 85922583,
        "media_id": 1527850165,
        "neighbourhood_id": -1,
        "region_id": 85688637,
        "venue_id": 1511929417,
        "wing_id": 1511214203
      }
    ],
    "wof:id": 1527850165,
    "wof:lastmodified": 1788450171,
    "wof:name": "baggage destination tag: Southwest Airlines",
    "wof:parent_id": 1511929417,
    "wof:placetype": "custom",
    "wof:placetype_alt": [
      "image"
    ],
    "wof:repo": "sfomuseum-data-media-collection",
    "wof:superseded_by": [],
    "wof:supersedes": [],
    "wof:tags": []
  },
  "bbox": [
    -122.386155,
    37.616358,
    -122.386155,
    37.616358
  ],
  "geometry": {"type":"Point","coordinates":[-122.386155,37.616358]}
}
