{
  "id": 1880498755,
  "type": "Feature",
  "properties": {
    "date:cessation_lower": "1958-01-01",
    "date:cessation_upper": "1958-12-31",
    "date:inception_lower": "1958-01-01",
    "date:inception_upper": "1958-12-31",
    "edtf:cessation": "1958",
    "edtf:inception": "1958",
    "geom:area": 2.477324999997507e-7,
    "geom:bbox": "-122.386472,37.616105,-122.385834,37.616611",
    "geom:latitude": 37.61635756125121,
    "geom:longitude": -122.38615532866096,
    "media:fingerprint": "06ccb926a3c787f6af544560368dd8fe70621c46",
    "media:imagehash_avg": "a:ffe7c3c3c3c3c3e7",
    "media:imagehash_diff": "d:cc8e0e0f0f0e0e8e",
    "media:imagetext": "",
    "media:mimetype": "image/tiff",
    "media:properties": {
      "sizes": {
        "b": {
          "extension": "jpg",
          "height": 768,
          "mimetype": "image/jpeg",
          "secret": "M7iNkzNIvN0XIFDBgPoFMuBF96jvHdZz",
          "width": 965
        },
        "c": {
          "extension": "jpg",
          "height": 600,
          "mimetype": "image/jpeg",
          "secret": "M7iNkzNIvN0XIFDBgPoFMuBF96jvHdZz",
          "width": 754
        },
        "dc": {
          "extension": "jpg",
          "height": 600,
          "mimetype": "image/jpeg",
          "secret": "M7iNkzNIvN0XIFDBgPoFMuBF96jvHdZz",
          "width": 754
        },
        "ds": {
          "extension": "jpg",
          "height": 320,
          "mimetype": "image/jpeg",
          "secret": "M7iNkzNIvN0XIFDBgPoFMuBF96jvHdZz",
          "width": 320
        },
        "k": {
          "extension": "jpg",
          "height": 1536,
          "mimetype": "image/jpeg",
          "secret": "M7iNkzNIvN0XIFDBgPoFMuBF96jvHdZz",
          "width": 1931
        },
        "n": {
          "extension": "jpg",
          "height": 240,
          "mimetype": "image/jpeg",
          "secret": "M7iNkzNIvN0XIFDBgPoFMuBF96jvHdZz",
          "width": 301
        },
        "o": {
          "extension": "jpg",
          "height": 1667,
          "mimetype": "image/jpeg",
          "secret": "87Xi1axFpjBfkDB6aBtGEqsHRjlagDLu",
          "width": 2096
        },
        "s": {
          "extension": "jpg",
          "height": 320,
          "mimetype": "image/jpeg",
          "secret": "M7iNkzNIvN0XIFDBgPoFMuBF96jvHdZz",
          "width": 320
        },
        "z": {
          "extension": "jpg",
          "height": 480,
          "mimetype": "image/jpeg",
          "secret": "M7iNkzNIvN0XIFDBgPoFMuBF96jvHdZz",
          "width": 603
        }
      }
    },
    "media:source": "sfomuseum",
    "media:status_id": 1,
    "media:uri_template": "https://static.sfomuseum.org/media/188/049/875/5/1880498755_{secret}_{label}.{extension}",
    "millsfield:airline_id": [
      1159284989
    ],
    "millsfield:category_id": 1763416393,
    "millsfield:collection_id": 1511214203,
    "millsfield:company_id": [
      1159286839
    ],
    "millsfield:images_colors": [
      {
        "hex": "#b3b3b4",
        "name": "#b3b3b4",
        "reference": "marekm4"
      },
      {
        "hex": "#a9a9a9",
        "name": "darkgrey",
        "reference": "css4"
      },
      {
        "hex": "#b0b7c6",
        "name": "Cadet Blue",
        "reference": "crayola"
      },
      {
        "hex": "#525f70",
        "name": "#525f70",
        "reference": "marekm4"
      },
      {
        "hex": "#696969",
        "name": "dimgrey",
        "reference": "css4"
      },
      {
        "hex": "#4a646c",
        "name": "Deep Space Sparkle",
        "reference": "crayola"
      }
    ],
    "millsfield:similar": {
      "apple/mobileclip_s0": [
        {
          "distance": 0.2349418,
          "id": 1880507985
        },
        {
          "distance": 0.23598287,
          "id": 1896966853
        },
        {
          "distance": 0.24662475,
          "id": 1880644877
        },
        {
          "distance": 0.24764591,
          "id": 1880464915
        },
        {
          "distance": 0.24820492,
          "id": 1880498775
        },
        {
          "distance": 0.25205088,
          "id": 1746681089
        },
        {
          "distance": 0.26092368,
          "id": 1897142529
        },
        {
          "distance": 0.26195672,
          "id": 1763447397
        },
        {
          "distance": 0.26320493,
          "id": 1880440021
        },
        {
          "distance": 0.26538995,
          "id": 1880498749
        }
      ],
      "apple/mobileclip_s1": [
        {
          "distance": 0.15520407,
          "id": 1880440021
        },
        {
          "distance": 0.16479567,
          "id": 1880464915
        },
        {
          "distance": 0.16542698,
          "id": 1880498775
        },
        {
          "distance": 0.1704354,
          "id": 1880507983
        },
        {
          "distance": 0.17346191,
          "id": 1746679265
        },
        {
          "distance": 0.17973165,
          "id": 1880507985
        },
        {
          "distance": 0.18014553,
          "id": 1896966863
        },
        {
          "distance": 0.1835221,
          "id": 1880858235
        },
        {
          "distance": 0.19023354,
          "id": 1896966849
        },
        {
          "distance": 0.19301668,
          "id": 1746681089
        }
      ],
      "apple/mobileclip_s2": [
        {
          "distance": 0.22884257,
          "id": 1896966863
        },
        {
          "distance": 0.23781267,
          "id": 1880464915
        },
        {
          "distance": 0.2401536,
          "id": 1880874507
        },
        {
          "distance": 0.24222508,
          "id": 1746681089
        },
        {
          "distance": 0.24268635,
          "id": 1880644877
        },
        {
          "distance": 0.24349487,
          "id": 1880498775
        },
        {
          "distance": 0.24520384,
          "id": 1880858235
        },
        {
          "distance": 0.25161642,
          "id": 1763447331
        },
        {
          "distance": 0.253333,
          "id": 1880507985
        },
        {
          "distance": 0.2556185,
          "id": 1896966851
        }
      ]
    },
    "millsfield:subcategory_id": 1511213397,
    "mz:is_current": 1,
    "sfomuseum:filename": "2014.132.006_ft.tif",
    "sfomuseum:image_id": 147716,
    "sfomuseum:image_index": 5,
    "sfomuseum:image_type": "studio",
    "sfomuseum:object_id": 161860,
    "sfomuseum:placetype": "image",
    "sfomuseum:primary_image": 1,
    "src:geom": "sfomuseum",
    "wof:belongsto": [
      102527513,
      1159162825,
      102191575,
      85633793,
      102087579,
      85922583,
      1880497657,
      85688637,
      1159160869
    ],
    "wof:country": "XY",
    "wof:created": 1695716793,
    "wof:depicts": [
      1159286839,
      1880497657,
      1159284989
    ],
    "wof:geomhash": "ed7c2ab3547fc3916b5edc33488deaa7",
    "wof:hierarchy": [
      {
        "building_id": -1,
        "campus_id": 102527513,
        "collection_id": 1159162825,
        "concourse_id": 1159162825,
        "continent_id": 102191575,
        "country_id": 85633793,
        "county_id": 102087579,
        "custom_id": 1880498755,
        "image_id": 1880498755,
        "locality_id": 85922583,
        "neighbourhood_id": -1,
        "object_id": 1880497657,
        "region_id": 85688637,
        "wing_id": 1159160869
      }
    ],
    "wof:id": 1880498755,
    "wof:lastmodified": 1788451902,
    "wof:name": "stewardess skirt: Pan American World Airways",
    "wof:parent_id": 1880497657,
    "wof:placetype": "custom",
    "wof:placetype_alt": [
      "image"
    ],
    "wof:repo": "sfomuseum-data-media-collection",
    "wof:superseded_by": [],
    "wof:supersedes": []
  },
  "bbox": [
    -122.386472,
    37.616105,
    -122.385834,
    37.616611
  ],
  "geometry": {"type":"Polygon","coordinates":[[[-122.386472,37.616318],[-122.386435,37.616233],[-122.386376,37.616178],[-122.386301,37.616131],[-122.386161,37.616105],[-122.386022,37.616131],[-122.385914,37.616186],[-122.385855,37.616267],[-122.385834,37.616369],[-122.385871,37.616467],[-122.385941,37.616543],[-122.386054,37.616603],[-122.386183,37.616611],[-122.386306,37.616573],[-122.386419,37.616509],[-122.386467,37.616411],[-122.386472,37.616318]]]}
}
