{
  "id": 1762701503,
  "type": "Feature",
  "properties": {
    "date:cessation_lower": "1957-04-01",
    "date:cessation_upper": "1957-04-01",
    "date:inception_lower": "1957-04-01",
    "date:inception_upper": "1957-04-01",
    "edtf:cessation": "1957-04-01",
    "edtf:inception": "1957-04-01",
    "geom:area": 2.477324999997507e-7,
    "geom:bbox": "-122.386472,37.616105,-122.385834,37.616611",
    "geom:latitude": 37.61635756125121,
    "geom:longitude": -122.38615532866096,
    "media:fingerprint": "aa44bcbf760c93bda71c060dbc0e866bf92c6edb",
    "media:imagehash_avg": "a:ffc7ffbb818181ff",
    "media:imagehash_diff": "d:13374f73272b1b0d",
    "media:imagetext": "HAWAIIAN\nAIRLINES\nKauai\nOahu\nMolokai\nnOw..........\nMaui\nHavai\nDIRECT non-stop\nFLIGHTS from\nKAUAl to MAUL\nFinest, fastest between the Islands\nEffective Apr. 1, 1957\nNo. 120-A",
    "media:imagetext_created": 1787956305,
    "media:imagetext_source": "com.apple.visionkit.VNImageRequestHandler#Version 26.6.2 (Build 25G83)",
    "media:mimetype": "image/tiff",
    "media:properties": {
      "sizes": {
        "b": {
          "extension": "jpg",
          "height": 767,
          "mimetype": "image/jpeg",
          "secret": "vnOtzX6c1CKC4Y1HFw9k6wvVx4MjUt1t",
          "width": 517
        },
        "c": {
          "extension": "jpg",
          "height": 600,
          "mimetype": "image/jpeg",
          "secret": "vnOtzX6c1CKC4Y1HFw9k6wvVx4MjUt1t",
          "width": 404
        },
        "dc": {
          "extension": "jpg",
          "height": 600,
          "mimetype": "image/jpeg",
          "secret": "vnOtzX6c1CKC4Y1HFw9k6wvVx4MjUt1t",
          "width": 404
        },
        "ds": {
          "extension": "jpg",
          "height": 320,
          "mimetype": "image/jpeg",
          "secret": "vnOtzX6c1CKC4Y1HFw9k6wvVx4MjUt1t",
          "width": 320
        },
        "k": {
          "extension": "jpg",
          "height": 1535,
          "mimetype": "image/jpeg",
          "secret": "vnOtzX6c1CKC4Y1HFw9k6wvVx4MjUt1t",
          "width": 1035
        },
        "n": {
          "extension": "jpg",
          "height": 240,
          "mimetype": "image/jpeg",
          "secret": "vnOtzX6c1CKC4Y1HFw9k6wvVx4MjUt1t",
          "width": 161
        },
        "o": {
          "extension": "jpg",
          "height": 1301,
          "mimetype": "image/jpeg",
          "secret": "3cjUwPmXpcvAEW1fLVDVGMVJy1ReYKno",
          "width": 877
        },
        "s": {
          "extension": "jpg",
          "height": 320,
          "mimetype": "image/jpeg",
          "secret": "vnOtzX6c1CKC4Y1HFw9k6wvVx4MjUt1t",
          "width": 320
        },
        "z": {
          "extension": "jpg",
          "height": 480,
          "mimetype": "image/jpeg",
          "secret": "vnOtzX6c1CKC4Y1HFw9k6wvVx4MjUt1t",
          "width": 323
        }
      }
    },
    "media:source": "sfomuseum",
    "media:status_id": 1,
    "media:uri_template": "https://static.sfomuseum.org/media/176/270/150/3/1762701503_{secret}_{label}.{extension}",
    "millsfield:airline_id": [
      1159284489
    ],
    "millsfield:category_id": 1511214223,
    "millsfield:collection_id": 1511214207,
    "millsfield:company_id": [
      1159287913
    ],
    "millsfield:images_colors": [
      {
        "hex": "#d8d6c7",
        "name": "#d8d6c7",
        "reference": "marekm4"
      },
      {
        "hex": "#d3d3d3",
        "name": "lightgrey",
        "reference": "css4"
      },
      {
        "hex": "#dbd7d2",
        "name": "Timberwolf",
        "reference": "crayola"
      },
      {
        "hex": "#346047",
        "name": "#346047",
        "reference": "marekm4"
      },
      {
        "hex": "#2f4f4f",
        "name": "darkslategrey",
        "reference": "css4"
      },
      {
        "hex": "#414a4c",
        "name": "Outer Space",
        "reference": "crayola"
      }
    ],
    "millsfield:images_texts": [
      "HAWAIIAN\nAIRLINES\nKauai\nOahu\nMolokai\nnOw..........\nMaui\nHavai\nDIRECT non-stop\nFLIGHTS from\nKAUAl to MAUL\nFinest, fastest between the Islands\nEffective Apr. 1, 1957\nNo. 120-A"
    ],
    "millsfield:images_texts_ids": [
      1762701503
    ],
    "millsfield:similar": {
      "apple/mobileclip_s0": [
        {
          "distance": 0.675749,
          "id": 1527818657
        },
        {
          "distance": 0.6908009,
          "id": 1527856093
        },
        {
          "distance": 0.6941931,
          "id": 1762700719
        },
        {
          "distance": 0.6971835,
          "id": 1762699373
        },
        {
          "distance": 0.6994082,
          "id": 1527852797
        },
        {
          "distance": 0.7019186,
          "id": 1762702441
        },
        {
          "distance": 0.70502335,
          "id": 1762702419
        },
        {
          "distance": 0.7057841,
          "id": 1527836945
        },
        {
          "distance": 0.70733505,
          "id": 1527838223
        },
        {
          "distance": 0.70745033,
          "id": 1763249235
        }
      ],
      "apple/mobileclip_s1": [
        {
          "distance": 0.47925907,
          "id": 1527836945
        },
        {
          "distance": 0.4848996,
          "id": 1762892301
        },
        {
          "distance": 0.48557338,
          "id": 1762702451
        },
        {
          "distance": 0.4883486,
          "id": 1527838223
        },
        {
          "distance": 0.4901746,
          "id": 1527850353
        },
        {
          "distance": 0.49739242,
          "id": 1762698985
        },
        {
          "distance": 0.5032522,
          "id": 1527836943
        },
        {
          "distance": 0.51539594,
          "id": 1762890601
        },
        {
          "distance": 0.5174434,
          "id": 1763445605
        },
        {
          "distance": 0.5212415,
          "id": 1527856093
        }
      ],
      "apple/mobileclip_s2": [
        {
          "distance": 0.66243625,
          "id": 1527838223
        },
        {
          "distance": 0.6725046,
          "id": 1762702433
        },
        {
          "distance": 0.68292296,
          "id": 1762702451
        },
        {
          "distance": 0.6901756,
          "id": 1527836945
        },
        {
          "distance": 0.69169325,
          "id": 1762892301
        },
        {
          "distance": 0.694558,
          "id": 1527856093
        },
        {
          "distance": 0.6962354,
          "id": 1763445605
        },
        {
          "distance": 0.6972325,
          "id": 1762702435
        },
        {
          "distance": 0.7063876,
          "id": 1527850353
        },
        {
          "distance": 0.71037024,
          "id": 1527836943
        }
      ]
    },
    "millsfield:subcategory_id": 1511213425,
    "mz:is_current": 1,
    "sfomuseum:filename": "2015.167.387.tif",
    "sfomuseum:image_id": 149256,
    "sfomuseum:image_index": 5,
    "sfomuseum:image_type": "studio",
    "sfomuseum:object_id": 174368,
    "sfomuseum:placetype": "image",
    "sfomuseum:primary_image": 1,
    "src:geom": "sfomuseum",
    "wof:belongsto": [
      102527513,
      1159162825,
      102191575,
      85633793,
      102087579,
      85922583,
      1762694393,
      85688637,
      1159160869
    ],
    "wof:country": "XY",
    "wof:created": 1641346825,
    "wof:depicts": [
      1159287913,
      1762694393,
      1159284489
    ],
    "wof:geomhash": "ed7c2ab3547fc3916b5edc33488deaa7",
    "wof:hierarchy": [
      {
        "building_id": -1,
        "campus_id": 102527513,
        "collection_id": 1159162825,
        "concourse_id": 1159162825,
        "continent_id": 102191575,
        "country_id": 85633793,
        "county_id": 102087579,
        "custom_id": 1762701503,
        "image_id": 1762701503,
        "locality_id": 85922583,
        "neighbourhood_id": -1,
        "object_id": 1762694393,
        "region_id": 85688637,
        "wing_id": 1159160869
      }
    ],
    "wof:id": 1762701503,
    "wof:lastmodified": 1788450469,
    "wof:name": "timetable: Hawaiian Airlines",
    "wof:parent_id": 1762694393,
    "wof:placetype": "custom",
    "wof:placetype_alt": [
      "image"
    ],
    "wof:repo": "sfomuseum-data-media-collection",
    "wof:superseded_by": [],
    "wof:supersedes": []
  },
  "bbox": [
    -122.386472,
    37.616105,
    -122.385834,
    37.616611
  ],
  "geometry": {"type":"Polygon","coordinates":[[[-122.386472,37.616318],[-122.386435,37.616233],[-122.386376,37.616178],[-122.386301,37.616131],[-122.386161,37.616105],[-122.386022,37.616131],[-122.385914,37.616186],[-122.385855,37.616267],[-122.385834,37.616369],[-122.385871,37.616467],[-122.385941,37.616543],[-122.386054,37.616603],[-122.386183,37.616611],[-122.386306,37.616573],[-122.386419,37.616509],[-122.386467,37.616411],[-122.386472,37.616318]]]}
}
