{
  "id": 1947939347,
  "type": "Feature",
  "properties": {
    "date:cessation_lower": "2014-01-01",
    "date:cessation_upper": "2014-12-31",
    "date:inception_lower": "2014-01-01",
    "date:inception_upper": "2014-12-31",
    "edtf:cessation": "2014",
    "edtf:inception": "2014",
    "geom:area": 2.477324999997507e-7,
    "geom:bbox": "-122.386472,37.616105,-122.385834,37.616611",
    "geom:latitude": 37.61635756125121,
    "geom:longitude": -122.38615532866096,
    "media:fingerprint": "9ce6c110fab5f2e3ddce95030bf7e48a5b9e0fa6",
    "media:imagehash_avg": "a:0c1c3ee783c3e7ff",
    "media:imagehash_diff": "d:f8f0f0cc0f0fccf0",
    "media:imagetext": "DDZD",
    "media:imagetext_created": 1787974923,
    "media:imagetext_source": "com.apple.visionkit.VNImageRequestHandler#Version 26.6.2 (Build 25G83)",
    "media:mimetype": "image/tiff",
    "media:properties": {
      "sizes": {
        "b": {
          "extension": "jpg",
          "height": 768,
          "mimetype": "image/jpeg",
          "secret": "5ULEDJvND0P6gCLlTuag5pzQ2Me5CDi5",
          "width": 960
        },
        "c": {
          "extension": "jpg",
          "height": 600,
          "mimetype": "image/jpeg",
          "secret": "5ULEDJvND0P6gCLlTuag5pzQ2Me5CDi5",
          "width": 750
        },
        "dc": {
          "extension": "jpg",
          "height": 600,
          "mimetype": "image/jpeg",
          "secret": "5ULEDJvND0P6gCLlTuag5pzQ2Me5CDi5",
          "width": 750
        },
        "ds": {
          "extension": "jpg",
          "height": 320,
          "mimetype": "image/jpeg",
          "secret": "5ULEDJvND0P6gCLlTuag5pzQ2Me5CDi5",
          "width": 320
        },
        "k": {
          "extension": "jpg",
          "height": 1536,
          "mimetype": "image/jpeg",
          "secret": "5ULEDJvND0P6gCLlTuag5pzQ2Me5CDi5",
          "width": 1920
        },
        "n": {
          "extension": "jpg",
          "height": 240,
          "mimetype": "image/jpeg",
          "secret": "5ULEDJvND0P6gCLlTuag5pzQ2Me5CDi5",
          "width": 300
        },
        "o": {
          "extension": "jpg",
          "height": 1680,
          "mimetype": "image/jpeg",
          "secret": "wJNVhUiFbeQkdvAJQDLIvNz1JPFbqnZN",
          "width": 2100
        },
        "s": {
          "extension": "jpg",
          "height": 320,
          "mimetype": "image/jpeg",
          "secret": "5ULEDJvND0P6gCLlTuag5pzQ2Me5CDi5",
          "width": 320
        },
        "z": {
          "extension": "jpg",
          "height": 480,
          "mimetype": "image/jpeg",
          "secret": "5ULEDJvND0P6gCLlTuag5pzQ2Me5CDi5",
          "width": 600
        }
      }
    },
    "media:source": "sfomuseum",
    "media:status_id": 1,
    "media:uri_template": "https://static.sfomuseum.org/media/194/793/934/7/1947939347_{secret}_{label}.{extention}",
    "millsfield:airline_id": [
      1159284181
    ],
    "millsfield:category_id": 1511214235,
    "millsfield:collection_id": 1511214203,
    "millsfield:company_id": [
      1159287427
    ],
    "millsfield:images_colors": [
      {
        "hex": "#dcdde0",
        "name": "#dcdde0",
        "reference": "marekm4"
      },
      {
        "hex": "#dcdcdc",
        "name": "gainsboro",
        "reference": "css4"
      },
      {
        "hex": "#dbd7d2",
        "name": "Timberwolf",
        "reference": "crayola"
      },
      {
        "hex": "#686868",
        "name": "#686868",
        "reference": "marekm4"
      },
      {
        "hex": "#696969",
        "name": "dimgrey",
        "reference": "css4"
      },
      {
        "hex": "#757575",
        "name": "Sonic Silver",
        "reference": "crayola"
      }
    ],
    "millsfield:images_texts": [
      ". \u003e\n* 2#532",
      "* 46",
      "=46",
      "DDZD",
      "FEET\n4\n6",
      "146-",
      "16"
    ],
    "millsfield:images_texts_ids": [
      1763233655,
      1914676689,
      1914676693,
      1947939347,
      1947939361,
      1947939367,
      1947939495
    ],
    "millsfield:similar": {
      "apple/mobileclip_s0": [
        {
          "distance": 0.468132,
          "id": 1914676719
        },
        {
          "distance": 0.46900424,
          "id": 1914676681
        },
        {
          "distance": 0.48009968,
          "id": 1880319665
        },
        {
          "distance": 0.48076567,
          "id": 1880320645
        },
        {
          "distance": 0.48217994,
          "id": 1897771479
        },
        {
          "distance": 0.4885062,
          "id": 1914058879
        },
        {
          "distance": 0.4904754,
          "id": 1914676711
        },
        {
          "distance": 0.49291953,
          "id": 1527858015
        },
        {
          "distance": 0.49425012,
          "id": 1763145415
        },
        {
          "distance": 0.49428403,
          "id": 1947939361
        }
      ],
      "apple/mobileclip_s1": [
        {
          "distance": 0.34441775,
          "id": 1914676681
        },
        {
          "distance": 0.36900574,
          "id": 1914676703
        },
        {
          "distance": 0.3876778,
          "id": 1763145199
        },
        {
          "distance": 0.39220586,
          "id": 1947939361
        },
        {
          "distance": 0.39226705,
          "id": 1880320609
        },
        {
          "distance": 0.3929441,
          "id": 1914676689
        },
        {
          "distance": 0.39455205,
          "id": 1880319173
        },
        {
          "distance": 0.39536166,
          "id": 1914676719
        },
        {
          "distance": 0.3962665,
          "id": 1880321201
        },
        {
          "distance": 0.3970634,
          "id": 1880320679
        }
      ],
      "apple/mobileclip_s2": [
        {
          "distance": 0.48999274,
          "id": 1914676689
        },
        {
          "distance": 0.4942447,
          "id": 1947939361
        },
        {
          "distance": 0.49528778,
          "id": 1914676703
        },
        {
          "distance": 0.5064074,
          "id": 1914676681
        },
        {
          "distance": 0.53359616,
          "id": 1763145199
        },
        {
          "distance": 0.5348154,
          "id": 1880319247
        },
        {
          "distance": 0.5404788,
          "id": 1881138629
        },
        {
          "distance": 0.5419217,
          "id": 1914676719
        },
        {
          "distance": 0.54243344,
          "id": 1880320999
        },
        {
          "distance": 0.54477435,
          "id": 1880321421
        }
      ]
    },
    "millsfield:subcategory_id": 1511213161,
    "mz:is_current": 1,
    "sfomuseum:filename": "2018.045.006_4.tif",
    "sfomuseum:image_id": 294589,
    "sfomuseum:image_index": 0,
    "sfomuseum:image_type": "studio",
    "sfomuseum:object_id": 196441,
    "sfomuseum:placetype": "image",
    "sfomuseum:primary_image": 0,
    "src:geom": "sfomuseum",
    "wof:belongsto": [
      102527513,
      1159162825,
      102191575,
      85633793,
      102087579,
      85922583,
      1763233567,
      85688637,
      1159160869
    ],
    "wof:country": "XY",
    "wof:created": 1738916907,
    "wof:depicts": [
      1159284181,
      1159287427,
      1763233567
    ],
    "wof:geomhash": "ed7c2ab3547fc3916b5edc33488deaa7",
    "wof:hierarchy": [
      {
        "building_id": -1,
        "campus_id": 102527513,
        "collection_id": 1159162825,
        "concourse_id": 1159162825,
        "continent_id": 102191575,
        "country_id": 85633793,
        "county_id": 102087579,
        "custom_id": 1947939347,
        "locality_id": 85922583,
        "neighbourhood_id": -1,
        "object_id": 1763233567,
        "region_id": 85688637,
        "wing_id": 1159160869
      }
    ],
    "wof:id": 1947939347,
    "wof:lastmodified": 1788452526,
    "wof:name": "model airplane: CNAC (China National Aviation Corporation), Douglas DC-2-1/2",
    "wof:parent_id": 1763233567,
    "wof:placetype": "custom",
    "wof:repo": "sfomuseum-data-media-collection",
    "wof:superseded_by": [],
    "wof:supersedes": []
  },
  "bbox": [
    -122.386472,
    37.616105,
    -122.385834,
    37.616611
  ],
  "geometry": {"type":"Polygon","coordinates":[[[-122.386472,37.616318],[-122.386435,37.616233],[-122.386376,37.616178],[-122.386301,37.616131],[-122.386161,37.616105],[-122.386022,37.616131],[-122.385914,37.616186],[-122.385855,37.616267],[-122.385834,37.616369],[-122.385871,37.616467],[-122.385941,37.616543],[-122.386054,37.616603],[-122.386183,37.616611],[-122.386306,37.616573],[-122.386419,37.616509],[-122.386467,37.616411],[-122.386472,37.616318]]]}
}
