{
  "id": 1779667881,
  "type": "Feature",
  "properties": {
    "date:cessation_lower": "1970-01-01",
    "date:cessation_upper": "1979-12-31",
    "date:inception_lower": "1970-01-01",
    "date:inception_upper": "1979-12-31",
    "edtf:cessation": "197X",
    "edtf:inception": "197X",
    "geom:area": 2.477324999997507e-7,
    "geom:bbox": "-122.386472,37.616105,-122.385834,37.616611",
    "geom:latitude": 37.61635756125121,
    "geom:longitude": -122.38615532866096,
    "media:fingerprint": "8f1df5d25a75008ca423dbc76e1965a5c08b8c77",
    "media:imagehash_avg": "a:ff8181e1e1e1e1ff",
    "media:imagehash_diff": "d:333155454545554b",
    "media:mimetype": "image/tiff",
    "media:properties": {
      "sizes": {
        "b": {
          "extension": "jpg",
          "height": 674,
          "mimetype": "image/jpeg",
          "secret": "DBjICiYVAFx18frLBVbigdU79IVJrpIs",
          "width": 1024
        },
        "c": {
          "extension": "jpg",
          "height": 526,
          "mimetype": "image/jpeg",
          "secret": "DBjICiYVAFx18frLBVbigdU79IVJrpIs",
          "width": 800
        },
        "dc": {
          "extension": "jpg",
          "height": 526,
          "mimetype": "image/jpeg",
          "secret": "DBjICiYVAFx18frLBVbigdU79IVJrpIs",
          "width": 800
        },
        "ds": {
          "extension": "jpg",
          "height": 320,
          "mimetype": "image/jpeg",
          "secret": "DBjICiYVAFx18frLBVbigdU79IVJrpIs",
          "width": 320
        },
        "k": {
          "extension": "jpg",
          "height": 1348,
          "mimetype": "image/jpeg",
          "secret": "DBjICiYVAFx18frLBVbigdU79IVJrpIs",
          "width": 2048
        },
        "n": {
          "extension": "jpg",
          "height": 210,
          "mimetype": "image/jpeg",
          "secret": "DBjICiYVAFx18frLBVbigdU79IVJrpIs",
          "width": 320
        },
        "o": {
          "extension": "jpg",
          "height": 1317,
          "mimetype": "image/jpeg",
          "secret": "wEfAZPB4HpCNApxWtBACgDUg7xXQFR8z",
          "width": 2000
        },
        "s": {
          "extension": "jpg",
          "height": 320,
          "mimetype": "image/jpeg",
          "secret": "DBjICiYVAFx18frLBVbigdU79IVJrpIs",
          "width": 320
        },
        "z": {
          "extension": "jpg",
          "height": 421,
          "mimetype": "image/jpeg",
          "secret": "DBjICiYVAFx18frLBVbigdU79IVJrpIs",
          "width": 640
        }
      }
    },
    "media:source": "sfomuseum",
    "media:status_id": 1,
    "media:uri_template": "https://static.sfomuseum.org/media/177/966/788/1/1779667881_{secret}_{label}.{extension}",
    "millsfield:airline_id": [
      1159283849
    ],
    "millsfield:category_id": 1762671311,
    "millsfield:collection_id": 1511214207,
    "millsfield:company_id": [
      1360700619
    ],
    "millsfield:images_colors": [
      {
        "hex": "#4c460d",
        "name": "#4c460d",
        "reference": "marekm4"
      },
      {
        "hex": "#556b2f",
        "name": "darkolivegreen",
        "reference": "css4"
      },
      {
        "hex": "#714b23",
        "name": "Raw Umber",
        "reference": "crayola"
      },
      {
        "hex": "#eee1ce",
        "name": "#eee1ce",
        "reference": "marekm4"
      },
      {
        "hex": "#faebd7",
        "name": "antiquewhite",
        "reference": "css4"
      },
      {
        "hex": "#efdecd",
        "name": "Almond",
        "reference": "crayola"
      },
      {
        "hex": "#905914",
        "name": "#905914",
        "reference": "marekm4"
      },
      {
        "hex": "#8b4513",
        "name": "saddlebrown",
        "reference": "css4"
      },
      {
        "hex": "#b79d4e",
        "name": "#b79d4e",
        "reference": "marekm4"
      },
      {
        "hex": "#cd853f",
        "name": "peru",
        "reference": "css4"
      },
      {
        "hex": "#d68a59",
        "name": "Raw Sienna",
        "reference": "crayola"
      }
    ],
    "millsfield:images_texts": [
      "Cocktails with Canapes\nBourbon • Scotch • Canadian • Blended Whiskey\nMartin-mixed to your own taste with: Gin • Vodka\nBloody Mary • Daiquiri Manhattan • Whiskey Sour\nAperitif Wine • Sherry • Gin and Tonic\nMichelob Beer • Tomato Juice • Soft Drinks\nService is limited to two drinks per passenger.\nMenu\nAppetizer\nTo Tease Your Palate\nSalad\nCrisp Garden Greens\nWith Classic Dressing\nEntrees\nRoast Sirloin of Beef\nVeal Chop Wisconsin\nGarved from the Cart\nMilk-Fied Veal, Flavored\nand Served with Natural Juices\nwith Old-Fashioned Stuffing\nRedwood Forest Game Hen\nRoasted and Topped with Bing Cherry Sauce,\nPresented with Rice Pilaff\nA Selection of Vegetables\nSPECIALLY SELECTED WINES\nessert\nSelections from the Cart\nCoffee\nTea\nMilk\nChildren's Meals Are Also Available: Cheeseburger-Frankfurter-Fried Chicken\nBrandies and Liqueurs\nCognac V.S.O.P. • Creme de Menthe • Drambuie\nBenedictine \u0026 Brandy • Grand Marnier • Coffee Liqueur\nWe are so glad you could join us today!\nAA Form T349-1\nPrinted in U.S.A."
    ],
    "millsfield:images_texts_ids": [
      1779667883
    ],
    "millsfield:similar": {
      "apple/mobileclip_s0": [
        {
          "distance": 0.67615426,
          "id": 1863469525
        },
        {
          "distance": 0.68805456,
          "id": 1527845511
        },
        {
          "distance": 0.70099974,
          "id": 1779736413
        },
        {
          "distance": 0.70444775,
          "id": 1863469523
        },
        {
          "distance": 0.70504254,
          "id": 1763380419
        },
        {
          "distance": 0.7063119,
          "id": 1863469527
        },
        {
          "distance": 0.70636165,
          "id": 1527853161
        },
        {
          "distance": 0.7112352,
          "id": 1763380489
        },
        {
          "distance": 0.7173225,
          "id": 1527843595
        },
        {
          "distance": 0.71753734,
          "id": 1527844147
        }
      ],
      "apple/mobileclip_s1": [
        {
          "distance": 0.51632786,
          "id": 1863469517
        },
        {
          "distance": 0.5272119,
          "id": 1779667761
        },
        {
          "distance": 0.5317585,
          "id": 1863469519
        },
        {
          "distance": 0.53776944,
          "id": 1527853161
        },
        {
          "distance": 0.538353,
          "id": 1779666153
        },
        {
          "distance": 0.53892696,
          "id": 2014778045
        },
        {
          "distance": 0.5395691,
          "id": 1863469527
        },
        {
          "distance": 0.54319406,
          "id": 1763380489
        },
        {
          "distance": 0.54680145,
          "id": 1527845511
        },
        {
          "distance": 0.54709476,
          "id": 2014778049
        }
      ],
      "apple/mobileclip_s2": [
        {
          "distance": 0.72100574,
          "id": 1527845511
        },
        {
          "distance": 0.7436214,
          "id": 1779736413
        },
        {
          "distance": 0.7499824,
          "id": 1779666153
        },
        {
          "distance": 0.75351053,
          "id": 1527847959
        },
        {
          "distance": 0.7572622,
          "id": 1863469527
        },
        {
          "distance": 0.76956236,
          "id": 2014778049
        },
        {
          "distance": 0.7712118,
          "id": 1897196905
        },
        {
          "distance": 0.774056,
          "id": 1779667761
        },
        {
          "distance": 0.7755369,
          "id": 1527844147
        },
        {
          "distance": 0.7755373,
          "id": 2014778045
        }
      ]
    },
    "millsfield:subcategory_id": 1511213567,
    "mz:is_current": 1,
    "sfomuseum:filename": "2018.148.001_cover.tif",
    "sfomuseum:image_id": 221372,
    "sfomuseum:image_index": 5,
    "sfomuseum:image_type": "studio",
    "sfomuseum:object_id": 201463,
    "sfomuseum:placetype": "image",
    "sfomuseum:primary_image": 1,
    "src:geom": "sfomuseum",
    "wof:belongsto": [
      102527513,
      1159162825,
      102191575,
      85633793,
      102087579,
      85922583,
      1779667303,
      85688637,
      1159160869
    ],
    "wof:country": "XY",
    "wof:created": 1655193564,
    "wof:depicts": [
      1159283849,
      1360700619,
      1779667303
    ],
    "wof:geomhash": "ed7c2ab3547fc3916b5edc33488deaa7",
    "wof:hierarchy": [
      {
        "building_id": -1,
        "campus_id": 102527513,
        "collection_id": 1159162825,
        "concourse_id": 1159162825,
        "continent_id": 102191575,
        "country_id": 85633793,
        "county_id": 102087579,
        "custom_id": 1779667881,
        "image_id": 1779667881,
        "locality_id": 85922583,
        "neighbourhood_id": -1,
        "object_id": 1779667303,
        "region_id": 85688637,
        "wing_id": 1159160869
      }
    ],
    "wof:id": 1779667881,
    "wof:lastmodified": 1788451336,
    "wof:name": "menu: American Airlines",
    "wof:parent_id": 1779667303,
    "wof:placetype": "custom",
    "wof:placetype_alt": [
      "image"
    ],
    "wof:repo": "sfomuseum-data-media-collection",
    "wof:superseded_by": [],
    "wof:supersedes": []
  },
  "bbox": [
    -122.386472,
    37.616105,
    -122.385834,
    37.616611
  ],
  "geometry": {"type":"Polygon","coordinates":[[[-122.386472,37.616318],[-122.386435,37.616233],[-122.386376,37.616178],[-122.386301,37.616131],[-122.386161,37.616105],[-122.386022,37.616131],[-122.385914,37.616186],[-122.385855,37.616267],[-122.385834,37.616369],[-122.385871,37.616467],[-122.385941,37.616543],[-122.386054,37.616603],[-122.386183,37.616611],[-122.386306,37.616573],[-122.386419,37.616509],[-122.386467,37.616411],[-122.386472,37.616318]]]}
}
