{
  "id": 1762707963,
  "type": "Feature",
  "properties": {
    "date:cessation_lower": "1970-01-01",
    "date:cessation_upper": "1979-12-31",
    "date:inception_lower": "1970-01-01",
    "date:inception_upper": "1979-12-31",
    "edtf:cessation": "197X",
    "edtf:inception": "197X",
    "geom:area": 2.477324999997507e-7,
    "geom:bbox": "-122.386472,37.616105,-122.385834,37.616611",
    "geom:latitude": 37.61635756125121,
    "geom:longitude": -122.38615532866096,
    "media:fingerprint": "47a3c7a9ae7de33baa5142e888e18aaa036530ce",
    "media:imagehash_avg": "a:9fbcf9ffffff0f0f",
    "media:imagehash_diff": "d:78686b4b68683979",
    "media:imagetext": "A Northeast Yellowbird over the\nfamous Miami Beach Gold Coast.\nEverything's new on Northeast and the\nYellowbirds say it beautifully. Catch a\nYellowbird and let luxury happen to you.\nNORTHEAST\nPlace\nStamp\nHere\nPOST CARD\n2015.166.1109",
    "media:imagetext_created": 1787957297,
    "media:imagetext_source": "com.apple.visionkit.VNImageRequestHandler#Version 26.6.2 (Build 25G83)",
    "media:mimetype": "image/tiff",
    "media:properties": {
      "sizes": {
        "b": {
          "extension": "jpg",
          "height": 669,
          "mimetype": "image/jpeg",
          "secret": "4Fn4xExsYENCGvH2wyi7w2TmaGVhFZz8",
          "width": 1024
        },
        "c": {
          "extension": "jpg",
          "height": 522,
          "mimetype": "image/jpeg",
          "secret": "4Fn4xExsYENCGvH2wyi7w2TmaGVhFZz8",
          "width": 800
        },
        "dc": {
          "extension": "jpg",
          "height": 522,
          "mimetype": "image/jpeg",
          "secret": "4Fn4xExsYENCGvH2wyi7w2TmaGVhFZz8",
          "width": 800
        },
        "ds": {
          "extension": "jpg",
          "height": 320,
          "mimetype": "image/jpeg",
          "secret": "4Fn4xExsYENCGvH2wyi7w2TmaGVhFZz8",
          "width": 320
        },
        "k": {
          "extension": "jpg",
          "height": 1338,
          "mimetype": "image/jpeg",
          "secret": "4Fn4xExsYENCGvH2wyi7w2TmaGVhFZz8",
          "width": 2048
        },
        "n": {
          "extension": "jpg",
          "height": 209,
          "mimetype": "image/jpeg",
          "secret": "4Fn4xExsYENCGvH2wyi7w2TmaGVhFZz8",
          "width": 320
        },
        "o": {
          "extension": "jpg",
          "height": 1129,
          "mimetype": "image/jpeg",
          "secret": "0ymeMDtROesL7w8tKkakydGkd8bwgbS3",
          "width": 1728
        },
        "s": {
          "extension": "jpg",
          "height": 320,
          "mimetype": "image/jpeg",
          "secret": "4Fn4xExsYENCGvH2wyi7w2TmaGVhFZz8",
          "width": 320
        },
        "z": {
          "extension": "jpg",
          "height": 418,
          "mimetype": "image/jpeg",
          "secret": "4Fn4xExsYENCGvH2wyi7w2TmaGVhFZz8",
          "width": 640
        }
      }
    },
    "media:source": "sfomuseum",
    "media:status_id": 1,
    "media:uri_template": "https://static.sfomuseum.org/media/176/270/796/3/1762707963_{secret}_{label}.{extension}",
    "millsfield:aircraft_id": [
      1159289759
    ],
    "millsfield:airline_id": [
      1159284893
    ],
    "millsfield:category_id": 1511214215,
    "millsfield:collection_id": 1511214207,
    "millsfield:company_id": [
      1159293593
    ],
    "millsfield:images_colors": [
      {
        "hex": "#f4edde",
        "name": "#f4edde",
        "reference": "marekm4"
      },
      {
        "hex": "#f5f5dc",
        "name": "beige",
        "reference": "css4"
      },
      {
        "hex": "#fddde6",
        "name": "Piggy Pink",
        "reference": "crayola"
      },
      {
        "hex": "#3e3c35",
        "name": "#3e3c35",
        "reference": "marekm4"
      },
      {
        "hex": "#2f4f4f",
        "name": "darkslategrey",
        "reference": "css4"
      },
      {
        "hex": "#414a4c",
        "name": "Outer Space",
        "reference": "crayola"
      }
    ],
    "millsfield:images_texts": [
      "NE\nNORTHEAST\n.. . .\n... ..",
      "A Northeast Yellowbird over the\nfamous Miami Beach Gold Coast.\nEverything's new on Northeast and the\nYellowbirds say it beautifully. Catch a\nYellowbird and let luxury happen to you.\nNORTHEAST\nPlace\nStamp\nHere\nPOST CARD\n2015.166.1109"
    ],
    "millsfield:images_texts_ids": [
      1762707961,
      1762707963
    ],
    "millsfield:similar": {
      "apple/mobileclip_s0": [
        {
          "distance": 0.5139798,
          "id": 1762707941
        },
        {
          "distance": 0.53415775,
          "id": 1762711543
        },
        {
          "distance": 0.53536,
          "id": 1846756267
        },
        {
          "distance": 0.53553224,
          "id": 1762710029
        },
        {
          "distance": 0.5355393,
          "id": 1762707883
        },
        {
          "distance": 0.53570265,
          "id": 1846756551
        },
        {
          "distance": 0.53572464,
          "id": 1762707207
        },
        {
          "distance": 0.53579813,
          "id": 1762704989
        },
        {
          "distance": 0.53598696,
          "id": 1762707945
        },
        {
          "distance": 0.53729147,
          "id": 1762708907
        }
      ],
      "apple/mobileclip_s1": [
        {
          "distance": 0.4486278,
          "id": 1762709429
        },
        {
          "distance": 0.45091224,
          "id": 1846756219
        },
        {
          "distance": 0.4532684,
          "id": 1762713731
        },
        {
          "distance": 0.45499858,
          "id": 1762707945
        },
        {
          "distance": 0.45502326,
          "id": 1846756277
        },
        {
          "distance": 0.45784056,
          "id": 1846756223
        },
        {
          "distance": 0.45959902,
          "id": 1762708447
        },
        {
          "distance": 0.45969483,
          "id": 1846756263
        },
        {
          "distance": 0.46059856,
          "id": 1762708907
        },
        {
          "distance": 0.4620013,
          "id": 1729565815
        }
      ],
      "apple/mobileclip_s2": [
        {
          "distance": 0.5818003,
          "id": 1762713731
        },
        {
          "distance": 0.60050714,
          "id": 1762707955
        },
        {
          "distance": 0.6096727,
          "id": 1762707941
        },
        {
          "distance": 0.61980355,
          "id": 1762708907
        },
        {
          "distance": 0.625278,
          "id": 1762708763
        },
        {
          "distance": 0.6306697,
          "id": 1762707891
        },
        {
          "distance": 0.6316854,
          "id": 1846756977
        },
        {
          "distance": 0.63256234,
          "id": 1762708901
        },
        {
          "distance": 0.6375,
          "id": 1762709429
        },
        {
          "distance": 0.64094687,
          "id": 1846756223
        }
      ]
    },
    "millsfield:subcategory_id": 1511213363,
    "mz:is_current": 1,
    "sfomuseum:filename": "2015.166.1109_bk.tif",
    "sfomuseum:image_id": 155566,
    "sfomuseum:image_index": 5,
    "sfomuseum:image_type": "studio",
    "sfomuseum:object_id": 180726,
    "sfomuseum:placetype": "image",
    "sfomuseum:primary_image": 0,
    "src:geom": "sfomuseum",
    "wof:belongsto": [
      102527513,
      1159162825,
      102191575,
      85633793,
      102087579,
      85922583,
      1762690853,
      85688637,
      1159160869
    ],
    "wof:country": "XY",
    "wof:created": 1641349238,
    "wof:depicts": [
      1159293593,
      1159284893,
      1159288917,
      1762690853,
      1159289759
    ],
    "wof:geomhash": "ed7c2ab3547fc3916b5edc33488deaa7",
    "wof:hierarchy": [
      {
        "building_id": -1,
        "campus_id": 102527513,
        "collection_id": 1159162825,
        "concourse_id": 1159162825,
        "continent_id": 102191575,
        "country_id": 85633793,
        "county_id": 102087579,
        "custom_id": 1762707963,
        "image_id": 1762707963,
        "locality_id": 85922583,
        "neighbourhood_id": -1,
        "object_id": 1762690853,
        "region_id": 85688637,
        "wing_id": 1159160869
      }
    ],
    "wof:id": 1762707963,
    "wof:lastmodified": 1788450573,
    "wof:name": "postcard: Northeast Airlines, Boeing 727 Yellowbird, Miami Beach",
    "wof:parent_id": 1762690853,
    "wof:placetype": "custom",
    "wof:placetype_alt": [
      "image"
    ],
    "wof:repo": "sfomuseum-data-media-collection",
    "wof:superseded_by": [],
    "wof:supersedes": []
  },
  "bbox": [
    -122.386472,
    37.616105,
    -122.385834,
    37.616611
  ],
  "geometry": {"type":"Polygon","coordinates":[[[-122.386472,37.616318],[-122.386435,37.616233],[-122.386376,37.616178],[-122.386301,37.616131],[-122.386161,37.616105],[-122.386022,37.616131],[-122.385914,37.616186],[-122.385855,37.616267],[-122.385834,37.616369],[-122.385871,37.616467],[-122.385941,37.616543],[-122.386054,37.616603],[-122.386183,37.616611],[-122.386306,37.616573],[-122.386419,37.616509],[-122.386467,37.616411],[-122.386472,37.616318]]]}
}
