{
  "id": 1914556117,
  "type": "Feature",
  "properties": {
    "date:cessation_lower": "1980-01-01",
    "date:cessation_upper": "1980-12-31",
    "date:inception_lower": "1980-01-01",
    "date:inception_upper": "1980-12-31",
    "edtf:cessation": "1980~",
    "edtf:inception": "1980~",
    "geom:area": 2.477324999997507e-7,
    "geom:bbox": "-122.386472,37.616105,-122.385834,37.616611",
    "geom:latitude": 37.61635756125121,
    "geom:longitude": -122.38615532866096,
    "media:fingerprint": "45986942de6e994ead5ce97d0b5cd455fdb358cb",
    "media:imagehash_avg": "a:00cffbff99ff00f7",
    "media:imagehash_diff": "d:5915975531d565c5",
    "media:imagetext": "SAFETY\nINSTRUCTIONS\n*AAK\n1\nLIFE VEST\n***\n2\n5\n6\nBAT-TRE JapanASS\nBAI A3",
    "media:imagetext_created": 1787973544,
    "media:imagetext_source": "com.apple.visionkit.VNImageRequestHandler#Version 26.6.2 (Build 25G83)",
    "media:mimetype": "image/tiff",
    "media:properties": {
      "sizes": {
        "b": {
          "extension": "jpg",
          "height": 768,
          "mimetype": "image/jpeg",
          "secret": "XzMSedzXboHgxI5FCgT9t5ySVP9coEpu",
          "width": 512
        },
        "c": {
          "extension": "jpg",
          "height": 600,
          "mimetype": "image/jpeg",
          "secret": "XzMSedzXboHgxI5FCgT9t5ySVP9coEpu",
          "width": 400
        },
        "dc": {
          "extension": "jpg",
          "height": 600,
          "mimetype": "image/jpeg",
          "secret": "XzMSedzXboHgxI5FCgT9t5ySVP9coEpu",
          "width": 400
        },
        "ds": {
          "extension": "jpg",
          "height": 320,
          "mimetype": "image/jpeg",
          "secret": "XzMSedzXboHgxI5FCgT9t5ySVP9coEpu",
          "width": 320
        },
        "k": {
          "extension": "jpg",
          "height": 1536,
          "mimetype": "image/jpeg",
          "secret": "XzMSedzXboHgxI5FCgT9t5ySVP9coEpu",
          "width": 1024
        },
        "n": {
          "extension": "jpg",
          "height": 240,
          "mimetype": "image/jpeg",
          "secret": "XzMSedzXboHgxI5FCgT9t5ySVP9coEpu",
          "width": 160
        },
        "o": {
          "extension": "jpg",
          "height": 2000,
          "mimetype": "image/jpeg",
          "secret": "ate2jmOPWCkSsZOFkzrx5DoxaP3b5101",
          "width": 1334
        },
        "s": {
          "extension": "jpg",
          "height": 320,
          "mimetype": "image/jpeg",
          "secret": "XzMSedzXboHgxI5FCgT9t5ySVP9coEpu",
          "width": 320
        },
        "z": {
          "extension": "jpg",
          "height": 480,
          "mimetype": "image/jpeg",
          "secret": "XzMSedzXboHgxI5FCgT9t5ySVP9coEpu",
          "width": 320
        }
      }
    },
    "media:source": "sfomuseum",
    "media:status_id": 1,
    "media:uri_template": "https://static.sfomuseum.org/media/191/455/611/7/1914556117_{secret}_{label}.{extention}",
    "millsfield:aircraft_id": [
      1159289873
    ],
    "millsfield:airline_id": [
      1159284571
    ],
    "millsfield:category_id": 1762671311,
    "millsfield:collection_id": 1511214207,
    "millsfield:company_id": [
      1159293593
    ],
    "millsfield:images_colors": [
      {
        "hex": "#b3c4c1",
        "name": "#b3c4c1",
        "reference": "marekm4"
      },
      {
        "hex": "#c0c0c0",
        "name": "silver",
        "reference": "css4"
      },
      {
        "hex": "#b0b7c6",
        "name": "Cadet Blue",
        "reference": "crayola"
      },
      {
        "hex": "#dd2811",
        "name": "#dd2811",
        "reference": "marekm4"
      },
      {
        "hex": "#b22222",
        "name": "firebrick",
        "reference": "css4"
      },
      {
        "hex": "#ff2b2b",
        "name": "Orange Red",
        "reference": "crayola"
      },
      {
        "hex": "#375e5a",
        "name": "#375e5a",
        "reference": "marekm4"
      },
      {
        "hex": "#2f4f4f",
        "name": "darkslategrey",
        "reference": "css4"
      },
      {
        "hex": "#414a4c",
        "name": "Outer Space",
        "reference": "crayola"
      },
      {
        "hex": "#658b8f",
        "name": "#658b8f",
        "reference": "marekm4"
      },
      {
        "hex": "#708090",
        "name": "slategrey",
        "reference": "css4"
      },
      {
        "hex": "#757575",
        "name": "Sonic Silver",
        "reference": "crayola"
      },
      {
        "hex": "#e7841c",
        "name": "#e7841c",
        "reference": "marekm4"
      },
      {
        "hex": "#d2691e",
        "name": "chocolate",
        "reference": "css4"
      },
      {
        "hex": "#ff7538",
        "name": "Orange",
        "reference": "crayola"
      }
    ],
    "millsfield:images_texts": [
      "SAFETY\nINSTRUCTIONS\n#*A AT TAKE-OFF AND LANDING\n747\nFASTEN SEAT BELT\n11024 m\nDO NOT\nREMOVE FROM AIRCRAFT\nNO SMOKING\nPLEASE FASTEN YOUR SEAT\nWHENEVER SITTING\nIN YOUR\n1C2 GASE A\nBELT\nSEAT\n*\nOXYGEN",
      "$1*9\nSAFETY POSITION\n$1**\n000000\n000\n000000\n000\n00D\nD0000000000000\nEXIT\n##0 8••\nD0D\n000000\n6000000000 00\nDP\nEXIT\n0000000.\n000",
      "SAFETY\nINSTRUCTIONS\n*AAK\n1\nLIFE VEST\n***\n2\n5\n6\nBAT-TRE JapanASS\nBAI A3"
    ],
    "millsfield:images_texts_ids": [
      1914556111,
      1914556115,
      1914556117
    ],
    "millsfield:similar": {
      "apple/mobileclip_s0": [
        {
          "distance": 0.18681215,
          "id": 1914556047
        },
        {
          "distance": 0.20321207,
          "id": 1914556061
        },
        {
          "distance": 0.23902163,
          "id": 1914556053
        },
        {
          "distance": 0.25193265,
          "id": 1796414181
        },
        {
          "distance": 0.33581313,
          "id": 1527850065
        },
        {
          "distance": 0.34427634,
          "id": 1762894445
        },
        {
          "distance": 0.35771456,
          "id": 1914556039
        },
        {
          "distance": 0.50297785,
          "id": 1931096343
        },
        {
          "distance": 0.5111546,
          "id": 1914556071
        },
        {
          "distance": 0.5219392,
          "id": 1930466229
        }
      ],
      "apple/mobileclip_s1": [
        {
          "distance": 0.10849384,
          "id": 1914556061
        },
        {
          "distance": 0.13452978,
          "id": 1914556047
        },
        {
          "distance": 0.16691847,
          "id": 1914556053
        },
        {
          "distance": 0.17037103,
          "id": 1796414181
        },
        {
          "distance": 0.23614943,
          "id": 1914556039
        },
        {
          "distance": 0.27566293,
          "id": 1762894445
        },
        {
          "distance": 0.30466425,
          "id": 1527850065
        },
        {
          "distance": 0.3544677,
          "id": 1931096343
        },
        {
          "distance": 0.40670335,
          "id": 1914556071
        },
        {
          "distance": 0.4126499,
          "id": 1762894465
        }
      ],
      "apple/mobileclip_s2": [
        {
          "distance": 0.15938878,
          "id": 1914556061
        },
        {
          "distance": 0.16226777,
          "id": 1914556047
        },
        {
          "distance": 0.19959594,
          "id": 1796414181
        },
        {
          "distance": 0.2289352,
          "id": 1914556053
        },
        {
          "distance": 0.2570146,
          "id": 1914556039
        },
        {
          "distance": 0.28895846,
          "id": 1762894445
        },
        {
          "distance": 0.31134114,
          "id": 1527850065
        },
        {
          "distance": 0.50407606,
          "id": 1931096343
        },
        {
          "distance": 0.5297472,
          "id": 1914556071
        },
        {
          "distance": 0.563897,
          "id": 1762894465
        }
      ]
    },
    "millsfield:subcategory_id": 1511213703,
    "mz:is_current": 1,
    "sfomuseum:filename": "76922.tif",
    "sfomuseum:image_id": 76922,
    "sfomuseum:image_index": 5,
    "sfomuseum:image_type": "studio",
    "sfomuseum:object_id": 68998,
    "sfomuseum:placetype": "image",
    "sfomuseum:primary_image": 0,
    "src:geom": "sfomuseum",
    "wof:belongsto": [
      102527513,
      1159162825,
      102191575,
      85633793,
      102087579,
      85922583,
      1914555777,
      85688637,
      1159160869
    ],
    "wof:country": "XY",
    "wof:created": 1720460191,
    "wof:depicts": [
      1914555777,
      1159284571,
      1159289873,
      1159293593
    ],
    "wof:geomhash": "ed7c2ab3547fc3916b5edc33488deaa7",
    "wof:hierarchy": [
      {
        "building_id": -1,
        "campus_id": 102527513,
        "collection_id": 1159162825,
        "concourse_id": 1159162825,
        "continent_id": 102191575,
        "country_id": 85633793,
        "county_id": 102087579,
        "custom_id": 1914556117,
        "locality_id": 85922583,
        "neighbourhood_id": -1,
        "object_id": 1914555777,
        "region_id": 85688637,
        "wing_id": 1159160869
      }
    ],
    "wof:id": 1914556117,
    "wof:lastmodified": 1788452367,
    "wof:name": "safety information card: Japan Asia Airways, Boeing 747",
    "wof:parent_id": 1914555777,
    "wof:placetype": "custom",
    "wof:repo": "sfomuseum-data-media-collection",
    "wof:superseded_by": [],
    "wof:supersedes": []
  },
  "bbox": [
    -122.386472,
    37.616105,
    -122.385834,
    37.616611
  ],
  "geometry": {"type":"Polygon","coordinates":[[[-122.386472,37.616318],[-122.386435,37.616233],[-122.386376,37.616178],[-122.386301,37.616131],[-122.386161,37.616105],[-122.386022,37.616131],[-122.385914,37.616186],[-122.385855,37.616267],[-122.385834,37.616369],[-122.385871,37.616467],[-122.385941,37.616543],[-122.386054,37.616603],[-122.386183,37.616611],[-122.386306,37.616573],[-122.386419,37.616509],[-122.386467,37.616411],[-122.386472,37.616318]]]}
}
