{
  "id": 1913768881,
  "type": "Feature",
  "properties": {
    "date:cessation_lower": "1930-01-01",
    "date:cessation_upper": "1939-12-31",
    "date:inception_lower": "1930-01-01",
    "date:inception_upper": "1939-12-31",
    "edtf:cessation": "193X",
    "edtf:inception": "193X",
    "geom:area": 2.477324999997507e-7,
    "geom:bbox": "-122.386472,37.616105,-122.385834,37.616611",
    "geom:latitude": 37.61635756125121,
    "geom:longitude": -122.38615532866096,
    "media:fingerprint": "e2162fdfd96f217e3121cbd6279753c919dc4a2f",
    "media:imagehash_avg": "a:ff819999818181ff",
    "media:imagehash_diff": "d:7d7f717173797d7d",
    "media:imagetext": "OUTSIDE OF CHUNGKING - PREPARING RICE PADDY",
    "media:imagetext_created": 1787971846,
    "media:imagetext_source": "com.apple.visionkit.VNImageRequestHandler#Version 26.6.2 (Build 25G83)",
    "media:mimetype": "image/tiff",
    "media:properties": {
      "sizes": {
        "b": {
          "extension": "jpg",
          "height": 768,
          "mimetype": "image/jpeg",
          "secret": "JTZQxyDBeIFWTYoJQNJlr7cZ94cOnPsM",
          "width": 509
        },
        "c": {
          "extension": "jpg",
          "height": 600,
          "mimetype": "image/jpeg",
          "secret": "JTZQxyDBeIFWTYoJQNJlr7cZ94cOnPsM",
          "width": 398
        },
        "dc": {
          "extension": "jpg",
          "height": 600,
          "mimetype": "image/jpeg",
          "secret": "JTZQxyDBeIFWTYoJQNJlr7cZ94cOnPsM",
          "width": 398
        },
        "ds": {
          "extension": "jpg",
          "height": 320,
          "mimetype": "image/jpeg",
          "secret": "JTZQxyDBeIFWTYoJQNJlr7cZ94cOnPsM",
          "width": 320
        },
        "k": {
          "extension": "jpg",
          "height": 1536,
          "mimetype": "image/jpeg",
          "secret": "JTZQxyDBeIFWTYoJQNJlr7cZ94cOnPsM",
          "width": 1019
        },
        "n": {
          "extension": "jpg",
          "height": 240,
          "mimetype": "image/jpeg",
          "secret": "JTZQxyDBeIFWTYoJQNJlr7cZ94cOnPsM",
          "width": 159
        },
        "o": {
          "extension": "jpg",
          "height": 2000,
          "mimetype": "image/jpeg",
          "secret": "LP4sczDyHQiRdLT31reP4MeR0hdMopu0",
          "width": 1328
        },
        "s": {
          "extension": "jpg",
          "height": 320,
          "mimetype": "image/jpeg",
          "secret": "JTZQxyDBeIFWTYoJQNJlr7cZ94cOnPsM",
          "width": 320
        },
        "z": {
          "extension": "jpg",
          "height": 480,
          "mimetype": "image/jpeg",
          "secret": "JTZQxyDBeIFWTYoJQNJlr7cZ94cOnPsM",
          "width": 318
        }
      }
    },
    "media:source": "sfomuseum",
    "media:status_id": 1,
    "media:uri_template": "https://static.sfomuseum.org/media/191/376/888/1/1913768881_{secret}_{label}.{extension}",
    "millsfield:airline_id": [
      1159284181
    ],
    "millsfield:category_id": 1511214209,
    "millsfield:collection_id": 1511214207,
    "millsfield:company_id": [
      1159287427
    ],
    "millsfield:images_colors": [
      {
        "hex": "#282919",
        "name": "#282919",
        "reference": "marekm4"
      },
      {
        "hex": "#000000",
        "name": "black",
        "reference": "css4"
      },
      {
        "hex": "#000000",
        "name": "Black",
        "reference": "crayola"
      },
      {
        "hex": "#dedcd4",
        "name": "#dedcd4",
        "reference": "marekm4"
      },
      {
        "hex": "#dcdcdc",
        "name": "gainsboro",
        "reference": "css4"
      },
      {
        "hex": "#dbd7d2",
        "name": "Timberwolf",
        "reference": "crayola"
      },
      {
        "hex": "#8e8a75",
        "name": "#8e8a75",
        "reference": "marekm4"
      },
      {
        "hex": "#808080",
        "name": "grey",
        "reference": "css4"
      },
      {
        "hex": "#9f8170",
        "name": "Beaver",
        "reference": "crayola"
      }
    ],
    "millsfield:images_texts": [
      "OUTSIDE OF CHUNGKING - PREPARING RICE PADDY"
    ],
    "millsfield:images_texts_ids": [
      1913768881
    ],
    "millsfield:similar": {
      "apple/mobileclip_s0": [
        {
          "distance": 0.4281337,
          "id": 1913736539
        },
        {
          "distance": 0.47932696,
          "id": 1913736525
        },
        {
          "distance": 0.48809293,
          "id": 1913736535
        },
        {
          "distance": 0.53344315,
          "id": 1913768891
        },
        {
          "distance": 0.5380062,
          "id": 1913736533
        },
        {
          "distance": 0.5466515,
          "id": 1913822709
        },
        {
          "distance": 0.5605642,
          "id": 1913768897
        },
        {
          "distance": 0.5622282,
          "id": 1913736551
        },
        {
          "distance": 0.56453085,
          "id": 1527849083
        },
        {
          "distance": 0.56563187,
          "id": 1779736899
        }
      ],
      "apple/mobileclip_s1": [
        {
          "distance": 0.37273028,
          "id": 1913736539
        },
        {
          "distance": 0.40094942,
          "id": 1913736551
        },
        {
          "distance": 0.41710037,
          "id": 1913768891
        },
        {
          "distance": 0.42926267,
          "id": 1913736525
        },
        {
          "distance": 0.44371727,
          "id": 1913736533
        },
        {
          "distance": 0.4441217,
          "id": 1913768897
        },
        {
          "distance": 0.44993812,
          "id": 1846755029
        },
        {
          "distance": 0.45024487,
          "id": 1763444087
        },
        {
          "distance": 0.45819277,
          "id": 1779736899
        },
        {
          "distance": 0.46254325,
          "id": 1913736023
        }
      ],
      "apple/mobileclip_s2": [
        {
          "distance": 0.46807754,
          "id": 1913736539
        },
        {
          "distance": 0.48192334,
          "id": 1913736551
        },
        {
          "distance": 0.49789014,
          "id": 1913768891
        },
        {
          "distance": 0.5044246,
          "id": 1913736525
        },
        {
          "distance": 0.54514635,
          "id": 1913736535
        },
        {
          "distance": 0.60079545,
          "id": 1913736511
        },
        {
          "distance": 0.62014157,
          "id": 1913736549
        },
        {
          "distance": 0.6212272,
          "id": 1913736553
        },
        {
          "distance": 0.6304978,
          "id": 1913736023
        },
        {
          "distance": 0.65854365,
          "id": 1762893257
        }
      ]
    },
    "millsfield:subcategory_id": 1511213801,
    "mz:is_current": 1,
    "sfomuseum:filename": "2019.121.0549.tif",
    "sfomuseum:image_id": 224787,
    "sfomuseum:image_index": 5,
    "sfomuseum:image_type": "studio",
    "sfomuseum:object_id": 210824,
    "sfomuseum:placetype": "image",
    "sfomuseum:primary_image": 1,
    "src:geom": "sfomuseum",
    "wof:belongsto": [
      102527513,
      1159162825,
      102191575,
      85633793,
      102087579,
      85922583,
      1913768835,
      85688637,
      1159160869
    ],
    "wof:country": "XY",
    "wof:created": 1714462568,
    "wof:depicts": [
      1159287427,
      1913768835,
      1159284181
    ],
    "wof:geomhash": "ed7c2ab3547fc3916b5edc33488deaa7",
    "wof:hierarchy": [
      {
        "building_id": -1,
        "campus_id": 102527513,
        "collection_id": 1159162825,
        "concourse_id": 1159162825,
        "continent_id": 102191575,
        "country_id": 85633793,
        "county_id": 102087579,
        "custom_id": 1913768881,
        "image_id": 1913768881,
        "locality_id": 85922583,
        "neighbourhood_id": -1,
        "object_id": 1913768835,
        "region_id": 85688637,
        "wing_id": 1159160869
      }
    ],
    "wof:id": 1913768881,
    "wof:lastmodified": 1788452196,
    "wof:name": "negative print: rice paddy",
    "wof:parent_id": 1913768835,
    "wof:placetype": "custom",
    "wof:placetype_alt": [
      "image"
    ],
    "wof:repo": "sfomuseum-data-media-collection",
    "wof:superseded_by": [],
    "wof:supersedes": []
  },
  "bbox": [
    -122.386472,
    37.616105,
    -122.385834,
    37.616611
  ],
  "geometry": {"type":"Polygon","coordinates":[[[-122.386472,37.616318],[-122.386435,37.616233],[-122.386376,37.616178],[-122.386301,37.616131],[-122.386161,37.616105],[-122.386022,37.616131],[-122.385914,37.616186],[-122.385855,37.616267],[-122.385834,37.616369],[-122.385871,37.616467],[-122.385941,37.616543],[-122.386054,37.616603],[-122.386183,37.616611],[-122.386306,37.616573],[-122.386419,37.616509],[-122.386467,37.616411],[-122.386472,37.616318]]]}
}
