{
  "id": 1763241521,
  "type": "Feature",
  "properties": {
    "date:cessation_lower": "1955-01-01",
    "date:cessation_upper": "1955-12-31",
    "date:inception_lower": "1955-01-01",
    "date:inception_upper": "1955-12-31",
    "edtf:cessation": "1955~",
    "edtf:inception": "1955~",
    "geom:area": 2.477324999997507e-7,
    "geom:bbox": "-122.386472,37.616105,-122.385834,37.616611",
    "geom:latitude": 37.61635756125121,
    "geom:longitude": -122.38615532866096,
    "media:fingerprint": "9ca63e671994764eaf0cecba75caffab9463cf80",
    "media:imagehash_avg": "a:8181b999b99b81ff",
    "media:imagehash_diff": "d:170b77777757570d",
    "media:imagetext": "414\nLINEA AERDPOSTAZ VENEZOLANA\nTHE VENEZUELAN AIRLINE\nWITH CONNECTIONS TO ALL SOUTH AMERICA\nLT. COL. G. PACANINS, President\nNATIONAL DIVISION\nMAIQUETIA-BRUZUAL\nMAIQUETIA-SANTO DOMINGO\n300\nMoWe\nFr\n06 30 Lv MAIQUETIA\n50899=\n10|\nAr VALENCIA\nLv VALENCIA.\nAr BARQUISIMETO\nLv BARQUISIMETO\nAr ACARIGUA\nLv\nACARIGUA.\nAr GUANARA\nLv GUANARA\nAr BARINAS.\nLv BARINAS\nAr BRUZUAL.\n301\nMoWe\n302\nMowe\n303\nTu\nTh\nSa\n08\n00\nLv MAIQUETIA.\n08\nAr CALABOZO.\nLv CALABOZO\nAr SAN FERNANDO\nLv SAN FERNANDO\nAr BRUZUAL\nLy BRUZUAL\nAr BARINAS\nL BARINAS\nAr PALMARITO\nLv PALMARITO\nAr GHASDIIALITO\nGUASDUALITO.\n05\nAr SANTO DOMINGO\nAr\nLv\nAr\nLv\n8888\n08\nMAIQUETIA-CD. BOLIVAR-\nVALLE LA PASCUA\nMAIQUETIA-PTO. AYACUCHO\n110\nDaily\n07 30 Lv MAIQUETIA\n08 55 Ar CUMANA\n88\n009\n15 Lv CUMANA\n40\nAr PORLAMAR.\n00| Lv PORLAMAR.\nAr CARUPANO\n45\nLv CARUPANO\n20\nAr MATURIN\nLv MATURIN\nAr BARRANCAS\nLv BARRANCAS\nAR GIUDAD BOL VAR\nLv CIUDAD BOLIVAR\nAr SAN TOMAS\nLv SAN TOMAS.\nAr VALLE LA PASCUA\n111\nDaily\n17 15\n• Lv\n3333333\n33343\n304\nTu Th\nSu\n08 00\n08\nLv MAIQUETIA\nAr GALABUZU\n09\n09\n15\nLv CALABOZO\n50\n10฿\n10\nAr SAN FERNANDO\n05\nLv SAN FERNANDO\nAr PTO. PAEZ\n25\nLv PTO. PAEZ\n50\nAr PTO. AYACUCHO\nLv\nLv\nLv\nAr\n305\nSu\n16 10\n15\n15\n14 55\n14\n20\n00\nCIUDAD BOLIVAR-ICABARU\n16\n25\nMAIQUETIA-SAN ANTONIO (DIRECT)\n200\nMoWe\nFr Sa\n08 00 Lv MAIQUETIA.\n11 10 Ar SAN ANTONIO.\n201\nMoWe\nFr Sal\n14 40\n11\n30\n402\nMoWe\nLA GRAN SABANA\nSa\n06 00\nLv CIUDAD BOLIVAR.\n06\n40\nAr SAN FELIX.\n07\n00\n30\nLv SAN FELIX.\n07\nAr\nEL CALLAO\n08\nLv\nAr\nCALLAO\nTUMEREMO\nLv TUMEREMO.\nAr\nSANTA ELENA.\nSANTA ELENA.\nAr ICABARU...\n403\nMoWe\nSa\n15\n30\n14\n50\n30\n00|\n40\nMAIQUETIA-MERIDA-SAN ANTONIO\n202\nTu\nTh\nSu\n06\n40| Lv MAIQUETIA.\n09 25\nAr MERiDA.\n203\nTu Th\nSu\n14\n2\n50\n09 45\nLv MERIDA.\n10 35 Ar SAN ANTONIO.\n8800\n306\n88\nMAIQUETIA-CAICARA\n307\nSa\nLv MAIOUETIA.\n08\n40\nAr VALENCIA\nLV VALENHA\n10\nCALABOZO\nLv CALABOZO\n10\n00\nAr SAN FERNANDO\nLv\n40฿\nSAN FERNANDO\nAr CAICARA O....\n8881m\nCITY\nNEW YORK 22, N. Y.\nHAVANA, Cuba.....\nCARACAS, Venezuela.\nFOR PASSENGER SERVICE INFORMATION AND RESERVATIONS CONTACT:\nOFFICE\n781 Fifth Ave.\nSevilla Biltmore Hotel\nEl Silencio.\nPHONE\n. PL9-6500..\nA-1943..\n88405, 84151.\nAIRPORT\nNew York International (Idlewild)\nRancho Boyeros\nMaiquetia\nFor Air-Freight and Air-Express in New York Phone MUrray Hill 8-4850-1\nFor Map See Page 141.\nOFFICIAL AIRLINE GUIDE\n143",
    "media:imagetext_created": 1787961467,
    "media:imagetext_source": "com.apple.visionkit.VNImageRequestHandler#Version 26.6.2 (Build 25G83)",
    "media:mimetype": "image/tiff",
    "media:properties": {
      "sizes": {
        "b": {
          "extension": "jpg",
          "height": 768,
          "mimetype": "image/jpeg",
          "secret": "F6SJzQipR1uzE0foEmrebRCzRNmZvAbP",
          "width": 511
        },
        "c": {
          "extension": "jpg",
          "height": 600,
          "mimetype": "image/jpeg",
          "secret": "F6SJzQipR1uzE0foEmrebRCzRNmZvAbP",
          "width": 399
        },
        "dc": {
          "extension": "jpg",
          "height": 600,
          "mimetype": "image/jpeg",
          "secret": "F6SJzQipR1uzE0foEmrebRCzRNmZvAbP",
          "width": 399
        },
        "ds": {
          "extension": "jpg",
          "height": 320,
          "mimetype": "image/jpeg",
          "secret": "F6SJzQipR1uzE0foEmrebRCzRNmZvAbP",
          "width": 320
        },
        "k": {
          "extension": "jpg",
          "height": 1536,
          "mimetype": "image/jpeg",
          "secret": "F6SJzQipR1uzE0foEmrebRCzRNmZvAbP",
          "width": 1023
        },
        "n": {
          "extension": "jpg",
          "height": 240,
          "mimetype": "image/jpeg",
          "secret": "F6SJzQipR1uzE0foEmrebRCzRNmZvAbP",
          "width": 159
        },
        "o": {
          "extension": "jpg",
          "height": 2096,
          "mimetype": "image/jpeg",
          "secret": "rGsqcOPvWg1qkRzh7gIMtltaRyZsjWKS",
          "width": 1396
        },
        "s": {
          "extension": "jpg",
          "height": 320,
          "mimetype": "image/jpeg",
          "secret": "F6SJzQipR1uzE0foEmrebRCzRNmZvAbP",
          "width": 320
        },
        "z": {
          "extension": "jpg",
          "height": 480,
          "mimetype": "image/jpeg",
          "secret": "F6SJzQipR1uzE0foEmrebRCzRNmZvAbP",
          "width": 319
        }
      }
    },
    "media:source": "sfomuseum",
    "media:status_id": 1,
    "media:uri_template": "https://static.sfomuseum.org/media/176/324/152/1/1763241521_{secret}_{label}.{extension}",
    "millsfield:airline_id": [
      1159284671
    ],
    "millsfield:category_id": 1511214223,
    "millsfield:collection_id": 1511214207,
    "millsfield:company_id": [
      1159288697
    ],
    "millsfield:images_colors": [
      {
        "hex": "#e0d7b8",
        "name": "#e0d7b8",
        "reference": "marekm4"
      },
      {
        "hex": "#f5deb3",
        "name": "wheat",
        "reference": "css4"
      },
      {
        "hex": "#efcdb8",
        "name": "Desert Sand",
        "reference": "crayola"
      },
      {
        "hex": "#3a331d",
        "name": "#3a331d",
        "reference": "marekm4"
      },
      {
        "hex": "#2f4f4f",
        "name": "darkslategrey",
        "reference": "css4"
      },
      {
        "hex": "#414a4c",
        "name": "Outer Space",
        "reference": "crayola"
      },
      {
        "hex": "#958e72",
        "name": "#958e72",
        "reference": "marekm4"
      },
      {
        "hex": "#808080",
        "name": "grey",
        "reference": "css4"
      },
      {
        "hex": "#9f8170",
        "name": "Beaver",
        "reference": "crayola"
      }
    ],
    "millsfield:images_texts": [
      "414\nLINEA AEROPOSTAZ VENEZOLANA\nTHE VENEZUELAN AIRLINE\nWITH CONNECTIONS TO ALL SOUTH AMERICA\nLT. COL. G. PACANINS, President\nNATIONAL DIVISION\nMAIQUETIA-BRUZUAL\nMAIQUETIA-SANTO DOMINGO\nMON.\nMove\n3 Th\nMAIQUETIA.\nLUVA OUCTA\nMAIQUETIA.\n-CD.\nBOLIVAR—\nVALLE LA PASCUA\nMAIQUETIA.\nHELENANOC\nAr CIUDAD\nBOLIVAR\n3Е32\nBOLIVAR.\nVALLE LA PASCUA\nMAIQUETIA—SAN ANTONIO (DIRECT)\nMOWe\nrrisa\n11 10 AN SAN ANTONIO:\n11 30\nMAIQUETIA-MERIDA-\n-SAN ANTONIO\n2 Th\nMAIQUETIA\nMERIDA.\nAr SAN ANTONIO\nЛАД\n3084\nAr SANTO DOMINGO.\nMAIQUETIA-PTO. AYACUCHO\n305\nAr SAN FERNANDO.\nLY SAN FERNANDO.\nAr PTO. AYACUCHO\nCIUDAD BOLIVAR-ICABARU\nLA GRAN SABANA\nnow\nLV CIUDAD BOLIVAR.\nTUMEREMO\nSANTA ELENA.\nCABAR.......\nMAIQUETIA-CAICARA\n307\n4020.\nFERNANDO\nFERNANDO\nAr SAIGANA V.\nCITY\nNEW YORK 22, N. Y.\nHAVANA, Cuba........\nCARACAS, Venezuela.\nFOR PASSENGER SERVICE INFORMATION AND RESERVATIONS CONTACT:\nurrite\nPHONE\n• Tol Fith AVe........\n. PL9-6500 ..\n. Sevilla Biltmore Hotel\n. A- 943.\nAIRPORT\nNew York International (Idlewild)\n.. Rancho Boveros\nEl Silencio..\n.88405, 84151..\nFor Air-Freight and Air-Express in New York Phone MUrray Hill 8-4850-1\nFor Map See Page 141.\nOFFICIAL AIRLINE GUIDE\n143"
    ],
    "millsfield:images_texts_ids": [
      1763241521
    ],
    "millsfield:similar": {
      "apple/mobileclip_s0": [
        {
          "distance": 0.41246685,
          "id": 1763241473
        },
        {
          "distance": 0.46897158,
          "id": 1527845725
        },
        {
          "distance": 0.4718112,
          "id": 1527851293
        },
        {
          "distance": 0.47978023,
          "id": 1763196315
        },
        {
          "distance": 0.48663875,
          "id": 1527837951
        },
        {
          "distance": 0.48778757,
          "id": 1763196457
        },
        {
          "distance": 0.49286595,
          "id": 1527837961
        },
        {
          "distance": 0.49317843,
          "id": 1527851337
        },
        {
          "distance": 0.49951613,
          "id": 1527845727
        },
        {
          "distance": 0.5020605,
          "id": 1527835739
        }
      ],
      "apple/mobileclip_s1": [
        {
          "distance": 0.2338214,
          "id": 1763241473
        },
        {
          "distance": 0.36032692,
          "id": 1527848387
        },
        {
          "distance": 0.36891693,
          "id": 1527835739
        },
        {
          "distance": 0.37564334,
          "id": 1527835735
        },
        {
          "distance": 0.37632254,
          "id": 1527855139
        },
        {
          "distance": 0.37789115,
          "id": 1527853631
        },
        {
          "distance": 0.38034877,
          "id": 1527853641
        },
        {
          "distance": 0.38441744,
          "id": 1527845727
        },
        {
          "distance": 0.38607776,
          "id": 1527845657
        },
        {
          "distance": 0.38911048,
          "id": 1527834281
        }
      ],
      "apple/mobileclip_s2": [
        {
          "distance": 0.29934603,
          "id": 1763241473
        },
        {
          "distance": 0.5072043,
          "id": 1527855281
        },
        {
          "distance": 0.54426026,
          "id": 1762700737
        },
        {
          "distance": 0.58723414,
          "id": 1527847871
        },
        {
          "distance": 0.5873552,
          "id": 1763196159
        },
        {
          "distance": 0.5905458,
          "id": 1527848369
        },
        {
          "distance": 0.59168625,
          "id": 1762698071
        },
        {
          "distance": 0.59446347,
          "id": 1527845649
        },
        {
          "distance": 0.59642226,
          "id": 1527853629
        },
        {
          "distance": 0.6042499,
          "id": 1527851411
        }
      ]
    },
    "millsfield:subcategory_id": 1511213425,
    "mz:is_current": 1,
    "sfomuseum:filename": "2014.084.1412.tif",
    "sfomuseum:image_id": 105342,
    "sfomuseum:image_index": 5,
    "sfomuseum:image_type": "studio",
    "sfomuseum:object_id": 159027,
    "sfomuseum:placetype": "image",
    "sfomuseum:primary_image": 1,
    "src:geom": "sfomuseum",
    "wof:belongsto": [
      102527513,
      1159162825,
      102191575,
      85633793,
      102087579,
      85922583,
      1763240845,
      85688637,
      1159160869
    ],
    "wof:country": "XY",
    "wof:created": 1646902088,
    "wof:depicts": [
      1763240845,
      1159284671,
      1159288697
    ],
    "wof:geomhash": "ed7c2ab3547fc3916b5edc33488deaa7",
    "wof:hierarchy": [
      {
        "building_id": -1,
        "campus_id": 102527513,
        "collection_id": 1159162825,
        "concourse_id": 1159162825,
        "continent_id": 102191575,
        "country_id": 85633793,
        "county_id": 102087579,
        "custom_id": 1763241521,
        "image_id": 1763241521,
        "locality_id": 85922583,
        "neighbourhood_id": -1,
        "object_id": 1763240845,
        "region_id": 85688637,
        "wing_id": 1159160869
      }
    ],
    "wof:id": 1763241521,
    "wof:lastmodified": 1774080657,
    "wof:name": "timetable: Linea Aeropostal Venezolana (LAV)",
    "wof:parent_id": 1763240845,
    "wof:placetype": "custom",
    "wof:placetype_alt": [
      "image"
    ],
    "wof:repo": "sfomuseum-data-media-collection",
    "wof:superseded_by": [],
    "wof:supersedes": []
  },
  "bbox": [
    -122.386472,
    37.616105,
    -122.385834,
    37.616611
  ],
  "geometry": {"type":"Polygon","coordinates":[[[-122.386472,37.616318],[-122.386435,37.616233],[-122.386376,37.616178],[-122.386301,37.616131],[-122.386161,37.616105],[-122.386022,37.616131],[-122.385914,37.616186],[-122.385855,37.616267],[-122.385834,37.616369],[-122.385871,37.616467],[-122.385941,37.616543],[-122.386054,37.616603],[-122.386183,37.616611],[-122.386306,37.616573],[-122.386419,37.616509],[-122.386467,37.616411],[-122.386472,37.616318]]]}
}
