{
  "id": 1779445515,
  "type": "Feature",
  "properties": {
    "date:cessation_lower": "1987-01-01",
    "date:cessation_upper": "1987-12-31",
    "date:inception_lower": "1987-01-01",
    "date:inception_upper": "1987-12-31",
    "edtf:cessation": "1987",
    "edtf:inception": "1987",
    "geom:area": 2.477324999997507e-7,
    "geom:bbox": "-122.386472,37.616105,-122.385834,37.616611",
    "geom:latitude": 37.61635756125121,
    "geom:longitude": -122.38615532866096,
    "media:fingerprint": "bf313baa4af90d709781e87764b9f6cb539891ce",
    "media:imagehash_avg": "a:083c7e7e3c3c3c00",
    "media:imagehash_diff": "d:f0f0f8f8f878f0f0",
    "media:imagetext": "QANTAS xubms\u0026",
    "media:imagetext_created": 1787964074,
    "media:imagetext_source": "com.apple.visionkit.VNImageRequestHandler#Version 26.6.2 (Build 25G83)",
    "media:mimetype": "image/tiff",
    "media:properties": {
      "sizes": {
        "b": {
          "extension": "jpg",
          "height": 768,
          "mimetype": "image/jpeg",
          "secret": "XCXKnrZp2Z4XbR0Z7HPyHZoXGSTKSVMB",
          "width": 965
        },
        "c": {
          "extension": "jpg",
          "height": 600,
          "mimetype": "image/jpeg",
          "secret": "XCXKnrZp2Z4XbR0Z7HPyHZoXGSTKSVMB",
          "width": 754
        },
        "dc": {
          "extension": "jpg",
          "height": 600,
          "mimetype": "image/jpeg",
          "secret": "XCXKnrZp2Z4XbR0Z7HPyHZoXGSTKSVMB",
          "width": 754
        },
        "ds": {
          "extension": "jpg",
          "height": 320,
          "mimetype": "image/jpeg",
          "secret": "XCXKnrZp2Z4XbR0Z7HPyHZoXGSTKSVMB",
          "width": 320
        },
        "k": {
          "extension": "jpg",
          "height": 1536,
          "mimetype": "image/jpeg",
          "secret": "XCXKnrZp2Z4XbR0Z7HPyHZoXGSTKSVMB",
          "width": 1931
        },
        "n": {
          "extension": "jpg",
          "height": 240,
          "mimetype": "image/jpeg",
          "secret": "XCXKnrZp2Z4XbR0Z7HPyHZoXGSTKSVMB",
          "width": 301
        },
        "o": {
          "extension": "jpg",
          "height": 1667,
          "mimetype": "image/jpeg",
          "secret": "7UTmkoQbhQp6cxEw1Wwl4Vzgtgl3mfsP",
          "width": 2096
        },
        "s": {
          "extension": "jpg",
          "height": 320,
          "mimetype": "image/jpeg",
          "secret": "XCXKnrZp2Z4XbR0Z7HPyHZoXGSTKSVMB",
          "width": 320
        },
        "z": {
          "extension": "jpg",
          "height": 480,
          "mimetype": "image/jpeg",
          "secret": "XCXKnrZp2Z4XbR0Z7HPyHZoXGSTKSVMB",
          "width": 603
        }
      }
    },
    "media:source": "sfomuseum",
    "media:status_id": 1,
    "media:uri_template": "https://static.sfomuseum.org/media/177/944/551/5/1779445515_{secret}_{label}.{extension}",
    "millsfield:airline_id": [
      1159285043
    ],
    "millsfield:category_id": 1763416393,
    "millsfield:collection_id": 1511214203,
    "millsfield:company_id": [
      1159287479
    ],
    "millsfield:images_colors": [
      {
        "hex": "#bebcba",
        "name": "#bebcba",
        "reference": "marekm4"
      },
      {
        "hex": "#c0c0c0",
        "name": "silver",
        "reference": "css4"
      },
      {
        "hex": "#b0b7c6",
        "name": "Cadet Blue",
        "reference": "crayola"
      }
    ],
    "millsfield:images_texts": [
      "QANTAS xubms\u0026"
    ],
    "millsfield:images_texts_ids": [
      1779445515
    ],
    "millsfield:similar": {
      "apple/mobileclip_s0": [
        {
          "distance": 0.154292,
          "id": 1779445519
        },
        {
          "distance": 0.17221583,
          "id": 1762896671
        },
        {
          "distance": 0.21126491,
          "id": 1763445953
        },
        {
          "distance": 0.21866223,
          "id": 1779445547
        },
        {
          "distance": 0.24260493,
          "id": 1763447317
        },
        {
          "distance": 0.2741762,
          "id": 1762896631
        },
        {
          "distance": 0.28812072,
          "id": 1763445993
        },
        {
          "distance": 0.28896105,
          "id": 1763172869
        },
        {
          "distance": 0.29012126,
          "id": 1779445479
        },
        {
          "distance": 0.29492074,
          "id": 1762924811
        }
      ],
      "apple/mobileclip_s1": [
        {
          "distance": 0.08888752,
          "id": 1762896671
        },
        {
          "distance": 0.100683525,
          "id": 1779445519
        },
        {
          "distance": 0.13255,
          "id": 1779445547
        },
        {
          "distance": 0.17767866,
          "id": 1762896631
        },
        {
          "distance": 0.18176295,
          "id": 1763445953
        },
        {
          "distance": 0.19884849,
          "id": 1763447317
        },
        {
          "distance": 0.20289518,
          "id": 1763172869
        },
        {
          "distance": 0.21430415,
          "id": 1779445567
        },
        {
          "distance": 0.21934165,
          "id": 1779445479
        },
        {
          "distance": 0.22305621,
          "id": 1763172885
        }
      ],
      "apple/mobileclip_s2": [
        {
          "distance": 0.10462869,
          "id": 1762896671
        },
        {
          "distance": 0.14280318,
          "id": 1779445519
        },
        {
          "distance": 0.1937232,
          "id": 1779445547
        },
        {
          "distance": 0.24571161,
          "id": 1763447317
        },
        {
          "distance": 0.2624896,
          "id": 1762896631
        },
        {
          "distance": 0.26361245,
          "id": 1763445953
        },
        {
          "distance": 0.2812159,
          "id": 1763446031
        },
        {
          "distance": 0.29222798,
          "id": 1779453253
        },
        {
          "distance": 0.29343718,
          "id": 1763172869
        },
        {
          "distance": 0.30495003,
          "id": 1779445567
        }
      ]
    },
    "millsfield:subcategory_id": 1511213215,
    "mz:is_current": 1,
    "sfomuseum:filename": "2003.019.004_ft.tif",
    "sfomuseum:image_id": 145662,
    "sfomuseum:image_index": 5,
    "sfomuseum:image_type": "studio",
    "sfomuseum:object_id": 68242,
    "sfomuseum:placetype": "image",
    "sfomuseum:primary_image": 1,
    "src:geom": "sfomuseum",
    "wof:belongsto": [
      102527513,
      1159162825,
      102191575,
      85633793,
      102087579,
      85922583,
      1779445141,
      85688637,
      1159160869
    ],
    "wof:country": "XY",
    "wof:created": 1652428524,
    "wof:depicts": [
      1779445141,
      1159285043,
      1159287479
    ],
    "wof:geomhash": "ed7c2ab3547fc3916b5edc33488deaa7",
    "wof:hierarchy": [
      {
        "building_id": -1,
        "campus_id": 102527513,
        "collection_id": 1159162825,
        "concourse_id": 1159162825,
        "continent_id": 102191575,
        "country_id": 85633793,
        "county_id": 102087579,
        "custom_id": 1779445515,
        "image_id": 1779445515,
        "locality_id": 85922583,
        "neighbourhood_id": -1,
        "object_id": 1779445141,
        "region_id": 85688637,
        "wing_id": 1159160869
      }
    ],
    "wof:id": 1779445515,
    "wof:lastmodified": 1788451279,
    "wof:name": "flight attendant shirt (male): Qantas Airways",
    "wof:parent_id": 1779445141,
    "wof:placetype": "custom",
    "wof:placetype_alt": [
      "image"
    ],
    "wof:repo": "sfomuseum-data-media-collection",
    "wof:superseded_by": [],
    "wof:supersedes": []
  },
  "bbox": [
    -122.386472,
    37.616105,
    -122.385834,
    37.616611
  ],
  "geometry": {"type":"Polygon","coordinates":[[[-122.386472,37.616318],[-122.386435,37.616233],[-122.386376,37.616178],[-122.386301,37.616131],[-122.386161,37.616105],[-122.386022,37.616131],[-122.385914,37.616186],[-122.385855,37.616267],[-122.385834,37.616369],[-122.385871,37.616467],[-122.385941,37.616543],[-122.386054,37.616603],[-122.386183,37.616611],[-122.386306,37.616573],[-122.386419,37.616509],[-122.386467,37.616411],[-122.386472,37.616318]]]}
}
