{
  "id": 1931096077,
  "type": "Feature",
  "properties": {
    "date:cessation_lower": "1979-01-01",
    "date:cessation_upper": "1979-12-31",
    "date:inception_lower": "1979-01-01",
    "date:inception_upper": "1979-12-31",
    "edtf:cessation": "1979",
    "edtf:inception": "1979",
    "geom:area": 2.477324999997507e-7,
    "geom:bbox": "-122.386472,37.616105,-122.385834,37.616611",
    "geom:latitude": 37.61635756125121,
    "geom:longitude": -122.38615532866096,
    "media:fingerprint": "7e241084d97296492bd9d16c0050fa212eaf232e",
    "media:imagehash_avg": "a:b8fcf2c6bea78080",
    "media:imagehash_diff": "d:6970461c765e564c",
    "media:imagetext": "NORTHWEST ORIENT\n727-200\nSAFETY\nFEATURES\nexits and slides\nTHI SET MAY OT\n80°\nat take-off\nand landing\nseat belt\nbrace\npositions",
    "media:imagetext_created": 1787974393,
    "media:imagetext_source": "com.apple.visionkit.VNImageRequestHandler#Version 26.6.2 (Build 25G83)",
    "media:mimetype": "image/tiff",
    "media:properties": {
      "sizes": {
        "b": {
          "extension": "jpg",
          "height": 768,
          "mimetype": "image/jpeg",
          "secret": "RPeHvzC91jV5v1rMEhcTknCGP7ZaiPMj",
          "width": 493
        },
        "c": {
          "extension": "jpg",
          "height": 600,
          "mimetype": "image/jpeg",
          "secret": "RPeHvzC91jV5v1rMEhcTknCGP7ZaiPMj",
          "width": 385
        },
        "dc": {
          "extension": "jpg",
          "height": 600,
          "mimetype": "image/jpeg",
          "secret": "RPeHvzC91jV5v1rMEhcTknCGP7ZaiPMj",
          "width": 385
        },
        "ds": {
          "extension": "jpg",
          "height": 320,
          "mimetype": "image/jpeg",
          "secret": "RPeHvzC91jV5v1rMEhcTknCGP7ZaiPMj",
          "width": 320
        },
        "k": {
          "extension": "jpg",
          "height": 1536,
          "mimetype": "image/jpeg",
          "secret": "RPeHvzC91jV5v1rMEhcTknCGP7ZaiPMj",
          "width": 986
        },
        "n": {
          "extension": "jpg",
          "height": 240,
          "mimetype": "image/jpeg",
          "secret": "RPeHvzC91jV5v1rMEhcTknCGP7ZaiPMj",
          "width": 154
        },
        "o": {
          "extension": "jpg",
          "height": 2000,
          "mimetype": "image/jpeg",
          "secret": "yFszO49JaHOunj8bvuitqNpBNZ3vcp9c",
          "width": 1284
        },
        "s": {
          "extension": "jpg",
          "height": 320,
          "mimetype": "image/jpeg",
          "secret": "RPeHvzC91jV5v1rMEhcTknCGP7ZaiPMj",
          "width": 320
        },
        "z": {
          "extension": "jpg",
          "height": 480,
          "mimetype": "image/jpeg",
          "secret": "RPeHvzC91jV5v1rMEhcTknCGP7ZaiPMj",
          "width": 308
        }
      }
    },
    "media:source": "sfomuseum",
    "media:status_id": 1,
    "media:uri_template": "https://static.sfomuseum.org/media/193/109/607/7/1931096077_{secret}_{label}.{extention}",
    "millsfield:aircraft_id": [
      1159289789
    ],
    "millsfield:airline_id": [
      1159284907
    ],
    "millsfield:category_id": 1762671311,
    "millsfield:collection_id": 1511214207,
    "millsfield:company_id": [
      1159293593,
      1159289759
    ],
    "millsfield:images_colors": [
      {
        "hex": "#e7d8b9",
        "name": "#e7d8b9",
        "reference": "marekm4"
      },
      {
        "hex": "#f5deb3",
        "name": "wheat",
        "reference": "css4"
      },
      {
        "hex": "#efcdb8",
        "name": "Desert Sand",
        "reference": "crayola"
      },
      {
        "hex": "#312f2c",
        "name": "#312f2c",
        "reference": "marekm4"
      },
      {
        "hex": "#2f4f4f",
        "name": "darkslategrey",
        "reference": "css4"
      },
      {
        "hex": "#414a4c",
        "name": "Outer Space",
        "reference": "crayola"
      },
      {
        "hex": "#de2314",
        "name": "#de2314",
        "reference": "marekm4"
      },
      {
        "hex": "#dc143c",
        "name": "crimson",
        "reference": "css4"
      },
      {
        "hex": "#ff2b2b",
        "name": "Orange Red",
        "reference": "crayola"
      }
    ],
    "millsfield:similar": {
      "apple/mobileclip_s0": [
        {
          "distance": 0.23857005,
          "id": 1914555959
        },
        {
          "distance": 0.28896102,
          "id": 1914555953
        },
        {
          "distance": 0.3467254,
          "id": 1931096075
        },
        {
          "distance": 0.37232232,
          "id": 1914555945
        },
        {
          "distance": 0.38816148,
          "id": 1930466209
        },
        {
          "distance": 0.60882354,
          "id": 1930979715
        },
        {
          "distance": 0.6143679,
          "id": 1762894901
        },
        {
          "distance": 0.6147044,
          "id": 1931109963
        },
        {
          "distance": 0.61524814,
          "id": 1931096317
        },
        {
          "distance": 0.62461495,
          "id": 1527849193
        }
      ],
      "apple/mobileclip_s1": [
        {
          "distance": 0.107274376,
          "id": 1914555959
        },
        {
          "distance": 0.14442508,
          "id": 1914555953
        },
        {
          "distance": 0.16855274,
          "id": 1931096075
        },
        {
          "distance": 0.20717773,
          "id": 1930466209
        },
        {
          "distance": 0.20777303,
          "id": 1914555945
        },
        {
          "distance": 0.3847854,
          "id": 1930979715
        },
        {
          "distance": 0.4090213,
          "id": 1930979525
        },
        {
          "distance": 0.41068852,
          "id": 1913872217
        },
        {
          "distance": 0.41179165,
          "id": 1914430841
        },
        {
          "distance": 0.4143245,
          "id": 1914623023
        }
      ],
      "apple/mobileclip_s2": [
        {
          "distance": 0.12734874,
          "id": 1914555959
        },
        {
          "distance": 0.18995409,
          "id": 1931096075
        },
        {
          "distance": 0.20185763,
          "id": 1914555953
        },
        {
          "distance": 0.2327266,
          "id": 1914555945
        },
        {
          "distance": 0.25769696,
          "id": 1930466209
        },
        {
          "distance": 0.50330573,
          "id": 1931109841
        },
        {
          "distance": 0.5046775,
          "id": 1930979715
        },
        {
          "distance": 0.5271193,
          "id": 1931109963
        },
        {
          "distance": 0.5326298,
          "id": 1930979711
        },
        {
          "distance": 0.5330415,
          "id": 1931109375
        }
      ]
    },
    "millsfield:subcategory_id": 1511213703,
    "mz:is_current": 1,
    "sfomuseum:filename": "76148.tif",
    "sfomuseum:image_id": 76148,
    "sfomuseum:image_index": 5,
    "sfomuseum:image_type": "studio",
    "sfomuseum:object_id": 78944,
    "sfomuseum:placetype": "image",
    "sfomuseum:primary_image": 1,
    "src:geom": "sfomuseum",
    "wof:belongsto": [
      102527513,
      1159162825,
      102191575,
      85633793,
      102087579,
      85922583,
      1931095027,
      85688637,
      1159160869
    ],
    "wof:country": "XY",
    "wof:created": 1727163879,
    "wof:depicts": [
      1159289789,
      1159293593,
      1159289759,
      1931095027,
      1159284907
    ],
    "wof:geomhash": "ed7c2ab3547fc3916b5edc33488deaa7",
    "wof:hierarchy": [
      {
        "building_id": -1,
        "campus_id": 102527513,
        "collection_id": 1159162825,
        "concourse_id": 1159162825,
        "continent_id": 102191575,
        "country_id": 85633793,
        "county_id": 102087579,
        "custom_id": 1931096077,
        "locality_id": 85922583,
        "neighbourhood_id": -1,
        "object_id": 1931095027,
        "region_id": 85688637,
        "wing_id": 1159160869
      }
    ],
    "wof:id": 1931096077,
    "wof:lastmodified": 1788452464,
    "wof:name": "safety information card: Northwest Orient, Boeing 727-200",
    "wof:parent_id": 1931095027,
    "wof:placetype": "custom",
    "wof:repo": "sfomuseum-data-media-collection",
    "wof:superseded_by": [],
    "wof:supersedes": []
  },
  "bbox": [
    -122.386472,
    37.616105,
    -122.385834,
    37.616611
  ],
  "geometry": {"type":"Polygon","coordinates":[[[-122.386472,37.616318],[-122.386435,37.616233],[-122.386376,37.616178],[-122.386301,37.616131],[-122.386161,37.616105],[-122.386022,37.616131],[-122.385914,37.616186],[-122.385855,37.616267],[-122.385834,37.616369],[-122.385871,37.616467],[-122.385941,37.616543],[-122.386054,37.616603],[-122.386183,37.616611],[-122.386306,37.616573],[-122.386419,37.616509],[-122.386467,37.616411],[-122.386472,37.616318]]]}
}
