{
  "id": 1762697055,
  "type": "Feature",
  "properties": {
    "date:cessation_lower": "1987-01-01",
    "date:cessation_upper": "1987-12-31",
    "date:inception_lower": "1987-01-01",
    "date:inception_upper": "1987-12-31",
    "edtf:cessation": "1987",
    "edtf:inception": "1987",
    "geom:area": 2.477324999997507e-7,
    "geom:bbox": "-122.386472,37.616105,-122.385834,37.616611",
    "geom:latitude": 37.61635756125121,
    "geom:longitude": -122.38615532866096,
    "media:fingerprint": "8cc4f09a167351b0f7a8e569fbf79b9821af8d50",
    "media:imagehash_avg": "a:828280b8f8f886c7",
    "media:imagehash_diff": "d:5646206050601c14",
    "media:imagetext": "EFFECTIVE JUNE 1, 1987\nDetta Air Lines\nSYSTEM TIMETABLE\nLONDON\nNonstop from ATLANTA-\nand CINCINNATI beginning\nJune 15",
    "media:imagetext_created": 1787955369,
    "media:imagetext_source": "com.apple.visionkit.VNImageRequestHandler#Version 26.6.2 (Build 25G83)",
    "media:mimetype": "image/tiff",
    "media:properties": {
      "sizes": {
        "b": {
          "extension": "jpg",
          "height": 768,
          "mimetype": "image/jpeg",
          "secret": "uETbNon525lb9KBL1Ze6XbaGoLdziYQs",
          "width": 351
        },
        "c": {
          "extension": "jpg",
          "height": 600,
          "mimetype": "image/jpeg",
          "secret": "uETbNon525lb9KBL1Ze6XbaGoLdziYQs",
          "width": 274
        },
        "dc": {
          "extension": "jpg",
          "height": 600,
          "mimetype": "image/jpeg",
          "secret": "uETbNon525lb9KBL1Ze6XbaGoLdziYQs",
          "width": 274
        },
        "ds": {
          "extension": "jpg",
          "height": 320,
          "mimetype": "image/jpeg",
          "secret": "uETbNon525lb9KBL1Ze6XbaGoLdziYQs",
          "width": 320
        },
        "k": {
          "extension": "jpg",
          "height": 1536,
          "mimetype": "image/jpeg",
          "secret": "uETbNon525lb9KBL1Ze6XbaGoLdziYQs",
          "width": 703
        },
        "n": {
          "extension": "jpg",
          "height": 240,
          "mimetype": "image/jpeg",
          "secret": "uETbNon525lb9KBL1Ze6XbaGoLdziYQs",
          "width": 109
        },
        "o": {
          "extension": "jpg",
          "height": 2716,
          "mimetype": "image/jpeg",
          "secret": "2iYt2Qy21q9h4U3Uaqh1V60Sdn2gYwsB",
          "width": 1244
        },
        "s": {
          "extension": "jpg",
          "height": 320,
          "mimetype": "image/jpeg",
          "secret": "uETbNon525lb9KBL1Ze6XbaGoLdziYQs",
          "width": 320
        },
        "z": {
          "extension": "jpg",
          "height": 480,
          "mimetype": "image/jpeg",
          "secret": "uETbNon525lb9KBL1Ze6XbaGoLdziYQs",
          "width": 219
        }
      }
    },
    "media:source": "sfomuseum",
    "media:status_id": 1,
    "media:uri_template": "https://static.sfomuseum.org/media/176/269/705/5/1762697055_{secret}_{label}.{extension}",
    "millsfield:airline_id": [
      1159284261
    ],
    "millsfield:category_id": 1511214223,
    "millsfield:collection_id": 1511214207,
    "millsfield:company_id": [
      1159287931
    ],
    "millsfield:images_colors": [
      {
        "hex": "#1c1c19",
        "name": "#1c1c19",
        "reference": "marekm4"
      },
      {
        "hex": "#000000",
        "name": "black",
        "reference": "css4"
      },
      {
        "hex": "#000000",
        "name": "Black",
        "reference": "crayola"
      },
      {
        "hex": "#d2d7c3",
        "name": "#d2d7c3",
        "reference": "marekm4"
      },
      {
        "hex": "#d3d3d3",
        "name": "lightgrey",
        "reference": "css4"
      },
      {
        "hex": "#dbd7d2",
        "name": "Timberwolf",
        "reference": "crayola"
      },
      {
        "hex": "#aba34f",
        "name": "#aba34f",
        "reference": "marekm4"
      },
      {
        "hex": "#bdb76b",
        "name": "darkkhaki",
        "reference": "css4"
      },
      {
        "hex": "#bab86c",
        "name": "Olive Green",
        "reference": "crayola"
      },
      {
        "hex": "#936b35",
        "name": "#936b35",
        "reference": "marekm4"
      },
      {
        "hex": "#a0522d",
        "name": "sienna",
        "reference": "css4"
      },
      {
        "hex": "#9c7c38",
        "name": "Metallic Sunburst",
        "reference": "crayola"
      }
    ],
    "millsfield:images_texts": [
      "EFFECTIVE JUNE 1, 1987\nDetta Air Lines\nSYSTEM TIMETABLE\nLONDON\nNonstop from ATLANTA-\nand CINCINNATI beginning\nJune 15"
    ],
    "millsfield:images_texts_ids": [
      1762697055
    ],
    "millsfield:similar": {
      "apple/mobileclip_s0": [
        {
          "distance": 0.2746758,
          "id": 1527836199
        },
        {
          "distance": 0.6201276,
          "id": 1762698377
        },
        {
          "distance": 0.6373158,
          "id": 1527841753
        },
        {
          "distance": 0.65402025,
          "id": 1527841763
        },
        {
          "distance": 0.6890797,
          "id": 1527842415
        },
        {
          "distance": 0.72244877,
          "id": 1762698687
        },
        {
          "distance": 0.7424982,
          "id": 1527848499
        },
        {
          "distance": 0.7644969,
          "id": 1763381155
        },
        {
          "distance": 0.7713165,
          "id": 1527847499
        },
        {
          "distance": 0.79260254,
          "id": 1527844737
        }
      ],
      "apple/mobileclip_s1": [
        {
          "distance": 0.20872353,
          "id": 1527836199
        },
        {
          "distance": 0.43713924,
          "id": 1527841753
        },
        {
          "distance": 0.44092664,
          "id": 1527841763
        },
        {
          "distance": 0.4454686,
          "id": 1762698687
        },
        {
          "distance": 0.45208865,
          "id": 1527842415
        },
        {
          "distance": 0.4648173,
          "id": 1527836707
        },
        {
          "distance": 0.4693946,
          "id": 1779489481
        },
        {
          "distance": 0.4855227,
          "id": 1762698377
        },
        {
          "distance": 0.4880635,
          "id": 1729565547
        },
        {
          "distance": 0.5014697,
          "id": 1527818791
        }
      ],
      "apple/mobileclip_s2": [
        {
          "distance": 0.33086184,
          "id": 1527836199
        },
        {
          "distance": 0.6231656,
          "id": 1527842415
        },
        {
          "distance": 0.6265934,
          "id": 1527841753
        },
        {
          "distance": 0.65111023,
          "id": 1762698687
        },
        {
          "distance": 0.65718865,
          "id": 1527836707
        },
        {
          "distance": 0.6745039,
          "id": 1763381155
        },
        {
          "distance": 0.6790047,
          "id": 1527841763
        },
        {
          "distance": 0.6820701,
          "id": 1779696965
        },
        {
          "distance": 0.6874318,
          "id": 1779668333
        },
        {
          "distance": 0.69422835,
          "id": 1527842201
        }
      ]
    },
    "millsfield:subcategory_id": 1511213425,
    "mz:is_current": 1,
    "sfomuseum:filename": "2002.135.017.058.tif",
    "sfomuseum:image_id": 64312,
    "sfomuseum:image_index": 5,
    "sfomuseum:image_type": "studio",
    "sfomuseum:object_id": 92439,
    "sfomuseum:placetype": "image",
    "sfomuseum:primary_image": 1,
    "src:geom": "sfomuseum",
    "wof:belongsto": [
      102527513,
      1159162825,
      102191575,
      85633793,
      102087579,
      85922583,
      1762686687,
      85688637,
      1159160869
    ],
    "wof:country": "XY",
    "wof:created": 1641345253,
    "wof:depicts": [
      1762686687,
      1159284261,
      1159287931
    ],
    "wof:geomhash": "ed7c2ab3547fc3916b5edc33488deaa7",
    "wof:hierarchy": [
      {
        "building_id": -1,
        "campus_id": 102527513,
        "collection_id": 1159162825,
        "concourse_id": 1159162825,
        "continent_id": 102191575,
        "country_id": 85633793,
        "county_id": 102087579,
        "custom_id": 1762697055,
        "image_id": 1762697055,
        "locality_id": 85922583,
        "neighbourhood_id": -1,
        "object_id": 1762686687,
        "region_id": 85688637,
        "wing_id": 1159160869
      }
    ],
    "wof:id": 1762697055,
    "wof:lastmodified": 1788450396,
    "wof:name": "timetable: Delta Air Lines",
    "wof:parent_id": 1762686687,
    "wof:placetype": "custom",
    "wof:placetype_alt": [
      "image"
    ],
    "wof:repo": "sfomuseum-data-media-collection",
    "wof:superseded_by": [],
    "wof:supersedes": []
  },
  "bbox": [
    -122.386472,
    37.616105,
    -122.385834,
    37.616611
  ],
  "geometry": {"type":"Polygon","coordinates":[[[-122.386472,37.616318],[-122.386435,37.616233],[-122.386376,37.616178],[-122.386301,37.616131],[-122.386161,37.616105],[-122.386022,37.616131],[-122.385914,37.616186],[-122.385855,37.616267],[-122.385834,37.616369],[-122.385871,37.616467],[-122.385941,37.616543],[-122.386054,37.616603],[-122.386183,37.616611],[-122.386306,37.616573],[-122.386419,37.616509],[-122.386467,37.616411],[-122.386472,37.616318]]]}
}
