{
  "id": 2015343973,
  "type": "Feature",
  "properties": {
    "date:cessation_lower": "2018-01-01",
    "date:cessation_upper": "2018-12-31",
    "date:inception_lower": "2018-01-01",
    "date:inception_upper": "2018-12-31",
    "edtf:cessation": "2018",
    "edtf:inception": "2018",
    "geom:area": 2.475047457570636e-7,
    "geom:bbox": "-122.386472,37.616105,-122.385834,37.616611",
    "geom:latitude": 37.61635747477365,
    "geom:longitude": -122.38615540108617,
    "media:fingerprint": "c243f402863a99f1e8d9a8a86d78de5063cbb62e",
    "media:imagehash_avg": "a:fffff17d00000003",
    "media:imagehash_diff": "d:b80e23d1d1e10f0e",
    "media:imagetext": "",
    "media:mimetype": "image/jpeg",
    "media:properties": {
      "colours": null,
      "sizes": {
        "b": {
          "extension": "jpg",
          "height": 768,
          "mimetype": "image/jpeg",
          "secret": "5Kt76jwDlGJUDqkiy02GgcYuE2cqjCnw",
          "width": 738
        },
        "c": {
          "extension": "jpg",
          "height": 600,
          "mimetype": "image/jpeg",
          "secret": "5Kt76jwDlGJUDqkiy02GgcYuE2cqjCnw",
          "width": 576
        },
        "dc": {
          "extension": "jpg",
          "height": 320,
          "mimetype": "image/jpeg",
          "secret": "5Kt76jwDlGJUDqkiy02GgcYuE2cqjCnw",
          "width": 320
        },
        "ds": {
          "extension": "jpg",
          "height": 320,
          "mimetype": "image/jpeg",
          "secret": "5Kt76jwDlGJUDqkiy02GgcYuE2cqjCnw",
          "width": 320
        },
        "k": {
          "extension": "jpg",
          "height": 1536,
          "mimetype": "image/jpeg",
          "secret": "5Kt76jwDlGJUDqkiy02GgcYuE2cqjCnw",
          "width": 1476
        },
        "n": {
          "extension": "jpg",
          "height": 239,
          "mimetype": "image/jpeg",
          "secret": "5Kt76jwDlGJUDqkiy02GgcYuE2cqjCnw",
          "width": 230
        },
        "o": {
          "extension": "jpg",
          "height": 3145,
          "mimetype": "image/jpeg",
          "secret": "r30Wx2duTUaI3uPZKdlrviHRFOCYilOq",
          "width": 3024
        },
        "s": {
          "extension": "jpg",
          "height": 320,
          "mimetype": "image/jpeg",
          "secret": "5Kt76jwDlGJUDqkiy02GgcYuE2cqjCnw",
          "width": 320
        },
        "z": {
          "extension": "jpg",
          "height": 479,
          "mimetype": "image/jpeg",
          "secret": "5Kt76jwDlGJUDqkiy02GgcYuE2cqjCnw",
          "width": 461
        }
      }
    },
    "media:source": "sfomuseum",
    "media:status_id": 1,
    "media:uri_template": "https://static.sfomuseum.org/media/201/534/397/3/2015343973_{secret}_{label}.{extention}",
    "millsfield:airline_id": [
      1159284261
    ],
    "millsfield:category_id": 1746152551,
    "millsfield:collection_id": 1511214203,
    "millsfield:company_id": [
      1159287931
    ],
    "millsfield:images_colors": [
      {
        "hex": "#f3f1e8",
        "name": "#f3f1e8",
        "reference": "marekm4"
      },
      {
        "hex": "#faf0e6",
        "name": "linen",
        "reference": "css4"
      },
      {
        "hex": "#fddde6",
        "name": "Piggy Pink",
        "reference": "crayola"
      },
      {
        "hex": "#f2eee0",
        "name": "#f2eee0",
        "reference": "marekm4"
      },
      {
        "hex": "#f5f5dc",
        "name": "beige",
        "reference": "css4"
      }
    ],
    "millsfield:similar": {
      "apple/mobileclip_s0": [
        {
          "distance": 0.5637651,
          "id": 2048166619
        },
        {
          "distance": 0.6000197,
          "id": 2015343975
        },
        {
          "distance": 0.62945515,
          "id": 2048166609
        },
        {
          "distance": 0.63818467,
          "id": 2048166613
        },
        {
          "distance": 0.64141214,
          "id": 2048166601
        },
        {
          "distance": 0.6663413,
          "id": 2048166595
        },
        {
          "distance": 0.6734115,
          "id": 1897892435
        },
        {
          "distance": 0.67501915,
          "id": 1746682453
        },
        {
          "distance": 0.6778271,
          "id": 2048164093
        },
        {
          "distance": 0.682495,
          "id": 1897762915
        }
      ],
      "apple/mobileclip_s1": [
        {
          "distance": 0.25549847,
          "id": 2015343975
        },
        {
          "distance": 0.36616018,
          "id": 2048164093
        },
        {
          "distance": 0.37720427,
          "id": 2048166593
        },
        {
          "distance": 0.37846443,
          "id": 2048166595
        },
        {
          "distance": 0.37899366,
          "id": 2048166599
        },
        {
          "distance": 0.39261928,
          "id": 1913872339
        },
        {
          "distance": 0.3990191,
          "id": 1913872337
        },
        {
          "distance": 0.39907748,
          "id": 2048164091
        },
        {
          "distance": 0.41286922,
          "id": 1931123101
        },
        {
          "distance": 0.41649985,
          "id": 1931123047
        }
      ],
      "apple/mobileclip_s2": [
        {
          "distance": 0.33040163,
          "id": 2015343975
        },
        {
          "distance": 0.4335063,
          "id": 2048164093
        },
        {
          "distance": 0.44386336,
          "id": 2048166593
        },
        {
          "distance": 0.4560962,
          "id": 2048164091
        },
        {
          "distance": 0.45666942,
          "id": 2015275821
        },
        {
          "distance": 0.46406844,
          "id": 2048166595
        },
        {
          "distance": 0.46466658,
          "id": 2048166617
        },
        {
          "distance": 0.46924728,
          "id": 2048166599
        },
        {
          "distance": 0.4767798,
          "id": 2015275823
        },
        {
          "distance": 0.4775103,
          "id": 1746682395
        }
      ]
    },
    "millsfield:subcategory_id": 1746152563,
    "mz:is_current": 1,
    "sfomuseum:filename": "0F744849-7A5E-4EB7-88BC-94D6F0637F7A.jpeg",
    "sfomuseum:image_id": 262224,
    "sfomuseum:image_index": 1,
    "sfomuseum:image_type": "curator",
    "sfomuseum:object_id": 231824,
    "sfomuseum:placetype": "image",
    "sfomuseum:primary_image": 1,
    "src:geom": "sfomuseum",
    "wof:belongsto": [
      102527513,
      1159162825,
      102191575,
      85633793,
      102087579,
      85922583,
      2015343905,
      85688637,
      1159160869
    ],
    "wof:country": "XY",
    "wof:created": 1776843364,
    "wof:depicts": [
      2015343905,
      1159284261,
      1159287931
    ],
    "wof:geomhash": "c281b9d9eefc83b5710e64b9d646067d",
    "wof:hierarchy": [
      {
        "building_id": -1,
        "campus_id": 102527513,
        "collection_id": 1159162825,
        "concourse_id": 1159162825,
        "continent_id": 102191575,
        "country_id": 85633793,
        "county_id": 102087579,
        "custom_id": 2015343973,
        "locality_id": 85922583,
        "neighbourhood_id": -1,
        "object_id": 2015343905,
        "region_id": 85688637,
        "wing_id": 1159160869
      }
    ],
    "wof:id": 2015343973,
    "wof:lastmodified": 1788452702,
    "wof:name": "side plate: Delta Air Lines",
    "wof:parent_id": 2015343905,
    "wof:placetype": "custom",
    "wof:repo": "sfomuseum-data-media-collection",
    "wof:superseded_by": [],
    "wof:supersedes": []
  },
  "bbox": [
    -122.38647222518921,
    37.6161053594541,
    -122.38583385944366,
    37.61661101879963
  ],
  "geometry": {"type":"Polygon","coordinates":[[[-122.38647222518921,37.61631782178288],[-122.386434674263,37.61623283692423],[-122.38637566566466,37.61617759671399],[-122.38630056381224,37.6161308549656],[-122.38616108894348,37.6161053594541],[-122.38602161407469,37.6161308549656],[-122.38591432571411,37.61618609521055],[-122.38585531711577,37.61626683087935],[-122.38583385944366,37.61636881265146],[-122.38587141036987,37.61646654505181],[-122.38594114780425,37.61654303118856],[-122.38605380058287,37.61660252035167],[-122.38618254661559,37.61661101879963],[-122.3863059282303,37.61657277577607],[-122.3864185810089,37.61650903735973],[-122.3864668607712,37.61641130501523],[-122.38647222518921,37.61631782178288]]]}
}
