{
  "id": 1527858209,
  "type": "Feature",
  "properties": {
    "date:cessation_lower": "1960-01-01",
    "date:cessation_upper": "1969-12-31",
    "date:inception_lower": "1960-01-01",
    "date:inception_upper": "1969-12-31",
    "edtf:cessation": "196X",
    "edtf:date": "196x",
    "edtf:inception": "196X",
    "geom:area": 0,
    "geom:bbox": "-122.386155,37.616358,-122.386155,37.616358",
    "geom:latitude": 37.616358,
    "geom:longitude": -122.386155,
    "iso:country": "XX",
    "media:fingerprint": "b0bd4ea608aa082a23744ec8f3495d1ad748d0b9",
    "media:imagehash_avg": "a:38fe818181c1f3ff",
    "media:imagehash_diff": "d:e0b03f37231383f2",
    "media:imagetext": "\u003c CANTAS\nAUSTRALIA'S ROUND THE WORLD AIRLINE",
    "media:imagetext_created": 1787954340,
    "media:imagetext_source": "com.apple.visionkit.VNImageRequestHandler#Version 26.6.2 (Build 25G83)",
    "media:medium": "image",
    "media:mimetype": "image/tiff",
    "media:properties": {
      "sizes": {
        "b": {
          "extension": "jpg",
          "height": 753,
          "mimetype": "image/jpeg",
          "secret": "yjiQcp2AwWCZy2IAZakXYa6a1jNmlBGX",
          "width": 1023
        },
        "c": {
          "extension": "jpg",
          "height": 588,
          "mimetype": "image/jpeg",
          "secret": "yjiQcp2AwWCZy2IAZakXYa6a1jNmlBGX",
          "width": 800
        },
        "dc": {
          "extension": "jpg",
          "height": 588,
          "mimetype": "image/jpeg",
          "secret": "yjiQcp2AwWCZy2IAZakXYa6a1jNmlBGX",
          "width": 800
        },
        "ds": {
          "extension": "jpg",
          "height": 320,
          "mimetype": "image/jpeg",
          "secret": "yjiQcp2AwWCZy2IAZakXYa6a1jNmlBGX",
          "width": 320
        },
        "k": {
          "extension": "jpg",
          "height": 1506,
          "mimetype": "image/jpeg",
          "secret": "yjiQcp2AwWCZy2IAZakXYa6a1jNmlBGX",
          "width": 2047
        },
        "n": {
          "extension": "jpg",
          "height": 235,
          "mimetype": "image/jpeg",
          "secret": "yjiQcp2AwWCZy2IAZakXYa6a1jNmlBGX",
          "width": 320
        },
        "o": {
          "extension": "jpg",
          "height": 1226,
          "mimetype": "image/jpeg",
          "secret": "C17xDL4evEbtIKly25b5SjmgqA9a0TuO",
          "width": 1667
        },
        "s": {
          "extension": "jpg",
          "height": 320,
          "mimetype": "image/jpeg",
          "secret": "yjiQcp2AwWCZy2IAZakXYa6a1jNmlBGX",
          "width": 320
        },
        "z": {
          "extension": "jpg",
          "height": 470,
          "mimetype": "image/jpeg",
          "secret": "yjiQcp2AwWCZy2IAZakXYa6a1jNmlBGX",
          "width": 640
        }
      }
    },
    "media:source": "sfomuseum",
    "media:status_id": 1,
    "media:uri_template": "https://static.sfomuseum.org/media/152/785/820/9/1527858209_{secret}_{label}.{extension}",
    "millsfield:airline_id": [
      1159285825
    ],
    "millsfield:category_id": 1763416373,
    "millsfield:collection_id": 1511214203,
    "millsfield:company_id": [
      1159287479
    ],
    "millsfield:exhibition_ids": [
      1159160345
    ],
    "millsfield:images_colors": [
      {
        "hex": "#5f444b",
        "name": "#5f444b",
        "reference": "marekm4"
      },
      {
        "hex": "#696969",
        "name": "dimgrey",
        "reference": "css4"
      },
      {
        "hex": "#6e5160",
        "name": "Eggplant",
        "reference": "crayola"
      },
      {
        "hex": "#a3a4a7",
        "name": "#a3a4a7",
        "reference": "marekm4"
      },
      {
        "hex": "#a9a9a9",
        "name": "darkgrey",
        "reference": "css4"
      },
      {
        "hex": "#979aaa",
        "name": "Manatee",
        "reference": "crayola"
      },
      {
        "hex": "#7d7e81",
        "name": "#7d7e81",
        "reference": "marekm4"
      },
      {
        "hex": "#808080",
        "name": "grey",
        "reference": "css4"
      },
      {
        "hex": "#757575",
        "name": "Sonic Silver",
        "reference": "crayola"
      },
      {
        "hex": "#7e8183",
        "name": "#7e8183",
        "reference": "marekm4"
      }
    ],
    "millsfield:images_texts": [
      "\u003c CANTAS\nAUSTRALIA'S ROUND THE WORLD AIRLINE"
    ],
    "millsfield:images_texts_ids": [
      1527858209
    ],
    "millsfield:on_view": 0,
    "millsfield:similar": {
      "apple/mobileclip_s0": [
        {
          "distance": 0.35703292,
          "id": 1746312281
        },
        {
          "distance": 0.37259018,
          "id": 1746312283
        },
        {
          "distance": 0.37270346,
          "id": 1746312285
        },
        {
          "distance": 0.38627547,
          "id": 1746312287
        },
        {
          "distance": 0.4026147,
          "id": 1729566715
        },
        {
          "distance": 0.40439063,
          "id": 1729566709
        },
        {
          "distance": 0.4131437,
          "id": 1729566713
        },
        {
          "distance": 0.5088465,
          "id": 1527819351
        },
        {
          "distance": 0.5145427,
          "id": 1527819353
        },
        {
          "distance": 0.515026,
          "id": 1746512211
        }
      ],
      "apple/mobileclip_s1": [
        {
          "distance": 0.25339204,
          "id": 1746312281
        },
        {
          "distance": 0.25430962,
          "id": 1746312283
        },
        {
          "distance": 0.2663588,
          "id": 1746312285
        },
        {
          "distance": 0.27187988,
          "id": 1746312287
        },
        {
          "distance": 0.29367143,
          "id": 1729566715
        },
        {
          "distance": 0.31824917,
          "id": 1729566709
        },
        {
          "distance": 0.33788118,
          "id": 1729566713
        },
        {
          "distance": 0.3531228,
          "id": 1527819351
        },
        {
          "distance": 0.36428562,
          "id": 1527819353
        },
        {
          "distance": 0.37884855,
          "id": 1746512211
        }
      ],
      "apple/mobileclip_s2": [
        {
          "distance": 0.31875148,
          "id": 1746312285
        },
        {
          "distance": 0.32158408,
          "id": 1729566709
        },
        {
          "distance": 0.33754334,
          "id": 1746312283
        },
        {
          "distance": 0.34298176,
          "id": 1746312281
        },
        {
          "distance": 0.3530747,
          "id": 1746312287
        },
        {
          "distance": 0.37607357,
          "id": 1729566715
        },
        {
          "distance": 0.40352342,
          "id": 1729566713
        },
        {
          "distance": 0.4825915,
          "id": 1527819351
        },
        {
          "distance": 0.4931613,
          "id": 1527819353
        },
        {
          "distance": 0.5142266,
          "id": 1746512207
        }
      ]
    },
    "millsfield:subcategory_id": 1511213155,
    "mz:hierarchy_label": 1,
    "mz:is_current": -1,
    "sfomuseum:filename": "2004.061.011.tif",
    "sfomuseum:image_id": 164070,
    "sfomuseum:image_index": 5,
    "sfomuseum:image_type": "studio",
    "sfomuseum:object_id": 74854,
    "sfomuseum:placetype": "image",
    "sfomuseum:primary_image": 1,
    "src:geom": "sfomuseum",
    "wof:belongsto": [
      1511214205,
      1511925377,
      102527513,
      102191575,
      85633793,
      1511213155,
      85922583,
      102087579,
      1511214277,
      1511214203,
      85688637
    ],
    "wof:breaches": [],
    "wof:country": "XX",
    "wof:created": 1578955414,
    "wof:depicts": [
      1159287479,
      1159285043,
      1159285825,
      1511925377
    ],
    "wof:geomhash": "bd906905ce4be6c0651c90b0fc24804c",
    "wof:hierarchy": [
      {
        "arcade_id": 1511213155,
        "building_id": 1511214277,
        "campus_id": 102527513,
        "concourse_id": 1511214205,
        "continent_id": 102191575,
        "country_id": 85633793,
        "county_id": 102087579,
        "custom_id": 1527858209,
        "image_id": 1527858209,
        "locality_id": 85922583,
        "media_id": 1527858209,
        "neighbourhood_id": -1,
        "region_id": 85688637,
        "venue_id": 1511925377,
        "wing_id": 1511214203
      }
    ],
    "wof:id": 1527858209,
    "wof:lastmodified": 1788450282,
    "wof:name": "airline bag: Qantas Airways",
    "wof:parent_id": 1511925377,
    "wof:placetype": "custom",
    "wof:placetype_alt": [
      "image"
    ],
    "wof:repo": "sfomuseum-data-media-collection",
    "wof:superseded_by": [],
    "wof:supersedes": [],
    "wof:tags": []
  },
  "bbox": [
    -122.386155,
    37.616358,
    -122.386155,
    37.616358
  ],
  "geometry": {"type":"Point","coordinates":[-122.386155,37.616358]}
}
