{
  "id": 1527838421,
  "type": "Feature",
  "properties": {
    "date:cessation_lower": "1999-01-01",
    "date:cessation_upper": "1999-12-31",
    "date:inception_lower": "1999-01-01",
    "date:inception_upper": "1999-12-31",
    "edtf:cessation": "1999",
    "edtf:date": "1999",
    "edtf:inception": "1999",
    "geom:area": 0,
    "geom:bbox": "-122.386155,37.616358,-122.386155,37.616358",
    "geom:latitude": 37.616358,
    "geom:longitude": -122.386155,
    "iso:country": "XX",
    "media:fingerprint": "1db665433f82070df183ed076249f5f1fcd1425b",
    "media:imagehash_avg": "a:ff1f01387c380800",
    "media:imagehash_diff": "d:fffe27f1c4e1715d",
    "media:imagetext": "SOUTHWEST AIRLINES\nA SYMBOL OF FREEDOM®\nJune 6, 1999 Flight Schedule\nAs an Administrative\nAssistant, I'm a\nkey link in the\nCompany's support system.",
    "media:imagetext_created": 1787950478,
    "media:imagetext_source": "com.apple.visionkit.VNImageRequestHandler#Version 26.6.2 (Build 25G83)",
    "media:medium": "image",
    "media:mimetype": "image/tiff",
    "media:properties": {
      "sizes": {
        "b": {
          "extension": "jpg",
          "height": 768,
          "mimetype": "image/jpeg",
          "secret": "vBEfiaynfI40Ika4bXCwpagjoq5oWLUl",
          "width": 347
        },
        "c": {
          "extension": "jpg",
          "height": 600,
          "mimetype": "image/jpeg",
          "secret": "vBEfiaynfI40Ika4bXCwpagjoq5oWLUl",
          "width": 271
        },
        "dc": {
          "extension": "jpg",
          "height": 600,
          "mimetype": "image/jpeg",
          "secret": "vBEfiaynfI40Ika4bXCwpagjoq5oWLUl",
          "width": 271
        },
        "ds": {
          "extension": "jpg",
          "height": 320,
          "mimetype": "image/jpeg",
          "secret": "vBEfiaynfI40Ika4bXCwpagjoq5oWLUl",
          "width": 320
        },
        "k": {
          "extension": "jpg",
          "height": 1536,
          "mimetype": "image/jpeg",
          "secret": "vBEfiaynfI40Ika4bXCwpagjoq5oWLUl",
          "width": 694
        },
        "n": {
          "extension": "jpg",
          "height": 240,
          "mimetype": "image/jpeg",
          "secret": "vBEfiaynfI40Ika4bXCwpagjoq5oWLUl",
          "width": 108
        },
        "o": {
          "extension": "jpg",
          "height": 2559,
          "mimetype": "image/jpeg",
          "secret": "GeUuPRbY4tU80otY8fXLa6NsaALeAC0V",
          "width": 1157
        },
        "s": {
          "extension": "jpg",
          "height": 320,
          "mimetype": "image/jpeg",
          "secret": "vBEfiaynfI40Ika4bXCwpagjoq5oWLUl",
          "width": 320
        },
        "z": {
          "extension": "jpg",
          "height": 480,
          "mimetype": "image/jpeg",
          "secret": "vBEfiaynfI40Ika4bXCwpagjoq5oWLUl",
          "width": 217
        }
      }
    },
    "media:source": "sfomuseum",
    "media:status_id": 1,
    "media:uri_template": "https://static.sfomuseum.org/media/152/783/842/1/1527838421_{secret}_{label}.{extension}",
    "millsfield:airline_id": [
      1159285591
    ],
    "millsfield:category_id": 1511214223,
    "millsfield:collection_id": 1511214207,
    "millsfield:company_id": [
      1360700737
    ],
    "millsfield:images_colors": [
      {
        "hex": "#2a292b",
        "name": "#2a292b",
        "reference": "marekm4"
      },
      {
        "hex": "#2f4f4f",
        "name": "darkslategrey",
        "reference": "css4"
      },
      {
        "hex": "#414a4c",
        "name": "Outer Space",
        "reference": "crayola"
      },
      {
        "hex": "#acafb6",
        "name": "#acafb6",
        "reference": "marekm4"
      },
      {
        "hex": "#a9a9a9",
        "name": "darkgrey",
        "reference": "css4"
      },
      {
        "hex": "#b0b7c6",
        "name": "Cadet Blue",
        "reference": "crayola"
      },
      {
        "hex": "#5b5099",
        "name": "#5b5099",
        "reference": "marekm4"
      },
      {
        "hex": "#483d8b",
        "name": "darkslateblue",
        "reference": "css4"
      },
      {
        "hex": "#58427c",
        "name": "Cyber Grape",
        "reference": "crayola"
      },
      {
        "hex": "#77858d",
        "name": "#77858d",
        "reference": "marekm4"
      },
      {
        "hex": "#708090",
        "name": "slategrey",
        "reference": "css4"
      },
      {
        "hex": "#757575",
        "name": "Sonic Silver",
        "reference": "crayola"
      }
    ],
    "millsfield:images_texts": [
      "SOUTHWEST AIRLINES\nA SYMBOL OF FREEDOM®\nJune 6, 1999 Flight Schedule\nAs an Administrative\nAssistant, I'm a\nkey link in the\nCompany's support system."
    ],
    "millsfield:images_texts_ids": [
      1527838421
    ],
    "millsfield:similar": {
      "apple/mobileclip_s0": [
        {
          "distance": 0.62317455,
          "id": 1527838573
        },
        {
          "distance": 0.6422699,
          "id": 1762700219
        },
        {
          "distance": 0.65697503,
          "id": 1762715281
        },
        {
          "distance": 0.6601402,
          "id": 1779566183
        },
        {
          "distance": 0.6614531,
          "id": 1527838581
        },
        {
          "distance": 0.6617102,
          "id": 1762714687
        },
        {
          "distance": 0.66725415,
          "id": 1779566179
        },
        {
          "distance": 0.6673907,
          "id": 1762714659
        },
        {
          "distance": 0.67332464,
          "id": 1527838481
        },
        {
          "distance": 0.6776587,
          "id": 1762714681
        }
      ],
      "apple/mobileclip_s1": [
        {
          "distance": 0.4288922,
          "id": 1527838573
        },
        {
          "distance": 0.5395878,
          "id": 1527838471
        },
        {
          "distance": 0.5430384,
          "id": 1762714681
        },
        {
          "distance": 0.5580459,
          "id": 1527838547
        },
        {
          "distance": 0.568593,
          "id": 1762700219
        },
        {
          "distance": 0.56984603,
          "id": 1527838543
        },
        {
          "distance": 0.57113636,
          "id": 1762714659
        },
        {
          "distance": 0.5809896,
          "id": 1779566179
        },
        {
          "distance": 0.5813197,
          "id": 1527838481
        },
        {
          "distance": 0.58232194,
          "id": 1527838581
        }
      ],
      "apple/mobileclip_s2": [
        {
          "distance": 0.58306825,
          "id": 1527838573
        },
        {
          "distance": 0.6860307,
          "id": 1527838471
        },
        {
          "distance": 0.7044227,
          "id": 1527838581
        },
        {
          "distance": 0.73488146,
          "id": 1762714681
        },
        {
          "distance": 0.74455225,
          "id": 1527835513
        },
        {
          "distance": 0.74573314,
          "id": 1762700219
        },
        {
          "distance": 0.75482565,
          "id": 1527838543
        },
        {
          "distance": 0.7555431,
          "id": 1779566179
        },
        {
          "distance": 0.75856805,
          "id": 1762714687
        },
        {
          "distance": 0.75880736,
          "id": 1762700209
        }
      ]
    },
    "millsfield:subcategory_id": 1511213425,
    "mz:hierarchy_label": 1,
    "mz:is_current": -1,
    "sfomuseum:filename": "2003.105.097.015.tif",
    "sfomuseum:image_id": 65421,
    "sfomuseum:image_index": 5,
    "sfomuseum:image_type": "studio",
    "sfomuseum:object_id": 100356,
    "sfomuseum:placetype": "image",
    "sfomuseum:primary_image": 1,
    "src:geom": "sfomuseum",
    "wof:belongsto": [
      1511214223,
      1511939633,
      102527513,
      102191575,
      85633793,
      1511213425,
      85922583,
      102087579,
      1511214277,
      1511214203,
      85688637
    ],
    "wof:breaches": [],
    "wof:country": "XX",
    "wof:created": 1578952245,
    "wof:depicts": [
      1360700737,
      1159285591,
      1511939633
    ],
    "wof:geomhash": "bd906905ce4be6c0651c90b0fc24804c",
    "wof:hierarchy": [
      {
        "arcade_id": 1511213425,
        "building_id": 1511214277,
        "campus_id": 102527513,
        "concourse_id": 1511214223,
        "continent_id": 102191575,
        "country_id": 85633793,
        "county_id": 102087579,
        "custom_id": 1527838421,
        "image_id": 1527838421,
        "locality_id": 85922583,
        "media_id": 1527838421,
        "neighbourhood_id": -1,
        "region_id": 85688637,
        "venue_id": 1511939633,
        "wing_id": 1511214203
      }
    ],
    "wof:id": 1527838421,
    "wof:lastmodified": 1788449985,
    "wof:name": "timetable: Southwest Airlines",
    "wof:parent_id": 1511939633,
    "wof:placetype": "custom",
    "wof:placetype_alt": [
      "image"
    ],
    "wof:repo": "sfomuseum-data-media-collection",
    "wof:superseded_by": [],
    "wof:supersedes": [],
    "wof:tags": []
  },
  "bbox": [
    -122.386155,
    37.616358,
    -122.386155,
    37.616358
  ],
  "geometry": {"type":"Point","coordinates":[-122.386155,37.616358]}
}
