{
  "id": 1913796825,
  "type": "Feature",
  "properties": {
    "date:cessation_lower": "1954-01-23",
    "date:cessation_upper": "1954-01-23",
    "date:inception_lower": "1954-01-23",
    "date:inception_upper": "1954-01-23",
    "edtf:cessation": "1954-01-23",
    "edtf:inception": "1954-01-23",
    "geom:area": 2.477324999997507e-7,
    "geom:bbox": "-122.386472,37.616105,-122.385834,37.616611",
    "geom:latitude": 37.61635756125121,
    "geom:longitude": -122.38615532866096,
    "media:fingerprint": "d16d69caec48ccf5b2f6079099f87f47783bbb62",
    "media:imagehash_avg": "a:ff818181818181ff",
    "media:imagehash_diff": "d:4145252549495155",
    "media:imagetext": "you tay the Bords arz esmef ürd insterd\nof Teesday lont that was the frat wors I\nhad that they war comung at all. In\nAo glad that they arr and ong drenafu\nsorry that Om mat thaz to tre them.\nYour digo tound as kectie as mint\ncre in garn-ang and Englad. The onl,\ntune o tet off was durn a transit of\nDuanedort. I askrd Frankfat not tu\nnotity Baa that 9 was coming through\nso thais lad te no ore to met me\ntime or the ground\nI had to go through\ncustons - it wa m, last Gont r ğernan,\npulic kath asi pue oně sone currency\nforms so o actual had 10 mimetis to\nshap. at a snac auget stor. U bought\nsome scoors - nat in tets - they ded nt\nkan any, At London 9 tought 3\nsight han time but did nit. The 3\nthougrt Od luy some thang at sharmo\nincludnf Whark but of coas cit did\nmat go thur.\nAt Jelland their was a\n45 minute stop but one one ery slow\nwoman in the smale shopp wuth tur\nlondo of pasge bayig\nor trying to\nErythag in tegat. S ferac, managed\nto buy a swater (dost kenos who it wele\nLit) and two rate Paly hand worn\ncarpo. Thats all. Shall 2 puchas",
    "media:imagetext_created": 1787971908,
    "media:imagetext_source": "com.apple.visionkit.VNImageRequestHandler#Version 26.6.2 (Build 25G83)",
    "media:mimetype": "image/tiff",
    "media:properties": {
      "sizes": {
        "b": {
          "extension": "jpg",
          "height": 768,
          "mimetype": "image/jpeg",
          "secret": "6cVaetMQHL3E8sCJReiZkBREcx6TBjDX",
          "width": 487
        },
        "c": {
          "extension": "jpg",
          "height": 600,
          "mimetype": "image/jpeg",
          "secret": "6cVaetMQHL3E8sCJReiZkBREcx6TBjDX",
          "width": 380
        },
        "dc": {
          "extension": "jpg",
          "height": 600,
          "mimetype": "image/jpeg",
          "secret": "6cVaetMQHL3E8sCJReiZkBREcx6TBjDX",
          "width": 380
        },
        "ds": {
          "extension": "jpg",
          "height": 320,
          "mimetype": "image/jpeg",
          "secret": "6cVaetMQHL3E8sCJReiZkBREcx6TBjDX",
          "width": 320
        },
        "k": {
          "extension": "jpg",
          "height": 1536,
          "mimetype": "image/jpeg",
          "secret": "6cVaetMQHL3E8sCJReiZkBREcx6TBjDX",
          "width": 974
        },
        "n": {
          "extension": "jpg",
          "height": 240,
          "mimetype": "image/jpeg",
          "secret": "6cVaetMQHL3E8sCJReiZkBREcx6TBjDX",
          "width": 152
        },
        "o": {
          "extension": "jpg",
          "height": 2000,
          "mimetype": "image/jpeg",
          "secret": "TivFDvevbtGK3wiJHNd2uH24NW8NSx4p",
          "width": 1269
        },
        "s": {
          "extension": "jpg",
          "height": 320,
          "mimetype": "image/jpeg",
          "secret": "6cVaetMQHL3E8sCJReiZkBREcx6TBjDX",
          "width": 320
        },
        "z": {
          "extension": "jpg",
          "height": 480,
          "mimetype": "image/jpeg",
          "secret": "6cVaetMQHL3E8sCJReiZkBREcx6TBjDX",
          "width": 304
        }
      }
    },
    "media:source": "sfomuseum",
    "media:status_id": 1,
    "media:uri_template": "https://static.sfomuseum.org/media/191/379/682/5/1913796825_{secret}_{label}.{extension}",
    "millsfield:airline_id": [
      1159284989
    ],
    "millsfield:category_id": 1511214251,
    "millsfield:collection_id": 1511214207,
    "millsfield:company_id": [
      1159286839
    ],
    "millsfield:images_colors": [
      {
        "hex": "#bbb6a0",
        "name": "#bbb6a0",
        "reference": "marekm4"
      },
      {
        "hex": "#a9a9a9",
        "name": "darkgrey",
        "reference": "css4"
      },
      {
        "hex": "#b0b7c6",
        "name": "Cadet Blue",
        "reference": "crayola"
      },
      {
        "hex": "#46546e",
        "name": "#46546e",
        "reference": "marekm4"
      },
      {
        "hex": "#483d8b",
        "name": "darkslateblue",
        "reference": "css4"
      },
      {
        "hex": "#4a646c",
        "name": "Deep Space Sparkle",
        "reference": "crayola"
      }
    ],
    "millsfield:images_texts": [
      "the\nWeylin\nSaturdan\ngar 23\n1954\n54TH STREET AND MADISON AVENUE\nNEW YORK 22, NEW YORK\nDraunt Lets -\nJust avurt home agai\nafter a fine tip acron. lo\nwant our Gustwick from London\nto Declana (Kellavik Airport near\nReykjavil) thence our gruntme\nnor. stop to NY. whar ur arrure\nat 8:3o this Aim.\nI found your lith of\nTues the igth when miss t. had fa-\nwarded pron the office. The last one\nbefore this was Jour Saterday litt\nwhich reached\nme in tra-kjat so\nI'm afraid that one or two at you",
      "you tay the Bords arz esmef ürd insterd\nof Teesday lont that was the frat wors I\nhad that they war comung at all. In\nAo glad that they arr and ong drenafu\nsorry that Om mat thaz to tre them.\nYour digo tound as kectie as mint\ncre in garn-ang and Englad. The onl,\ntune o tet off was durn a transit of\nDuanedort. I askrd Frankfat not tu\nnotity Baa that 9 was coming through\nso thais lad te no ore to met me\ntime or the ground\nI had to go through\ncustons - it wa m, last Gont r ğernan,\npulic kath asi pue oně sone currency\nforms so o actual had 10 mimetis to\nshap. at a snac auget stor. U bought\nsome scoors - nat in tets - they ded nt\nkan any, At London 9 tought 3\nsight han time but did nit. The 3\nthougrt Od luy some thang at sharmo\nincludnf Whark but of coas cit did\nmat go thur.\nAt Jelland their was a\n45 minute stop but one one ery slow\nwoman in the smale shopp wuth tur\nlondo of pasge bayig\nor trying to\nErythag in tegat. S ferac, managed\nto buy a swater (dost kenos who it wele\nLit) and two rate Paly hand worn\ncarpo. Thats all. Shall 2 puchas",
      "some thing hur and brg in\nmade in games\nstrie ate and they need nt know\nthe diffamen. Kh- 9 did bouy\ntome Guman Harmonicas. magh\nmey comes le one to play eken\nthe fish an nt leiting. O can\ntale has that tome of ou gerts\nin Chema go vay hat on the\nLarmonica cohen tE war fegens\ntrine the automatie pulot erit\nnoch ng\nto do Except water the\ninstruments.\nhope aks es nt\nace his fux.\nSorry to mes\nthe Cain\nstie br arome eher 9 arrur .\n208121187"
    ],
    "millsfield:images_texts_ids": [
      1913796823,
      1913796825,
      1913796827
    ],
    "millsfield:similar": {
      "apple/mobileclip_s0": [
        {
          "distance": 0.24875517,
          "id": 1913799599
        },
        {
          "distance": 0.25262737,
          "id": 1913801777
        },
        {
          "distance": 0.25475237,
          "id": 1913802341
        },
        {
          "distance": 0.2574985,
          "id": 1913802073
        },
        {
          "distance": 0.26133037,
          "id": 1913799205
        },
        {
          "distance": 0.26281676,
          "id": 1913801773
        },
        {
          "distance": 0.26666123,
          "id": 1913799821
        },
        {
          "distance": 0.26697373,
          "id": 1913799449
        },
        {
          "distance": 0.2675308,
          "id": 1913796795
        },
        {
          "distance": 0.26851642,
          "id": 1913799827
        }
      ],
      "apple/mobileclip_s1": [
        {
          "distance": 0.1990543,
          "id": 1913796795
        },
        {
          "distance": 0.20586483,
          "id": 1913799659
        },
        {
          "distance": 0.20767915,
          "id": 1913799063
        },
        {
          "distance": 0.20834397,
          "id": 1913799819
        },
        {
          "distance": 0.20893686,
          "id": 1913799205
        },
        {
          "distance": 0.21144803,
          "id": 1913799827
        },
        {
          "distance": 0.21256657,
          "id": 1913768981
        },
        {
          "distance": 0.21350883,
          "id": 1913796691
        },
        {
          "distance": 0.21571659,
          "id": 1913801921
        },
        {
          "distance": 0.21862476,
          "id": 1913799451
        }
      ],
      "apple/mobileclip_s2": [
        {
          "distance": 0.22603218,
          "id": 1913796795
        },
        {
          "distance": 0.2349386,
          "id": 1913799615
        },
        {
          "distance": 0.24478458,
          "id": 1913799821
        },
        {
          "distance": 0.24651752,
          "id": 1913799579
        },
        {
          "distance": 0.2492256,
          "id": 1913802061
        },
        {
          "distance": 0.25072244,
          "id": 1913801599
        },
        {
          "distance": 0.25718957,
          "id": 1913799823
        },
        {
          "distance": 0.25766042,
          "id": 1913799549
        },
        {
          "distance": 0.25779542,
          "id": 1913802095
        },
        {
          "distance": 0.25963852,
          "id": 1913802449
        }
      ]
    },
    "millsfield:subcategory_id": 1511213489,
    "mz:is_current": 1,
    "sfomuseum:filename": "2019.121.1187_2.tif",
    "sfomuseum:image_id": 219331,
    "sfomuseum:image_index": 5,
    "sfomuseum:image_type": "studio",
    "sfomuseum:object_id": 211550,
    "sfomuseum:placetype": "image",
    "sfomuseum:primary_image": 0,
    "src:geom": "sfomuseum",
    "wof:belongsto": [
      102527513,
      1159162825,
      102191575,
      85633793,
      102087579,
      85922583,
      1913795473,
      85688637,
      1159160869
    ],
    "wof:country": "XY",
    "wof:created": 1714549304,
    "wof:depicts": [
      1913795473,
      1159284989,
      1159286839
    ],
    "wof:geomhash": "ed7c2ab3547fc3916b5edc33488deaa7",
    "wof:hierarchy": [
      {
        "building_id": -1,
        "campus_id": 102527513,
        "collection_id": 1159162825,
        "concourse_id": 1159162825,
        "continent_id": 102191575,
        "country_id": 85633793,
        "county_id": 102087579,
        "custom_id": 1913796825,
        "image_id": 1913796825,
        "locality_id": 85922583,
        "neighbourhood_id": -1,
        "object_id": 1913795473,
        "region_id": 85688637,
        "wing_id": 1159160869
      }
    ],
    "wof:id": 1913796825,
    "wof:lastmodified": 1788160869,
    "wof:name": "correspondence: Harold M. Bixby to Debby Bixby",
    "wof:parent_id": 1913795473,
    "wof:placetype": "custom",
    "wof:placetype_alt": [
      "image"
    ],
    "wof:repo": "sfomuseum-data-media-collection",
    "wof:superseded_by": [],
    "wof:supersedes": []
  },
  "bbox": [
    -122.386472,
    37.616105,
    -122.385834,
    37.616611
  ],
  "geometry": {"type":"Polygon","coordinates":[[[-122.386472,37.616318],[-122.386435,37.616233],[-122.386376,37.616178],[-122.386301,37.616131],[-122.386161,37.616105],[-122.386022,37.616131],[-122.385914,37.616186],[-122.385855,37.616267],[-122.385834,37.616369],[-122.385871,37.616467],[-122.385941,37.616543],[-122.386054,37.616603],[-122.386183,37.616611],[-122.386306,37.616573],[-122.386419,37.616509],[-122.386467,37.616411],[-122.386472,37.616318]]]}
}
