{
  "id": 1779946387,
  "type": "Feature",
  "properties": {
    "date:cessation_lower": "1970-01-01",
    "date:cessation_upper": "1970-12-31",
    "date:inception_lower": "1970-01-01",
    "date:inception_upper": "1970-12-31",
    "edtf:cessation": "1970~",
    "edtf:inception": "1970~",
    "geom:area": 2.477324999997507e-7,
    "geom:bbox": "-122.386472,37.616105,-122.385834,37.616611",
    "geom:latitude": 37.61635756125121,
    "geom:longitude": -122.38615532866096,
    "media:fingerprint": "45d5c7f57657b8506ad696382c16be535879b9d8",
    "media:imagehash_avg": "a:ffff9f8fe3f07800",
    "media:imagehash_diff": "d:e0b03038cee3f0e0",
    "media:imagetext": "UNITED\nAIR LINES",
    "media:imagetext_created": 1787965392,
    "media:imagetext_source": "com.apple.visionkit.VNImageRequestHandler#Version 26.6.2 (Build 25G83)",
    "media:mimetype": "image/tiff",
    "media:properties": {
      "sizes": {
        "b": {
          "extension": "jpg",
          "height": 768,
          "mimetype": "image/jpeg",
          "secret": "mpzcRsyWmMw7QuBFgJfu6CoVDCVcvPfS",
          "width": 965
        },
        "c": {
          "extension": "jpg",
          "height": 600,
          "mimetype": "image/jpeg",
          "secret": "mpzcRsyWmMw7QuBFgJfu6CoVDCVcvPfS",
          "width": 754
        },
        "dc": {
          "extension": "jpg",
          "height": 600,
          "mimetype": "image/jpeg",
          "secret": "mpzcRsyWmMw7QuBFgJfu6CoVDCVcvPfS",
          "width": 754
        },
        "ds": {
          "extension": "jpg",
          "height": 320,
          "mimetype": "image/jpeg",
          "secret": "mpzcRsyWmMw7QuBFgJfu6CoVDCVcvPfS",
          "width": 320
        },
        "k": {
          "extension": "jpg",
          "height": 1536,
          "mimetype": "image/jpeg",
          "secret": "mpzcRsyWmMw7QuBFgJfu6CoVDCVcvPfS",
          "width": 1931
        },
        "n": {
          "extension": "jpg",
          "height": 240,
          "mimetype": "image/jpeg",
          "secret": "mpzcRsyWmMw7QuBFgJfu6CoVDCVcvPfS",
          "width": 301
        },
        "o": {
          "extension": "jpg",
          "height": 1667,
          "mimetype": "image/jpeg",
          "secret": "0MBhISbUYHUYaM5kbS4VKWcekJRG8zRQ",
          "width": 2096
        },
        "s": {
          "extension": "jpg",
          "height": 320,
          "mimetype": "image/jpeg",
          "secret": "mpzcRsyWmMw7QuBFgJfu6CoVDCVcvPfS",
          "width": 320
        },
        "z": {
          "extension": "jpg",
          "height": 480,
          "mimetype": "image/jpeg",
          "secret": "mpzcRsyWmMw7QuBFgJfu6CoVDCVcvPfS",
          "width": 603
        }
      }
    },
    "media:source": "sfomuseum",
    "media:status_id": 1,
    "media:uri_template": "https://static.sfomuseum.org/media/177/994/638/7/1779946387_{secret}_{label}.{extension}",
    "millsfield:airline_id": [
      1159285415
    ],
    "millsfield:category_id": 1746152533,
    "millsfield:collection_id": 1511214203,
    "millsfield:company_id": [
      1159288779
    ],
    "millsfield:images_colors": [
      {
        "hex": "#afaeaf",
        "name": "#afaeaf",
        "reference": "marekm4"
      },
      {
        "hex": "#a9a9a9",
        "name": "darkgrey",
        "reference": "css4"
      },
      {
        "hex": "#b0b7c6",
        "name": "Cadet Blue",
        "reference": "crayola"
      },
      {
        "hex": "#b85c59",
        "name": "#b85c59",
        "reference": "marekm4"
      },
      {
        "hex": "#cd5c5c",
        "name": "indianred",
        "reference": "css4"
      },
      {
        "hex": "#bc5d58",
        "name": "Chestnut",
        "reference": "crayola"
      }
    ],
    "millsfield:images_texts": [
      "UNITED\nAIR LINES"
    ],
    "millsfield:images_texts_ids": [
      1779946387
    ],
    "millsfield:similar": {
      "apple/mobileclip_s0": [
        {
          "distance": 0.12331002,
          "id": 1779937629
        },
        {
          "distance": 0.17067283,
          "id": 1779937493
        },
        {
          "distance": 0.39240113,
          "id": 1779937631
        },
        {
          "distance": 0.3963724,
          "id": 1779946577
        },
        {
          "distance": 0.39813247,
          "id": 1779937485
        },
        {
          "distance": 0.40336105,
          "id": 1779937489
        },
        {
          "distance": 0.40467998,
          "id": 1779937293
        },
        {
          "distance": 0.40772226,
          "id": 1779946385
        },
        {
          "distance": 0.4081382,
          "id": 1779946383
        },
        {
          "distance": 0.40873808,
          "id": 1779946115
        }
      ],
      "apple/mobileclip_s1": [
        {
          "distance": 0.10732,
          "id": 1779937629
        },
        {
          "distance": 0.12569386,
          "id": 1779937493
        },
        {
          "distance": 0.25619975,
          "id": 1779946115
        },
        {
          "distance": 0.25754368,
          "id": 1779937293
        },
        {
          "distance": 0.2775236,
          "id": 1779946385
        },
        {
          "distance": 0.28062925,
          "id": 1779946383
        },
        {
          "distance": 0.28629297,
          "id": 1779937631
        },
        {
          "distance": 0.30470446,
          "id": 1779937489
        },
        {
          "distance": 0.30621147,
          "id": 1779946577
        },
        {
          "distance": 0.30852613,
          "id": 1779937487
        }
      ],
      "apple/mobileclip_s2": [
        {
          "distance": 0.114605814,
          "id": 1779937629
        },
        {
          "distance": 0.14500459,
          "id": 1779937493
        },
        {
          "distance": 0.3233642,
          "id": 1779937293
        },
        {
          "distance": 0.3352656,
          "id": 1779946115
        },
        {
          "distance": 0.3587529,
          "id": 1779946577
        },
        {
          "distance": 0.37554374,
          "id": 1779946385
        },
        {
          "distance": 0.38445443,
          "id": 1779946383
        },
        {
          "distance": 0.3999052,
          "id": 1779937489
        },
        {
          "distance": 0.40327626,
          "id": 1779937631
        },
        {
          "distance": 0.41682157,
          "id": 1779937651
        }
      ]
    },
    "millsfield:subcategory_id": 1511213837,
    "mz:is_current": 1,
    "sfomuseum:filename": "110394.tif",
    "sfomuseum:image_id": 110394,
    "sfomuseum:image_index": 5,
    "sfomuseum:image_type": "studio",
    "sfomuseum:object_id": 133474,
    "sfomuseum:placetype": "image",
    "sfomuseum:primary_image": 1,
    "src:geom": "sfomuseum",
    "wof:belongsto": [
      102527513,
      1159162825,
      102191575,
      85633793,
      102087579,
      85922583,
      1779945509,
      85688637,
      1159160869
    ],
    "wof:country": "XY",
    "wof:created": 1658562914,
    "wof:depicts": [
      1159288779,
      1779945509,
      1159285413,
      1159285415
    ],
    "wof:geomhash": "ed7c2ab3547fc3916b5edc33488deaa7",
    "wof:hierarchy": [
      {
        "building_id": -1,
        "campus_id": 102527513,
        "collection_id": 1159162825,
        "concourse_id": 1159162825,
        "continent_id": 102191575,
        "country_id": 85633793,
        "county_id": 102087579,
        "custom_id": 1779946387,
        "image_id": 1779946387,
        "locality_id": 85922583,
        "neighbourhood_id": -1,
        "object_id": 1779945509,
        "region_id": 85688637,
        "wing_id": 1159160869
      }
    ],
    "wof:id": 1779946387,
    "wof:lastmodified": 1788451408,
    "wof:name": "food pick: United Airlines",
    "wof:parent_id": 1779945509,
    "wof:placetype": "custom",
    "wof:placetype_alt": [
      "image"
    ],
    "wof:repo": "sfomuseum-data-media-collection",
    "wof:superseded_by": [],
    "wof:supersedes": []
  },
  "bbox": [
    -122.386472,
    37.616105,
    -122.385834,
    37.616611
  ],
  "geometry": {"type":"Polygon","coordinates":[[[-122.386472,37.616318],[-122.386435,37.616233],[-122.386376,37.616178],[-122.386301,37.616131],[-122.386161,37.616105],[-122.386022,37.616131],[-122.385914,37.616186],[-122.385855,37.616267],[-122.385834,37.616369],[-122.385871,37.616467],[-122.385941,37.616543],[-122.386054,37.616603],[-122.386183,37.616611],[-122.386306,37.616573],[-122.386419,37.616509],[-122.386467,37.616411],[-122.386472,37.616318]]]}
}
