{
  "id": 1780288457,
  "type": "Feature",
  "properties": {
    "date:cessation_lower": "1980-01-01",
    "date:cessation_upper": "1989-12-31",
    "date:inception_lower": "1980-01-01",
    "date:inception_upper": "1989-12-31",
    "edtf:cessation": "198X",
    "edtf:inception": "198X",
    "geom:area": 2.477324999997507e-7,
    "geom:bbox": "-122.386472,37.616105,-122.385834,37.616611",
    "geom:latitude": 37.61635756125121,
    "geom:longitude": -122.38615532866096,
    "media:fingerprint": "3e37cccb926dbad443eac664a7c4e7e545d57e48",
    "media:imagehash_avg": "a:ffbf1f0fe3f87c1c",
    "media:imagehash_diff": "d:f060701cc7f1f1f0",
    "media:mimetype": "image/tiff",
    "media:properties": {
      "sizes": {
        "b": {
          "extension": "jpg",
          "height": 768,
          "mimetype": "image/jpeg",
          "secret": "ES7ERETyae5FZaSLYz8AzEjEMxTc6Pzl",
          "width": 965
        },
        "c": {
          "extension": "jpg",
          "height": 600,
          "mimetype": "image/jpeg",
          "secret": "ES7ERETyae5FZaSLYz8AzEjEMxTc6Pzl",
          "width": 754
        },
        "dc": {
          "extension": "jpg",
          "height": 600,
          "mimetype": "image/jpeg",
          "secret": "ES7ERETyae5FZaSLYz8AzEjEMxTc6Pzl",
          "width": 754
        },
        "ds": {
          "extension": "jpg",
          "height": 320,
          "mimetype": "image/jpeg",
          "secret": "ES7ERETyae5FZaSLYz8AzEjEMxTc6Pzl",
          "width": 320
        },
        "k": {
          "extension": "jpg",
          "height": 1536,
          "mimetype": "image/jpeg",
          "secret": "ES7ERETyae5FZaSLYz8AzEjEMxTc6Pzl",
          "width": 1931
        },
        "n": {
          "extension": "jpg",
          "height": 240,
          "mimetype": "image/jpeg",
          "secret": "ES7ERETyae5FZaSLYz8AzEjEMxTc6Pzl",
          "width": 301
        },
        "o": {
          "extension": "jpg",
          "height": 1667,
          "mimetype": "image/jpeg",
          "secret": "lyO8ZIbytsabDAKAkZxJlyWnQIluL9P6",
          "width": 2096
        },
        "s": {
          "extension": "jpg",
          "height": 320,
          "mimetype": "image/jpeg",
          "secret": "ES7ERETyae5FZaSLYz8AzEjEMxTc6Pzl",
          "width": 320
        },
        "z": {
          "extension": "jpg",
          "height": 480,
          "mimetype": "image/jpeg",
          "secret": "ES7ERETyae5FZaSLYz8AzEjEMxTc6Pzl",
          "width": 603
        }
      }
    },
    "media:source": "sfomuseum",
    "media:status_id": 1,
    "media:uri_template": "https://static.sfomuseum.org/media/178/028/845/7/1780288457_{secret}_{label}.{extension}",
    "millsfield:category_id": 1746152533,
    "millsfield:collection_id": 1511214203,
    "millsfield:images_colors": [
      {
        "hex": "#abaaa9",
        "name": "#abaaa9",
        "reference": "marekm4"
      },
      {
        "hex": "#a9a9a9",
        "name": "darkgrey",
        "reference": "css4"
      },
      {
        "hex": "#979aaa",
        "name": "Manatee",
        "reference": "crayola"
      },
      {
        "hex": "#b04d48",
        "name": "#b04d48",
        "reference": "marekm4"
      },
      {
        "hex": "#a0522d",
        "name": "sienna",
        "reference": "css4"
      },
      {
        "hex": "#bf4f51",
        "name": "Bittersweet Shimmer",
        "reference": "crayola"
      }
    ],
    "millsfield:similar": {
      "apple/mobileclip_s0": [
        {
          "distance": 0.40893048,
          "id": 1779744467
        },
        {
          "distance": 0.4195964,
          "id": 1779744469
        },
        {
          "distance": 0.46072036,
          "id": 1779744473
        },
        {
          "distance": 0.4723671,
          "id": 1779744575
        },
        {
          "distance": 0.4727761,
          "id": 1779744471
        },
        {
          "distance": 0.4755059,
          "id": 1779914629
        },
        {
          "distance": 0.4787561,
          "id": 1779744741
        },
        {
          "distance": 0.48077166,
          "id": 1779745205
        },
        {
          "distance": 0.48092726,
          "id": 1780288199
        },
        {
          "distance": 0.48420578,
          "id": 1779744927
        }
      ],
      "apple/mobileclip_s1": [
        {
          "distance": 0.3539934,
          "id": 1779744467
        },
        {
          "distance": 0.3631304,
          "id": 1779744741
        },
        {
          "distance": 0.3658803,
          "id": 1779744425
        },
        {
          "distance": 0.36825016,
          "id": 1779744759
        },
        {
          "distance": 0.36829263,
          "id": 1779744377
        },
        {
          "distance": 0.36837488,
          "id": 1779744473
        },
        {
          "distance": 0.36956352,
          "id": 1779744495
        },
        {
          "distance": 0.3712046,
          "id": 1779744469
        },
        {
          "distance": 0.37269536,
          "id": 1779744597
        },
        {
          "distance": 0.37643555,
          "id": 1779937293
        }
      ],
      "apple/mobileclip_s2": [
        {
          "distance": 0.47982484,
          "id": 1779744469
        },
        {
          "distance": 0.48712423,
          "id": 1779744467
        },
        {
          "distance": 0.49094805,
          "id": 1779744741
        },
        {
          "distance": 0.49751076,
          "id": 1779744403
        },
        {
          "distance": 0.50058806,
          "id": 1779744927
        },
        {
          "distance": 0.50508755,
          "id": 1779744495
        },
        {
          "distance": 0.50511694,
          "id": 1779946125
        },
        {
          "distance": 0.5077295,
          "id": 1779744757
        },
        {
          "distance": 0.50924534,
          "id": 1779744473
        },
        {
          "distance": 0.5126108,
          "id": 1780288215
        }
      ]
    },
    "millsfield:subcategory_id": 1511213833,
    "mz:is_current": 1,
    "sfomuseum:filename": "110212.tif",
    "sfomuseum:image_id": 110212,
    "sfomuseum:image_index": 5,
    "sfomuseum:image_type": "studio",
    "sfomuseum:object_id": 87929,
    "sfomuseum:placetype": "image",
    "sfomuseum:primary_image": 1,
    "src:geom": "sfomuseum",
    "wof:belongsto": [
      102527513,
      1159162825,
      102191575,
      85633793,
      102087579,
      85922583,
      1780287665,
      85688637,
      1159160869
    ],
    "wof:country": "XY",
    "wof:created": 1660809553,
    "wof:depicts": [
      1780287665
    ],
    "wof:geomhash": "ed7c2ab3547fc3916b5edc33488deaa7",
    "wof:hierarchy": [
      {
        "building_id": -1,
        "campus_id": 102527513,
        "collection_id": 1159162825,
        "concourse_id": 1159162825,
        "continent_id": 102191575,
        "country_id": 85633793,
        "county_id": 102087579,
        "custom_id": 1780288457,
        "image_id": 1780288457,
        "locality_id": 85922583,
        "neighbourhood_id": -1,
        "object_id": 1780287665,
        "region_id": 85688637,
        "wing_id": 1159160869
      }
    ],
    "wof:id": 1780288457,
    "wof:lastmodified": 1788451468,
    "wof:name": "swizzle stick: AV",
    "wof:parent_id": 1780287665,
    "wof:placetype": "custom",
    "wof:placetype_alt": [
      "image"
    ],
    "wof:repo": "sfomuseum-data-media-collection",
    "wof:superseded_by": [],
    "wof:supersedes": []
  },
  "bbox": [
    -122.386472,
    37.616105,
    -122.385834,
    37.616611
  ],
  "geometry": {"type":"Polygon","coordinates":[[[-122.386472,37.616318],[-122.386435,37.616233],[-122.386376,37.616178],[-122.386301,37.616131],[-122.386161,37.616105],[-122.386022,37.616131],[-122.385914,37.616186],[-122.385855,37.616267],[-122.385834,37.616369],[-122.385871,37.616467],[-122.385941,37.616543],[-122.386054,37.616603],[-122.386183,37.616611],[-122.386306,37.616573],[-122.386419,37.616509],[-122.386467,37.616411],[-122.386472,37.616318]]]}
}
