{
  "id": 1880319827,
  "type": "Feature",
  "properties": {
    "date:cessation_lower": "1979-01-01",
    "date:cessation_upper": "1979-12-31",
    "date:inception_lower": "1979-01-01",
    "date:inception_upper": "1979-12-31",
    "edtf:cessation": "1979",
    "edtf:inception": "1979",
    "geom:area": 2.477324999997507e-7,
    "geom:bbox": "-122.386472,37.616105,-122.385834,37.616611",
    "geom:latitude": 37.61635756125121,
    "geom:longitude": -122.38615532866096,
    "media:fingerprint": "44fcd926ca92c829f2417bbbbc04ca7ee3bd1224",
    "media:imagehash_avg": "a:3ffff3c783819fff",
    "media:imagehash_diff": "d:f8f6e62f2f3338f8",
    "media:imagetext": "0-U\nD-UNOR\nLUFTHANSA\nJUNKERS\nNOR",
    "media:imagetext_created": 1787968630,
    "media:imagetext_source": "com.apple.visionkit.VNImageRequestHandler#Version 26.6.2 (Build 25G83)",
    "media:mimetype": "image/tiff",
    "media:properties": {
      "sizes": {
        "b": {
          "extension": "jpg",
          "height": 768,
          "mimetype": "image/jpeg",
          "secret": "kIX5Kqp1Up7pW9S2BMcarHFSI9dSl14V",
          "width": 965
        },
        "c": {
          "extension": "jpg",
          "height": 600,
          "mimetype": "image/jpeg",
          "secret": "kIX5Kqp1Up7pW9S2BMcarHFSI9dSl14V",
          "width": 754
        },
        "dc": {
          "extension": "jpg",
          "height": 600,
          "mimetype": "image/jpeg",
          "secret": "kIX5Kqp1Up7pW9S2BMcarHFSI9dSl14V",
          "width": 754
        },
        "ds": {
          "extension": "jpg",
          "height": 320,
          "mimetype": "image/jpeg",
          "secret": "kIX5Kqp1Up7pW9S2BMcarHFSI9dSl14V",
          "width": 320
        },
        "k": {
          "extension": "jpg",
          "height": 1536,
          "mimetype": "image/jpeg",
          "secret": "kIX5Kqp1Up7pW9S2BMcarHFSI9dSl14V",
          "width": 1931
        },
        "n": {
          "extension": "jpg",
          "height": 240,
          "mimetype": "image/jpeg",
          "secret": "kIX5Kqp1Up7pW9S2BMcarHFSI9dSl14V",
          "width": 301
        },
        "o": {
          "extension": "jpg",
          "height": 1667,
          "mimetype": "image/jpeg",
          "secret": "cfVbsGgoBmGyLvL4Y9cCp4VGK6vbs3a5",
          "width": 2096
        },
        "s": {
          "extension": "jpg",
          "height": 320,
          "mimetype": "image/jpeg",
          "secret": "kIX5Kqp1Up7pW9S2BMcarHFSI9dSl14V",
          "width": 320
        },
        "z": {
          "extension": "jpg",
          "height": 480,
          "mimetype": "image/jpeg",
          "secret": "kIX5Kqp1Up7pW9S2BMcarHFSI9dSl14V",
          "width": 603
        }
      }
    },
    "media:source": "sfomuseum",
    "media:status_id": 1,
    "media:uri_template": "https://static.sfomuseum.org/media/188/031/982/7/1880319827_{secret}_{label}.{extension}",
    "millsfield:aircraft_id": [
      1159292649
    ],
    "millsfield:airline_id": [
      1159284711
    ],
    "millsfield:category_id": 1511214235,
    "millsfield:collection_id": 1511214203,
    "millsfield:company_id": [
      1159294171
    ],
    "millsfield:exhibition_ids": [
      1159160707
    ],
    "millsfield:has_coloring_book": 1,
    "millsfield:images_colors": [
      {
        "hex": "#bebebe",
        "name": "#bebebe",
        "reference": "marekm4"
      },
      {
        "hex": "#c0c0c0",
        "name": "silver",
        "reference": "css4"
      },
      {
        "hex": "#cdc5c2",
        "name": "Silver",
        "reference": "crayola"
      },
      {
        "hex": "#5b5756",
        "name": "#5b5756",
        "reference": "marekm4"
      },
      {
        "hex": "#696969",
        "name": "dimgrey",
        "reference": "css4"
      },
      {
        "hex": "#6e5160",
        "name": "Eggplant",
        "reference": "crayola"
      }
    ],
    "millsfield:images_texts": [
      "LUFTHANSA\nJUNKERS",
      "LUFTHANSA\nJUNKERS",
      "0-U\nD-UNOR\nLUFTHANSA\nJUNKERS\nNOR",
      "LUFTHANSA\nJUNKERS\nD-U\nNOR\nD-UNOR"
    ],
    "millsfield:images_texts_ids": [
      1880319817,
      1880319821,
      1880319827,
      1880319829
    ],
    "millsfield:on_view": 0,
    "millsfield:similar": {
      "apple/mobileclip_s0": [
        {
          "distance": 0.30736637,
          "id": 1880319829
        },
        {
          "distance": 0.50391924,
          "id": 1880320047
        },
        {
          "distance": 0.50414926,
          "id": 1880320145
        },
        {
          "distance": 0.5107981,
          "id": 1880319647
        },
        {
          "distance": 0.5164696,
          "id": 1880320147
        },
        {
          "distance": 0.5384039,
          "id": 1880320645
        },
        {
          "distance": 0.5430697,
          "id": 1880319649
        },
        {
          "distance": 0.5525657,
          "id": 1880321077
        },
        {
          "distance": 0.5538668,
          "id": 1880320265
        },
        {
          "distance": 0.5544434,
          "id": 1880320049
        }
      ],
      "apple/mobileclip_s1": [
        {
          "distance": 0.25241852,
          "id": 1880319829
        },
        {
          "distance": 0.36331043,
          "id": 1880320607
        },
        {
          "distance": 0.37718013,
          "id": 1880320453
        },
        {
          "distance": 0.38059106,
          "id": 1880320609
        },
        {
          "distance": 0.38625836,
          "id": 1880320145
        },
        {
          "distance": 0.38652888,
          "id": 1914676703
        },
        {
          "distance": 0.39456984,
          "id": 1880319983
        },
        {
          "distance": 0.3966834,
          "id": 1880320451
        },
        {
          "distance": 0.39711788,
          "id": 1880320047
        },
        {
          "distance": 0.3980854,
          "id": 1881138621
        }
      ],
      "apple/mobileclip_s2": [
        {
          "distance": 0.25024328,
          "id": 1880319829
        },
        {
          "distance": 0.5355353,
          "id": 1880320607
        },
        {
          "distance": 0.5435169,
          "id": 1880320453
        },
        {
          "distance": 0.5482013,
          "id": 1914676703
        },
        {
          "distance": 0.5515318,
          "id": 1880320145
        },
        {
          "distance": 0.55449265,
          "id": 1880319647
        },
        {
          "distance": 0.55852556,
          "id": 1880320049
        },
        {
          "distance": 0.561861,
          "id": 1880320451
        },
        {
          "distance": 0.56213975,
          "id": 1880320609
        },
        {
          "distance": 0.56280893,
          "id": 1880320147
        }
      ]
    },
    "millsfield:subcategory_id": 1511213161,
    "mz:is_current": 1,
    "sfomuseum:filename": "2014.145.019_03.tif",
    "sfomuseum:image_id": 167283,
    "sfomuseum:image_index": 5,
    "sfomuseum:image_type": "studio",
    "sfomuseum:object_id": 161611,
    "sfomuseum:placetype": "image",
    "sfomuseum:primary_image": 0,
    "src:geom": "sfomuseum",
    "wof:belongsto": [
      102527513,
      1159162825,
      102191575,
      85633793,
      102087579,
      85922583,
      1880318767,
      85688637,
      1159160869
    ],
    "wof:country": "XY",
    "wof:created": 1694022862,
    "wof:depicts": [
      1159292649,
      1159294171,
      1159284711,
      1159288215,
      1880318767
    ],
    "wof:geomhash": "ed7c2ab3547fc3916b5edc33488deaa7",
    "wof:hierarchy": [
      {
        "building_id": -1,
        "campus_id": 102527513,
        "collection_id": 1159162825,
        "concourse_id": 1159162825,
        "continent_id": 102191575,
        "country_id": 85633793,
        "county_id": 102087579,
        "custom_id": 1880319827,
        "image_id": 1880319827,
        "locality_id": 85922583,
        "neighbourhood_id": -1,
        "object_id": 1880318767,
        "region_id": 85688637,
        "wing_id": 1159160869
      }
    ],
    "wof:id": 1880319827,
    "wof:lastmodified": 1788451792,
    "wof:name": "model airplane: Deutsche Lufthansa, Junkers Ju 160",
    "wof:parent_id": 1880318767,
    "wof:placetype": "custom",
    "wof:placetype_alt": [
      "image"
    ],
    "wof:repo": "sfomuseum-data-media-collection",
    "wof:superseded_by": [],
    "wof:supersedes": []
  },
  "bbox": [
    -122.386472,
    37.616105,
    -122.385834,
    37.616611
  ],
  "geometry": {"type":"Polygon","coordinates":[[[-122.386472,37.616318],[-122.386435,37.616233],[-122.386376,37.616178],[-122.386301,37.616131],[-122.386161,37.616105],[-122.386022,37.616131],[-122.385914,37.616186],[-122.385855,37.616267],[-122.385834,37.616369],[-122.385871,37.616467],[-122.385941,37.616543],[-122.386054,37.616603],[-122.386183,37.616611],[-122.386306,37.616573],[-122.386419,37.616509],[-122.386467,37.616411],[-122.386472,37.616318]]]}
}
