{
  "id": 1527850515,
  "type": "Feature",
  "properties": {
    "date:cessation_lower": "1950-01-01",
    "date:cessation_upper": "1950-12-31",
    "date:inception_lower": "1950-01-01",
    "date:inception_upper": "1950-12-31",
    "edtf:cessation": "1950",
    "edtf:date": "1950",
    "edtf:inception": "1950",
    "geom:area": 0,
    "geom:bbox": "-122.386155,37.616358,-122.386155,37.616358",
    "geom:latitude": 37.616358,
    "geom:longitude": -122.386155,
    "iso:country": "XX",
    "media:fingerprint": "d39fc51eaa23c730ffc4460fe4fca67ba2f42caf",
    "media:imagehash_avg": "a:81008103ff9fdfff",
    "media:imagehash_diff": "d:4d0f0f1f5f733b3b",
    "media:imagetext": "TCA\nTRANS-CANADA AIR LINES\nTCA\nCOMONTON FUNDE\nDATTLEFOND\nCALGARY\nVICTORIA-\n• SEATTLE\nMEDICINE\nPORC\nELKO\nSHERIDAN\nRAPID CITY\n1 SIOUX CITY\nSPRINGS CHEYENNE\nOMAHA\nSAULT STE. MARIES\nMILWAUKEE\nCHICAGO\nWINDSOF\nCLEVELAND\nKANSAS CI\nFRANCISCO\nLAS VEGAS\n• LOS ANG\nSAN DIEGO\nHOENI?\nWICHES A\nLOUIS • LOUISVILLE\nNASHVILLE\nMEMPH\nCORPUS CHRISTI\nTAMP)\nMONTERREY\nMAZATLAN\nMEXICO CIT\nTCA SERVICES\nPROPOSED TCA SERVICES •ee\nOTHER AIR LINES\nTIME ZONES\nSHANNON\nNORTH BAY\nPOANONYRE\nGOOSE BAY\nSYDNEY\nHALÍFAX\nYARMOUTH\nGANDER\nST. JOHN'S.\nGLASGOW\nBORDEAUX\nMADRID\nHASSAL\nSAKARS\nPORT OF SPAIN\nBy special Arrangement with\nALITALIA\nItaly's national airline-\nTCA offers\nDAILY FLIGHTS TO ROME\nfor\nHOLY YEAR PILGRIMS\nSee your Travel Agent or nearest TCA Office\nfor full information\nMARIA\n• HALIFAX\nSASKATOON\n. VANCOUVER\nTCA MILEAGES\n537\nBARBADOS\n• PORT OF SPAIN\n337\nTORONTO • BERMUDA\n993\n451\nNASSAU\n312\n642\n: BAY\nVANCOVS,\nVANCOUVER\nMONTREAL • NEW YORK\nTORONTO - NEW YORK\n• BERMUDA\nBERMUDA • BARBADOS\n1971\n360\n326\n.1501\nTravel Anywhere in the World\n-can be arranged by TCA or your Travel\nAgent, through our connections with\nother\nAir Lines.\nTCA represents all principal airlines of the\nworld, and is General Agent in Canada for\nairlines of:\n(British\nAUSTRALIA\nCommonwealth Pacific)\nPHILIPPINES\n(Philippine Air Lines)\nIRELAND\n(Aer Lingus)\nSWITZERLAND\n(Swissair)\nBELGIUM\n(Sabena)\nITALY\n(Alitalia)\nPAGE ONE",
    "media:imagetext_created": 1787953010,
    "media:imagetext_source": "com.apple.visionkit.VNImageRequestHandler#Version 26.6.2 (Build 25G83)",
    "media:medium": "image",
    "media:mimetype": "image/tiff",
    "media:properties": {
      "sizes": {
        "b": {
          "extension": "jpg",
          "height": 768,
          "mimetype": "image/jpeg",
          "secret": "CErZhoRU8lPgyQNBWVphemI4P6QbjZDU",
          "width": 662
        },
        "c": {
          "extension": "jpg",
          "height": 600,
          "mimetype": "image/jpeg",
          "secret": "CErZhoRU8lPgyQNBWVphemI4P6QbjZDU",
          "width": 517
        },
        "dc": {
          "extension": "jpg",
          "height": 600,
          "mimetype": "image/jpeg",
          "secret": "CErZhoRU8lPgyQNBWVphemI4P6QbjZDU",
          "width": 517
        },
        "ds": {
          "extension": "jpg",
          "height": 320,
          "mimetype": "image/jpeg",
          "secret": "CErZhoRU8lPgyQNBWVphemI4P6QbjZDU",
          "width": 320
        },
        "k": {
          "extension": "jpg",
          "height": 1536,
          "mimetype": "image/jpeg",
          "secret": "CErZhoRU8lPgyQNBWVphemI4P6QbjZDU",
          "width": 1325
        },
        "n": {
          "extension": "jpg",
          "height": 240,
          "mimetype": "image/jpeg",
          "secret": "CErZhoRU8lPgyQNBWVphemI4P6QbjZDU",
          "width": 207
        },
        "o": {
          "extension": "jpg",
          "height": 2712,
          "mimetype": "image/jpeg",
          "secret": "8E70z4gDBoLIODiMtwuVhZ5T1BgnwFXh",
          "width": 2340
        },
        "s": {
          "extension": "jpg",
          "height": 320,
          "mimetype": "image/jpeg",
          "secret": "CErZhoRU8lPgyQNBWVphemI4P6QbjZDU",
          "width": 320
        },
        "z": {
          "extension": "jpg",
          "height": 480,
          "mimetype": "image/jpeg",
          "secret": "CErZhoRU8lPgyQNBWVphemI4P6QbjZDU",
          "width": 414
        }
      }
    },
    "media:source": "sfomuseum",
    "media:status_id": 1,
    "media:uri_template": "https://static.sfomuseum.org/media/152/785/051/5/1527850515_{secret}_{label}.{extension}",
    "millsfield:airline_id": [
      1159285957
    ],
    "millsfield:category_id": 1511214223,
    "millsfield:collection_id": 1511214207,
    "millsfield:company_id": [
      1159286901
    ],
    "millsfield:images_colors": [
      {
        "hex": "#ded0b2",
        "name": "#ded0b2",
        "reference": "marekm4"
      },
      {
        "hex": "#f5deb3",
        "name": "wheat",
        "reference": "css4"
      },
      {
        "hex": "#efcdb8",
        "name": "Desert Sand",
        "reference": "crayola"
      },
      {
        "hex": "#c13824",
        "name": "#c13824",
        "reference": "marekm4"
      },
      {
        "hex": "#b22222",
        "name": "firebrick",
        "reference": "css4"
      },
      {
        "hex": "#cd4a4c",
        "name": "Mahogany",
        "reference": "crayola"
      },
      {
        "hex": "#3e4152",
        "name": "#3e4152",
        "reference": "marekm4"
      },
      {
        "hex": "#2f4f4f",
        "name": "darkslategrey",
        "reference": "css4"
      },
      {
        "hex": "#414a4c",
        "name": "Outer Space",
        "reference": "crayola"
      },
      {
        "hex": "#d58c77",
        "name": "#d58c77",
        "reference": "marekm4"
      },
      {
        "hex": "#e9967a",
        "name": "darksalmon",
        "reference": "css4"
      },
      {
        "hex": "#dd9475",
        "name": "Copper",
        "reference": "crayola"
      }
    ],
    "millsfield:images_texts": [
      "U.S. EDITION\nSUMMER SCHEDULE\nEffective May 1, 1950\nTRANS-\nCANADA\nAir Lines\nTCA\nINTERNATIONAL\nTRANS-ATLANTIC\nTRANSCONTINENTAL\nBERMUDA-CARIBBEAN",
      "TCA\nTRANS-CANADA AIR LINES\nTCA\nCOMONTON FUNDE\nDATTLEFOND\nCALGARY\nVICTORIA-\n• SEATTLE\nMEDICINE\nPORC\nELKO\nSHERIDAN\nRAPID CITY\n1 SIOUX CITY\nSPRINGS CHEYENNE\nOMAHA\nSAULT STE. MARIES\nMILWAUKEE\nCHICAGO\nWINDSOF\nCLEVELAND\nKANSAS CI\nFRANCISCO\nLAS VEGAS\n• LOS ANG\nSAN DIEGO\nHOENI?\nWICHES A\nLOUIS • LOUISVILLE\nNASHVILLE\nMEMPH\nCORPUS CHRISTI\nTAMP)\nMONTERREY\nMAZATLAN\nMEXICO CIT\nTCA SERVICES\nPROPOSED TCA SERVICES •ee\nOTHER AIR LINES\nTIME ZONES\nSHANNON\nNORTH BAY\nPOANONYRE\nGOOSE BAY\nSYDNEY\nHALÍFAX\nYARMOUTH\nGANDER\nST. JOHN'S.\nGLASGOW\nBORDEAUX\nMADRID\nHASSAL\nSAKARS\nPORT OF SPAIN\nBy special Arrangement with\nALITALIA\nItaly's national airline-\nTCA offers\nDAILY FLIGHTS TO ROME\nfor\nHOLY YEAR PILGRIMS\nSee your Travel Agent or nearest TCA Office\nfor full information\nMARIA\n• HALIFAX\nSASKATOON\n. VANCOUVER\nTCA MILEAGES\n537\nBARBADOS\n• PORT OF SPAIN\n337\nTORONTO • BERMUDA\n993\n451\nNASSAU\n312\n642\n: BAY\nVANCOVS,\nVANCOUVER\nMONTREAL • NEW YORK\nTORONTO - NEW YORK\n• BERMUDA\nBERMUDA • BARBADOS\n1971\n360\n326\n.1501\nTravel Anywhere in the World\n-can be arranged by TCA or your Travel\nAgent, through our connections with\nother\nAir Lines.\nTCA represents all principal airlines of the\nworld, and is General Agent in Canada for\nairlines of:\n(British\nAUSTRALIA\nCommonwealth Pacific)\nPHILIPPINES\n(Philippine Air Lines)\nIRELAND\n(Aer Lingus)\nSWITZERLAND\n(Swissair)\nBELGIUM\n(Sabena)\nITALY\n(Alitalia)\nPAGE ONE"
    ],
    "millsfield:images_texts_ids": [
      1527842767,
      1527850515
    ],
    "millsfield:similar": {
      "apple/mobileclip_s0": [
        {
          "distance": 0.55071604,
          "id": 1527850757
        },
        {
          "distance": 0.5575987,
          "id": 1527851537
        },
        {
          "distance": 0.56192476,
          "id": 1527853831
        },
        {
          "distance": 0.5705623,
          "id": 1527851129
        },
        {
          "distance": 0.5885647,
          "id": 1527851063
        },
        {
          "distance": 0.59538,
          "id": 1527850373
        },
        {
          "distance": 0.5976524,
          "id": 1527851181
        },
        {
          "distance": 0.59772605,
          "id": 1527850537
        },
        {
          "distance": 0.5996404,
          "id": 1527850759
        },
        {
          "distance": 0.60141855,
          "id": 1527851237
        }
      ],
      "apple/mobileclip_s1": [
        {
          "distance": 0.4477336,
          "id": 1762698073
        },
        {
          "distance": 0.45136362,
          "id": 1527853831
        },
        {
          "distance": 0.4597577,
          "id": 1527850541
        },
        {
          "distance": 0.4603747,
          "id": 1527850757
        },
        {
          "distance": 0.46243355,
          "id": 1527855031
        },
        {
          "distance": 0.4627428,
          "id": 1527855207
        },
        {
          "distance": 0.46299914,
          "id": 1527851167
        },
        {
          "distance": 0.4635439,
          "id": 1527851063
        },
        {
          "distance": 0.46379492,
          "id": 1762698493
        },
        {
          "distance": 0.46503142,
          "id": 1527851513
        }
      ],
      "apple/mobileclip_s2": [
        {
          "distance": 0.67096627,
          "id": 1527850541
        },
        {
          "distance": 0.6871042,
          "id": 1527850297
        },
        {
          "distance": 0.69908077,
          "id": 1527851513
        },
        {
          "distance": 0.6991235,
          "id": 1527850303
        },
        {
          "distance": 0.7010948,
          "id": 1527851167
        },
        {
          "distance": 0.706303,
          "id": 1762698381
        },
        {
          "distance": 0.707611,
          "id": 1527851123
        },
        {
          "distance": 0.71074533,
          "id": 1527855199
        },
        {
          "distance": 0.71584153,
          "id": 1527850507
        },
        {
          "distance": 0.7164244,
          "id": 1527855079
        }
      ]
    },
    "millsfield:subcategory_id": 1511213425,
    "mz:hierarchy_label": 1,
    "mz:is_current": -1,
    "sfomuseum:filename": "81924.tif",
    "sfomuseum:image_id": 81924,
    "sfomuseum:image_index": 5,
    "sfomuseum:image_type": "studio",
    "sfomuseum:object_id": 81436,
    "sfomuseum:placetype": "image",
    "sfomuseum:primary_image": 0,
    "src:geom": "sfomuseum",
    "wof:belongsto": [
      1511214223,
      1511928131,
      102527513,
      102191575,
      85633793,
      1511213425,
      85922583,
      102087579,
      1511214277,
      1511214203,
      85688637
    ],
    "wof:breaches": [],
    "wof:country": "XX",
    "wof:created": 1578954202,
    "wof:depicts": [
      1159286901,
      1511928131,
      1159285957
    ],
    "wof:geomhash": "bd906905ce4be6c0651c90b0fc24804c",
    "wof:hierarchy": [
      {
        "arcade_id": 1511213425,
        "building_id": 1511214277,
        "campus_id": 102527513,
        "concourse_id": 1511214223,
        "continent_id": 102191575,
        "country_id": 85633793,
        "county_id": 102087579,
        "custom_id": 1527850515,
        "image_id": 1527850515,
        "locality_id": 85922583,
        "media_id": 1527850515,
        "neighbourhood_id": -1,
        "region_id": 85688637,
        "venue_id": 1511928131,
        "wing_id": 1511214203
      }
    ],
    "wof:id": 1527850515,
    "wof:lastmodified": 1788450177,
    "wof:name": "timetable: Trans-Canada Air Lines (TCA), summer schedule",
    "wof:parent_id": 1511928131,
    "wof:placetype": "custom",
    "wof:placetype_alt": [
      "image"
    ],
    "wof:repo": "sfomuseum-data-media-collection",
    "wof:superseded_by": [],
    "wof:supersedes": [],
    "wof:tags": []
  },
  "bbox": [
    -122.386155,
    37.616358,
    -122.386155,
    37.616358
  ],
  "geometry": {"type":"Point","coordinates":[-122.386155,37.616358]}
}
