{
  "id": 1913938597,
  "type": "Feature",
  "properties": {
    "date:cessation_lower": "1989-01-01",
    "date:cessation_upper": "1989-12-31",
    "date:inception_lower": "1989-01-01",
    "date:inception_upper": "1989-12-31",
    "edtf:cessation": "1989",
    "edtf:inception": "1989",
    "geom:area": 2.477324999997507e-7,
    "geom:bbox": "-122.386472,37.616105,-122.385834,37.616611",
    "geom:latitude": 37.61635756125121,
    "geom:longitude": -122.38615532866096,
    "media:fingerprint": "946ad93989fd7d0997c7ef108fccad99404af766",
    "media:imagehash_avg": "a:5f2533594040dbff",
    "media:imagehash_diff": "d:9c49e7918193b2b2",
    "media:imagetext": "1\nSome planes have life vests.\nAlgunos aviones tienen chalecos\nsalvavidas.\n2\n3\n5\nIf it's dark,\npull tab and\nlight will come\non in water.\nSi esta obscuro,\njalar del cordón y se\nencenderá una luz\nen el agua.\n7\n8\nInflation\nSe infla\n1\nIf no inflation\nblow into tubes.\nSi no infla automáticamente,\ninflar soplando en los tubos.\n2\n3\n4\nCopyright\nC\nInteraction Research Corporation, 1989, Olympia, WA, USA\nAll rights reserved.\nCode 672\n2002.127.156",
    "media:imagetext_created": 1787973315,
    "media:imagetext_source": "com.apple.visionkit.VNImageRequestHandler#Version 26.6.2 (Build 25G83)",
    "media:mimetype": "image/tiff",
    "media:properties": {
      "sizes": {
        "b": {
          "extension": "jpg",
          "height": 768,
          "mimetype": "image/jpeg",
          "secret": "w5kRsiZvSN14iu7nCmFq8kWc9zm0u17i",
          "width": 355
        },
        "c": {
          "extension": "jpg",
          "height": 600,
          "mimetype": "image/jpeg",
          "secret": "w5kRsiZvSN14iu7nCmFq8kWc9zm0u17i",
          "width": 277
        },
        "dc": {
          "extension": "jpg",
          "height": 600,
          "mimetype": "image/jpeg",
          "secret": "w5kRsiZvSN14iu7nCmFq8kWc9zm0u17i",
          "width": 277
        },
        "ds": {
          "extension": "jpg",
          "height": 320,
          "mimetype": "image/jpeg",
          "secret": "w5kRsiZvSN14iu7nCmFq8kWc9zm0u17i",
          "width": 320
        },
        "k": {
          "extension": "jpg",
          "height": 1536,
          "mimetype": "image/jpeg",
          "secret": "w5kRsiZvSN14iu7nCmFq8kWc9zm0u17i",
          "width": 710
        },
        "n": {
          "extension": "jpg",
          "height": 240,
          "mimetype": "image/jpeg",
          "secret": "w5kRsiZvSN14iu7nCmFq8kWc9zm0u17i",
          "width": 111
        },
        "o": {
          "extension": "jpg",
          "height": 2000,
          "mimetype": "image/jpeg",
          "secret": "MLX8kl3DYyR2P9dUqNawboe1vGryOYmP",
          "width": 925
        },
        "s": {
          "extension": "jpg",
          "height": 320,
          "mimetype": "image/jpeg",
          "secret": "w5kRsiZvSN14iu7nCmFq8kWc9zm0u17i",
          "width": 320
        },
        "z": {
          "extension": "jpg",
          "height": 480,
          "mimetype": "image/jpeg",
          "secret": "w5kRsiZvSN14iu7nCmFq8kWc9zm0u17i",
          "width": 222
        }
      }
    },
    "media:source": "sfomuseum",
    "media:status_id": 1,
    "media:uri_template": "https://static.sfomuseum.org/media/191/393/859/7/1913938597_{secret}_{label}.{extention}",
    "millsfield:aircraft_id": [
      1159289827
    ],
    "millsfield:airline_id": [
      1159286457
    ],
    "millsfield:category_id": 1762671311,
    "millsfield:collection_id": 1511214207,
    "millsfield:company_id": [
      1159293593,
      1159289819
    ],
    "millsfield:images_colors": [
      {
        "hex": "#ddcfb8",
        "name": "#ddcfb8",
        "reference": "marekm4"
      },
      {
        "hex": "#f5deb3",
        "name": "wheat",
        "reference": "css4"
      },
      {
        "hex": "#efcdb8",
        "name": "Desert Sand",
        "reference": "crayola"
      },
      {
        "hex": "#2f2624",
        "name": "#2f2624",
        "reference": "marekm4"
      },
      {
        "hex": "#2f4f4f",
        "name": "darkslategrey",
        "reference": "css4"
      },
      {
        "hex": "#414a4c",
        "name": "Outer Space",
        "reference": "crayola"
      },
      {
        "hex": "#719eae",
        "name": "#719eae",
        "reference": "marekm4"
      },
      {
        "hex": "#5f9ea0",
        "name": "cadetblue",
        "reference": "css4"
      },
      {
        "hex": "#6699cc",
        "name": "Blue Gray",
        "reference": "crayola"
      },
      {
        "hex": "#e3b34c",
        "name": "#e3b34c",
        "reference": "marekm4"
      },
      {
        "hex": "#f4a460",
        "name": "sandybrown",
        "reference": "css4"
      },
      {
        "hex": "#ffae42",
        "name": "Yellow Orange",
        "reference": "crayola"
      },
      {
        "hex": "#9a4a44",
        "name": "#9a4a44",
        "reference": "marekm4"
      },
      {
        "hex": "#a0522d",
        "name": "sienna",
        "reference": "css4"
      },
      {
        "hex": "#a5694f",
        "name": "Sepia",
        "reference": "crayola"
      }
    ],
    "millsfield:images_texts": [
      "For your safety\nPARA SU SEGURIDAD\nBOEING 737-200\nBRAHIFF",
      "1\n672\nEXIT\nDon't use butane lighters,\nradios, or electronic\ngames.\nNo usar encendedores\nde gas butano, radios,\n• juegos electronicos.\nRotate handle to arrowhead\nGire la manija hacia donde indica la flecha.\n2\n3\n5\n2\n3\n5",
      "1\nSome planes have life vests.\nAlgunos aviones tienen chalecos\nsalvavidas.\n2\n3\n5\nIf it's dark,\npull tab and\nlight will come\non in water.\nSi esta obscuro,\njalar del cordón y se\nencenderá una luz\nen el agua.\n7\n8\nInflation\nSe infla\n1\nIf no inflation\nblow into tubes.\nSi no infla automáticamente,\ninflar soplando en los tubos.\n2\n3\n4\nCopyright\nC\nInteraction Research Corporation, 1989, Olympia, WA, USA\nAll rights reserved.\nCode 672\n2002.127.156"
    ],
    "millsfield:images_texts_ids": [
      1913938593,
      1913938595,
      1913938597
    ],
    "millsfield:similar": {
      "apple/mobileclip_s0": [
        {
          "distance": 0.4225076,
          "id": 1762894263
        },
        {
          "distance": 0.44843927,
          "id": 1914556529
        },
        {
          "distance": 0.45792118,
          "id": 1914555913
        },
        {
          "distance": 0.47164726,
          "id": 1914555909
        },
        {
          "distance": 0.47514915,
          "id": 1930979271
        },
        {
          "distance": 0.48310736,
          "id": 1914556227
        },
        {
          "distance": 0.48912105,
          "id": 1527849977
        },
        {
          "distance": 0.4913725,
          "id": 1931109693
        },
        {
          "distance": 0.50083387,
          "id": 1931096013
        },
        {
          "distance": 0.5050153,
          "id": 1931096667
        }
      ],
      "apple/mobileclip_s1": [
        {
          "distance": 0.38370082,
          "id": 1914555913
        },
        {
          "distance": 0.41019878,
          "id": 1914556227
        },
        {
          "distance": 0.41746128,
          "id": 1931109637
        },
        {
          "distance": 0.42879808,
          "id": 1914579985
        },
        {
          "distance": 0.4290248,
          "id": 1913928703
        },
        {
          "distance": 0.43520552,
          "id": 1914556529
        },
        {
          "distance": 0.43708086,
          "id": 1914556433
        },
        {
          "distance": 0.43987268,
          "id": 1930979317
        },
        {
          "distance": 0.44201604,
          "id": 1914622811
        },
        {
          "distance": 0.44330812,
          "id": 1930979271
        }
      ],
      "apple/mobileclip_s2": [
        {
          "distance": 0.49522796,
          "id": 1914555913
        },
        {
          "distance": 0.55432147,
          "id": 1762894263
        },
        {
          "distance": 0.5619433,
          "id": 1527849977
        },
        {
          "distance": 0.56805915,
          "id": 1914556227
        },
        {
          "distance": 0.57315224,
          "id": 1930979819
        },
        {
          "distance": 0.5734782,
          "id": 1931096013
        },
        {
          "distance": 0.5756165,
          "id": 1762894705
        },
        {
          "distance": 0.58513236,
          "id": 1914580015
        },
        {
          "distance": 0.58610815,
          "id": 1914555909
        },
        {
          "distance": 0.5907482,
          "id": 1914556433
        }
      ]
    },
    "millsfield:subcategory_id": 1511213703,
    "mz:is_current": 1,
    "sfomuseum:filename": "76706.tif",
    "sfomuseum:image_id": 76706,
    "sfomuseum:image_index": 5,
    "sfomuseum:image_type": "studio",
    "sfomuseum:object_id": 68563,
    "sfomuseum:placetype": "image",
    "sfomuseum:primary_image": 0,
    "src:geom": "sfomuseum",
    "wof:belongsto": [
      102527513,
      1159162825,
      102191575,
      85633793,
      102087579,
      85922583,
      1913938415,
      85688637,
      1159160869
    ],
    "wof:country": "XY",
    "wof:created": 1715758553,
    "wof:depicts": [
      1159289819,
      1913938415,
      1159286457,
      1159289827,
      1159293593
    ],
    "wof:geomhash": "ed7c2ab3547fc3916b5edc33488deaa7",
    "wof:hierarchy": [
      {
        "building_id": -1,
        "campus_id": 102527513,
        "collection_id": 1159162825,
        "concourse_id": 1159162825,
        "continent_id": 102191575,
        "country_id": 85633793,
        "county_id": 102087579,
        "custom_id": 1913938597,
        "image_id": 1913938597,
        "locality_id": 85922583,
        "neighbourhood_id": -1,
        "object_id": 1913938415,
        "region_id": 85688637,
        "wing_id": 1159160869
      }
    ],
    "wof:id": 1913938597,
    "wof:lastmodified": 1788452339,
    "wof:name": "safety information card: Braniff Inc., Boeing 737-200",
    "wof:parent_id": 1913938415,
    "wof:placetype": "custom",
    "wof:placetype_alt": [
      "image"
    ],
    "wof:repo": "sfomuseum-data-media-collection",
    "wof:superseded_by": [],
    "wof:supersedes": []
  },
  "bbox": [
    -122.386472,
    37.616105,
    -122.385834,
    37.616611
  ],
  "geometry": {"type":"Polygon","coordinates":[[[-122.386472,37.616318],[-122.386435,37.616233],[-122.386376,37.616178],[-122.386301,37.616131],[-122.386161,37.616105],[-122.386022,37.616131],[-122.385914,37.616186],[-122.385855,37.616267],[-122.385834,37.616369],[-122.385871,37.616467],[-122.385941,37.616543],[-122.386054,37.616603],[-122.386183,37.616611],[-122.386306,37.616573],[-122.386419,37.616509],[-122.386467,37.616411],[-122.386472,37.616318]]]}
}
