{
  "id": 1881093439,
  "type": "Feature",
  "properties": {
    "date:cessation_lower": "1950-01-01",
    "date:cessation_upper": "1959-12-31",
    "date:inception_lower": "1950-01-01",
    "date:inception_upper": "1959-12-31",
    "edtf:cessation": "195X",
    "edtf:inception": "195X",
    "geom:area": 2.477324999997507e-7,
    "geom:bbox": "-122.386472,37.616105,-122.385834,37.616611",
    "geom:latitude": 37.61635756125121,
    "geom:longitude": -122.38615532866096,
    "media:fingerprint": "eaee1603a5352466d3b9675ba9a1c4ffad3ee860",
    "media:imagehash_avg": "a:ffff800080ffffff",
    "media:imagehash_diff": "d:f0e0213101e8e8f0",
    "media:imagetext": "COK \u0026 SEREN ACRAT COM\nLOAD ADJUSTER\nPAN AMERICAN AIRWAYS\n00Z SET DET SPT CỘT S4T 041 59T 097 S9T 09T SPT OBT 98T OBT SBT 2T STT OF SOT 9T S/ 06 98 08 51 0/ 50 00 99 00 8 00 SC 08 92 03 ST 91 9 9\n109 005, 005, 098, 002, 00г\n09000 002.3... 0090)\n10233. 002 , 05, 009\n- 0093.3.\n2 s0x→\nот 00г, 095. 05, 05.0\n→ sii .os. . . 0фт. . . oq . 00г . . 00 000 0q6 . , 00 . q . 0ф . Sgos\n{ e te .85.4 95 09505 81 25 T[ 0001 9 9 1. 9 095. 3. 8. 3. ],,º\u003c\n81 062\nS863\n986=\n22E-9\nS863",
    "media:imagetext_created": 1787970475,
    "media:imagetext_source": "com.apple.visionkit.VNImageRequestHandler#Version 26.6.2 (Build 25G83)",
    "media:mimetype": "image/tiff",
    "media:properties": {
      "sizes": {
        "b": {
          "extension": "jpg",
          "height": 768,
          "mimetype": "image/jpeg",
          "secret": "4BLz5NZ3JunxKCcxECXOdbTiRNaq5XaS",
          "width": 960
        },
        "c": {
          "extension": "jpg",
          "height": 600,
          "mimetype": "image/jpeg",
          "secret": "4BLz5NZ3JunxKCcxECXOdbTiRNaq5XaS",
          "width": 750
        },
        "dc": {
          "extension": "jpg",
          "height": 600,
          "mimetype": "image/jpeg",
          "secret": "4BLz5NZ3JunxKCcxECXOdbTiRNaq5XaS",
          "width": 750
        },
        "ds": {
          "extension": "jpg",
          "height": 320,
          "mimetype": "image/jpeg",
          "secret": "4BLz5NZ3JunxKCcxECXOdbTiRNaq5XaS",
          "width": 320
        },
        "k": {
          "extension": "jpg",
          "height": 1536,
          "mimetype": "image/jpeg",
          "secret": "4BLz5NZ3JunxKCcxECXOdbTiRNaq5XaS",
          "width": 1920
        },
        "n": {
          "extension": "jpg",
          "height": 240,
          "mimetype": "image/jpeg",
          "secret": "4BLz5NZ3JunxKCcxECXOdbTiRNaq5XaS",
          "width": 300
        },
        "o": {
          "extension": "jpg",
          "height": 1680,
          "mimetype": "image/jpeg",
          "secret": "mcFV90nmjajv6MLmGVFvmfJUxr0Ci14A",
          "width": 2100
        },
        "s": {
          "extension": "jpg",
          "height": 320,
          "mimetype": "image/jpeg",
          "secret": "4BLz5NZ3JunxKCcxECXOdbTiRNaq5XaS",
          "width": 320
        },
        "z": {
          "extension": "jpg",
          "height": 480,
          "mimetype": "image/jpeg",
          "secret": "4BLz5NZ3JunxKCcxECXOdbTiRNaq5XaS",
          "width": 600
        }
      }
    },
    "media:source": "sfomuseum",
    "media:status_id": 1,
    "media:uri_template": "https://static.sfomuseum.org/media/188/109/343/9/1881093439_{secret}_{label}.{extension}",
    "millsfield:airline_id": [
      1159284989
    ],
    "millsfield:category_id": 1511214227,
    "millsfield:collection_id": 1511214203,
    "millsfield:company_id": [
      1159286839
    ],
    "millsfield:images_colors": [
      {
        "hex": "#bebdba",
        "name": "#bebdba",
        "reference": "marekm4"
      },
      {
        "hex": "#c0c0c0",
        "name": "silver",
        "reference": "css4"
      },
      {
        "hex": "#cdc5c2",
        "name": "Silver",
        "reference": "crayola"
      },
      {
        "hex": "#66412b",
        "name": "#66412b",
        "reference": "marekm4"
      },
      {
        "hex": "#8b4513",
        "name": "saddlebrown",
        "reference": "css4"
      },
      {
        "hex": "#714b23",
        "name": "Raw Umber",
        "reference": "crayola"
      },
      {
        "hex": "#c2ae5f",
        "name": "#c2ae5f",
        "reference": "marekm4"
      },
      {
        "hex": "#bdb76b",
        "name": "darkkhaki",
        "reference": "css4"
      },
      {
        "hex": "#bab86c",
        "name": "Olive Green",
        "reference": "crayola"
      }
    ],
    "millsfield:images_texts": [
      "LOAD ADJUSTER\nMla, by Cor \u0026 Steve\nAircralt Carpatal\nPAN AMERICAN AIRWAYS\nB-377\nCHEC OPERAT MAA\nLOAD\n\"DUSTER\nLOUNGE PP:398.8.40,22,44\nA 680 '500 '400 '300' 200 '100\n\u003c GS.-\u003e\n600\"400 200™\n256000\nxos →\ndo 250 300 400 500 G0\n100\nom 300 400 500 60\n600b 100' 200 '300' 400 500 600\nDE SET OF 991 091 94 041 997 091 997 071 997 O1 9T O9T 9T O3, T OFF SOT OT 96 06 90 08 91 4 80 0 99.09 50 0 9e 0€ 8 0 90 9\n[KILOGRAMS",
      "COK \u0026 SEREN ACRAT COM\nLOAD ADJUSTER\nPAN AMERICAN AIRWAYS\n00Z SET DET SPT CỘT S4T 041 59T 097 S9T 09T SPT OBT 98T OBT SBT 2T STT OF SOT 9T S/ 06 98 08 51 0/ 50 00 99 00 8 00 SC 08 92 03 ST 91 9 9\n109 005, 005, 098, 002, 00г\n09000 002.3... 0090)\n10233. 002 , 05, 009\n- 0093.3.\n2 s0x→\nот 00г, 095. 05, 05.0\n→ sii .os. . . 0фт. . . oq . 00г . . 00 000 0q6 . , 00 . q . 0ф . Sgos\n{ e te .85.4 95 09505 81 25 T[ 0001 9 9 1. 9 095. 3. 8. 3. ],,º\u003c\n81 062\nS863\n986=\n22E-9\nS863",
      "FOR.\n66 T\nOX \u0026 STIVENS ARCEAT COM"
    ],
    "millsfield:images_texts_ids": [
      1863470985,
      1881093439,
      1881093441
    ],
    "millsfield:similar": {
      "apple/mobileclip_s0": [
        {
          "distance": 0.47529498,
          "id": 1863470985
        },
        {
          "distance": 0.67373997,
          "id": 1881093441
        },
        {
          "distance": 0.6845628,
          "id": 1964107285
        },
        {
          "distance": 0.69084996,
          "id": 1897771337
        },
        {
          "distance": 0.6961424,
          "id": 1880319117
        },
        {
          "distance": 0.6974567,
          "id": 1897771321
        },
        {
          "distance": 0.70053566,
          "id": 1897771141
        },
        {
          "distance": 0.7046157,
          "id": 1964107613
        },
        {
          "distance": 0.7062795,
          "id": 1897771129
        },
        {
          "distance": 0.70712465,
          "id": 1964107607
        }
      ],
      "apple/mobileclip_s1": [
        {
          "distance": 0.28901157,
          "id": 1863470985
        },
        {
          "distance": 0.4702673,
          "id": 1881093441
        },
        {
          "distance": 0.5103955,
          "id": 2014778715
        },
        {
          "distance": 0.513015,
          "id": 1964359189
        },
        {
          "distance": 0.5168687,
          "id": 1931110373
        },
        {
          "distance": 0.5248023,
          "id": 2014778569
        },
        {
          "distance": 0.52848023,
          "id": 1763444519
        },
        {
          "distance": 0.5318044,
          "id": 1897892341
        },
        {
          "distance": 0.53293675,
          "id": 1931110827
        },
        {
          "distance": 0.5358573,
          "id": 1964106881
        }
      ],
      "apple/mobileclip_s2": [
        {
          "distance": 0.364521,
          "id": 1863470985
        },
        {
          "distance": 0.7130505,
          "id": 1881093441
        },
        {
          "distance": 0.73648393,
          "id": 1881093485
        },
        {
          "distance": 0.7485702,
          "id": 1964184853
        },
        {
          "distance": 0.7486226,
          "id": 1964167635
        },
        {
          "distance": 0.7502186,
          "id": 1964167647
        },
        {
          "distance": 0.75473565,
          "id": 2014821553
        },
        {
          "distance": 0.75950366,
          "id": 1763588917
        },
        {
          "distance": 0.7613466,
          "id": 1897892341
        },
        {
          "distance": 0.7637285,
          "id": 1931110451
        }
      ]
    },
    "millsfield:subcategory_id": 1511213329,
    "mz:is_current": 1,
    "sfomuseum:filename": "2022.124.782_1.tif",
    "sfomuseum:image_id": 273578,
    "sfomuseum:image_index": 0,
    "sfomuseum:image_type": "studio",
    "sfomuseum:object_id": 233704,
    "sfomuseum:placetype": "image",
    "sfomuseum:primary_image": 1,
    "src:geom": "sfomuseum",
    "wof:belongsto": [
      102527513,
      1159162825,
      102191575,
      85633793,
      102087579,
      85922583,
      1846765569,
      85688637,
      1159160869
    ],
    "wof:country": "XY",
    "wof:created": 1701970896,
    "wof:depicts": [
      1846765569,
      1159284989,
      1159286839
    ],
    "wof:geomhash": "ed7c2ab3547fc3916b5edc33488deaa7",
    "wof:hierarchy": [
      {
        "building_id": -1,
        "campus_id": 102527513,
        "collection_id": 1159162825,
        "concourse_id": 1159162825,
        "continent_id": 102191575,
        "country_id": 85633793,
        "county_id": 102087579,
        "custom_id": 1881093439,
        "image_id": 1881093439,
        "locality_id": 85922583,
        "neighbourhood_id": -1,
        "object_id": 1846765569,
        "region_id": 85688637,
        "wing_id": 1159160869
      }
    ],
    "wof:id": 1881093439,
    "wof:lastmodified": 1788219787,
    "wof:name": "load adjuster: Pan American Airways, Stratocruiser",
    "wof:parent_id": 1846765569,
    "wof:placetype": "custom",
    "wof:placetype_alt": [
      "image"
    ],
    "wof:repo": "sfomuseum-data-media-collection",
    "wof:superseded_by": [],
    "wof:supersedes": []
  },
  "bbox": [
    -122.386472,
    37.616105,
    -122.385834,
    37.616611
  ],
  "geometry": {"type":"Polygon","coordinates":[[[-122.386472,37.616318],[-122.386435,37.616233],[-122.386376,37.616178],[-122.386301,37.616131],[-122.386161,37.616105],[-122.386022,37.616131],[-122.385914,37.616186],[-122.385855,37.616267],[-122.385834,37.616369],[-122.385871,37.616467],[-122.385941,37.616543],[-122.386054,37.616603],[-122.386183,37.616611],[-122.386306,37.616573],[-122.386419,37.616509],[-122.386467,37.616411],[-122.386472,37.616318]]]}
}
