{
  "id": 1762712987,
  "type": "Feature",
  "properties": {
    "date:cessation_lower": "1950-01-01",
    "date:cessation_upper": "1959-12-31",
    "date:inception_lower": "1950-01-01",
    "date:inception_upper": "1959-12-31",
    "edtf:cessation": "195X",
    "edtf:inception": "195X",
    "geom:area": 2.477324999997507e-7,
    "geom:bbox": "-122.386472,37.616105,-122.385834,37.616611",
    "geom:latitude": 37.61635756125121,
    "geom:longitude": -122.38615532866096,
    "media:fingerprint": "317fc8bb96776f5129a6a3af128e8895889d417b",
    "media:imagehash_avg": "a:ffbfffff0c00009d",
    "media:imagehash_diff": "d:7b75777179797971",
    "media:mimetype": "image/tiff",
    "media:properties": {
      "sizes": {
        "b": {
          "extension": "jpg",
          "height": 663,
          "mimetype": "image/jpeg",
          "secret": "BLEAVfsaFzsoJpr8PDEd7jqAohEZqKzS",
          "width": 1024
        },
        "c": {
          "extension": "jpg",
          "height": 518,
          "mimetype": "image/jpeg",
          "secret": "BLEAVfsaFzsoJpr8PDEd7jqAohEZqKzS",
          "width": 800
        },
        "dc": {
          "extension": "jpg",
          "height": 518,
          "mimetype": "image/jpeg",
          "secret": "BLEAVfsaFzsoJpr8PDEd7jqAohEZqKzS",
          "width": 800
        },
        "ds": {
          "extension": "jpg",
          "height": 320,
          "mimetype": "image/jpeg",
          "secret": "BLEAVfsaFzsoJpr8PDEd7jqAohEZqKzS",
          "width": 320
        },
        "k": {
          "extension": "jpg",
          "height": 1327,
          "mimetype": "image/jpeg",
          "secret": "BLEAVfsaFzsoJpr8PDEd7jqAohEZqKzS",
          "width": 2048
        },
        "n": {
          "extension": "jpg",
          "height": 207,
          "mimetype": "image/jpeg",
          "secret": "BLEAVfsaFzsoJpr8PDEd7jqAohEZqKzS",
          "width": 320
        },
        "o": {
          "extension": "jpg",
          "height": 1086,
          "mimetype": "image/jpeg",
          "secret": "vD4UaOSlj9Wd8JTwjfZ5T04W4GecDzCO",
          "width": 1675
        },
        "s": {
          "extension": "jpg",
          "height": 320,
          "mimetype": "image/jpeg",
          "secret": "BLEAVfsaFzsoJpr8PDEd7jqAohEZqKzS",
          "width": 320
        },
        "z": {
          "extension": "jpg",
          "height": 414,
          "mimetype": "image/jpeg",
          "secret": "BLEAVfsaFzsoJpr8PDEd7jqAohEZqKzS",
          "width": 640
        }
      }
    },
    "media:source": "sfomuseum",
    "media:status_id": 1,
    "media:uri_template": "https://static.sfomuseum.org/media/176/271/298/7/1762712987_{secret}_{label}.{extension}",
    "millsfield:aircraft_id": [
      1159290417
    ],
    "millsfield:category_id": 1511214215,
    "millsfield:collection_id": 1511214207,
    "millsfield:company_id": [],
    "millsfield:images_colors": [
      {
        "hex": "#4b4b34",
        "name": "#4b4b34",
        "reference": "marekm4"
      },
      {
        "hex": "#556b2f",
        "name": "darkolivegreen",
        "reference": "css4"
      },
      {
        "hex": "#414a4c",
        "name": "Outer Space",
        "reference": "crayola"
      },
      {
        "hex": "#508878",
        "name": "#508878",
        "reference": "marekm4"
      },
      {
        "hex": "#708090",
        "name": "slategrey",
        "reference": "css4"
      },
      {
        "hex": "#319177",
        "name": "Illuminating Emerald",
        "reference": "crayola"
      },
      {
        "hex": "#edefef",
        "name": "#edefef",
        "reference": "marekm4"
      },
      {
        "hex": "#f5f5f5",
        "name": "whitesmoke",
        "reference": "css4"
      },
      {
        "hex": "#fddde6",
        "name": "Piggy Pink",
        "reference": "crayola"
      },
      {
        "hex": "#ab9c5f",
        "name": "#ab9c5f",
        "reference": "marekm4"
      },
      {
        "hex": "#bdb76b",
        "name": "darkkhaki",
        "reference": "css4"
      },
      {
        "hex": "#9f8170",
        "name": "Beaver",
        "reference": "crayola"
      },
      {
        "hex": "#448785",
        "name": "#448785",
        "reference": "marekm4"
      },
      {
        "hex": "#5f9ea0",
        "name": "cadetblue",
        "reference": "css4"
      }
    ],
    "millsfield:images_texts": [
      "A commanding view for many miles in\ncan be had from the airport. The Terminal Building\nis of colonial design, contains a\nand fine restaurant.\nHello Sara\n4c\nS.POSTAGE\nBEGOIN\nPost Card\nWhat you da,\nhape you have\ni Mish bara Mesagro.\nnice time\nJarain, are.\nShu finex trust\nNATCO ®\nPleasantrill\nyou, are -\nPub. by\nLove, You'\nYue jested.\ndp DEXTER PRESS, INC\nWEST NYACK, NEW TORI\n2015.166.2404"
    ],
    "millsfield:images_texts_ids": [
      1762712989
    ],
    "millsfield:similar": {
      "apple/mobileclip_s0": [
        {
          "distance": 0.443543,
          "id": 1762711131
        },
        {
          "distance": 0.45803285,
          "id": 1762709183
        },
        {
          "distance": 0.46267337,
          "id": 1762711235
        },
        {
          "distance": 0.4689812,
          "id": 1762712427
        },
        {
          "distance": 0.48531622,
          "id": 1762708299
        },
        {
          "distance": 0.49353504,
          "id": 1762706299
        },
        {
          "distance": 0.49520776,
          "id": 1762709663
        },
        {
          "distance": 0.49839112,
          "id": 1762711127
        },
        {
          "distance": 0.49926922,
          "id": 1762706191
        },
        {
          "distance": 0.5061429,
          "id": 1762711455
        }
      ],
      "apple/mobileclip_s1": [
        {
          "distance": 0.3166612,
          "id": 1830487073
        },
        {
          "distance": 0.3256151,
          "id": 1762711127
        },
        {
          "distance": 0.33031034,
          "id": 1762709183
        },
        {
          "distance": 0.33058536,
          "id": 1762711131
        },
        {
          "distance": 0.33208323,
          "id": 1762708299
        },
        {
          "distance": 0.3347732,
          "id": 1762708751
        },
        {
          "distance": 0.33638898,
          "id": 1762711455
        },
        {
          "distance": 0.3389735,
          "id": 1762712427
        },
        {
          "distance": 0.34533966,
          "id": 1762710339
        },
        {
          "distance": 0.3485514,
          "id": 1762710997
        }
      ],
      "apple/mobileclip_s2": [
        {
          "distance": 0.43534556,
          "id": 1527831587
        },
        {
          "distance": 0.43715557,
          "id": 1762711235
        },
        {
          "distance": 0.4507342,
          "id": 1762711455
        },
        {
          "distance": 0.45739916,
          "id": 1762711131
        },
        {
          "distance": 0.46060658,
          "id": 1762712427
        },
        {
          "distance": 0.46669033,
          "id": 1762709183
        },
        {
          "distance": 0.47304103,
          "id": 1762713433
        },
        {
          "distance": 0.48131743,
          "id": 1762710997
        },
        {
          "distance": 0.4823397,
          "id": 1762710339
        },
        {
          "distance": 0.48806643,
          "id": 1762711477
        }
      ]
    },
    "millsfield:subcategory_id": 1511213363,
    "mz:is_current": 1,
    "sfomuseum:filename": "2015.166.2404_ft.tif",
    "sfomuseum:image_id": 159601,
    "sfomuseum:image_index": 5,
    "sfomuseum:image_type": "studio",
    "sfomuseum:object_id": 182165,
    "sfomuseum:placetype": "image",
    "sfomuseum:primary_image": 1,
    "src:geom": "sfomuseum",
    "wof:belongsto": [
      102527513,
      1159162825,
      102191575,
      85633793,
      102087579,
      85922583,
      1762687445,
      85688637,
      1159160869
    ],
    "wof:country": "XY",
    "wof:created": 1641350985,
    "wof:depicts": [
      1159290417,
      1762687445
    ],
    "wof:geomhash": "ed7c2ab3547fc3916b5edc33488deaa7",
    "wof:hierarchy": [
      {
        "building_id": -1,
        "campus_id": 102527513,
        "collection_id": 1159162825,
        "concourse_id": 1159162825,
        "continent_id": 102191575,
        "country_id": 85633793,
        "county_id": 102087579,
        "custom_id": 1762712987,
        "image_id": 1762712987,
        "locality_id": 85922583,
        "neighbourhood_id": -1,
        "object_id": 1762687445,
        "region_id": 85688637,
        "wing_id": 1159160869
      }
    ],
    "wof:id": 1762712987,
    "wof:lastmodified": 1788450657,
    "wof:name": "postcard: Worcester Municipal Airport, Douglas DC-3",
    "wof:parent_id": 1762687445,
    "wof:placetype": "custom",
    "wof:placetype_alt": [
      "image"
    ],
    "wof:repo": "sfomuseum-data-media-collection",
    "wof:superseded_by": [],
    "wof:supersedes": []
  },
  "bbox": [
    -122.386472,
    37.616105,
    -122.385834,
    37.616611
  ],
  "geometry": {"type":"Polygon","coordinates":[[[-122.386472,37.616318],[-122.386435,37.616233],[-122.386376,37.616178],[-122.386301,37.616131],[-122.386161,37.616105],[-122.386022,37.616131],[-122.385914,37.616186],[-122.385855,37.616267],[-122.385834,37.616369],[-122.385871,37.616467],[-122.385941,37.616543],[-122.386054,37.616603],[-122.386183,37.616611],[-122.386306,37.616573],[-122.386419,37.616509],[-122.386467,37.616411],[-122.386472,37.616318]]]}
}
