{
  "id": 1527822689,
  "type": "Feature",
  "properties": {
    "date:cessation_lower": "1960-01-01",
    "date:cessation_upper": "1960-12-31",
    "date:inception_lower": "1960-01-01",
    "date:inception_upper": "1960-12-31",
    "edtf:cessation": "1960",
    "edtf:date": "1960",
    "edtf:inception": "1960",
    "geom:area": 0,
    "geom:bbox": "-122.386155,37.616358,-122.386155,37.616358",
    "geom:latitude": 37.616358,
    "geom:longitude": -122.386155,
    "iso:country": "US",
    "media:fingerprint": "680582a8382b91d4c87586be199dcf3b479f18d6",
    "media:imagehash_avg": "a:3c38187c7c7f3c3c",
    "media:imagehash_diff": "d:f0e070f8e9e9e1e0",
    "media:medium": "image",
    "media:mimetype": "image/tiff",
    "media:properties": {
      "sizes": {
        "b": {
          "extension": "jpg",
          "height": 768,
          "mimetype": "image/jpeg",
          "secret": "EGVijDan5wNEW8vr6MzAP267eXzImCgd",
          "width": 970
        },
        "c": {
          "extension": "jpg",
          "height": 600,
          "mimetype": "image/jpeg",
          "secret": "EGVijDan5wNEW8vr6MzAP267eXzImCgd",
          "width": 758
        },
        "dc": {
          "extension": "jpg",
          "height": 600,
          "mimetype": "image/jpeg",
          "secret": "EGVijDan5wNEW8vr6MzAP267eXzImCgd",
          "width": 758
        },
        "ds": {
          "extension": "jpg",
          "height": 320,
          "mimetype": "image/jpeg",
          "secret": "EGVijDan5wNEW8vr6MzAP267eXzImCgd",
          "width": 320
        },
        "k": {
          "extension": "jpg",
          "height": 1536,
          "mimetype": "image/jpeg",
          "secret": "EGVijDan5wNEW8vr6MzAP267eXzImCgd",
          "width": 1941
        },
        "n": {
          "extension": "jpg",
          "height": 240,
          "mimetype": "image/jpeg",
          "secret": "EGVijDan5wNEW8vr6MzAP267eXzImCgd",
          "width": 303
        },
        "o": {
          "extension": "jpg",
          "height": 2168,
          "mimetype": "image/jpeg",
          "secret": "waFnB9pz3fI3nxsO9Xonw6vIViJyDHVo",
          "width": 2740
        },
        "s": {
          "extension": "jpg",
          "height": 320,
          "mimetype": "image/jpeg",
          "secret": "EGVijDan5wNEW8vr6MzAP267eXzImCgd",
          "width": 320
        },
        "z": {
          "extension": "jpg",
          "height": 480,
          "mimetype": "image/jpeg",
          "secret": "EGVijDan5wNEW8vr6MzAP267eXzImCgd",
          "width": 606
        }
      }
    },
    "media:source": "sfomuseum",
    "media:status_id": 1,
    "media:uri_template": "https://static.sfomuseum.org/media/152/782/268/9/1527822689_{secret}_{label}.{extension}",
    "millsfield:airport_id": [
      102527513
    ],
    "millsfield:category_id": 1511214209,
    "millsfield:collection_id": 1511214207,
    "millsfield:images_colors": [
      {
        "hex": "#575757",
        "name": "#575757",
        "reference": "marekm4"
      },
      {
        "hex": "#696969",
        "name": "dimgrey",
        "reference": "css4"
      },
      {
        "hex": "#6e5160",
        "name": "Eggplant",
        "reference": "crayola"
      },
      {
        "hex": "#a7a7a7",
        "name": "#a7a7a7",
        "reference": "marekm4"
      },
      {
        "hex": "#a9a9a9",
        "name": "darkgrey",
        "reference": "css4"
      },
      {
        "hex": "#979aaa",
        "name": "Manatee",
        "reference": "crayola"
      }
    ],
    "millsfield:similar": {
      "apple/mobileclip_s0": [
        {
          "distance": 0.19095045,
          "id": 1762891229
        },
        {
          "distance": 0.46007675,
          "id": 1762891265
        },
        {
          "distance": 0.46352118,
          "id": 1762891273
        },
        {
          "distance": 0.47005424,
          "id": 1527822125
        },
        {
          "distance": 0.480067,
          "id": 1762891301
        },
        {
          "distance": 0.48083666,
          "id": 1527822921
        },
        {
          "distance": 0.49805114,
          "id": 1527825495
        },
        {
          "distance": 0.5138471,
          "id": 1527822345
        },
        {
          "distance": 0.5414187,
          "id": 1527822913
        },
        {
          "distance": 0.558531,
          "id": 1527822651
        }
      ],
      "apple/mobileclip_s1": [
        {
          "distance": 0.09161538,
          "id": 1762891229
        },
        {
          "distance": 0.27329063,
          "id": 1527823159
        },
        {
          "distance": 0.2924381,
          "id": 1762891273
        },
        {
          "distance": 0.29381832,
          "id": 1527823015
        },
        {
          "distance": 0.29533604,
          "id": 1527822339
        },
        {
          "distance": 0.29630765,
          "id": 1762891343
        },
        {
          "distance": 0.29750594,
          "id": 1527822655
        },
        {
          "distance": 0.2976576,
          "id": 1527824369
        },
        {
          "distance": 0.29832238,
          "id": 1527822467
        },
        {
          "distance": 0.30015206,
          "id": 1527823279
        }
      ],
      "apple/mobileclip_s2": [
        {
          "distance": 0.124675825,
          "id": 1762891229
        },
        {
          "distance": 0.3459578,
          "id": 1527822125
        },
        {
          "distance": 0.34784785,
          "id": 1762891265
        },
        {
          "distance": 0.35179612,
          "id": 1762891323
        },
        {
          "distance": 0.37151212,
          "id": 1527823015
        },
        {
          "distance": 0.37586033,
          "id": 1527822093
        },
        {
          "distance": 0.37981817,
          "id": 1527822319
        },
        {
          "distance": 0.3853704,
          "id": 1527822921
        },
        {
          "distance": 0.3855626,
          "id": 1527822357
        },
        {
          "distance": 0.391505,
          "id": 1527824631
        }
      ]
    },
    "millsfield:subcategory_id": 1511213801,
    "mz:hierarchy_label": 1,
    "mz:is_current": -1,
    "sfomuseum:filename": "40861.tif",
    "sfomuseum:image_id": 40861,
    "sfomuseum:image_index": 5,
    "sfomuseum:image_type": "studio",
    "sfomuseum:object_id": 114633,
    "sfomuseum:placetype": "image",
    "sfomuseum:primary_image": 1,
    "src:geom": "sfomuseum",
    "wof:belongsto": [
      1511214209,
      1511944595,
      102527513,
      102191575,
      85633793,
      1511213801,
      85922583,
      102087579,
      1511214277,
      1511214203,
      85688637
    ],
    "wof:breaches": [],
    "wof:country": "US",
    "wof:created": 1578949785,
    "wof:depicts": [
      102527513,
      1511944595
    ],
    "wof:geomhash": "bd906905ce4be6c0651c90b0fc24804c",
    "wof:hierarchy": [
      {
        "arcade_id": 1511213801,
        "building_id": 1511214277,
        "campus_id": 102527513,
        "concourse_id": 1511214209,
        "continent_id": 102191575,
        "country_id": 85633793,
        "county_id": 102087579,
        "custom_id": 1527822689,
        "image_id": 1527822689,
        "locality_id": 85922583,
        "media_id": 1527822689,
        "neighbourhood_id": -1,
        "region_id": 85688637,
        "venue_id": 1511944595,
        "wing_id": 1511214203
      }
    ],
    "wof:id": 1527822689,
    "wof:lastmodified": 1788449764,
    "wof:name": "negative: San Francisco International Airport (SFO), aerial, cargo building construction",
    "wof:parent_id": 1511944595,
    "wof:placetype": "custom",
    "wof:placetype_alt": [
      "image"
    ],
    "wof:repo": "sfomuseum-data-media-collection",
    "wof:superseded_by": [],
    "wof:supersedes": [],
    "wof:tags": []
  },
  "bbox": [
    -122.386155,
    37.616358,
    -122.386155,
    37.616358
  ],
  "geometry": {"type":"Point","coordinates":[-122.386155,37.616358]}
}
