{
  "id": 1762704751,
  "type": "Feature",
  "properties": {
    "date:cessation_lower": "1970-01-01",
    "date:cessation_upper": "1979-12-31",
    "date:inception_lower": "1970-01-01",
    "date:inception_upper": "1979-12-31",
    "edtf:cessation": "197X",
    "edtf:inception": "197X",
    "geom:area": 2.477324999997507e-7,
    "geom:bbox": "-122.386472,37.616105,-122.385834,37.616611",
    "geom:latitude": 37.61635756125121,
    "geom:longitude": -122.38615532866096,
    "media:fingerprint": "e7284d45d9eefde0d94c7a741ebbe5352159d149",
    "media:imagehash_avg": "a:ffece4e7e18180fc",
    "media:imagehash_diff": "d:4d09090909094969",
    "media:imagetext": "CSA\nCZECHOSLOVAK AIRLINES\nFoto D. Cuda\n2015.166.0593 J",
    "media:imagetext_created": 1787956830,
    "media:imagetext_source": "com.apple.visionkit.VNImageRequestHandler#Version 26.6.2 (Build 25G83)",
    "media:mimetype": "image/tiff",
    "media:properties": {
      "sizes": {
        "b": {
          "extension": "jpg",
          "height": 736,
          "mimetype": "image/jpeg",
          "secret": "iSlUrq1WiAGbTqvTQZSFrE8bf4RWlm3y",
          "width": 1024
        },
        "c": {
          "extension": "jpg",
          "height": 575,
          "mimetype": "image/jpeg",
          "secret": "iSlUrq1WiAGbTqvTQZSFrE8bf4RWlm3y",
          "width": 800
        },
        "dc": {
          "extension": "jpg",
          "height": 575,
          "mimetype": "image/jpeg",
          "secret": "iSlUrq1WiAGbTqvTQZSFrE8bf4RWlm3y",
          "width": 800
        },
        "ds": {
          "extension": "jpg",
          "height": 320,
          "mimetype": "image/jpeg",
          "secret": "iSlUrq1WiAGbTqvTQZSFrE8bf4RWlm3y",
          "width": 320
        },
        "k": {
          "extension": "jpg",
          "height": 1473,
          "mimetype": "image/jpeg",
          "secret": "iSlUrq1WiAGbTqvTQZSFrE8bf4RWlm3y",
          "width": 2048
        },
        "n": {
          "extension": "jpg",
          "height": 230,
          "mimetype": "image/jpeg",
          "secret": "iSlUrq1WiAGbTqvTQZSFrE8bf4RWlm3y",
          "width": 320
        },
        "o": {
          "extension": "jpg",
          "height": 1303,
          "mimetype": "image/jpeg",
          "secret": "tXmjqKGr9KhEvdOi43yVYueS8m4PBy8C",
          "width": 1811
        },
        "s": {
          "extension": "jpg",
          "height": 320,
          "mimetype": "image/jpeg",
          "secret": "iSlUrq1WiAGbTqvTQZSFrE8bf4RWlm3y",
          "width": 320
        },
        "z": {
          "extension": "jpg",
          "height": 460,
          "mimetype": "image/jpeg",
          "secret": "iSlUrq1WiAGbTqvTQZSFrE8bf4RWlm3y",
          "width": 640
        }
      }
    },
    "media:source": "sfomuseum",
    "media:status_id": 1,
    "media:uri_template": "https://static.sfomuseum.org/media/176/270/475/1/1762704751_{secret}_{label}.{extension}",
    "millsfield:airline_id": [
      1159284241
    ],
    "millsfield:category_id": 1511214215,
    "millsfield:collection_id": 1511214207,
    "millsfield:company_id": [
      1159288321
    ],
    "millsfield:images_colors": [
      {
        "hex": "#f5ebd7",
        "name": "#f5ebd7",
        "reference": "marekm4"
      },
      {
        "hex": "#faebd7",
        "name": "antiquewhite",
        "reference": "css4"
      },
      {
        "hex": "#efdecd",
        "name": "Almond",
        "reference": "crayola"
      },
      {
        "hex": "#8f8d77",
        "name": "#8f8d77",
        "reference": "marekm4"
      },
      {
        "hex": "#808080",
        "name": "grey",
        "reference": "css4"
      },
      {
        "hex": "#9f8170",
        "name": "Beaver",
        "reference": "crayola"
      }
    ],
    "millsfield:images_texts": [
      "CZECHOSIOVAK AIRLINES",
      "LSA\nLSA\nLSA\nCSA",
      "OVENSKE\nLSA\nAEROLINIE",
      "LSA\nCZECHOSLOVAK AIRLINES\nFoto D. Cuda\n2015166.0593 b",
      "BKIE\nBRATISLAVA\nOK-EBG",
      "Foto D. Cuda\nLSA CZECHOSLOVAK AIRLINES\n2015166.0993 c",
      "LSA\nCZECHOSLOVAK AIRLINES\nFoto D. Cuda\n2015.166.0593 d",
      "CSA\nCESWOSISVENSN MERMINE\nA 0N",
      "Foto D. Cuda\nLSA CZECHOSLOVAK AIRLINES\n2015.166.0593e",
      "Foto D. Cuda\n•LSA CZECHOSLOVAK AIRLINES\n2015.166.05A3-€",
      "OK-EED\nCESKOSEOVENSKE AEROLINIE\nO0 CSA",
      "Foto D. Cuda\nLSA CZECHOSLOVAK AIRLINES\n2015.166.0593 9",
      "Foto D. Cuda\nLSA CZECHOSLOVAK AIRLINES\n2015,166.0593 h",
      "SA\nOK-ADN",
      "CSA\nCZECHOSLOVAK AIRLINES\nFoto D. Cuda\n2015166.0993 i",
      "OK-CFC\nDKEA\nTIKJEIA",
      "CSA\nCZECHOSLOVAK AIRLINES\nFoto D. Cuda\n2015.166.0593 J",
      "Foto D. Cuda\nCSA CZECHOSLOVAK AIRLINES\n2015.166.0593 k"
    ],
    "millsfield:images_texts_ids": [
      1762704707,
      1762704709,
      1762704713,
      1762704715,
      1762704717,
      1762704719,
      1762704723,
      1762704725,
      1762704727,
      1762704733,
      1762704735,
      1762704737,
      1762704741,
      1762704743,
      1762704745,
      1762704749,
      1762704751,
      1762704755
    ],
    "millsfield:similar": {
      "apple/mobileclip_s0": [
        {
          "distance": 0.17163748,
          "id": 1762704745
        },
        {
          "distance": 0.17377429,
          "id": 1762704701
        },
        {
          "distance": 0.17515793,
          "id": 1762704733
        },
        {
          "distance": 0.1766151,
          "id": 1762704727
        },
        {
          "distance": 0.1780056,
          "id": 1762704665
        },
        {
          "distance": 0.18538967,
          "id": 1762704705
        },
        {
          "distance": 0.1877416,
          "id": 1762704723
        },
        {
          "distance": 0.19251253,
          "id": 1762704679
        },
        {
          "distance": 0.19546342,
          "id": 1762704741
        },
        {
          "distance": 0.19612959,
          "id": 1762704697
        }
      ],
      "apple/mobileclip_s1": [
        {
          "distance": 0.13379227,
          "id": 1762704745
        },
        {
          "distance": 0.1514084,
          "id": 1762704723
        },
        {
          "distance": 0.15467097,
          "id": 1762704715
        },
        {
          "distance": 0.15628056,
          "id": 1762704727
        },
        {
          "distance": 0.15812813,
          "id": 1762704665
        },
        {
          "distance": 0.17268951,
          "id": 1762704741
        },
        {
          "distance": 0.17722109,
          "id": 1762704673
        },
        {
          "distance": 0.18042178,
          "id": 1762704697
        },
        {
          "distance": 0.1908187,
          "id": 1762704669
        },
        {
          "distance": 0.19136688,
          "id": 1762704719
        }
      ],
      "apple/mobileclip_s2": [
        {
          "distance": 0.20417,
          "id": 1762704723
        },
        {
          "distance": 0.21010451,
          "id": 1762704741
        },
        {
          "distance": 0.21155615,
          "id": 1762704733
        },
        {
          "distance": 0.2263214,
          "id": 1762704745
        },
        {
          "distance": 0.22767513,
          "id": 1762704669
        },
        {
          "distance": 0.23578306,
          "id": 1762704715
        },
        {
          "distance": 0.2361184,
          "id": 1762704679
        },
        {
          "distance": 0.23668747,
          "id": 1762704755
        },
        {
          "distance": 0.24034165,
          "id": 1762704673
        },
        {
          "distance": 0.24036655,
          "id": 1762704719
        }
      ]
    },
    "millsfield:subcategory_id": 1511213363,
    "mz:is_current": 1,
    "sfomuseum:filename": "2015.166.0593j_bk.tif",
    "sfomuseum:image_id": 153339,
    "sfomuseum:image_index": 5,
    "sfomuseum:image_type": "studio",
    "sfomuseum:object_id": 180210,
    "sfomuseum:placetype": "image",
    "sfomuseum:primary_image": 0,
    "src:geom": "sfomuseum",
    "wof:belongsto": [
      102527513,
      1159162825,
      102191575,
      85633793,
      102087579,
      85922583,
      1762693575,
      85688637,
      1159160869
    ],
    "wof:country": "XY",
    "wof:created": 1641348018,
    "wof:depicts": [
      1159288321,
      1159285873,
      1159288895,
      1762693575,
      1159284241
    ],
    "wof:geomhash": "ed7c2ab3547fc3916b5edc33488deaa7",
    "wof:hierarchy": [
      {
        "building_id": -1,
        "campus_id": 102527513,
        "collection_id": 1159162825,
        "concourse_id": 1159162825,
        "continent_id": 102191575,
        "country_id": 85633793,
        "county_id": 102087579,
        "custom_id": 1762704751,
        "image_id": 1762704751,
        "locality_id": 85922583,
        "neighbourhood_id": -1,
        "object_id": 1762693575,
        "region_id": 85688637,
        "wing_id": 1159160869
      }
    ],
    "wof:id": 1762704751,
    "wof:lastmodified": 1788450522,
    "wof:name": "postcard set: Czechoslovak Airlines",
    "wof:parent_id": 1762693575,
    "wof:placetype": "custom",
    "wof:placetype_alt": [
      "image"
    ],
    "wof:repo": "sfomuseum-data-media-collection",
    "wof:superseded_by": [],
    "wof:supersedes": []
  },
  "bbox": [
    -122.386472,
    37.616105,
    -122.385834,
    37.616611
  ],
  "geometry": {"type":"Polygon","coordinates":[[[-122.386472,37.616318],[-122.386435,37.616233],[-122.386376,37.616178],[-122.386301,37.616131],[-122.386161,37.616105],[-122.386022,37.616131],[-122.385914,37.616186],[-122.385855,37.616267],[-122.385834,37.616369],[-122.385871,37.616467],[-122.385941,37.616543],[-122.386054,37.616603],[-122.386183,37.616611],[-122.386306,37.616573],[-122.386419,37.616509],[-122.386467,37.616411],[-122.386472,37.616318]]]}
}
