{
  "id": 1796465047,
  "type": "Feature",
  "properties": {
    "date:cessation_lower": "1990-01-01",
    "date:cessation_upper": "1999-12-31",
    "date:inception_lower": "1990-01-01",
    "date:inception_upper": "1999-12-31",
    "edtf:cessation": "199X",
    "edtf:inception": "199X",
    "geom:area": 2.477324999997507e-7,
    "geom:bbox": "-122.386472,37.616105,-122.385834,37.616611",
    "geom:latitude": 37.61635756125121,
    "geom:longitude": -122.38615532866096,
    "media:fingerprint": "ad1e6f1230e1416d6e2ff04ea014451d99b6a532",
    "media:imagehash_avg": "a:ffbfbfff61000000",
    "media:imagehash_diff": "d:f060604ecbc5f3e2",
    "media:mimetype": "image/tiff",
    "media:properties": {
      "sizes": {
        "b": {
          "extension": "jpg",
          "height": 768,
          "mimetype": "image/jpeg",
          "secret": "wqMQIHzETtZ3je5OMJDhosm1LxJFTKMj",
          "width": 965
        },
        "c": {
          "extension": "jpg",
          "height": 600,
          "mimetype": "image/jpeg",
          "secret": "wqMQIHzETtZ3je5OMJDhosm1LxJFTKMj",
          "width": 753
        },
        "dc": {
          "extension": "jpg",
          "height": 600,
          "mimetype": "image/jpeg",
          "secret": "wqMQIHzETtZ3je5OMJDhosm1LxJFTKMj",
          "width": 753
        },
        "ds": {
          "extension": "jpg",
          "height": 320,
          "mimetype": "image/jpeg",
          "secret": "wqMQIHzETtZ3je5OMJDhosm1LxJFTKMj",
          "width": 320
        },
        "k": {
          "extension": "jpg",
          "height": 1536,
          "mimetype": "image/jpeg",
          "secret": "wqMQIHzETtZ3je5OMJDhosm1LxJFTKMj",
          "width": 1930
        },
        "n": {
          "extension": "jpg",
          "height": 240,
          "mimetype": "image/jpeg",
          "secret": "wqMQIHzETtZ3je5OMJDhosm1LxJFTKMj",
          "width": 301
        },
        "o": {
          "extension": "jpg",
          "height": 1668,
          "mimetype": "image/jpeg",
          "secret": "Enjpd0uwkJjfwGiNGQiqWBv1p1fZ0X0K",
          "width": 2096
        },
        "s": {
          "extension": "jpg",
          "height": 320,
          "mimetype": "image/jpeg",
          "secret": "wqMQIHzETtZ3je5OMJDhosm1LxJFTKMj",
          "width": 320
        },
        "z": {
          "extension": "jpg",
          "height": 480,
          "mimetype": "image/jpeg",
          "secret": "wqMQIHzETtZ3je5OMJDhosm1LxJFTKMj",
          "width": 603
        }
      }
    },
    "media:source": "sfomuseum",
    "media:status_id": 1,
    "media:uri_template": "https://static.sfomuseum.org/media/179/646/504/7/1796465047_{secret}_{label}.{extension}",
    "millsfield:airline_id": [
      1159284781
    ],
    "millsfield:category_id": 1746152551,
    "millsfield:collection_id": 1511214203,
    "millsfield:company_id": [
      1159287451
    ],
    "millsfield:images_colors": [
      {
        "hex": "#a2a19d",
        "name": "#a2a19d",
        "reference": "marekm4"
      },
      {
        "hex": "#a9a9a9",
        "name": "darkgrey",
        "reference": "css4"
      },
      {
        "hex": "#979aaa",
        "name": "Manatee",
        "reference": "crayola"
      },
      {
        "hex": "#5c5856",
        "name": "#5c5856",
        "reference": "marekm4"
      },
      {
        "hex": "#696969",
        "name": "dimgrey",
        "reference": "css4"
      },
      {
        "hex": "#6e5160",
        "name": "Eggplant",
        "reference": "crayola"
      }
    ],
    "millsfield:similar": {
      "apple/mobileclip_s0": [
        {
          "distance": 0.1508855,
          "id": 1796476705
        },
        {
          "distance": 0.1569361,
          "id": 1796484839
        },
        {
          "distance": 0.17013183,
          "id": 1796484795
        },
        {
          "distance": 0.1733307,
          "id": 1796476715
        },
        {
          "distance": 0.17565668,
          "id": 1796484787
        },
        {
          "distance": 0.17825593,
          "id": 1796484707
        },
        {
          "distance": 0.17825645,
          "id": 1796484901
        },
        {
          "distance": 0.18078825,
          "id": 1796454745
        },
        {
          "distance": 0.18295869,
          "id": 1796465087
        },
        {
          "distance": 0.18601117,
          "id": 1796454833
        }
      ],
      "apple/mobileclip_s1": [
        {
          "distance": 0.10975095,
          "id": 1796476705
        },
        {
          "distance": 0.112858,
          "id": 1796472527
        },
        {
          "distance": 0.12197241,
          "id": 1796484795
        },
        {
          "distance": 0.12835333,
          "id": 1796484839
        },
        {
          "distance": 0.13447717,
          "id": 1796506367
        },
        {
          "distance": 0.13980472,
          "id": 1796454745
        },
        {
          "distance": 0.14853358,
          "id": 1796454833
        },
        {
          "distance": 0.15024853,
          "id": 1796472365
        },
        {
          "distance": 0.1523048,
          "id": 1796472367
        },
        {
          "distance": 0.16708997,
          "id": 1796476715
        }
      ],
      "apple/mobileclip_s2": [
        {
          "distance": 0.11492172,
          "id": 1796484795
        },
        {
          "distance": 0.13075766,
          "id": 1796472527
        },
        {
          "distance": 0.13801847,
          "id": 1796476705
        },
        {
          "distance": 0.14727393,
          "id": 1796484839
        },
        {
          "distance": 0.16200963,
          "id": 1796506367
        },
        {
          "distance": 0.21432412,
          "id": 1796472371
        },
        {
          "distance": 0.21627684,
          "id": 1796472365
        },
        {
          "distance": 0.21641873,
          "id": 1796476715
        },
        {
          "distance": 0.2227734,
          "id": 1796454745
        },
        {
          "distance": 0.22512618,
          "id": 1796506413
        }
      ]
    },
    "millsfield:subcategory_id": 1511213417,
    "mz:is_current": 1,
    "sfomuseum:filename": "107201.tif",
    "sfomuseum:image_id": 107201,
    "sfomuseum:image_index": 5,
    "sfomuseum:image_type": "studio",
    "sfomuseum:object_id": 63662,
    "sfomuseum:placetype": "image",
    "sfomuseum:primary_image": 1,
    "src:geom": "sfomuseum",
    "wof:belongsto": [
      102527513,
      1159162825,
      102191575,
      85633793,
      102087579,
      85922583,
      1796465011,
      85688637,
      1159160869
    ],
    "wof:country": "XY",
    "wof:created": 1666252342,
    "wof:depicts": [
      1796465011,
      1159284781,
      1159287451
    ],
    "wof:geomhash": "ed7c2ab3547fc3916b5edc33488deaa7",
    "wof:hierarchy": [
      {
        "building_id": -1,
        "campus_id": 102527513,
        "collection_id": 1159162825,
        "concourse_id": 1159162825,
        "continent_id": 102191575,
        "country_id": 85633793,
        "county_id": 102087579,
        "custom_id": 1796465047,
        "image_id": 1796465047,
        "locality_id": 85922583,
        "neighbourhood_id": -1,
        "object_id": 1796465011,
        "region_id": 85688637,
        "wing_id": 1159160869
      }
    ],
    "wof:id": 1796465047,
    "wof:lastmodified": 1788451526,
    "wof:name": "fork: Mexicana Airlines",
    "wof:parent_id": 1796465011,
    "wof:placetype": "custom",
    "wof:placetype_alt": [
      "image"
    ],
    "wof:repo": "sfomuseum-data-media-collection",
    "wof:superseded_by": [],
    "wof:supersedes": []
  },
  "bbox": [
    -122.386472,
    37.616105,
    -122.385834,
    37.616611
  ],
  "geometry": {"type":"Polygon","coordinates":[[[-122.386472,37.616318],[-122.386435,37.616233],[-122.386376,37.616178],[-122.386301,37.616131],[-122.386161,37.616105],[-122.386022,37.616131],[-122.385914,37.616186],[-122.385855,37.616267],[-122.385834,37.616369],[-122.385871,37.616467],[-122.385941,37.616543],[-122.386054,37.616603],[-122.386183,37.616611],[-122.386306,37.616573],[-122.386419,37.616509],[-122.386467,37.616411],[-122.386472,37.616318]]]}
}
