{
  "id": 1880320517,
  "type": "Feature",
  "properties": {
    "date:cessation_lower": "1985-01-01",
    "date:cessation_upper": "1985-12-31",
    "date:inception_lower": "1985-01-01",
    "date:inception_upper": "1985-12-31",
    "edtf:cessation": "1985",
    "edtf:inception": "1985",
    "geom:area": 2.477324999997507e-7,
    "geom:bbox": "-122.386472,37.616105,-122.385834,37.616611",
    "geom:latitude": 37.61635756125121,
    "geom:longitude": -122.38615532866096,
    "media:fingerprint": "fb224c024336e26a6877424b71fc4e25b6354d2c",
    "media:imagehash_avg": "a:ffffffe5c1011819",
    "media:imagehash_diff": "d:f8dbcacd8f357173",
    "media:imagetext": "SP-\nZHP\nDAR PASTY\nSP-ZHP\nR.W. D. 8.",
    "media:imagetext_created": 1787968765,
    "media:imagetext_source": "com.apple.visionkit.VNImageRequestHandler#Version 26.6.2 (Build 25G83)",
    "media:mimetype": "image/tiff",
    "media:properties": {
      "sizes": {
        "b": {
          "extension": "jpg",
          "height": 768,
          "mimetype": "image/jpeg",
          "secret": "QjKbYiE2iD4jM2Dwg1utq3LsTKFUBzQC",
          "width": 965
        },
        "c": {
          "extension": "jpg",
          "height": 600,
          "mimetype": "image/jpeg",
          "secret": "QjKbYiE2iD4jM2Dwg1utq3LsTKFUBzQC",
          "width": 754
        },
        "dc": {
          "extension": "jpg",
          "height": 600,
          "mimetype": "image/jpeg",
          "secret": "QjKbYiE2iD4jM2Dwg1utq3LsTKFUBzQC",
          "width": 754
        },
        "ds": {
          "extension": "jpg",
          "height": 320,
          "mimetype": "image/jpeg",
          "secret": "QjKbYiE2iD4jM2Dwg1utq3LsTKFUBzQC",
          "width": 320
        },
        "k": {
          "extension": "jpg",
          "height": 1536,
          "mimetype": "image/jpeg",
          "secret": "QjKbYiE2iD4jM2Dwg1utq3LsTKFUBzQC",
          "width": 1931
        },
        "n": {
          "extension": "jpg",
          "height": 240,
          "mimetype": "image/jpeg",
          "secret": "QjKbYiE2iD4jM2Dwg1utq3LsTKFUBzQC",
          "width": 301
        },
        "o": {
          "extension": "jpg",
          "height": 1667,
          "mimetype": "image/jpeg",
          "secret": "3PUECacGLUcxWLDPTf02zStEu2pJdNIr",
          "width": 2096
        },
        "s": {
          "extension": "jpg",
          "height": 320,
          "mimetype": "image/jpeg",
          "secret": "QjKbYiE2iD4jM2Dwg1utq3LsTKFUBzQC",
          "width": 320
        },
        "z": {
          "extension": "jpg",
          "height": 480,
          "mimetype": "image/jpeg",
          "secret": "QjKbYiE2iD4jM2Dwg1utq3LsTKFUBzQC",
          "width": 603
        }
      }
    },
    "media:source": "sfomuseum",
    "media:status_id": 1,
    "media:uri_template": "https://static.sfomuseum.org/media/188/032/051/7/1880320517_{secret}_{label}.{extension}",
    "millsfield:aircraft_id": [
      1159292743
    ],
    "millsfield:category_id": 1511214235,
    "millsfield:collection_id": 1511214203,
    "millsfield:company_id": [
      1159293647
    ],
    "millsfield:exhibition_ids": [
      1159160707
    ],
    "millsfield:has_coloring_book": 1,
    "millsfield:images_colors": [
      {
        "hex": "#bbbab9",
        "name": "#bbbab9",
        "reference": "marekm4"
      },
      {
        "hex": "#c0c0c0",
        "name": "silver",
        "reference": "css4"
      },
      {
        "hex": "#b0b7c6",
        "name": "Cadet Blue",
        "reference": "crayola"
      },
      {
        "hex": "#665f5b",
        "name": "#665f5b",
        "reference": "marekm4"
      },
      {
        "hex": "#696969",
        "name": "dimgrey",
        "reference": "css4"
      },
      {
        "hex": "#6e5160",
        "name": "Eggplant",
        "reference": "crayola"
      }
    ],
    "millsfield:images_texts": [
      "R.W.D. 8.\nDAR PASTY",
      "R.W.D.\nSP-\nSP-ZHP\nCAR PASTY\n2Hp",
      "SP-\nZHP\nDAR PASTY\nSP-ZHP\nR.W. D. 8.",
      "DAR ASTY JI\nAUD"
    ],
    "millsfield:images_texts_ids": [
      1880320513,
      1880320515,
      1880320517,
      1880320519
    ],
    "millsfield:on_view": 0,
    "millsfield:similar": {
      "apple/mobileclip_s0": [
        {
          "distance": 0.26758343,
          "id": 1880320515
        },
        {
          "distance": 0.5797773,
          "id": 1880320039
        },
        {
          "distance": 0.5823922,
          "id": 1880320513
        },
        {
          "distance": 0.5979995,
          "id": 1880319919
        },
        {
          "distance": 0.60260993,
          "id": 1880319389
        },
        {
          "distance": 0.6039797,
          "id": 1880320853
        },
        {
          "distance": 0.6045016,
          "id": 1880320263
        },
        {
          "distance": 0.60622704,
          "id": 1880320029
        },
        {
          "distance": 0.6062282,
          "id": 1880319913
        },
        {
          "distance": 0.60943043,
          "id": 1880320843
        }
      ],
      "apple/mobileclip_s1": [
        {
          "distance": 0.19785334,
          "id": 1880320515
        },
        {
          "distance": 0.36453173,
          "id": 1880320513
        },
        {
          "distance": 0.3655048,
          "id": 1880319919
        },
        {
          "distance": 0.37556398,
          "id": 1880319913
        },
        {
          "distance": 0.38395888,
          "id": 1880320717
        },
        {
          "distance": 0.38963556,
          "id": 1880320733
        },
        {
          "distance": 0.38997948,
          "id": 1880319885
        },
        {
          "distance": 0.39393237,
          "id": 1880320791
        },
        {
          "distance": 0.39500296,
          "id": 1880319965
        },
        {
          "distance": 0.3970457,
          "id": 1880320519
        }
      ],
      "apple/mobileclip_s2": [
        {
          "distance": 0.23041502,
          "id": 1880320515
        },
        {
          "distance": 0.5337289,
          "id": 1880319919
        },
        {
          "distance": 0.54844004,
          "id": 1880320513
        },
        {
          "distance": 0.56530046,
          "id": 1880319913
        },
        {
          "distance": 0.5759438,
          "id": 1880320805
        },
        {
          "distance": 0.5829477,
          "id": 1880319885
        },
        {
          "distance": 0.5879661,
          "id": 1880320039
        },
        {
          "distance": 0.5920485,
          "id": 1880320801
        },
        {
          "distance": 0.59641826,
          "id": 1880321063
        },
        {
          "distance": 0.5968286,
          "id": 1880319883
        }
      ]
    },
    "millsfield:subcategory_id": 1511213161,
    "mz:is_current": 1,
    "sfomuseum:filename": "2014.145.076_04.tif",
    "sfomuseum:image_id": 170763,
    "sfomuseum:image_index": 5,
    "sfomuseum:image_type": "studio",
    "sfomuseum:object_id": 161668,
    "sfomuseum:placetype": "image",
    "sfomuseum:primary_image": 0,
    "src:geom": "sfomuseum",
    "wof:belongsto": [
      102527513,
      1159162825,
      102191575,
      85633793,
      102087579,
      85922583,
      1880318467,
      85688637,
      1159160869
    ],
    "wof:country": "XY",
    "wof:created": 1694023005,
    "wof:depicts": [
      1880318467,
      1159292743,
      1159293647
    ],
    "wof:geomhash": "ed7c2ab3547fc3916b5edc33488deaa7",
    "wof:hierarchy": [
      {
        "building_id": -1,
        "campus_id": 102527513,
        "collection_id": 1159162825,
        "concourse_id": 1159162825,
        "continent_id": 102191575,
        "country_id": 85633793,
        "county_id": 102087579,
        "custom_id": 1880320517,
        "image_id": 1880320517,
        "locality_id": 85922583,
        "neighbourhood_id": -1,
        "object_id": 1880318467,
        "region_id": 85688637,
        "wing_id": 1159160869
      }
    ],
    "wof:id": 1880320517,
    "wof:lastmodified": 1788451805,
    "wof:name": "model airplane: RWD 8 Dar Pasty",
    "wof:parent_id": 1880318467,
    "wof:placetype": "custom",
    "wof:placetype_alt": [
      "image"
    ],
    "wof:repo": "sfomuseum-data-media-collection",
    "wof:superseded_by": [],
    "wof:supersedes": []
  },
  "bbox": [
    -122.386472,
    37.616105,
    -122.385834,
    37.616611
  ],
  "geometry": {"type":"Polygon","coordinates":[[[-122.386472,37.616318],[-122.386435,37.616233],[-122.386376,37.616178],[-122.386301,37.616131],[-122.386161,37.616105],[-122.386022,37.616131],[-122.385914,37.616186],[-122.385855,37.616267],[-122.385834,37.616369],[-122.385871,37.616467],[-122.385941,37.616543],[-122.386054,37.616603],[-122.386183,37.616611],[-122.386306,37.616573],[-122.386419,37.616509],[-122.386467,37.616411],[-122.386472,37.616318]]]}
}
