{
  "id": 1763196523,
  "type": "Feature",
  "properties": {
    "date:cessation_lower": "1985-01-01",
    "date:cessation_upper": "1985-12-31",
    "date:inception_lower": "1985-01-01",
    "date:inception_upper": "1985-12-31",
    "edtf:cessation": "1985",
    "edtf:inception": "1985",
    "geom:area": 2.477324999997507e-7,
    "geom:bbox": "-122.386472,37.616105,-122.385834,37.616611",
    "geom:latitude": 37.61635756125121,
    "geom:longitude": -122.38615532866096,
    "media:fingerprint": "86cab88428a72d05035e915e224411b3a9949a28",
    "media:imagehash_avg": "a:8000008583ffbfff",
    "media:imagehash_diff": "d:4745296d2f796363",
    "media:imagetext": "Time-Table And Travel Information\nB-2101\nCAAC\nDomestic services effective from Mar. 16 to Nov. 15, 1985\nInternational and Regional services effective from April 1 to Oct. 31, 1985",
    "media:imagetext_created": 1787961194,
    "media:imagetext_source": "com.apple.visionkit.VNImageRequestHandler#Version 26.6.2 (Build 25G83)",
    "media:mimetype": "image/tiff",
    "media:properties": {
      "sizes": {
        "b": {
          "extension": "jpg",
          "height": 682,
          "mimetype": "image/jpeg",
          "secret": "VRFCs3Vbkd1uRKU3XyA8gU4ZEhbMZG2z",
          "width": 1024
        },
        "c": {
          "extension": "jpg",
          "height": 533,
          "mimetype": "image/jpeg",
          "secret": "VRFCs3Vbkd1uRKU3XyA8gU4ZEhbMZG2z",
          "width": 800
        },
        "dc": {
          "extension": "jpg",
          "height": 533,
          "mimetype": "image/jpeg",
          "secret": "VRFCs3Vbkd1uRKU3XyA8gU4ZEhbMZG2z",
          "width": 800
        },
        "ds": {
          "extension": "jpg",
          "height": 320,
          "mimetype": "image/jpeg",
          "secret": "VRFCs3Vbkd1uRKU3XyA8gU4ZEhbMZG2z",
          "width": 320
        },
        "k": {
          "extension": "jpg",
          "height": 1365,
          "mimetype": "image/jpeg",
          "secret": "VRFCs3Vbkd1uRKU3XyA8gU4ZEhbMZG2z",
          "width": 2048
        },
        "n": {
          "extension": "jpg",
          "height": 213,
          "mimetype": "image/jpeg",
          "secret": "VRFCs3Vbkd1uRKU3XyA8gU4ZEhbMZG2z",
          "width": 319
        },
        "o": {
          "extension": "jpg",
          "height": 1500,
          "mimetype": "image/jpeg",
          "secret": "ydfTXSFqn2V1lVuc52LjJIwzlHIHaVep",
          "width": 2249
        },
        "s": {
          "extension": "jpg",
          "height": 320,
          "mimetype": "image/jpeg",
          "secret": "VRFCs3Vbkd1uRKU3XyA8gU4ZEhbMZG2z",
          "width": 320
        },
        "z": {
          "extension": "jpg",
          "height": 426,
          "mimetype": "image/jpeg",
          "secret": "VRFCs3Vbkd1uRKU3XyA8gU4ZEhbMZG2z",
          "width": 639
        }
      }
    },
    "media:source": "sfomuseum",
    "media:status_id": 1,
    "media:uri_template": "https://static.sfomuseum.org/media/176/319/652/3/1763196523_{secret}_{label}.{extension}",
    "millsfield:aircraft_id": [
      1159291285
    ],
    "millsfield:airline_id": [
      1159284059
    ],
    "millsfield:category_id": 1511214223,
    "millsfield:collection_id": 1511214207,
    "millsfield:company_id": [
      1159293561
    ],
    "millsfield:images_colors": [
      {
        "hex": "#a0a59f",
        "name": "#a0a59f",
        "reference": "marekm4"
      },
      {
        "hex": "#a9a9a9",
        "name": "darkgrey",
        "reference": "css4"
      },
      {
        "hex": "#979aaa",
        "name": "Manatee",
        "reference": "crayola"
      },
      {
        "hex": "#494e54",
        "name": "#494e54",
        "reference": "marekm4"
      },
      {
        "hex": "#2f4f4f",
        "name": "darkslategrey",
        "reference": "css4"
      },
      {
        "hex": "#414a4c",
        "name": "Outer Space",
        "reference": "crayola"
      },
      {
        "hex": "#5f708c",
        "name": "#5f708c",
        "reference": "marekm4"
      },
      {
        "hex": "#708090",
        "name": "slategrey",
        "reference": "css4"
      },
      {
        "hex": "#757575",
        "name": "Sonic Silver",
        "reference": "crayola"
      },
      {
        "hex": "#738b98",
        "name": "#738b98",
        "reference": "marekm4"
      },
      {
        "hex": "#778899",
        "name": "lightslategrey",
        "reference": "css4"
      },
      {
        "hex": "#95918c",
        "name": "Gray",
        "reference": "crayola"
      },
      {
        "hex": "#979276",
        "name": "#979276",
        "reference": "marekm4"
      },
      {
        "hex": "#808080",
        "name": "grey",
        "reference": "css4"
      },
      {
        "hex": "#9f8170",
        "name": "Beaver",
        "reference": "crayola"
      }
    ],
    "millsfield:images_texts": [
      "Time-Table And Travel Information\nB-2101\nCAAC\nDomestic services effective from Mar. 16 to Nov. 15, 1985\nInternational and Regional services effective from April 1 to Oct. 31, 1985"
    ],
    "millsfield:images_texts_ids": [
      1763196523
    ],
    "millsfield:similar": {
      "apple/mobileclip_s0": [
        {
          "distance": 0.6459687,
          "id": 1527847711
        },
        {
          "distance": 0.7142571,
          "id": 1762705191
        },
        {
          "distance": 0.72176296,
          "id": 1762898933
        },
        {
          "distance": 0.74264956,
          "id": 1763442197
        },
        {
          "distance": 0.7468142,
          "id": 1762899477
        },
        {
          "distance": 0.7472907,
          "id": 1762893501
        },
        {
          "distance": 0.7474881,
          "id": 1931122617
        },
        {
          "distance": 0.7491813,
          "id": 1762899475
        },
        {
          "distance": 0.75440645,
          "id": 1527830427
        },
        {
          "distance": 0.75986075,
          "id": 1527845605
        }
      ],
      "apple/mobileclip_s1": [
        {
          "distance": 0.41357678,
          "id": 1763196519
        },
        {
          "distance": 0.450173,
          "id": 1527845605
        },
        {
          "distance": 0.4510515,
          "id": 1527845609
        },
        {
          "distance": 0.45388865,
          "id": 1527847711
        },
        {
          "distance": 0.45632944,
          "id": 1762696877
        },
        {
          "distance": 0.46302325,
          "id": 1527845879
        },
        {
          "distance": 0.47129232,
          "id": 1527845889
        },
        {
          "distance": 0.47693363,
          "id": 1527830427
        },
        {
          "distance": 0.498628,
          "id": 1914058955
        },
        {
          "distance": 0.49959365,
          "id": 1527830425
        }
      ],
      "apple/mobileclip_s2": [
        {
          "distance": 0.58431035,
          "id": 1527845609
        },
        {
          "distance": 0.58735394,
          "id": 1527845605
        },
        {
          "distance": 0.63828576,
          "id": 1527845879
        },
        {
          "distance": 0.6532496,
          "id": 1763196519
        },
        {
          "distance": 0.65391016,
          "id": 1527847711
        },
        {
          "distance": 0.6748121,
          "id": 1762696877
        },
        {
          "distance": 0.68949914,
          "id": 1527830427
        },
        {
          "distance": 0.7009896,
          "id": 1527845889
        },
        {
          "distance": 0.7099455,
          "id": 1914058955
        },
        {
          "distance": 0.71902555,
          "id": 1527830425
        }
      ]
    },
    "millsfield:subcategory_id": 1511213425,
    "mz:is_current": 1,
    "sfomuseum:filename": "2014.084.0420.tif",
    "sfomuseum:image_id": 102612,
    "sfomuseum:image_index": 5,
    "sfomuseum:image_type": "studio",
    "sfomuseum:object_id": 156913,
    "sfomuseum:placetype": "image",
    "sfomuseum:primary_image": 1,
    "src:geom": "sfomuseum",
    "wof:belongsto": [
      102527513,
      1159162825,
      102191575,
      85633793,
      102087579,
      85922583,
      1763195207,
      85688637,
      1159160869
    ],
    "wof:country": "XY",
    "wof:created": 1646383715,
    "wof:depicts": [
      1763195207,
      1159291285,
      1159293561,
      1159284059,
      1159286763
    ],
    "wof:geomhash": "ed7c2ab3547fc3916b5edc33488deaa7",
    "wof:hierarchy": [
      {
        "building_id": -1,
        "campus_id": 102527513,
        "collection_id": 1159162825,
        "concourse_id": 1159162825,
        "continent_id": 102191575,
        "country_id": 85633793,
        "county_id": 102087579,
        "custom_id": 1763196523,
        "image_id": 1763196523,
        "locality_id": 85922583,
        "neighbourhood_id": -1,
        "object_id": 1763195207,
        "region_id": 85688637,
        "wing_id": 1159160869
      }
    ],
    "wof:id": 1763196523,
    "wof:lastmodified": 1788450977,
    "wof:name": "timetable: CAAC (Civil Aviation Administration of China)",
    "wof:parent_id": 1763195207,
    "wof:placetype": "custom",
    "wof:placetype_alt": [
      "image"
    ],
    "wof:repo": "sfomuseum-data-media-collection",
    "wof:superseded_by": [],
    "wof:supersedes": []
  },
  "bbox": [
    -122.386472,
    37.616105,
    -122.385834,
    37.616611
  ],
  "geometry": {"type":"Polygon","coordinates":[[[-122.386472,37.616318],[-122.386435,37.616233],[-122.386376,37.616178],[-122.386301,37.616131],[-122.386161,37.616105],[-122.386022,37.616131],[-122.385914,37.616186],[-122.385855,37.616267],[-122.385834,37.616369],[-122.385871,37.616467],[-122.385941,37.616543],[-122.386054,37.616603],[-122.386183,37.616611],[-122.386306,37.616573],[-122.386419,37.616509],[-122.386467,37.616411],[-122.386472,37.616318]]]}
}
