{
  "id": 1913832335,
  "type": "Feature",
  "properties": {
    "date:cessation_lower": "1980-01-01",
    "date:cessation_upper": "1980-12-31",
    "date:inception_lower": "1980-01-01",
    "date:inception_upper": "1980-12-31",
    "edtf:cessation": "1980~",
    "edtf:inception": "1980~",
    "geom:area": 2.477324999997507e-7,
    "geom:bbox": "-122.386472,37.616105,-122.385834,37.616611",
    "geom:latitude": 37.61635756125121,
    "geom:longitude": -122.38615532866096,
    "media:fingerprint": "5c69c4b2a92f6b112230dae3443d959624b90c8c",
    "media:imagehash_avg": "a:00107efc9881ffff",
    "media:imagehash_diff": "d:f0f0f07031138ce0",
    "media:imagetext": "",
    "media:mimetype": "image/tiff",
    "media:properties": {
      "sizes": {
        "b": {
          "extension": "jpg",
          "height": 768,
          "mimetype": "image/jpeg",
          "secret": "rD4lPiFzK0B965zSF1I9xS0e08UpTKzQ",
          "width": 965
        },
        "c": {
          "extension": "jpg",
          "height": 600,
          "mimetype": "image/jpeg",
          "secret": "rD4lPiFzK0B965zSF1I9xS0e08UpTKzQ",
          "width": 754
        },
        "dc": {
          "extension": "jpg",
          "height": 600,
          "mimetype": "image/jpeg",
          "secret": "rD4lPiFzK0B965zSF1I9xS0e08UpTKzQ",
          "width": 754
        },
        "ds": {
          "extension": "jpg",
          "height": 320,
          "mimetype": "image/jpeg",
          "secret": "rD4lPiFzK0B965zSF1I9xS0e08UpTKzQ",
          "width": 320
        },
        "k": {
          "extension": "jpg",
          "height": 1536,
          "mimetype": "image/jpeg",
          "secret": "rD4lPiFzK0B965zSF1I9xS0e08UpTKzQ",
          "width": 1931
        },
        "n": {
          "extension": "jpg",
          "height": 240,
          "mimetype": "image/jpeg",
          "secret": "rD4lPiFzK0B965zSF1I9xS0e08UpTKzQ",
          "width": 301
        },
        "o": {
          "extension": "jpg",
          "height": 1667,
          "mimetype": "image/jpeg",
          "secret": "Or4Drf10SBGZRIXBjlIs2LJzqihc0xAD",
          "width": 2096
        },
        "s": {
          "extension": "jpg",
          "height": 320,
          "mimetype": "image/jpeg",
          "secret": "rD4lPiFzK0B965zSF1I9xS0e08UpTKzQ",
          "width": 320
        },
        "z": {
          "extension": "jpg",
          "height": 480,
          "mimetype": "image/jpeg",
          "secret": "rD4lPiFzK0B965zSF1I9xS0e08UpTKzQ",
          "width": 603
        }
      }
    },
    "media:source": "sfomuseum",
    "media:status_id": 1,
    "media:uri_template": "https://static.sfomuseum.org/media/191/383/233/5/1913832335_{secret}_{label}.{extension}",
    "millsfield:airline_id": [
      1159285551
    ],
    "millsfield:category_id": 1746152551,
    "millsfield:collection_id": 1511214203,
    "millsfield:company_id": [
      1159288471
    ],
    "millsfield:images_colors": [
      {
        "hex": "#afadaa",
        "name": "#afadaa",
        "reference": "marekm4"
      },
      {
        "hex": "#a9a9a9",
        "name": "darkgrey",
        "reference": "css4"
      },
      {
        "hex": "#b0b7c6",
        "name": "Cadet Blue",
        "reference": "crayola"
      },
      {
        "hex": "#5b5851",
        "name": "#5b5851",
        "reference": "marekm4"
      },
      {
        "hex": "#696969",
        "name": "dimgrey",
        "reference": "css4"
      },
      {
        "hex": "#6e5160",
        "name": "Eggplant",
        "reference": "crayola"
      }
    ],
    "millsfield:similar": {
      "apple/mobileclip_s0": [
        {
          "distance": 0.11022166,
          "id": 1913832331
        },
        {
          "distance": 0.26564282,
          "id": 1913832337
        },
        {
          "distance": 0.3863529,
          "id": 1763279597
        },
        {
          "distance": 0.41884473,
          "id": 1913832431
        },
        {
          "distance": 0.4188662,
          "id": 2014887433
        },
        {
          "distance": 0.42412686,
          "id": 1931122969
        },
        {
          "distance": 0.4433369,
          "id": 1931123297
        },
        {
          "distance": 0.4444126,
          "id": 1931122973
        },
        {
          "distance": 0.44631347,
          "id": 1913832399
        },
        {
          "distance": 0.44825366,
          "id": 1931123269
        }
      ],
      "apple/mobileclip_s1": [
        {
          "distance": 0.07366191,
          "id": 1913832331
        },
        {
          "distance": 0.2096107,
          "id": 1913832337
        },
        {
          "distance": 0.23177537,
          "id": 1913832431
        },
        {
          "distance": 0.24448834,
          "id": 1914489385
        },
        {
          "distance": 0.25833547,
          "id": 2014887433
        },
        {
          "distance": 0.26123625,
          "id": 1931123297
        },
        {
          "distance": 0.26543063,
          "id": 1931123269
        },
        {
          "distance": 0.2961405,
          "id": 2015300661
        },
        {
          "distance": 0.30062044,
          "id": 1964168011
        },
        {
          "distance": 0.3018403,
          "id": 1913832267
        }
      ],
      "apple/mobileclip_s2": [
        {
          "distance": 0.09602693,
          "id": 1913832331
        },
        {
          "distance": 0.20529224,
          "id": 1913832337
        },
        {
          "distance": 0.29423255,
          "id": 1913832431
        },
        {
          "distance": 0.29766357,
          "id": 1914489385
        },
        {
          "distance": 0.31268913,
          "id": 1931123269
        },
        {
          "distance": 0.34633636,
          "id": 1931123297
        },
        {
          "distance": 0.36325648,
          "id": 1746682629
        },
        {
          "distance": 0.3898022,
          "id": 2014887433
        },
        {
          "distance": 0.39522302,
          "id": 1762895003
        },
        {
          "distance": 0.40008292,
          "id": 1897892511
        }
      ]
    },
    "millsfield:subcategory_id": 1746152563,
    "mz:is_current": 1,
    "sfomuseum:filename": "2002.018.182.tif",
    "sfomuseum:image_id": 184642,
    "sfomuseum:image_index": 5,
    "sfomuseum:image_type": "studio",
    "sfomuseum:object_id": 65193,
    "sfomuseum:placetype": "image",
    "sfomuseum:primary_image": 1,
    "src:geom": "sfomuseum",
    "wof:belongsto": [
      102527513,
      1159162825,
      102191575,
      85633793,
      102087579,
      85922583,
      1913832221,
      85688637,
      1159160869
    ],
    "wof:country": "XY",
    "wof:created": 1714721764,
    "wof:depicts": [
      1913832221,
      1159285551,
      1159288471
    ],
    "wof:geomhash": "ed7c2ab3547fc3916b5edc33488deaa7",
    "wof:hierarchy": [
      {
        "building_id": -1,
        "campus_id": 102527513,
        "collection_id": 1159162825,
        "concourse_id": 1159162825,
        "continent_id": 102191575,
        "country_id": 85633793,
        "county_id": 102087579,
        "custom_id": 1913832335,
        "image_id": 1913832335,
        "locality_id": 85922583,
        "neighbourhood_id": -1,
        "object_id": 1913832221,
        "region_id": 85688637,
        "wing_id": 1159160869
      }
    ],
    "wof:id": 1913832335,
    "wof:lastmodified": 1788452303,
    "wof:name": "bowl: World Airways",
    "wof:parent_id": 1913832221,
    "wof:placetype": "custom",
    "wof:placetype_alt": [
      "image"
    ],
    "wof:repo": "sfomuseum-data-media-collection",
    "wof:superseded_by": [],
    "wof:supersedes": []
  },
  "bbox": [
    -122.386472,
    37.616105,
    -122.385834,
    37.616611
  ],
  "geometry": {"type":"Polygon","coordinates":[[[-122.386472,37.616318],[-122.386435,37.616233],[-122.386376,37.616178],[-122.386301,37.616131],[-122.386161,37.616105],[-122.386022,37.616131],[-122.385914,37.616186],[-122.385855,37.616267],[-122.385834,37.616369],[-122.385871,37.616467],[-122.385941,37.616543],[-122.386054,37.616603],[-122.386183,37.616611],[-122.386306,37.616573],[-122.386419,37.616509],[-122.386467,37.616411],[-122.386472,37.616318]]]}
}
