{
  "id": 2048176401,
  "type": "Feature",
  "properties": {
    "date:cessation_lower": "2000-01-01",
    "date:cessation_upper": "2009-12-31",
    "date:inception_lower": "2000-01-01",
    "date:inception_upper": "2009-12-31",
    "edtf:cessation": "200X",
    "edtf:inception": "200X",
    "geom:area": 2.475047457570636e-7,
    "geom:bbox": "-122.386472,37.616105,-122.385834,37.616611",
    "geom:latitude": 37.61635747477365,
    "geom:longitude": -122.38615540108617,
    "media:fingerprint": "242b1475b85e3842b02dce3860a20ddb49c6cd87",
    "media:imagehash_avg": "a:00103e3e2e2e3e00",
    "media:imagehash_diff": "d:c0e0646448687880",
    "media:imagetext": "IT MAY BE OUR SITE,\nBUT YOU'RE IN CONTROL.\nManage all your travel at continental.com.\ntal Airlines •\nWork Hard.\nFly Right.®",
    "media:imagetext_created": 1787976540,
    "media:imagetext_source": "com.apple.visionkit.VNImageRequestHandler#Version 26.6.2 (Build 25G83)",
    "media:mimetype": "image/jpeg",
    "media:properties": {
      "colours": null,
      "sizes": {
        "b": {
          "extension": "jpg",
          "height": 767,
          "mimetype": "image/jpeg",
          "secret": "oA3xTCWREaXLgzP1pOao5pqCepKsJwxM",
          "width": 959
        },
        "c": {
          "extension": "jpg",
          "height": 600,
          "mimetype": "image/jpeg",
          "secret": "oA3xTCWREaXLgzP1pOao5pqCepKsJwxM",
          "width": 750
        },
        "dc": {
          "extension": "jpg",
          "height": 320,
          "mimetype": "image/jpeg",
          "secret": "oA3xTCWREaXLgzP1pOao5pqCepKsJwxM",
          "width": 320
        },
        "ds": {
          "extension": "jpg",
          "height": 320,
          "mimetype": "image/jpeg",
          "secret": "oA3xTCWREaXLgzP1pOao5pqCepKsJwxM",
          "width": 320
        },
        "k": {
          "extension": "jpg",
          "height": 1535,
          "mimetype": "image/jpeg",
          "secret": "oA3xTCWREaXLgzP1pOao5pqCepKsJwxM",
          "width": 1919
        },
        "n": {
          "extension": "jpg",
          "height": 240,
          "mimetype": "image/jpeg",
          "secret": "oA3xTCWREaXLgzP1pOao5pqCepKsJwxM",
          "width": 300
        },
        "o": {
          "extension": "jpg",
          "height": 2472,
          "mimetype": "image/jpeg",
          "secret": "atTuxiBfCrxZCGH2sDtxcDHoPKZFSR28",
          "width": 3090
        },
        "s": {
          "extension": "jpg",
          "height": 320,
          "mimetype": "image/jpeg",
          "secret": "oA3xTCWREaXLgzP1pOao5pqCepKsJwxM",
          "width": 320
        },
        "z": {
          "extension": "jpg",
          "height": 480,
          "mimetype": "image/jpeg",
          "secret": "oA3xTCWREaXLgzP1pOao5pqCepKsJwxM",
          "width": 600
        }
      }
    },
    "media:source": "sfomuseum",
    "media:status_id": 1,
    "media:uri_template": "https://static.sfomuseum.org/media/204/817/640/1/2048176401_{secret}_{label}.{extention}",
    "millsfield:airline_id": [
      1159284201
    ],
    "millsfield:category_id": 1746152533,
    "millsfield:collection_id": 1511214203,
    "millsfield:company_id": [
      1360700741
    ],
    "millsfield:images_colors": [
      {
        "hex": "#bebdba",
        "name": "#bebdba",
        "reference": "marekm4"
      },
      {
        "hex": "#c0c0c0",
        "name": "silver",
        "reference": "css4"
      },
      {
        "hex": "#cdc5c2",
        "name": "Silver",
        "reference": "crayola"
      },
      {
        "hex": "#2c245b",
        "name": "#2c245b",
        "reference": "marekm4"
      },
      {
        "hex": "#191970",
        "name": "midnightblue",
        "reference": "css4"
      },
      {
        "hex": "#414a4c",
        "name": "Outer Space",
        "reference": "crayola"
      },
      {
        "hex": "#ece9e1",
        "name": "#ece9e1",
        "reference": "marekm4"
      },
      {
        "hex": "#f5f5dc",
        "name": "beige",
        "reference": "css4"
      },
      {
        "hex": "#fddde6",
        "name": "Piggy Pink",
        "reference": "crayola"
      },
      {
        "hex": "#2e275a",
        "name": "#2e275a",
        "reference": "marekm4"
      },
      {
        "hex": "#514b8c",
        "name": "#514b8c",
        "reference": "marekm4"
      },
      {
        "hex": "#483d8b",
        "name": "darkslateblue",
        "reference": "css4"
      },
      {
        "hex": "#58427c",
        "name": "Cyber Grape",
        "reference": "crayola"
      },
      {
        "hex": "#dab469",
        "name": "#dab469",
        "reference": "marekm4"
      },
      {
        "hex": "#bdb76b",
        "name": "darkkhaki",
        "reference": "css4"
      },
      {
        "hex": "#bab86c",
        "name": "Olive Green",
        "reference": "crayola"
      }
    ],
    "millsfield:images_texts": [
      "IT MAY BE OUR SITE,\nBUT YOU'RE IN CONTROL.\nManage all your travel at continental.com.\ntal Airlines •\nWork Hard.\nFly Right.®"
    ],
    "millsfield:images_texts_ids": [
      2048176401
    ],
    "millsfield:similar": {
      "apple/mobileclip_s0": [
        {
          "distance": 0.5487557,
          "id": 2048167207
        },
        {
          "distance": 0.54952484,
          "id": 2048167193
        },
        {
          "distance": 0.56002253,
          "id": 2048167203
        },
        {
          "distance": 0.5654104,
          "id": 2048167187
        },
        {
          "distance": 0.5764594,
          "id": 2048167195
        },
        {
          "distance": 0.59952354,
          "id": 2048167199
        },
        {
          "distance": 0.6030363,
          "id": 2048176407
        },
        {
          "distance": 0.60353404,
          "id": 2048176435
        },
        {
          "distance": 0.60387486,
          "id": 2048167069
        },
        {
          "distance": 0.60408527,
          "id": 2014778051
        }
      ],
      "apple/mobileclip_s1": [
        {
          "distance": 0.3613118,
          "id": 2048167207
        },
        {
          "distance": 0.3902057,
          "id": 1779968985
        },
        {
          "distance": 0.40908405,
          "id": 2048167185
        },
        {
          "distance": 0.41317597,
          "id": 2048167209
        },
        {
          "distance": 0.4205974,
          "id": 2048167187
        },
        {
          "distance": 0.42068887,
          "id": 2048167649
        },
        {
          "distance": 0.4217268,
          "id": 2048167203
        },
        {
          "distance": 0.42595854,
          "id": 2014778309
        },
        {
          "distance": 0.42650113,
          "id": 1762714469
        },
        {
          "distance": 0.4288386,
          "id": 2048167213
        }
      ],
      "apple/mobileclip_s2": [
        {
          "distance": 0.50509185,
          "id": 2048167207
        },
        {
          "distance": 0.5529221,
          "id": 2048167203
        },
        {
          "distance": 0.56875867,
          "id": 2048176405
        },
        {
          "distance": 0.5719833,
          "id": 2048167213
        },
        {
          "distance": 0.5736085,
          "id": 2048167209
        },
        {
          "distance": 0.58712745,
          "id": 2048167199
        },
        {
          "distance": 0.58962315,
          "id": 2048176399
        },
        {
          "distance": 0.59379864,
          "id": 2048167219
        },
        {
          "distance": 0.5986793,
          "id": 2048167195
        },
        {
          "distance": 0.604988,
          "id": 1779968985
        }
      ]
    },
    "millsfield:subcategory_id": 1511213839,
    "mz:is_current": 1,
    "sfomuseum:filename": "2024.100.1757.jpg",
    "sfomuseum:image_id": 293866,
    "sfomuseum:image_index": 0,
    "sfomuseum:image_type": "studio",
    "sfomuseum:object_id": 249733,
    "sfomuseum:placetype": "image",
    "sfomuseum:primary_image": 1,
    "src:geom": "sfomuseum",
    "wof:belongsto": [
      102527513,
      1159162825,
      102191575,
      85633793,
      102087579,
      85922583,
      2048162735,
      85688637,
      1159160869
    ],
    "wof:country": "XY",
    "wof:created": 1787901631,
    "wof:depicts": [
      1360700741,
      2048162735,
      1159284201
    ],
    "wof:geomhash": "c281b9d9eefc83b5710e64b9d646067d",
    "wof:hierarchy": [
      {
        "building_id": -1,
        "campus_id": 102527513,
        "collection_id": 1159162825,
        "concourse_id": 1159162825,
        "continent_id": 102191575,
        "country_id": 85633793,
        "county_id": 102087579,
        "custom_id": 2048176401,
        "locality_id": 85922583,
        "neighbourhood_id": -1,
        "object_id": 2048162735,
        "region_id": 85688637,
        "wing_id": 1159160869
      }
    ],
    "wof:id": 2048176401,
    "wof:lastmodified": 1788452775,
    "wof:name": "cocktail napkin: Continental Airlines",
    "wof:parent_id": 2048162735,
    "wof:placetype": "custom",
    "wof:repo": "sfomuseum-data-media-collection",
    "wof:superseded_by": [],
    "wof:supersedes": []
  },
  "bbox": [
    -122.38647222518921,
    37.6161053594541,
    -122.38583385944366,
    37.61661101879963
  ],
  "geometry": {"type":"Polygon","coordinates":[[[-122.38647222518921,37.61631782178288],[-122.386434674263,37.61623283692423],[-122.38637566566466,37.61617759671399],[-122.38630056381224,37.6161308549656],[-122.38616108894348,37.6161053594541],[-122.38602161407469,37.6161308549656],[-122.38591432571411,37.61618609521055],[-122.38585531711577,37.61626683087935],[-122.38583385944366,37.61636881265146],[-122.38587141036987,37.61646654505181],[-122.38594114780425,37.61654303118856],[-122.38605380058287,37.61660252035167],[-122.38618254661559,37.61661101879963],[-122.3863059282303,37.61657277577607],[-122.3864185810089,37.61650903735973],[-122.3864668607712,37.61641130501523],[-122.38647222518921,37.61631782178288]]]}
}
