{
  "id": 1880319191,
  "type": "Feature",
  "properties": {
    "date:cessation_lower": "1980-01-01",
    "date:cessation_upper": "1980-12-31",
    "date:inception_lower": "1980-01-01",
    "date:inception_upper": "1980-12-31",
    "edtf:cessation": "1980",
    "edtf:inception": "1980",
    "geom:area": 2.477324999997507e-7,
    "geom:bbox": "-122.386472,37.616105,-122.385834,37.616611",
    "geom:latitude": 37.61635756125121,
    "geom:longitude": -122.38615532866096,
    "media:fingerprint": "034ebe63da36ba9da1cca044ffde2aa93b95eeb5",
    "media:imagehash_avg": "a:0000fffdc181fbff",
    "media:imagehash_diff": "d:f0e0e8ab8b13e3e0",
    "media:imagetext": "CENTRAL AIRWAYS\n6-ABTC",
    "media:imagetext_created": 1787968505,
    "media:imagetext_source": "com.apple.visionkit.VNImageRequestHandler#Version 26.6.2 (Build 25G83)",
    "media:mimetype": "image/tiff",
    "media:properties": {
      "sizes": {
        "b": {
          "extension": "jpg",
          "height": 768,
          "mimetype": "image/jpeg",
          "secret": "H9xpkqMYm3PpFip7hcBoc8DU5J3sNOJ3",
          "width": 965
        },
        "c": {
          "extension": "jpg",
          "height": 600,
          "mimetype": "image/jpeg",
          "secret": "H9xpkqMYm3PpFip7hcBoc8DU5J3sNOJ3",
          "width": 754
        },
        "dc": {
          "extension": "jpg",
          "height": 600,
          "mimetype": "image/jpeg",
          "secret": "H9xpkqMYm3PpFip7hcBoc8DU5J3sNOJ3",
          "width": 754
        },
        "ds": {
          "extension": "jpg",
          "height": 320,
          "mimetype": "image/jpeg",
          "secret": "H9xpkqMYm3PpFip7hcBoc8DU5J3sNOJ3",
          "width": 320
        },
        "k": {
          "extension": "jpg",
          "height": 1536,
          "mimetype": "image/jpeg",
          "secret": "H9xpkqMYm3PpFip7hcBoc8DU5J3sNOJ3",
          "width": 1931
        },
        "n": {
          "extension": "jpg",
          "height": 240,
          "mimetype": "image/jpeg",
          "secret": "H9xpkqMYm3PpFip7hcBoc8DU5J3sNOJ3",
          "width": 301
        },
        "o": {
          "extension": "jpg",
          "height": 1667,
          "mimetype": "image/jpeg",
          "secret": "1FYec9tNanjoH6N05YgvRa5LRLDo9XTJ",
          "width": 2096
        },
        "s": {
          "extension": "jpg",
          "height": 320,
          "mimetype": "image/jpeg",
          "secret": "H9xpkqMYm3PpFip7hcBoc8DU5J3sNOJ3",
          "width": 320
        },
        "z": {
          "extension": "jpg",
          "height": 480,
          "mimetype": "image/jpeg",
          "secret": "H9xpkqMYm3PpFip7hcBoc8DU5J3sNOJ3",
          "width": 603
        }
      }
    },
    "media:source": "sfomuseum",
    "media:status_id": 1,
    "media:uri_template": "https://static.sfomuseum.org/media/188/031/919/1/1880319191_{secret}_{label}.{extension}",
    "millsfield:aircraft_id": [
      1159292719
    ],
    "millsfield:airline_id": [
      1159285877
    ],
    "millsfield:category_id": 1511214235,
    "millsfield:collection_id": 1511214203,
    "millsfield:company_id": [
      1159294127
    ],
    "millsfield:exhibition_ids": [
      1159160707
    ],
    "millsfield:images_colors": [
      {
        "hex": "#c1c3c5",
        "name": "#c1c3c5",
        "reference": "marekm4"
      },
      {
        "hex": "#c0c0c0",
        "name": "silver",
        "reference": "css4"
      },
      {
        "hex": "#cdc5c2",
        "name": "Silver",
        "reference": "crayola"
      },
      {
        "hex": "#494e53",
        "name": "#494e53",
        "reference": "marekm4"
      },
      {
        "hex": "#2f4f4f",
        "name": "darkslategrey",
        "reference": "css4"
      },
      {
        "hex": "#414a4c",
        "name": "Outer Space",
        "reference": "crayola"
      }
    ],
    "millsfield:images_texts": [
      "2190-2",
      "AIRWAYS\n318040",
      "G-ABTC\nG-ABTC",
      "CENTRAL AIRWAYS\n6-ABTC"
    ],
    "millsfield:images_texts_ids": [
      1880319185,
      1880319187,
      1880319189,
      1880319191
    ],
    "millsfield:on_view": 0,
    "millsfield:similar": {
      "apple/mobileclip_s0": [
        {
          "distance": 0.29678944,
          "id": 1880319189
        },
        {
          "distance": 0.33377045,
          "id": 1880320511
        },
        {
          "distance": 0.35007602,
          "id": 1880319185
        },
        {
          "distance": 0.35953298,
          "id": 1880320507
        },
        {
          "distance": 0.37019983,
          "id": 1880319187
        },
        {
          "distance": 0.39426422,
          "id": 1763138167
        },
        {
          "distance": 0.3955969,
          "id": 1763138161
        },
        {
          "distance": 0.39984655,
          "id": 1880319487
        },
        {
          "distance": 0.40003875,
          "id": 1763138165
        },
        {
          "distance": 0.41765577,
          "id": 1880320891
        }
      ],
      "apple/mobileclip_s1": [
        {
          "distance": 0.2325579,
          "id": 1880319189
        },
        {
          "distance": 0.29287395,
          "id": 1880319185
        },
        {
          "distance": 0.29608572,
          "id": 1880319187
        },
        {
          "distance": 0.30195737,
          "id": 1880319307
        },
        {
          "distance": 0.31008273,
          "id": 1880320511
        },
        {
          "distance": 0.31226864,
          "id": 1763138167
        },
        {
          "distance": 0.31922892,
          "id": 1880320507
        },
        {
          "distance": 0.31924376,
          "id": 1880320891
        },
        {
          "distance": 0.31997216,
          "id": 1880319305
        },
        {
          "distance": 0.32026893,
          "id": 1880319485
        }
      ],
      "apple/mobileclip_s2": [
        {
          "distance": 0.31161788,
          "id": 1880319189
        },
        {
          "distance": 0.31488314,
          "id": 1880319187
        },
        {
          "distance": 0.31546554,
          "id": 1880320507
        },
        {
          "distance": 0.3297983,
          "id": 1880319185
        },
        {
          "distance": 0.3703523,
          "id": 1763138161
        },
        {
          "distance": 0.37873897,
          "id": 1763138165
        },
        {
          "distance": 0.39222437,
          "id": 1763138167
        },
        {
          "distance": 0.39569187,
          "id": 1880321667
        },
        {
          "distance": 0.40845868,
          "id": 1931132183
        },
        {
          "distance": 0.4128658,
          "id": 1880320511
        }
      ]
    },
    "millsfield:subcategory_id": 1511213161,
    "mz:is_current": 1,
    "sfomuseum:filename": "2014.145.060_04.tif",
    "sfomuseum:image_id": 166875,
    "sfomuseum:image_index": 5,
    "sfomuseum:image_type": "studio",
    "sfomuseum:object_id": 161652,
    "sfomuseum:placetype": "image",
    "sfomuseum:primary_image": 0,
    "src:geom": "sfomuseum",
    "wof:belongsto": [
      102527513,
      1159162825,
      102191575,
      85633793,
      102087579,
      85922583,
      1880319055,
      85688637,
      1159160869
    ],
    "wof:country": "XY",
    "wof:created": 1694022728,
    "wof:depicts": [
      1880319055,
      1159285877,
      1159292719,
      1159294127
    ],
    "wof:geomhash": "ed7c2ab3547fc3916b5edc33488deaa7",
    "wof:hierarchy": [
      {
        "building_id": -1,
        "campus_id": 102527513,
        "collection_id": 1159162825,
        "concourse_id": 1159162825,
        "continent_id": 102191575,
        "country_id": 85633793,
        "county_id": 102087579,
        "custom_id": 1880319191,
        "image_id": 1880319191,
        "locality_id": 85922583,
        "neighbourhood_id": -1,
        "object_id": 1880319055,
        "region_id": 85688637,
        "wing_id": 1159160869
      }
    ],
    "wof:id": 1880319191,
    "wof:lastmodified": 1788451781,
    "wof:name": "model airplane: Maritime Central Airways, Handley Page H.P.R.7 Dart Herald",
    "wof:parent_id": 1880319055,
    "wof:placetype": "custom",
    "wof:placetype_alt": [
      "image"
    ],
    "wof:repo": "sfomuseum-data-media-collection",
    "wof:superseded_by": [],
    "wof:supersedes": []
  },
  "bbox": [
    -122.386472,
    37.616105,
    -122.385834,
    37.616611
  ],
  "geometry": {"type":"Polygon","coordinates":[[[-122.386472,37.616318],[-122.386435,37.616233],[-122.386376,37.616178],[-122.386301,37.616131],[-122.386161,37.616105],[-122.386022,37.616131],[-122.385914,37.616186],[-122.385855,37.616267],[-122.385834,37.616369],[-122.385871,37.616467],[-122.385941,37.616543],[-122.386054,37.616603],[-122.386183,37.616611],[-122.386306,37.616573],[-122.386419,37.616509],[-122.386467,37.616411],[-122.386472,37.616318]]]}
}
