{
  "id": 1527854417,
  "type": "Feature",
  "properties": {
    "date:cessation_lower": "1960-03-18",
    "date:cessation_upper": "1960-03-18",
    "date:inception_lower": "1960-03-18",
    "date:inception_upper": "1960-03-18",
    "edtf:cessation": "1960-03-18",
    "edtf:date": "1960-03-18",
    "edtf:inception": "1960-03-18",
    "geom:area": 0,
    "geom:bbox": "-122.386155,37.616358,-122.386155,37.616358",
    "geom:latitude": 37.616358,
    "geom:longitude": -122.386155,
    "iso:country": "XX",
    "media:fingerprint": "1bb6678db494bcaea56fc3e587146a92dd54da3c",
    "media:imagehash_avg": "a:e2fefefee6e6e600",
    "media:imagehash_diff": "d:4e4c724c8e8e8e4d",
    "media:imagetext": "TIMORE.\nMD\n00\nMR 1857 PM",
    "media:imagetext_created": 1787953677,
    "media:imagetext_source": "com.apple.visionkit.VNImageRequestHandler#Version 26.6.2 (Build 25G83)",
    "media:medium": "image",
    "media:mimetype": "image/tiff",
    "media:properties": {
      "sizes": {
        "b": {
          "extension": "jpg",
          "height": 579,
          "mimetype": "image/jpeg",
          "secret": "UwsvVDX35Hgsbkm65Dg5FVu9s5sOhn9Q",
          "width": 1024
        },
        "c": {
          "extension": "jpg",
          "height": 452,
          "mimetype": "image/jpeg",
          "secret": "UwsvVDX35Hgsbkm65Dg5FVu9s5sOhn9Q",
          "width": 800
        },
        "dc": {
          "extension": "jpg",
          "height": 452,
          "mimetype": "image/jpeg",
          "secret": "UwsvVDX35Hgsbkm65Dg5FVu9s5sOhn9Q",
          "width": 800
        },
        "ds": {
          "extension": "jpg",
          "height": 320,
          "mimetype": "image/jpeg",
          "secret": "UwsvVDX35Hgsbkm65Dg5FVu9s5sOhn9Q",
          "width": 320
        },
        "k": {
          "extension": "jpg",
          "height": 1158,
          "mimetype": "image/jpeg",
          "secret": "UwsvVDX35Hgsbkm65Dg5FVu9s5sOhn9Q",
          "width": 2048
        },
        "n": {
          "extension": "jpg",
          "height": 181,
          "mimetype": "image/jpeg",
          "secret": "UwsvVDX35Hgsbkm65Dg5FVu9s5sOhn9Q",
          "width": 320
        },
        "o": {
          "extension": "jpg",
          "height": 1119,
          "mimetype": "image/jpeg",
          "secret": "kOvc2FZhJbnbmem2OpQoWsqOADOrjO0c",
          "width": 1978
        },
        "s": {
          "extension": "jpg",
          "height": 320,
          "mimetype": "image/jpeg",
          "secret": "UwsvVDX35Hgsbkm65Dg5FVu9s5sOhn9Q",
          "width": 320
        },
        "z": {
          "extension": "jpg",
          "height": 362,
          "mimetype": "image/jpeg",
          "secret": "UwsvVDX35Hgsbkm65Dg5FVu9s5sOhn9Q",
          "width": 640
        }
      }
    },
    "media:source": "sfomuseum",
    "media:status_id": 1,
    "media:uri_template": "https://static.sfomuseum.org/media/152/785/441/7/1527854417_{secret}_{label}.{extension}",
    "millsfield:airline_id": [
      1159285415
    ],
    "millsfield:category_id": 1511214215,
    "millsfield:collection_id": 1511214207,
    "millsfield:company_id": [
      1159288779
    ],
    "millsfield:images_colors": [
      {
        "hex": "#d2d0b6",
        "name": "#d2d0b6",
        "reference": "marekm4"
      },
      {
        "hex": "#c0c0c0",
        "name": "silver",
        "reference": "css4"
      },
      {
        "hex": "#cdc5c2",
        "name": "Silver",
        "reference": "crayola"
      },
      {
        "hex": "#39364b",
        "name": "#39364b",
        "reference": "marekm4"
      },
      {
        "hex": "#2f4f4f",
        "name": "darkslategrey",
        "reference": "css4"
      },
      {
        "hex": "#414a4c",
        "name": "Outer Space",
        "reference": "crayola"
      },
      {
        "hex": "#972f0a",
        "name": "#972f0a",
        "reference": "marekm4"
      },
      {
        "hex": "#8b4513",
        "name": "saddlebrown",
        "reference": "css4"
      },
      {
        "hex": "#714b23",
        "name": "Raw Umber",
        "reference": "crayola"
      }
    ],
    "millsfield:images_texts": [
      "TIMORE.\nMD\n00\nMR 1857 PM",
      "FIRST FLIGHT\nJET MAIL SERVICE\nAIR MAIL ROUTE 1\nSAN FRANCISCO\nWASHINGTON-\nBALTIMORE\nMAR\n7AM\n1960\nCALIE.\nUSI\nAIR\nMAIL\nVIA AIR MAIL\nDavid E. Hunter\n906 Midland Road\nOradell, New Jersey"
    ],
    "millsfield:images_texts_ids": [
      1527854417,
      1527854483
    ],
    "millsfield:similar": {
      "apple/mobileclip_s0": [
        {
          "distance": 0.42235547,
          "id": 1527820517
        },
        {
          "distance": 0.4266475,
          "id": 1527854411
        },
        {
          "distance": 0.42885643,
          "id": 1527833093
        },
        {
          "distance": 0.42910635,
          "id": 1527829977
        },
        {
          "distance": 0.43042344,
          "id": 1527833893
        },
        {
          "distance": 0.4329383,
          "id": 1527833929
        },
        {
          "distance": 0.43346196,
          "id": 1527833077
        },
        {
          "distance": 0.4356543,
          "id": 1527829999
        },
        {
          "distance": 0.4362935,
          "id": 1527833121
        },
        {
          "distance": 0.43951368,
          "id": 1527833679
        }
      ],
      "apple/mobileclip_s1": [
        {
          "distance": 0.2301867,
          "id": 1527833093
        },
        {
          "distance": 0.23798157,
          "id": 1527833893
        },
        {
          "distance": 0.23843282,
          "id": 1527833077
        },
        {
          "distance": 0.24658592,
          "id": 1527833121
        },
        {
          "distance": 0.24963215,
          "id": 1527820575
        },
        {
          "distance": 0.25435063,
          "id": 1527820517
        },
        {
          "distance": 0.25563833,
          "id": 1527830209
        },
        {
          "distance": 0.25859156,
          "id": 1527832685
        },
        {
          "distance": 0.26542372,
          "id": 1527834219
        },
        {
          "distance": 0.2665563,
          "id": 1527829793
        }
      ],
      "apple/mobileclip_s2": [
        {
          "distance": 0.33216137,
          "id": 1527820517
        },
        {
          "distance": 0.33352894,
          "id": 1527833093
        },
        {
          "distance": 0.3495945,
          "id": 1527833121
        },
        {
          "distance": 0.3519314,
          "id": 1527833139
        },
        {
          "distance": 0.35216188,
          "id": 1527828949
        },
        {
          "distance": 0.3547288,
          "id": 1527829933
        },
        {
          "distance": 0.35484737,
          "id": 1527829395
        },
        {
          "distance": 0.35489836,
          "id": 1527830191
        },
        {
          "distance": 0.3572137,
          "id": 1527830209
        },
        {
          "distance": 0.35779825,
          "id": 1527830195
        }
      ]
    },
    "millsfield:subcategory_id": 1511213159,
    "mz:hierarchy_label": 1,
    "mz:is_current": -1,
    "sfomuseum:filename": "2012.040.003_verso.tif",
    "sfomuseum:image_id": 98124,
    "sfomuseum:image_index": 5,
    "sfomuseum:image_type": "studio",
    "sfomuseum:object_id": 125544,
    "sfomuseum:placetype": "image",
    "sfomuseum:primary_image": 0,
    "src:geom": "sfomuseum",
    "wof:belongsto": [
      1511214215,
      1511951599,
      102527513,
      102191575,
      85633793,
      1511213159,
      85922583,
      102087579,
      1511214277,
      1511214203,
      85688637
    ],
    "wof:breaches": [],
    "wof:country": "XX",
    "wof:created": 1578954824,
    "wof:depicts": [
      1511951599,
      1159288779,
      1159285415
    ],
    "wof:geomhash": "bd906905ce4be6c0651c90b0fc24804c",
    "wof:hierarchy": [
      {
        "arcade_id": 1511213159,
        "building_id": 1511214277,
        "campus_id": 102527513,
        "concourse_id": 1511214215,
        "continent_id": 102191575,
        "country_id": 85633793,
        "county_id": 102087579,
        "custom_id": 1527854417,
        "image_id": 1527854417,
        "locality_id": 85922583,
        "media_id": 1527854417,
        "neighbourhood_id": -1,
        "region_id": 85688637,
        "venue_id": 1511951599,
        "wing_id": 1511214203
      }
    ],
    "wof:id": 1527854417,
    "wof:lastmodified": 1788450226,
    "wof:name": "airmail flight cover: United Air Lines, first jet mail service, AM-1",
    "wof:parent_id": 1511951599,
    "wof:placetype": "custom",
    "wof:placetype_alt": [
      "image"
    ],
    "wof:repo": "sfomuseum-data-media-collection",
    "wof:superseded_by": [],
    "wof:supersedes": [],
    "wof:tags": []
  },
  "bbox": [
    -122.386155,
    37.616358,
    -122.386155,
    37.616358
  ],
  "geometry": {"type":"Point","coordinates":[-122.386155,37.616358]}
}
