{
  "id": 1780279799,
  "type": "Feature",
  "properties": {
    "date:cessation_lower": "2016-01-01",
    "date:cessation_upper": "2016-12-31",
    "date:inception_lower": "2016-01-01",
    "date:inception_upper": "2016-12-31",
    "edtf:cessation": "2016~",
    "edtf:inception": "2016~",
    "geom:area": 2.477324999997507e-7,
    "geom:bbox": "-122.386472,37.616105,-122.385834,37.616611",
    "geom:latitude": 37.61635756125121,
    "geom:longitude": -122.38615532866096,
    "media:fingerprint": "2184aeb8d474c238810fadf00ca0a817faa25f17",
    "media:imagehash_avg": "a:0000ffe3c7e7ffff",
    "media:imagehash_diff": "d:e0b28686969e98c4",
    "media:imagetext": "america",
    "media:imagetext_created": 1787965835,
    "media:imagetext_source": "com.apple.visionkit.VNImageRequestHandler#Version 26.6.2 (Build 25G83)",
    "media:mimetype": "image/jpeg",
    "media:properties": {
      "sizes": {
        "b": {
          "extension": "jpg",
          "height": 768,
          "mimetype": "image/jpeg",
          "secret": "BA79sV4budtCZzOBZWn3xRx9wOIQEPJd",
          "width": 1024
        },
        "c": {
          "extension": "jpg",
          "height": 600,
          "mimetype": "image/jpeg",
          "secret": "BA79sV4budtCZzOBZWn3xRx9wOIQEPJd",
          "width": 800
        },
        "dc": {
          "extension": "jpg",
          "height": 600,
          "mimetype": "image/jpeg",
          "secret": "BA79sV4budtCZzOBZWn3xRx9wOIQEPJd",
          "width": 800
        },
        "ds": {
          "extension": "jpg",
          "height": 320,
          "mimetype": "image/jpeg",
          "secret": "BA79sV4budtCZzOBZWn3xRx9wOIQEPJd",
          "width": 320
        },
        "k": {
          "extension": "jpg",
          "height": 1536,
          "mimetype": "image/jpeg",
          "secret": "BA79sV4budtCZzOBZWn3xRx9wOIQEPJd",
          "width": 2048
        },
        "n": {
          "extension": "jpg",
          "height": 240,
          "mimetype": "image/jpeg",
          "secret": "BA79sV4budtCZzOBZWn3xRx9wOIQEPJd",
          "width": 320
        },
        "o": {
          "extension": "jpg",
          "height": 2736,
          "mimetype": "image/jpeg",
          "secret": "KFn607iRtScAcAZVbF6D4y4F0Ao4yRgm",
          "width": 3648
        },
        "s": {
          "extension": "jpg",
          "height": 320,
          "mimetype": "image/jpeg",
          "secret": "BA79sV4budtCZzOBZWn3xRx9wOIQEPJd",
          "width": 320
        },
        "z": {
          "extension": "jpg",
          "height": 480,
          "mimetype": "image/jpeg",
          "secret": "BA79sV4budtCZzOBZWn3xRx9wOIQEPJd",
          "width": 640
        }
      }
    },
    "media:source": "sfomuseum",
    "media:status_id": 1,
    "media:uri_template": "https://static.sfomuseum.org/media/178/027/979/9/1780279799_{secret}_{label}.{extension}",
    "millsfield:airline_id": [
      1159285481,
      1159285481
    ],
    "millsfield:category_id": 1746152533,
    "millsfield:collection_id": 1511214203,
    "millsfield:company_id": [
      1159288091
    ],
    "millsfield:images_colors": [
      {
        "hex": "#ada474",
        "name": "#ada474",
        "reference": "marekm4"
      },
      {
        "hex": "#bdb76b",
        "name": "darkkhaki",
        "reference": "css4"
      },
      {
        "hex": "#bab86c",
        "name": "Olive Green",
        "reference": "crayola"
      },
      {
        "hex": "#bbb484",
        "name": "#bbb484",
        "reference": "marekm4"
      },
      {
        "hex": "#d2b48c",
        "name": "tan",
        "reference": "css4"
      },
      {
        "hex": "#9b6340",
        "name": "#9b6340",
        "reference": "marekm4"
      },
      {
        "hex": "#a0522d",
        "name": "sienna",
        "reference": "css4"
      },
      {
        "hex": "#a5694f",
        "name": "Sepia",
        "reference": "crayola"
      },
      {
        "hex": "#4d4830",
        "name": "#4d4830",
        "reference": "marekm4"
      },
      {
        "hex": "#556b2f",
        "name": "darkolivegreen",
        "reference": "css4"
      },
      {
        "hex": "#414a4c",
        "name": "Outer Space",
        "reference": "crayola"
      }
    ],
    "millsfield:images_texts": [
      "america",
      "Salems\nVirgin\namerica",
      "Diamo\nПОрТі\namerica"
    ],
    "millsfield:images_texts_ids": [
      1780279799,
      1880874415,
      1880874417
    ],
    "millsfield:similar": {
      "apple/mobileclip_s0": [
        {
          "distance": 0.21256034,
          "id": 1863469379
        },
        {
          "distance": 0.21354905,
          "id": 1780279795
        },
        {
          "distance": 0.2369932,
          "id": 1780279797
        },
        {
          "distance": 0.27741647,
          "id": 1780279791
        },
        {
          "distance": 0.2818053,
          "id": 1780279789
        },
        {
          "distance": 0.30896583,
          "id": 1780279437
        },
        {
          "distance": 0.3165932,
          "id": 1880874413
        },
        {
          "distance": 0.3333101,
          "id": 1880874403
        },
        {
          "distance": 0.33380255,
          "id": 1880874415
        },
        {
          "distance": 0.34732586,
          "id": 1880874409
        }
      ],
      "apple/mobileclip_s1": [
        {
          "distance": 0.121605195,
          "id": 1780279795
        },
        {
          "distance": 0.14800858,
          "id": 1863469379
        },
        {
          "distance": 0.15545654,
          "id": 1780279797
        },
        {
          "distance": 0.16924736,
          "id": 1780279789
        },
        {
          "distance": 0.17265397,
          "id": 1780279791
        },
        {
          "distance": 0.2300024,
          "id": 1880874413
        },
        {
          "distance": 0.24171108,
          "id": 1880874393
        },
        {
          "distance": 0.24738358,
          "id": 1880874299
        },
        {
          "distance": 0.25053972,
          "id": 1880874403
        },
        {
          "distance": 0.25067544,
          "id": 1780279437
        }
      ],
      "apple/mobileclip_s2": [
        {
          "distance": 0.14772132,
          "id": 1780279795
        },
        {
          "distance": 0.15519997,
          "id": 1780279797
        },
        {
          "distance": 0.1863893,
          "id": 1863469379
        },
        {
          "distance": 0.19991161,
          "id": 1780279791
        },
        {
          "distance": 0.2413966,
          "id": 1780279789
        },
        {
          "distance": 0.27227414,
          "id": 1880874395
        },
        {
          "distance": 0.27942064,
          "id": 1780279437
        },
        {
          "distance": 0.28578407,
          "id": 1880874415
        },
        {
          "distance": 0.28825998,
          "id": 1880874393
        },
        {
          "distance": 0.28844833,
          "id": 1880874413
        }
      ]
    },
    "millsfield:subcategory_id": 1746152543,
    "mz:is_current": 1,
    "sfomuseum:filename": "IMG_3941.jpg",
    "sfomuseum:image_id": 198580,
    "sfomuseum:image_index": 1,
    "sfomuseum:image_type": "curator",
    "sfomuseum:object_id": 197578,
    "sfomuseum:placetype": "image",
    "sfomuseum:primary_image": 1,
    "src:geom": "sfomuseum",
    "wof:belongsto": [
      102527513,
      1159162825,
      102191575,
      85633793,
      102087579,
      85922583,
      1780279189,
      85688637,
      1159160869
    ],
    "wof:country": "XY",
    "wof:created": 1660722657,
    "wof:depicts": [
      1780279189,
      1159285481,
      1159288091
    ],
    "wof:geomhash": "ed7c2ab3547fc3916b5edc33488deaa7",
    "wof:hierarchy": [
      {
        "building_id": -1,
        "campus_id": 102527513,
        "collection_id": 1159162825,
        "concourse_id": 1159162825,
        "continent_id": 102191575,
        "country_id": 85633793,
        "county_id": 102087579,
        "custom_id": 1780279799,
        "image_id": 1780279799,
        "locality_id": 85922583,
        "neighbourhood_id": -1,
        "object_id": 1780279189,
        "region_id": 85688637,
        "wing_id": 1159160869
      }
    ],
    "wof:id": 1780279799,
    "wof:lastmodified": 1788451456,
    "wof:name": "plastic cup: Virgin America",
    "wof:parent_id": 1780279189,
    "wof:placetype": "custom",
    "wof:placetype_alt": [
      "image"
    ],
    "wof:repo": "sfomuseum-data-media-collection",
    "wof:superseded_by": [],
    "wof:supersedes": []
  },
  "bbox": [
    -122.386472,
    37.616105,
    -122.385834,
    37.616611
  ],
  "geometry": {"type":"Polygon","coordinates":[[[-122.386472,37.616318],[-122.386435,37.616233],[-122.386376,37.616178],[-122.386301,37.616131],[-122.386161,37.616105],[-122.386022,37.616131],[-122.385914,37.616186],[-122.385855,37.616267],[-122.385834,37.616369],[-122.385871,37.616467],[-122.385941,37.616543],[-122.386054,37.616603],[-122.386183,37.616611],[-122.386306,37.616573],[-122.386419,37.616509],[-122.386467,37.616411],[-122.386472,37.616318]]]}
}
