{
  "id": 1527853029,
  "type": "Feature",
  "properties": {
    "date:cessation_lower": "1930-02-19",
    "date:cessation_upper": "1930-02-19",
    "date:inception_lower": "1930-02-19",
    "date:inception_upper": "1930-02-19",
    "edtf:cessation": "1930-02-19",
    "edtf:date": "1930-02-19",
    "edtf:inception": "1930-02-19",
    "geom:area": 0,
    "geom:bbox": "-122.386155,37.616358,-122.386155,37.616358",
    "geom:latitude": 37.616358,
    "geom:longitude": -122.386155,
    "iso:country": "XX",
    "media:fingerprint": "9253457a6c74ff6aaf3603e42a79c2d13569ac9c",
    "media:imagehash_avg": "a:ff81819f9f110183",
    "media:imagehash_diff": "d:4b2b63737363631f",
    "media:imagetext": "REPUBLICA ARGENTINA\nREPUBLICA ARGENTINA\nAEREA\nGENTINA-ESTADOS UNDOS\nFEBI9\n2\n*\n1930\nA\nRGENTINA\n20°\nSERVICIO AEREO\n• SOBRETASA •\nSERVICIO AEREO\nSOBRETASA\nCarrertu\nARTIETEN\nBatiriner\n71T\nPRIMER CORREO AEREO DELA\nNYRBA\nSau Diego Calif.\nd. Groock ist pilot",
    "media:imagetext_created": 1787953479,
    "media:imagetext_source": "com.apple.visionkit.VNImageRequestHandler#Version 26.6.2 (Build 25G83)",
    "media:medium": "image",
    "media:mimetype": "image/tiff",
    "media:properties": {
      "sizes": {
        "b": {
          "extension": "jpg",
          "height": 605,
          "mimetype": "image/jpeg",
          "secret": "axygXzXTvOcP5vkO4qfKJ3GkOuL8vc3Y",
          "width": 1024
        },
        "c": {
          "extension": "jpg",
          "height": 473,
          "mimetype": "image/jpeg",
          "secret": "axygXzXTvOcP5vkO4qfKJ3GkOuL8vc3Y",
          "width": 800
        },
        "dc": {
          "extension": "jpg",
          "height": 473,
          "mimetype": "image/jpeg",
          "secret": "axygXzXTvOcP5vkO4qfKJ3GkOuL8vc3Y",
          "width": 800
        },
        "ds": {
          "extension": "jpg",
          "height": 320,
          "mimetype": "image/jpeg",
          "secret": "axygXzXTvOcP5vkO4qfKJ3GkOuL8vc3Y",
          "width": 320
        },
        "k": {
          "extension": "jpg",
          "height": 1211,
          "mimetype": "image/jpeg",
          "secret": "axygXzXTvOcP5vkO4qfKJ3GkOuL8vc3Y",
          "width": 2048
        },
        "n": {
          "extension": "jpg",
          "height": 189,
          "mimetype": "image/jpeg",
          "secret": "axygXzXTvOcP5vkO4qfKJ3GkOuL8vc3Y",
          "width": 320
        },
        "o": {
          "extension": "jpg",
          "height": 1093,
          "mimetype": "image/jpeg",
          "secret": "fi3pfMZCjRXrHxHpj7JkfvUbJb7J4liz",
          "width": 1848
        },
        "s": {
          "extension": "jpg",
          "height": 320,
          "mimetype": "image/jpeg",
          "secret": "axygXzXTvOcP5vkO4qfKJ3GkOuL8vc3Y",
          "width": 320
        },
        "z": {
          "extension": "jpg",
          "height": 378,
          "mimetype": "image/jpeg",
          "secret": "axygXzXTvOcP5vkO4qfKJ3GkOuL8vc3Y",
          "width": 640
        }
      }
    },
    "media:source": "sfomuseum",
    "media:status_id": 1,
    "media:uri_template": "https://static.sfomuseum.org/media/152/785/302/9/1527853029_{secret}_{label}.{extension}",
    "millsfield:airline_id": [
      1159284865
    ],
    "millsfield:category_id": 1511214215,
    "millsfield:collection_id": 1511214207,
    "millsfield:company_id": [
      1159286557
    ],
    "millsfield:images_colors": [
      {
        "hex": "#a09e92",
        "name": "#a09e92",
        "reference": "marekm4"
      },
      {
        "hex": "#a9a9a9",
        "name": "darkgrey",
        "reference": "css4"
      },
      {
        "hex": "#95918c",
        "name": "Gray",
        "reference": "crayola"
      },
      {
        "hex": "#444c59",
        "name": "#444c59",
        "reference": "marekm4"
      },
      {
        "hex": "#2f4f4f",
        "name": "darkslategrey",
        "reference": "css4"
      },
      {
        "hex": "#414a4c",
        "name": "Outer Space",
        "reference": "crayola"
      },
      {
        "hex": "#948779",
        "name": "#948779",
        "reference": "marekm4"
      },
      {
        "hex": "#808080",
        "name": "grey",
        "reference": "css4"
      },
      {
        "hex": "#9f8170",
        "name": "Beaver",
        "reference": "crayola"
      },
      {
        "hex": "#a96450",
        "name": "#a96450",
        "reference": "marekm4"
      },
      {
        "hex": "#cd5c5c",
        "name": "indianred",
        "reference": "css4"
      },
      {
        "hex": "#a5694f",
        "name": "Sepia",
        "reference": "crayola"
      },
      {
        "hex": "#565d87",
        "name": "#565d87",
        "reference": "marekm4"
      },
      {
        "hex": "#483d8b",
        "name": "darkslateblue",
        "reference": "css4"
      },
      {
        "hex": "#58427c",
        "name": "Cyber Grape",
        "reference": "crayola"
      }
    ],
    "millsfield:images_texts": [
      "REPUBLICA ARGENTINA\nREPUBLICA ARGENTINA\nAEREA\nGENTINA-ESTADOS UNDOS\nFEBI9\n2\n*\n1930\nA\nRGENTINA\n20°\nSERVICIO AEREO\n• SOBRETASA •\nSERVICIO AEREO\nSOBRETASA\nCarrertu\nARTIETEN\nBatiriner\n71T\nPRIMER CORREO AEREO DELA\nNYRBA\nSau Diego Calif.\nd. Groock ist pilot",
      "2b12 bri 2,02\n009\n062 29Vdl\n8-AN"
    ],
    "millsfield:images_texts_ids": [
      1527853029,
      1527853031
    ],
    "millsfield:similar": {
      "apple/mobileclip_s0": [
        {
          "distance": 0.27228063,
          "id": 1527834175
        },
        {
          "distance": 0.35897985,
          "id": 1527834163
        },
        {
          "distance": 0.43797898,
          "id": 1527820315
        },
        {
          "distance": 0.49919915,
          "id": 1527829745
        },
        {
          "distance": 0.52864105,
          "id": 1527820385
        },
        {
          "distance": 0.53507054,
          "id": 1527830063
        },
        {
          "distance": 0.5359488,
          "id": 1527829751
        },
        {
          "distance": 0.53896976,
          "id": 1527829683
        },
        {
          "distance": 0.5428598,
          "id": 1527852449
        },
        {
          "distance": 0.5472257,
          "id": 1527834299
        }
      ],
      "apple/mobileclip_s1": [
        {
          "distance": 0.203517,
          "id": 1527834175
        },
        {
          "distance": 0.22536592,
          "id": 1527834163
        },
        {
          "distance": 0.3046911,
          "id": 1527820315
        },
        {
          "distance": 0.34290832,
          "id": 1527834299
        },
        {
          "distance": 0.36477306,
          "id": 1527833903
        },
        {
          "distance": 0.36995995,
          "id": 1746281323
        },
        {
          "distance": 0.37614802,
          "id": 1527852193
        },
        {
          "distance": 0.3785569,
          "id": 1527852413
        },
        {
          "distance": 0.38018173,
          "id": 1527833917
        },
        {
          "distance": 0.38039324,
          "id": 1527852383
        }
      ],
      "apple/mobileclip_s2": [
        {
          "distance": 0.28665748,
          "id": 1527834163
        },
        {
          "distance": 0.31310087,
          "id": 1527834175
        },
        {
          "distance": 0.5200886,
          "id": 1527820315
        },
        {
          "distance": 0.5488999,
          "id": 1527829751
        },
        {
          "distance": 0.551248,
          "id": 1527834299
        },
        {
          "distance": 0.55266595,
          "id": 1527829745
        },
        {
          "distance": 0.5539924,
          "id": 1527852391
        },
        {
          "distance": 0.5546308,
          "id": 1527852309
        },
        {
          "distance": 0.57611305,
          "id": 1527852149
        },
        {
          "distance": 0.57868546,
          "id": 1527852409
        }
      ]
    },
    "millsfield:subcategory_id": 1511213159,
    "mz:hierarchy_label": 1,
    "mz:is_current": -1,
    "sfomuseum:filename": "2012.149.2192 a.tif",
    "sfomuseum:image_id": 87871,
    "sfomuseum:image_index": 5,
    "sfomuseum:image_type": "studio",
    "sfomuseum:object_id": 139602,
    "sfomuseum:placetype": "image",
    "sfomuseum:primary_image": 1,
    "src:geom": "sfomuseum",
    "wof:belongsto": [
      1511214215,
      1511954209,
      102527513,
      102191575,
      85633793,
      1511213159,
      85922583,
      102087579,
      1511214277,
      1511214203,
      85688637
    ],
    "wof:breaches": [],
    "wof:country": "XX",
    "wof:created": 1578954600,
    "wof:depicts": [
      1159286557,
      1159284865,
      1511954209
    ],
    "wof:geomhash": "bd906905ce4be6c0651c90b0fc24804c",
    "wof:hierarchy": [
      {
        "arcade_id": 1511213159,
        "building_id": 1511214277,
        "campus_id": 102527513,
        "concourse_id": 1511214215,
        "continent_id": 102191575,
        "country_id": 85633793,
        "county_id": 102087579,
        "custom_id": 1527853029,
        "image_id": 1527853029,
        "locality_id": 85922583,
        "media_id": 1527853029,
        "neighbourhood_id": -1,
        "region_id": 85688637,
        "venue_id": 1511954209,
        "wing_id": 1511214203
      }
    ],
    "wof:id": 1527853029,
    "wof:lastmodified": 1788450210,
    "wof:name": "airmail flight cover: New York, Rio and Buenos Aires Line (NYRBA), first flight, Argentina to United States route, M. J. Grooch",
    "wof:parent_id": 1511954209,
    "wof:placetype": "custom",
    "wof:placetype_alt": [
      "image"
    ],
    "wof:repo": "sfomuseum-data-media-collection",
    "wof:superseded_by": [],
    "wof:supersedes": [],
    "wof:tags": []
  },
  "bbox": [
    -122.386155,
    37.616358,
    -122.386155,
    37.616358
  ],
  "geometry": {"type":"Point","coordinates":[-122.386155,37.616358]}
}
