{
  "id": 2014821481,
  "type": "Feature",
  "properties": {
    "date:cessation_lower": "1950-01-01",
    "date:cessation_upper": "1959-12-31",
    "date:inception_lower": "1950-01-01",
    "date:inception_upper": "1959-12-31",
    "edtf:cessation": "195X",
    "edtf:inception": "195X",
    "geom:area": 2.475047457570636e-7,
    "geom:bbox": "-122.386472,37.616105,-122.385834,37.616611",
    "geom:latitude": 37.61635747477365,
    "geom:longitude": -122.38615540108617,
    "media:fingerprint": "d83ae7b76a8185484dbbb123316e4306e923d9bf",
    "media:imagehash_avg": "a:ffc7c3c3c3c3c3ff",
    "media:imagehash_diff": "d:0c0e161696969696",
    "media:imagetext": "NRIGHT\nAIRCRAFT\nWRIGHT\nAERONAUTICAL\nCORPORATION",
    "media:imagetext_created": 1787975592,
    "media:imagetext_source": "com.apple.visionkit.VNImageRequestHandler#Version 26.6.2 (Build 25G83)",
    "media:mimetype": "image/tiff",
    "media:properties": {
      "colours": null,
      "sizes": {
        "b": {
          "extension": "jpg",
          "height": 768,
          "mimetype": "image/jpeg",
          "secret": "c4HL6yqxA4rQ1ylLEFaila2ySjYe0ZLC",
          "width": 965
        },
        "c": {
          "extension": "jpg",
          "height": 600,
          "mimetype": "image/jpeg",
          "secret": "c4HL6yqxA4rQ1ylLEFaila2ySjYe0ZLC",
          "width": 754
        },
        "dc": {
          "extension": "jpg",
          "height": 320,
          "mimetype": "image/jpeg",
          "secret": "c4HL6yqxA4rQ1ylLEFaila2ySjYe0ZLC",
          "width": 320
        },
        "ds": {
          "extension": "jpg",
          "height": 320,
          "mimetype": "image/jpeg",
          "secret": "c4HL6yqxA4rQ1ylLEFaila2ySjYe0ZLC",
          "width": 320
        },
        "k": {
          "extension": "jpg",
          "height": 1536,
          "mimetype": "image/jpeg",
          "secret": "c4HL6yqxA4rQ1ylLEFaila2ySjYe0ZLC",
          "width": 1931
        },
        "n": {
          "extension": "jpg",
          "height": 240,
          "mimetype": "image/jpeg",
          "secret": "c4HL6yqxA4rQ1ylLEFaila2ySjYe0ZLC",
          "width": 301
        },
        "o": {
          "extension": "jpg",
          "height": 1667,
          "mimetype": "image/jpeg",
          "secret": "NFu7iwAlrWU4Sf9O7Kj0bR0xo1JxyGZQ",
          "width": 2096
        },
        "s": {
          "extension": "jpg",
          "height": 320,
          "mimetype": "image/jpeg",
          "secret": "c4HL6yqxA4rQ1ylLEFaila2ySjYe0ZLC",
          "width": 320
        },
        "z": {
          "extension": "jpg",
          "height": 480,
          "mimetype": "image/jpeg",
          "secret": "c4HL6yqxA4rQ1ylLEFaila2ySjYe0ZLC",
          "width": 603
        }
      }
    },
    "media:source": "sfomuseum",
    "media:status_id": 1,
    "media:uri_template": "https://static.sfomuseum.org/media/201/482/148/1/2014821481_{secret}_{label}.{extention}",
    "millsfield:airline_id": [
      1159284309
    ],
    "millsfield:category_id": 1763416373,
    "millsfield:collection_id": 1511214203,
    "millsfield:company_id": [
      1159287349
    ],
    "millsfield:images_colors": [
      {
        "hex": "#aaaaa6",
        "name": "#aaaaa6",
        "reference": "marekm4"
      },
      {
        "hex": "#a9a9a9",
        "name": "darkgrey",
        "reference": "css4"
      },
      {
        "hex": "#979aaa",
        "name": "Manatee",
        "reference": "crayola"
      },
      {
        "hex": "#2e2f37",
        "name": "#2e2f37",
        "reference": "marekm4"
      },
      {
        "hex": "#2f4f4f",
        "name": "darkslategrey",
        "reference": "css4"
      },
      {
        "hex": "#414a4c",
        "name": "Outer Space",
        "reference": "crayola"
      },
      {
        "hex": "#2c2c36",
        "name": "#2c2c36",
        "reference": "marekm4"
      },
      {
        "hex": "#b1aea7",
        "name": "#b1aea7",
        "reference": "marekm4"
      },
      {
        "hex": "#b0b7c6",
        "name": "Cadet Blue",
        "reference": "crayola"
      },
      {
        "hex": "#913839",
        "name": "#913839",
        "reference": "marekm4"
      },
      {
        "hex": "#a52a2a",
        "name": "brown",
        "reference": "css4"
      },
      {
        "hex": "#9c2542",
        "name": "Big Dip O' Ruby",
        "reference": "crayola"
      },
      {
        "hex": "#597983",
        "name": "#597983",
        "reference": "marekm4"
      },
      {
        "hex": "#708090",
        "name": "slategrey",
        "reference": "css4"
      },
      {
        "hex": "#757575",
        "name": "Sonic Silver",
        "reference": "crayola"
      }
    ],
    "millsfield:images_texts": [
      "NRIGHT\nAIRCRAFT\nWRIGHT\nAERONAUTICAL\nCORPORATION",
      "MR LINES.\nEASTERN",
      "For\nDOUBLE DEPENDABILITY\nfly Eastern Air Lines\n* Dependable Airliners\n* Dependable Personnel"
    ],
    "millsfield:images_texts_ids": [
      2014821481,
      2014821483,
      2014821487
    ],
    "millsfield:similar": {
      "apple/mobileclip_s0": [
        {
          "distance": 0.62834144,
          "id": 1763379667
        },
        {
          "distance": 0.6332626,
          "id": 1796455289
        },
        {
          "distance": 0.63415766,
          "id": 1763379823
        },
        {
          "distance": 0.63464934,
          "id": 1763379827
        },
        {
          "distance": 0.6408587,
          "id": 1763379817
        },
        {
          "distance": 0.642315,
          "id": 1763379659
        },
        {
          "distance": 0.65699786,
          "id": 1796455297
        },
        {
          "distance": 0.6579628,
          "id": 1964359193
        },
        {
          "distance": 0.65832174,
          "id": 1930734227
        },
        {
          "distance": 0.65918356,
          "id": 1763588895
        }
      ],
      "apple/mobileclip_s1": [
        {
          "distance": 0.47535923,
          "id": 2014821509
        },
        {
          "distance": 0.49617988,
          "id": 1779533625
        },
        {
          "distance": 0.50137657,
          "id": 1763287229
        },
        {
          "distance": 0.50429887,
          "id": 1964167741
        },
        {
          "distance": 0.5105508,
          "id": 1763456185
        },
        {
          "distance": 0.51224875,
          "id": 1964107405
        },
        {
          "distance": 0.51276064,
          "id": 1964106645
        },
        {
          "distance": 0.51313317,
          "id": 1863471003
        },
        {
          "distance": 0.51609015,
          "id": 1964167631
        },
        {
          "distance": 0.5168165,
          "id": 1763456187
        }
      ],
      "apple/mobileclip_s2": [
        {
          "distance": 0.6788586,
          "id": 2014821509
        },
        {
          "distance": 0.7212695,
          "id": 1763379735
        },
        {
          "distance": 0.7239308,
          "id": 1964039325
        },
        {
          "distance": 0.7396913,
          "id": 2014778287
        },
        {
          "distance": 0.7460061,
          "id": 1863471003
        },
        {
          "distance": 0.7481924,
          "id": 1964167741
        },
        {
          "distance": 0.7506536,
          "id": 1964039401
        },
        {
          "distance": 0.75177634,
          "id": 1796444277
        },
        {
          "distance": 0.7521941,
          "id": 1964107405
        },
        {
          "distance": 0.75344044,
          "id": 1964167627
        }
      ]
    },
    "millsfield:subcategory_id": 1511213677,
    "mz:is_current": 1,
    "sfomuseum:filename": "2015.057.010_bk.tif",
    "sfomuseum:image_id": 197956,
    "sfomuseum:image_index": 1,
    "sfomuseum:image_type": "studio",
    "sfomuseum:object_id": 167369,
    "sfomuseum:placetype": "image",
    "sfomuseum:primary_image": 0,
    "src:geom": "sfomuseum",
    "wof:belongsto": [
      102527513,
      1159162825,
      102191575,
      85633793,
      102087579,
      85922583,
      2014820591,
      85688637,
      1159160869
    ],
    "wof:country": "XY",
    "wof:created": 1771490010,
    "wof:depicts": [
      1159287349,
      2014820591,
      1159284309
    ],
    "wof:geomhash": "c281b9d9eefc83b5710e64b9d646067d",
    "wof:hierarchy": [
      {
        "building_id": -1,
        "campus_id": 102527513,
        "collection_id": 1159162825,
        "concourse_id": 1159162825,
        "continent_id": 102191575,
        "country_id": 85633793,
        "county_id": 102087579,
        "custom_id": 2014821481,
        "locality_id": 85922583,
        "neighbourhood_id": -1,
        "object_id": 2014820591,
        "region_id": 85688637,
        "wing_id": 1159160869
      }
    ],
    "wof:id": 2014821481,
    "wof:lastmodified": 1788452604,
    "wof:name": "matchbook: Eastern Air Lines",
    "wof:parent_id": 2014820591,
    "wof:placetype": "custom",
    "wof:repo": "sfomuseum-data-media-collection",
    "wof:superseded_by": [],
    "wof:supersedes": []
  },
  "bbox": [
    -122.38647222518921,
    37.6161053594541,
    -122.38583385944366,
    37.61661101879963
  ],
  "geometry": {"type":"Polygon","coordinates":[[[-122.38647222518921,37.61631782178288],[-122.386434674263,37.61623283692423],[-122.38637566566466,37.61617759671399],[-122.38630056381224,37.6161308549656],[-122.38616108894348,37.6161053594541],[-122.38602161407469,37.6161308549656],[-122.38591432571411,37.61618609521055],[-122.38585531711577,37.61626683087935],[-122.38583385944366,37.61636881265146],[-122.38587141036987,37.61646654505181],[-122.38594114780425,37.61654303118856],[-122.38605380058287,37.61660252035167],[-122.38618254661559,37.61661101879963],[-122.3863059282303,37.61657277577607],[-122.3864185810089,37.61650903735973],[-122.3864668607712,37.61641130501523],[-122.38647222518921,37.61631782178288]]]}
}
