{
  "id": 1913800273,
  "type": "Feature",
  "properties": {
    "date:cessation_lower": "1933-03-16",
    "date:cessation_upper": "1933-03-16",
    "date:inception_lower": "1933-03-16",
    "date:inception_upper": "1933-03-16",
    "edtf:cessation": "1933-03-16",
    "edtf:inception": "1933-03-16",
    "geom:area": 2.477324999997507e-7,
    "geom:bbox": "-122.386472,37.616105,-122.385834,37.616611",
    "geom:latitude": 37.61635756125121,
    "geom:longitude": -122.38615532866096,
    "media:fingerprint": "a90c9ab94f60e05c7c7cfa3fd25de7a06411464a",
    "media:imagehash_avg": "a:d180818181ffffff",
    "media:imagehash_diff": "d:15151d3b2b636131",
    "media:imagetext": "of China. Dr young wa\na member of the Daurs\ncommission ste and is\nan reprit on Intrnationa\nmonetary matters. JEspect\nto limit my concrisation\nto arration ana do a\nlot of listing on othr\nsubjets.\nmust run alony now\nAll my lor to you\ntal a rette putat ne\n- to me\n- ate me\nNadee\ncoder do - prose\n20\n121.0",
    "media:imagetext_created": 1787972325,
    "media:imagetext_source": "com.apple.visionkit.VNImageRequestHandler#Version 26.6.2 (Build 25G83)",
    "media:mimetype": "image/tiff",
    "media:properties": {
      "sizes": {
        "b": {
          "extension": "jpg",
          "height": 768,
          "mimetype": "image/jpeg",
          "secret": "Erzdty6YucGdHOAJfe4JEqPvmt0Vhgir",
          "width": 501
        },
        "c": {
          "extension": "jpg",
          "height": 600,
          "mimetype": "image/jpeg",
          "secret": "Erzdty6YucGdHOAJfe4JEqPvmt0Vhgir",
          "width": 392
        },
        "dc": {
          "extension": "jpg",
          "height": 600,
          "mimetype": "image/jpeg",
          "secret": "Erzdty6YucGdHOAJfe4JEqPvmt0Vhgir",
          "width": 392
        },
        "ds": {
          "extension": "jpg",
          "height": 320,
          "mimetype": "image/jpeg",
          "secret": "Erzdty6YucGdHOAJfe4JEqPvmt0Vhgir",
          "width": 320
        },
        "k": {
          "extension": "jpg",
          "height": 1536,
          "mimetype": "image/jpeg",
          "secret": "Erzdty6YucGdHOAJfe4JEqPvmt0Vhgir",
          "width": 1003
        },
        "n": {
          "extension": "jpg",
          "height": 240,
          "mimetype": "image/jpeg",
          "secret": "Erzdty6YucGdHOAJfe4JEqPvmt0Vhgir",
          "width": 156
        },
        "o": {
          "extension": "jpg",
          "height": 2000,
          "mimetype": "image/jpeg",
          "secret": "lW4l3ZUvg29J4rlgT6N6ZKuCaPDZFhUn",
          "width": 1307
        },
        "s": {
          "extension": "jpg",
          "height": 320,
          "mimetype": "image/jpeg",
          "secret": "Erzdty6YucGdHOAJfe4JEqPvmt0Vhgir",
          "width": 320
        },
        "z": {
          "extension": "jpg",
          "height": 480,
          "mimetype": "image/jpeg",
          "secret": "Erzdty6YucGdHOAJfe4JEqPvmt0Vhgir",
          "width": 313
        }
      }
    },
    "media:source": "sfomuseum",
    "media:status_id": 1,
    "media:uri_template": "https://static.sfomuseum.org/media/191/380/027/3/1913800273_{secret}_{label}.{extension}",
    "millsfield:airline_id": [
      1159284991,
      1159285931
    ],
    "millsfield:category_id": 1511214251,
    "millsfield:collection_id": 1511214207,
    "millsfield:company_id": [
      1159286721
    ],
    "millsfield:images_colors": [
      {
        "hex": "#eedeae",
        "name": "#eedeae",
        "reference": "marekm4"
      },
      {
        "hex": "#f5deb3",
        "name": "wheat",
        "reference": "css4"
      },
      {
        "hex": "#fae7b5",
        "name": "Banana Mania",
        "reference": "crayola"
      },
      {
        "hex": "#423d28",
        "name": "#423d28",
        "reference": "marekm4"
      },
      {
        "hex": "#2f4f4f",
        "name": "darkslategrey",
        "reference": "css4"
      },
      {
        "hex": "#414a4c",
        "name": "Outer Space",
        "reference": "crayola"
      }
    ],
    "millsfield:images_texts": [
      "33\nCATHAY\nHOTEL\nCABLE ADDRESS\nCATHOTEL\"\nSHANGHAI CHINA Thursday, 3/160\nDearcet Dibs.\nLast night ur wint\nto the Age of connent - the\nmost shocking movie 9\nhair toes surn. Hate to\nthink that our kids ser\nthat sort of show but\ngreas that the modern\nidea and mayer 9 am\nmid - Unctorian.\nEncon typewrain\nleer. wile you plan\nforward to Frances and Be\nbecaus the copy o made\nfor them I frid, after\nmalis\nI the otta, es no",
      "good.\n•Had a nice littr\nyrstuday prom Frances\nWhich came afte your\ntwo lettus and Bos. The\nkids and grand to write\nbut it makes me sout\nof heart sick to think\nof all the\n• lattes ther\nhair to writs. They're\nyoung\noner and\nshowed hair the retra\ntime for relaxation,\nand\nWacea walla\n- thats\nPigin china for lato of\ntalk\nand\nthey cantank\ndo a lot of walla walla.\nThe boy stand outside\nmy room and make\n1121.0607g",
      "CATHAY\nHOTEL\nCABLE ADDRESS\nCATHOTEL\"\nSHANGHAI, CHINA\nso much nova with\nthen unchant talk\nthat I hair had to\n\"Jo out and the them\nmoskie\"..\nswerae times.\nThe cable which\no reprete yrstuday\nfaire to arror and\nso far (9 Q.ma) thes\nmorning has not come\nin today. Have a lot\nto do and a\n\"tiffin -\nlunch- date wick 20r.\nAcker young who is\nfrancial adorass to\nT. V. Soong - the moussolni",
      "of China. Dr young wa\na member of the Daurs\ncommission ste and is\nan reprit on Intrnationa\nmonetary matters. JEspect\nto limit my concrisation\nto arration ana do a\nlot of listing on othr\nsubjets.\nmust run alony now\nAll my lor to you\ntal a rette putat ne\n- to me\n- ate me\nNadee\ncoder do - prose\n20\n121.0"
    ],
    "millsfield:images_texts_ids": [
      1913800267,
      1913800269,
      1913800271,
      1913800273
    ],
    "millsfield:similar": {
      "apple/mobileclip_s0": [
        {
          "distance": 0.29583856,
          "id": 1913800173
        },
        {
          "distance": 0.3030684,
          "id": 1913800093
        },
        {
          "distance": 0.31422752,
          "id": 1913799801
        },
        {
          "distance": 0.31492588,
          "id": 1913802695
        },
        {
          "distance": 0.3177768,
          "id": 1913799733
        },
        {
          "distance": 0.31781176,
          "id": 1913800145
        },
        {
          "distance": 0.3197066,
          "id": 1913800249
        },
        {
          "distance": 0.32048932,
          "id": 1913801703
        },
        {
          "distance": 0.32064444,
          "id": 1913800979
        },
        {
          "distance": 0.3253965,
          "id": 1913799741
        }
      ],
      "apple/mobileclip_s1": [
        {
          "distance": 0.2230154,
          "id": 1913800197
        },
        {
          "distance": 0.22719356,
          "id": 1913800287
        },
        {
          "distance": 0.22929625,
          "id": 1913801889
        },
        {
          "distance": 0.23421231,
          "id": 1913800211
        },
        {
          "distance": 0.2369512,
          "id": 1913800967
        },
        {
          "distance": 0.23718427,
          "id": 1913800209
        },
        {
          "distance": 0.23730315,
          "id": 1913800289
        },
        {
          "distance": 0.23749502,
          "id": 1913800169
        },
        {
          "distance": 0.23799373,
          "id": 1913800213
        },
        {
          "distance": 0.2398786,
          "id": 1913800263
        }
      ],
      "apple/mobileclip_s2": [
        {
          "distance": 0.30561996,
          "id": 1913800283
        },
        {
          "distance": 0.3221175,
          "id": 1913800145
        },
        {
          "distance": 0.32565105,
          "id": 1913800143
        },
        {
          "distance": 0.33090436,
          "id": 1913800173
        },
        {
          "distance": 0.3364026,
          "id": 1913800231
        },
        {
          "distance": 0.33902797,
          "id": 1913800157
        },
        {
          "distance": 0.34014058,
          "id": 1913802407
        },
        {
          "distance": 0.3414343,
          "id": 1913800281
        },
        {
          "distance": 0.34175342,
          "id": 1913800287
        },
        {
          "distance": 0.34213087,
          "id": 1913800161
        }
      ]
    },
    "millsfield:subcategory_id": 1511213489,
    "mz:is_current": 1,
    "sfomuseum:filename": "2019.121.0607b_reverse.tif",
    "sfomuseum:image_id": 224945,
    "sfomuseum:image_index": 5,
    "sfomuseum:image_type": "studio",
    "sfomuseum:object_id": 210882,
    "sfomuseum:placetype": "image",
    "sfomuseum:primary_image": 0,
    "src:geom": "sfomuseum",
    "wof:belongsto": [
      102527513,
      1159162825,
      102191575,
      85633793,
      102087579,
      85922583,
      1913795165,
      85688637,
      1159160869
    ],
    "wof:country": "XY",
    "wof:created": 1714550465,
    "wof:depicts": [
      1159286721,
      1913795165,
      1159284991,
      1159285931
    ],
    "wof:geomhash": "ed7c2ab3547fc3916b5edc33488deaa7",
    "wof:hierarchy": [
      {
        "building_id": -1,
        "campus_id": 102527513,
        "collection_id": 1159162825,
        "concourse_id": 1159162825,
        "continent_id": 102191575,
        "country_id": 85633793,
        "county_id": 102087579,
        "custom_id": 1913800273,
        "image_id": 1913800273,
        "locality_id": 85922583,
        "neighbourhood_id": -1,
        "object_id": 1913795165,
        "region_id": 85688637,
        "wing_id": 1159160869
      }
    ],
    "wof:id": 1913800273,
    "wof:lastmodified": 1788160872,
    "wof:name": "correspondence: Harold M. Bixby to Debby Bixby",
    "wof:parent_id": 1913795165,
    "wof:placetype": "custom",
    "wof:placetype_alt": [
      "image"
    ],
    "wof:repo": "sfomuseum-data-media-collection",
    "wof:superseded_by": [],
    "wof:supersedes": []
  },
  "bbox": [
    -122.386472,
    37.616105,
    -122.385834,
    37.616611
  ],
  "geometry": {"type":"Polygon","coordinates":[[[-122.386472,37.616318],[-122.386435,37.616233],[-122.386376,37.616178],[-122.386301,37.616131],[-122.386161,37.616105],[-122.386022,37.616131],[-122.385914,37.616186],[-122.385855,37.616267],[-122.385834,37.616369],[-122.385871,37.616467],[-122.385941,37.616543],[-122.386054,37.616603],[-122.386183,37.616611],[-122.386306,37.616573],[-122.386419,37.616509],[-122.386467,37.616411],[-122.386472,37.616318]]]}
}
