{
  "id": 1762701811,
  "type": "Feature",
  "properties": {
    "date:cessation_lower": "1949-11-01",
    "date:cessation_upper": "1949-11-01",
    "date:inception_lower": "1949-11-01",
    "date:inception_upper": "1949-11-01",
    "edtf:cessation": "1949-11-01",
    "edtf:inception": "1949-11-01",
    "geom:area": 2.477324999997507e-7,
    "geom:bbox": "-122.386472,37.616105,-122.385834,37.616611",
    "geom:latitude": 37.61635756125121,
    "geom:longitude": -122.38615532866096,
    "media:fingerprint": "5287c87b466bdcdac0f9c903a3a566b1e241e9df",
    "media:imagehash_avg": "a:ffbb0100818797ff",
    "media:imagehash_diff": "d:536349472f2d257d",
    "media:imagetext": "NOV. 1 - DEC. 31 1949\nPAN AMERICAN\nWORLD AIRWAYS\nALASKA SERVICES\nFLY NOW\nAND SAVE!\nALASKA Clipper\nfares cut up to 27%\nPAN AMERICAN WORLD AIRWAYS\nPAA\nThe System of the Hlying Clippers\nPASSENGERS • MAIL • CARGO",
    "media:imagetext_created": 1787956366,
    "media:imagetext_source": "com.apple.visionkit.VNImageRequestHandler#Version 26.6.2 (Build 25G83)",
    "media:mimetype": "image/tiff",
    "media:properties": {
      "sizes": {
        "b": {
          "extension": "jpg",
          "height": 767,
          "mimetype": "image/jpeg",
          "secret": "pbg3dtHLw2GTijrm9znfNRv0VUKnoaGv",
          "width": 348
        },
        "c": {
          "extension": "jpg",
          "height": 600,
          "mimetype": "image/jpeg",
          "secret": "pbg3dtHLw2GTijrm9znfNRv0VUKnoaGv",
          "width": 272
        },
        "dc": {
          "extension": "jpg",
          "height": 600,
          "mimetype": "image/jpeg",
          "secret": "pbg3dtHLw2GTijrm9znfNRv0VUKnoaGv",
          "width": 272
        },
        "ds": {
          "extension": "jpg",
          "height": 320,
          "mimetype": "image/jpeg",
          "secret": "pbg3dtHLw2GTijrm9znfNRv0VUKnoaGv",
          "width": 320
        },
        "k": {
          "extension": "jpg",
          "height": 1535,
          "mimetype": "image/jpeg",
          "secret": "pbg3dtHLw2GTijrm9znfNRv0VUKnoaGv",
          "width": 696
        },
        "n": {
          "extension": "jpg",
          "height": 240,
          "mimetype": "image/jpeg",
          "secret": "pbg3dtHLw2GTijrm9znfNRv0VUKnoaGv",
          "width": 108
        },
        "o": {
          "extension": "jpg",
          "height": 2768,
          "mimetype": "image/jpeg",
          "secret": "FwPVPgHgwBEZkwiIHpKbIST9UbzioCWx",
          "width": 1255
        },
        "s": {
          "extension": "jpg",
          "height": 320,
          "mimetype": "image/jpeg",
          "secret": "pbg3dtHLw2GTijrm9znfNRv0VUKnoaGv",
          "width": 320
        },
        "z": {
          "extension": "jpg",
          "height": 480,
          "mimetype": "image/jpeg",
          "secret": "pbg3dtHLw2GTijrm9znfNRv0VUKnoaGv",
          "width": 217
        }
      }
    },
    "media:source": "sfomuseum",
    "media:status_id": 1,
    "media:uri_template": "https://static.sfomuseum.org/media/176/270/181/1/1762701811_{secret}_{label}.{extension}",
    "millsfield:airline_id": [
      1159284989
    ],
    "millsfield:category_id": 1511214223,
    "millsfield:collection_id": 1511214207,
    "millsfield:company_id": [
      1159286839
    ],
    "millsfield:images_colors": [
      {
        "hex": "#cac1b0",
        "name": "#cac1b0",
        "reference": "marekm4"
      },
      {
        "hex": "#c0c0c0",
        "name": "silver",
        "reference": "css4"
      },
      {
        "hex": "#cdc5c2",
        "name": "Silver",
        "reference": "crayola"
      },
      {
        "hex": "#1e2c55",
        "name": "#1e2c55",
        "reference": "marekm4"
      },
      {
        "hex": "#191970",
        "name": "midnightblue",
        "reference": "css4"
      },
      {
        "hex": "#1a4876",
        "name": "Midnight Blue",
        "reference": "crayola"
      },
      {
        "hex": "#476089",
        "name": "#476089",
        "reference": "marekm4"
      },
      {
        "hex": "#483d8b",
        "name": "darkslateblue",
        "reference": "css4"
      },
      {
        "hex": "#2e5894",
        "name": "B'dazzled Blue",
        "reference": "crayola"
      },
      {
        "hex": "#be2010",
        "name": "#be2010",
        "reference": "marekm4"
      },
      {
        "hex": "#b22222",
        "name": "firebrick",
        "reference": "css4"
      },
      {
        "hex": "#9c2542",
        "name": "Big Dip O' Ruby",
        "reference": "crayola"
      },
      {
        "hex": "#798593",
        "name": "#798593",
        "reference": "marekm4"
      },
      {
        "hex": "#778899",
        "name": "lightslategrey",
        "reference": "css4"
      },
      {
        "hex": "#95918c",
        "name": "Gray",
        "reference": "crayola"
      }
    ],
    "millsfield:images_texts": [
      "NOV. 1 - DEC. 31 1949\nPAN AMERICAN\nWORLD AIRWAYS\nALASKA SERVICES\nFLY NOW\nAND SAVE!\nALASKA Clipper\nfares cut up to 27%\nPAN AMERICAN WORLD AIRWAYS\nPAA\nThe System of the Hlying Clippers\nPASSENGERS • MAIL • CARGO"
    ],
    "millsfield:images_texts_ids": [
      1762701811
    ],
    "millsfield:similar": {
      "apple/mobileclip_s0": [
        {
          "distance": 0.40571502,
          "id": 1762701789
        },
        {
          "distance": 0.41289937,
          "id": 1762701833
        },
        {
          "distance": 0.41362277,
          "id": 1762701803
        },
        {
          "distance": 0.4203881,
          "id": 1762701787
        },
        {
          "distance": 0.42147258,
          "id": 1762701825
        },
        {
          "distance": 0.42426604,
          "id": 1762701807
        },
        {
          "distance": 0.42659733,
          "id": 1762701819
        },
        {
          "distance": 0.42973834,
          "id": 1762701841
        },
        {
          "distance": 0.4305883,
          "id": 1762701815
        },
        {
          "distance": 0.43327555,
          "id": 1762701829
        }
      ],
      "apple/mobileclip_s1": [
        {
          "distance": 0.37193114,
          "id": 1762701823
        },
        {
          "distance": 0.37249872,
          "id": 1762701807
        },
        {
          "distance": 0.37695763,
          "id": 1527842089
        },
        {
          "distance": 0.3770974,
          "id": 1762701819
        },
        {
          "distance": 0.37716538,
          "id": 1762701843
        },
        {
          "distance": 0.37968975,
          "id": 1527821741
        },
        {
          "distance": 0.37976393,
          "id": 1762700329
        },
        {
          "distance": 0.38000402,
          "id": 1762701787
        },
        {
          "distance": 0.38001442,
          "id": 1762701825
        },
        {
          "distance": 0.38045987,
          "id": 1762701783
        }
      ],
      "apple/mobileclip_s2": [
        {
          "distance": 0.59717166,
          "id": 1762890689
        },
        {
          "distance": 0.5987515,
          "id": 1762701863
        },
        {
          "distance": 0.59903646,
          "id": 1762893579
        },
        {
          "distance": 0.60067385,
          "id": 1762701861
        },
        {
          "distance": 0.60660106,
          "id": 1762701815
        },
        {
          "distance": 0.60855716,
          "id": 1762701783
        },
        {
          "distance": 0.6102126,
          "id": 1527842089
        },
        {
          "distance": 0.6122082,
          "id": 1762701807
        },
        {
          "distance": 0.6152103,
          "id": 1762701797
        },
        {
          "distance": 0.6152855,
          "id": 1762891729
        }
      ]
    },
    "millsfield:subcategory_id": 1511213425,
    "mz:is_current": 1,
    "sfomuseum:filename": "2015.167.563.tif",
    "sfomuseum:image_id": 149435,
    "sfomuseum:image_index": 5,
    "sfomuseum:image_type": "studio",
    "sfomuseum:object_id": 174755,
    "sfomuseum:placetype": "image",
    "sfomuseum:primary_image": 1,
    "src:geom": "sfomuseum",
    "wof:belongsto": [
      102527513,
      1159162825,
      102191575,
      85633793,
      102087579,
      85922583,
      1762681541,
      85688637,
      1159160869
    ],
    "wof:country": "XY",
    "wof:created": 1641346937,
    "wof:depicts": [
      1762681541,
      1159284989,
      1159286839
    ],
    "wof:geomhash": "ed7c2ab3547fc3916b5edc33488deaa7",
    "wof:hierarchy": [
      {
        "building_id": -1,
        "campus_id": 102527513,
        "collection_id": 1159162825,
        "concourse_id": 1159162825,
        "continent_id": 102191575,
        "country_id": 85633793,
        "county_id": 102087579,
        "custom_id": 1762701811,
        "image_id": 1762701811,
        "locality_id": 85922583,
        "neighbourhood_id": -1,
        "object_id": 1762681541,
        "region_id": 85688637,
        "wing_id": 1159160869
      }
    ],
    "wof:id": 1762701811,
    "wof:lastmodified": 1788450473,
    "wof:name": "timetable: Pan American World Airways, Alaska services",
    "wof:parent_id": 1762681541,
    "wof:placetype": "custom",
    "wof:placetype_alt": [
      "image"
    ],
    "wof:repo": "sfomuseum-data-media-collection",
    "wof:superseded_by": [],
    "wof:supersedes": []
  },
  "bbox": [
    -122.386472,
    37.616105,
    -122.385834,
    37.616611
  ],
  "geometry": {"type":"Polygon","coordinates":[[[-122.386472,37.616318],[-122.386435,37.616233],[-122.386376,37.616178],[-122.386301,37.616131],[-122.386161,37.616105],[-122.386022,37.616131],[-122.385914,37.616186],[-122.385855,37.616267],[-122.385834,37.616369],[-122.385871,37.616467],[-122.385941,37.616543],[-122.386054,37.616603],[-122.386183,37.616611],[-122.386306,37.616573],[-122.386419,37.616509],[-122.386467,37.616411],[-122.386472,37.616318]]]}
}
