{
  "id": 1762892143,
  "type": "Feature",
  "properties": {
    "date:cessation_lower": "1977-01-01",
    "date:cessation_upper": "1977-12-31",
    "date:inception_lower": "1977-01-01",
    "date:inception_upper": "1977-12-31",
    "edtf:cessation": "1977",
    "edtf:inception": "1977",
    "geom:area": 2.477324999997507e-7,
    "geom:bbox": "-122.386472,37.616105,-122.385834,37.616611",
    "geom:latitude": 37.61635756125121,
    "geom:longitude": -122.38615532866096,
    "iso:country": "US",
    "media:fingerprint": "",
    "media:imagehash_avg": "a:e1e1e1c1e3f3ffff",
    "media:imagehash_diff": "d:8f8f078f8f8ba7c5",
    "media:mimetype": "image/jpeg",
    "media:properties": {
      "sizes": {}
    },
    "media:source": "sfomuseum",
    "media:status_id": 1,
    "media:uri_template": "https://static.sfomuseum.org/media/176/289/214/3/1762892143_{secret}_{label}.{extension}",
    "millsfield:airport_id": [
      102527513
    ],
    "millsfield:category_id": 1762679685,
    "millsfield:collection_id": 1511214207,
    "millsfield:images_colors": [
      {
        "hex": "#abac9a",
        "name": "#abac9a",
        "reference": "marekm4"
      },
      {
        "hex": "#a9a9a9",
        "name": "darkgrey",
        "reference": "css4"
      },
      {
        "hex": "#979aaa",
        "name": "Manatee",
        "reference": "crayola"
      },
      {
        "hex": "#4d4d52",
        "name": "#4d4d52",
        "reference": "marekm4"
      },
      {
        "hex": "#2f4f4f",
        "name": "darkslategrey",
        "reference": "css4"
      },
      {
        "hex": "#414a4c",
        "name": "Outer Space",
        "reference": "crayola"
      },
      {
        "hex": "#8a8a7a",
        "name": "#8a8a7a",
        "reference": "marekm4"
      },
      {
        "hex": "#808080",
        "name": "grey",
        "reference": "css4"
      },
      {
        "hex": "#95918c",
        "name": "Gray",
        "reference": "crayola"
      }
    ],
    "millsfield:similar": {
      "apple/mobileclip_s0": [
        {
          "distance": 0.51723814,
          "id": 1527855881
        },
        {
          "distance": 0.520834,
          "id": 1527855865
        },
        {
          "distance": 0.53220993,
          "id": 1998528959
        },
        {
          "distance": 0.5363175,
          "id": 1527855879
        },
        {
          "distance": 0.55904585,
          "id": 1762696705
        },
        {
          "distance": 0.5590912,
          "id": 1527825759
        },
        {
          "distance": 0.5594247,
          "id": 1762696725
        },
        {
          "distance": 0.565733,
          "id": 1913663675
        },
        {
          "distance": 0.5720013,
          "id": 1762698233
        },
        {
          "distance": 0.57671183,
          "id": 1762891339
        }
      ],
      "apple/mobileclip_s1": [
        {
          "distance": 0.3864258,
          "id": 1527855865
        },
        {
          "distance": 0.39296332,
          "id": 1762891339
        },
        {
          "distance": 0.39344615,
          "id": 1998528959
        },
        {
          "distance": 0.3971509,
          "id": 1762696705
        },
        {
          "distance": 0.3993832,
          "id": 1762696725
        },
        {
          "distance": 0.4009015,
          "id": 1527855559
        },
        {
          "distance": 0.401135,
          "id": 1762698233
        },
        {
          "distance": 0.40213183,
          "id": 1527855563
        },
        {
          "distance": 0.40554854,
          "id": 1527855863
        },
        {
          "distance": 0.407743,
          "id": 1762696793
        }
      ],
      "apple/mobileclip_s2": [
        {
          "distance": 0.45567062,
          "id": 1998528955
        },
        {
          "distance": 0.46504772,
          "id": 1998528959
        },
        {
          "distance": 0.5104251,
          "id": 1762696705
        },
        {
          "distance": 0.5224105,
          "id": 1527824153
        },
        {
          "distance": 0.5342936,
          "id": 1527825847
        },
        {
          "distance": 0.5434926,
          "id": 1762891359
        },
        {
          "distance": 0.5447508,
          "id": 1527855863
        },
        {
          "distance": 0.55532813,
          "id": 1762696793
        },
        {
          "distance": 0.5569152,
          "id": 1527825601
        },
        {
          "distance": 0.55905646,
          "id": 1913663675
        }
      ]
    },
    "millsfield:subcategory_id": 1511213191,
    "mz:is_current": 1,
    "sfomuseum:filename": "40442.jpg",
    "sfomuseum:image_id": 40442,
    "sfomuseum:image_index": 5,
    "sfomuseum:image_type": "studio",
    "sfomuseum:object_id": 129873,
    "sfomuseum:placetype": "image",
    "sfomuseum:primary_image": 1,
    "src:geom": "sfomuseum",
    "wof:belongsto": [
      102527513,
      1159162825,
      102191575,
      85633793,
      102087579,
      85922583,
      1762831869,
      85688637,
      1159160869
    ],
    "wof:country": "US",
    "wof:created": 1643413287,
    "wof:depicts": [
      102527513,
      1762831869
    ],
    "wof:geomhash": "ed7c2ab3547fc3916b5edc33488deaa7",
    "wof:hierarchy": [
      {
        "building_id": -1,
        "campus_id": 102527513,
        "collection_id": 1159162825,
        "concourse_id": 1159162825,
        "continent_id": 102191575,
        "country_id": 85633793,
        "county_id": 102087579,
        "custom_id": 1762892143,
        "image_id": 1762892143,
        "locality_id": 85922583,
        "neighbourhood_id": -1,
        "object_id": 1762831869,
        "region_id": 85688637,
        "wing_id": 1159160869
      }
    ],
    "wof:id": 1762892143,
    "wof:lastmodified": 1788450729,
    "wof:name": "photographic design drawing: San Francisco International Airport",
    "wof:parent_id": 1762831869,
    "wof:placetype": "custom",
    "wof:placetype_alt": [
      "image"
    ],
    "wof:repo": "sfomuseum-data-media-collection",
    "wof:superseded_by": [],
    "wof:supersedes": []
  },
  "bbox": [
    -122.386472,
    37.616105,
    -122.385834,
    37.616611
  ],
  "geometry": {"type":"Polygon","coordinates":[[[-122.386472,37.616318],[-122.386435,37.616233],[-122.386376,37.616178],[-122.386301,37.616131],[-122.386161,37.616105],[-122.386022,37.616131],[-122.385914,37.616186],[-122.385855,37.616267],[-122.385834,37.616369],[-122.385871,37.616467],[-122.385941,37.616543],[-122.386054,37.616603],[-122.386183,37.616611],[-122.386306,37.616573],[-122.386419,37.616509],[-122.386467,37.616411],[-122.386472,37.616318]]]}
}
