{
  "id": 1880236771,
  "type": "Feature",
  "properties": {
    "date:cessation_lower": "2007-01-01",
    "date:cessation_upper": "2007-12-31",
    "date:inception_lower": "2007-01-01",
    "date:inception_upper": "2007-12-31",
    "edtf:cessation": "2007~",
    "edtf:inception": "2007~",
    "geom:area": 2.477324999997507e-7,
    "geom:bbox": "-122.386472,37.616105,-122.385834,37.616611",
    "geom:latitude": 37.61635756125121,
    "geom:longitude": -122.38615532866096,
    "media:fingerprint": "4a3666d2f097176d084878b265838d04b33260af",
    "media:imagehash_avg": "a:383c3c000093ffff",
    "media:imagehash_diff": "d:f0f0e0063337c0e0",
    "media:imagetext": "GENUINE ITALIAN LEATHER\nMADE IN ITALY\nXS\n390259 600",
    "media:imagetext_created": 1787968232,
    "media:imagetext_source": "com.apple.visionkit.VNImageRequestHandler#Version 26.6.2 (Build 25G83)",
    "media:mimetype": "image/tiff",
    "media:properties": {
      "sizes": {
        "b": {
          "extension": "jpg",
          "height": 768,
          "mimetype": "image/jpeg",
          "secret": "RKhJG8r9sksxdhZQ62Cr29wMbPmwhM34",
          "width": 960
        },
        "c": {
          "extension": "jpg",
          "height": 600,
          "mimetype": "image/jpeg",
          "secret": "RKhJG8r9sksxdhZQ62Cr29wMbPmwhM34",
          "width": 750
        },
        "dc": {
          "extension": "jpg",
          "height": 600,
          "mimetype": "image/jpeg",
          "secret": "RKhJG8r9sksxdhZQ62Cr29wMbPmwhM34",
          "width": 750
        },
        "ds": {
          "extension": "jpg",
          "height": 320,
          "mimetype": "image/jpeg",
          "secret": "RKhJG8r9sksxdhZQ62Cr29wMbPmwhM34",
          "width": 320
        },
        "k": {
          "extension": "jpg",
          "height": 1536,
          "mimetype": "image/jpeg",
          "secret": "RKhJG8r9sksxdhZQ62Cr29wMbPmwhM34",
          "width": 1920
        },
        "n": {
          "extension": "jpg",
          "height": 240,
          "mimetype": "image/jpeg",
          "secret": "RKhJG8r9sksxdhZQ62Cr29wMbPmwhM34",
          "width": 300
        },
        "o": {
          "extension": "jpg",
          "height": 1600,
          "mimetype": "image/jpeg",
          "secret": "cMvjEuhmqswakxYLYE0Kfu1iEDk6myey",
          "width": 2000
        },
        "s": {
          "extension": "jpg",
          "height": 320,
          "mimetype": "image/jpeg",
          "secret": "RKhJG8r9sksxdhZQ62Cr29wMbPmwhM34",
          "width": 320
        },
        "z": {
          "extension": "jpg",
          "height": 480,
          "mimetype": "image/jpeg",
          "secret": "RKhJG8r9sksxdhZQ62Cr29wMbPmwhM34",
          "width": 600
        }
      }
    },
    "media:source": "sfomuseum",
    "media:status_id": 1,
    "media:uri_template": "https://static.sfomuseum.org/media/188/023/677/1/1880236771_{secret}_{label}.{extension}",
    "millsfield:airline_id": [
      1159285481
    ],
    "millsfield:category_id": 1763416381,
    "millsfield:collection_id": 1511214203,
    "millsfield:company_id": [
      1159288091
    ],
    "millsfield:images_colors": [
      {
        "hex": "#aba9ac",
        "name": "#aba9ac",
        "reference": "marekm4"
      },
      {
        "hex": "#a9a9a9",
        "name": "darkgrey",
        "reference": "css4"
      },
      {
        "hex": "#979aaa",
        "name": "Manatee",
        "reference": "crayola"
      },
      {
        "hex": "#653a34",
        "name": "#653a34",
        "reference": "marekm4"
      },
      {
        "hex": "#8b4513",
        "name": "saddlebrown",
        "reference": "css4"
      },
      {
        "hex": "#714b23",
        "name": "Raw Umber",
        "reference": "crayola"
      }
    ],
    "millsfield:images_texts": [
      "GENUINE ITALIAN LEATHER\nMADE IN ITALY\nXS\n390259 600"
    ],
    "millsfield:images_texts_ids": [
      1880236771
    ],
    "millsfield:similar": {
      "apple/mobileclip_s0": [
        {
          "distance": 0.22988096,
          "id": 1880236775
        },
        {
          "distance": 0.30695745,
          "id": 1880236777
        },
        {
          "distance": 0.32848257,
          "id": 1880236783
        },
        {
          "distance": 0.32898182,
          "id": 1813534437
        },
        {
          "distance": 0.3520969,
          "id": 1880236753
        },
        {
          "distance": 0.37926313,
          "id": 1880236759
        },
        {
          "distance": 0.38574198,
          "id": 1746865821
        },
        {
          "distance": 0.38647872,
          "id": 1813534435
        },
        {
          "distance": 0.39087233,
          "id": 1880236757
        },
        {
          "distance": 0.39661005,
          "id": 1813516275
        }
      ],
      "apple/mobileclip_s1": [
        {
          "distance": 0.17426217,
          "id": 1880236775
        },
        {
          "distance": 0.23017763,
          "id": 1880236777
        },
        {
          "distance": 0.2683681,
          "id": 1813534437
        },
        {
          "distance": 0.28078887,
          "id": 1880236783
        },
        {
          "distance": 0.29362983,
          "id": 1880236759
        },
        {
          "distance": 0.29720122,
          "id": 1880236779
        },
        {
          "distance": 0.3016031,
          "id": 1880236753
        },
        {
          "distance": 0.30339518,
          "id": 1880236757
        },
        {
          "distance": 0.32755953,
          "id": 1880236781
        },
        {
          "distance": 0.33057207,
          "id": 1813516275
        }
      ],
      "apple/mobileclip_s2": [
        {
          "distance": 0.2653849,
          "id": 1880236775
        },
        {
          "distance": 0.32946765,
          "id": 1880236777
        },
        {
          "distance": 0.39316362,
          "id": 1880236783
        },
        {
          "distance": 0.40217158,
          "id": 1880236779
        },
        {
          "distance": 0.40457332,
          "id": 1880236781
        },
        {
          "distance": 0.43005043,
          "id": 1880236753
        },
        {
          "distance": 0.4394248,
          "id": 1813534437
        },
        {
          "distance": 0.45043227,
          "id": 1880236757
        },
        {
          "distance": 0.45145953,
          "id": 1880236759
        },
        {
          "distance": 0.45377758,
          "id": 1880236751
        }
      ]
    },
    "millsfield:subcategory_id": 1511213455,
    "mz:is_current": 1,
    "sfomuseum:filename": "2019.032.011_f.tif",
    "sfomuseum:image_id": 246127,
    "sfomuseum:image_index": 5,
    "sfomuseum:image_type": "studio",
    "sfomuseum:object_id": 201893,
    "sfomuseum:placetype": "image",
    "sfomuseum:primary_image": 1,
    "src:geom": "sfomuseum",
    "wof:belongsto": [
      102527513,
      1159162825,
      102191575,
      85633793,
      102087579,
      85922583,
      1880235777,
      85688637,
      1159160869
    ],
    "wof:country": "XY",
    "wof:created": 1693297592,
    "wof:depicts": [
      1159285481,
      1159288091,
      1880235777
    ],
    "wof:geomhash": "ed7c2ab3547fc3916b5edc33488deaa7",
    "wof:hierarchy": [
      {
        "building_id": -1,
        "campus_id": 102527513,
        "collection_id": 1159162825,
        "concourse_id": 1159162825,
        "continent_id": 102191575,
        "country_id": 85633793,
        "county_id": 102087579,
        "custom_id": 1880236771,
        "image_id": 1880236771,
        "locality_id": 85922583,
        "neighbourhood_id": -1,
        "object_id": 1880235777,
        "region_id": 85688637,
        "wing_id": 1159160869
      }
    ],
    "wof:id": 1880236771,
    "wof:lastmodified": 1788451751,
    "wof:name": "flight attendant belt: Virgin America",
    "wof:parent_id": 1880235777,
    "wof:placetype": "custom",
    "wof:placetype_alt": [
      "image"
    ],
    "wof:repo": "sfomuseum-data-media-collection",
    "wof:superseded_by": [],
    "wof:supersedes": []
  },
  "bbox": [
    -122.386472,
    37.616105,
    -122.385834,
    37.616611
  ],
  "geometry": {"type":"Polygon","coordinates":[[[-122.386472,37.616318],[-122.386435,37.616233],[-122.386376,37.616178],[-122.386301,37.616131],[-122.386161,37.616105],[-122.386022,37.616131],[-122.385914,37.616186],[-122.385855,37.616267],[-122.385834,37.616369],[-122.385871,37.616467],[-122.385941,37.616543],[-122.386054,37.616603],[-122.386183,37.616611],[-122.386306,37.616573],[-122.386419,37.616509],[-122.386467,37.616411],[-122.386472,37.616318]]]}
}
