{
  "id": 1880246759,
  "type": "Feature",
  "properties": {
    "date:cessation_lower": "2013-01-01",
    "date:cessation_upper": "2013-12-31",
    "date:inception_lower": "2013-01-01",
    "date:inception_upper": "2013-12-31",
    "edtf:cessation": "2013~",
    "edtf:inception": "2013~",
    "geom:area": 2.477324999997507e-7,
    "geom:bbox": "-122.386472,37.616105,-122.385834,37.616611",
    "geom:latitude": 37.61635756125121,
    "geom:longitude": -122.38615532866096,
    "media:fingerprint": "6feea9e239f0825bbf006813c25f677ade4cfaaa",
    "media:imagehash_avg": "a:ff81818f9df90191",
    "media:imagehash_diff": "d:497971797961636b",
    "media:imagetext": "Mood-lit Libations\nChampagne Powder Cocktail\nChampagne served with St. Germain\nelderflower liqueur and hibiscus syrup\nMile-High Manhattan\nStranahans whiskey served with\nsweet vermouth\nPeach Collins On The Rockies\nSilver Tree vodka, Leopold Bros peach\nliqueur, lemon juice and agave nectar\nColorado Craft Beer\nCalifornia Wines\nVirgin.\namerica",
    "media:imagetext_created": 1787968356,
    "media:imagetext_source": "com.apple.visionkit.VNImageRequestHandler#Version 26.6.2 (Build 25G83)",
    "media:mimetype": "image/tiff",
    "media:properties": {
      "sizes": {
        "b": {
          "extension": "jpg",
          "height": 768,
          "mimetype": "image/jpeg",
          "secret": "rExvGs9voKZbfY4yl0DUhx906gXNDURr",
          "width": 564
        },
        "c": {
          "extension": "jpg",
          "height": 600,
          "mimetype": "image/jpeg",
          "secret": "rExvGs9voKZbfY4yl0DUhx906gXNDURr",
          "width": 441
        },
        "dc": {
          "extension": "jpg",
          "height": 600,
          "mimetype": "image/jpeg",
          "secret": "rExvGs9voKZbfY4yl0DUhx906gXNDURr",
          "width": 441
        },
        "ds": {
          "extension": "jpg",
          "height": 320,
          "mimetype": "image/jpeg",
          "secret": "rExvGs9voKZbfY4yl0DUhx906gXNDURr",
          "width": 320
        },
        "k": {
          "extension": "jpg",
          "height": 1536,
          "mimetype": "image/jpeg",
          "secret": "rExvGs9voKZbfY4yl0DUhx906gXNDURr",
          "width": 1129
        },
        "n": {
          "extension": "jpg",
          "height": 240,
          "mimetype": "image/jpeg",
          "secret": "rExvGs9voKZbfY4yl0DUhx906gXNDURr",
          "width": 176
        },
        "o": {
          "extension": "jpg",
          "height": 2212,
          "mimetype": "image/jpeg",
          "secret": "szupdaAZ2z0jPf3wm0npGEv1zAUFbG6O",
          "width": 1627
        },
        "s": {
          "extension": "jpg",
          "height": 320,
          "mimetype": "image/jpeg",
          "secret": "rExvGs9voKZbfY4yl0DUhx906gXNDURr",
          "width": 320
        },
        "z": {
          "extension": "jpg",
          "height": 480,
          "mimetype": "image/jpeg",
          "secret": "rExvGs9voKZbfY4yl0DUhx906gXNDURr",
          "width": 353
        }
      }
    },
    "media:source": "sfomuseum",
    "media:status_id": 1,
    "media:uri_template": "https://static.sfomuseum.org/media/188/024/675/9/1880246759_{secret}_{label}.{extension}",
    "millsfield:airline_id": [
      1159285481
    ],
    "millsfield:category_id": 1762671311,
    "millsfield:collection_id": 1511214207,
    "millsfield:company_id": [
      1159288091
    ],
    "millsfield:images_colors": [
      {
        "hex": "#64548d",
        "name": "#64548d",
        "reference": "marekm4"
      },
      {
        "hex": "#663399",
        "name": "rebeccapurple",
        "reference": "css4"
      },
      {
        "hex": "#58427c",
        "name": "Cyber Grape",
        "reference": "crayola"
      },
      {
        "hex": "#45384c",
        "name": "#45384c",
        "reference": "marekm4"
      },
      {
        "hex": "#2f4f4f",
        "name": "darkslategrey",
        "reference": "css4"
      },
      {
        "hex": "#414a4c",
        "name": "Outer Space",
        "reference": "crayola"
      },
      {
        "hex": "#d5d0d9",
        "name": "#d5d0d9",
        "reference": "marekm4"
      },
      {
        "hex": "#d3d3d3",
        "name": "lightgrey",
        "reference": "css4"
      },
      {
        "hex": "#dbd7d2",
        "name": "Timberwolf",
        "reference": "crayola"
      },
      {
        "hex": "#8b6c92",
        "name": "#8b6c92",
        "reference": "marekm4"
      },
      {
        "hex": "#808080",
        "name": "grey",
        "reference": "css4"
      },
      {
        "hex": "#926eae",
        "name": "Violet (Purple)",
        "reference": "crayola"
      },
      {
        "hex": "#8a5c6e",
        "name": "#8a5c6e",
        "reference": "marekm4"
      },
      {
        "hex": "#696969",
        "name": "dimgrey",
        "reference": "css4"
      },
      {
        "hex": "#8d4e85",
        "name": "Razzmic Berry",
        "reference": "crayola"
      }
    ],
    "millsfield:images_texts": [
      "Mood-lit Libations\nChampagne Powder Cocktail\nChampagne served with St. Germain\nelderflower liqueur and hibiscus syrup\nMile-High Manhattan\nStranahans whiskey served with\nsweet vermouth\nPeach Collins On The Rockies\nSilver Tree vodka, Leopold Bros peach\nliqueur, lemon juice and agave nectar\nColorado Craft Beer\nCalifornia Wines\nVirgin.\namerica"
    ],
    "millsfield:images_texts_ids": [
      1880246759
    ],
    "millsfield:similar": {
      "apple/mobileclip_s0": [
        {
          "distance": 0.29265654,
          "id": 1880246757
        },
        {
          "distance": 0.6834651,
          "id": 1797195071
        },
        {
          "distance": 0.69334275,
          "id": 1527849757
        },
        {
          "distance": 0.6987312,
          "id": 1779736703
        },
        {
          "distance": 0.7086729,
          "id": 1527841005
        },
        {
          "distance": 0.70979273,
          "id": 1762699975
        },
        {
          "distance": 0.7153134,
          "id": 1762699631
        },
        {
          "distance": 0.71573144,
          "id": 1779668249
        },
        {
          "distance": 0.7163632,
          "id": 1729566601
        },
        {
          "distance": 0.7175462,
          "id": 1527840671
        }
      ],
      "apple/mobileclip_s1": [
        {
          "distance": 0.24913837,
          "id": 1880246757
        },
        {
          "distance": 0.52949077,
          "id": 1729566601
        },
        {
          "distance": 0.53272355,
          "id": 1797195071
        },
        {
          "distance": 0.5341295,
          "id": 1779668273
        },
        {
          "distance": 0.53426284,
          "id": 1527848237
        },
        {
          "distance": 0.5411356,
          "id": 1762699631
        },
        {
          "distance": 0.54146177,
          "id": 1847553601
        },
        {
          "distance": 0.5456389,
          "id": 1527849757
        },
        {
          "distance": 0.545694,
          "id": 1527846037
        },
        {
          "distance": 0.5464098,
          "id": 1779736771
        }
      ],
      "apple/mobileclip_s2": [
        {
          "distance": 0.4134877,
          "id": 1880246757
        },
        {
          "distance": 0.79100317,
          "id": 1779668255
        },
        {
          "distance": 0.7928327,
          "id": 1762899495
        },
        {
          "distance": 0.795822,
          "id": 1527848417
        },
        {
          "distance": 0.795827,
          "id": 1762696915
        },
        {
          "distance": 0.7965694,
          "id": 1847553601
        },
        {
          "distance": 0.79968256,
          "id": 1779667797
        },
        {
          "distance": 0.80294645,
          "id": 1779736591
        },
        {
          "distance": 0.8037438,
          "id": 1527846559
        },
        {
          "distance": 0.80465734,
          "id": 1779736587
        }
      ]
    },
    "millsfield:subcategory_id": 1511213567,
    "mz:is_current": 1,
    "sfomuseum:filename": "2018.157.039.tif",
    "sfomuseum:image_id": 224461,
    "sfomuseum:image_index": 5,
    "sfomuseum:image_type": "studio",
    "sfomuseum:object_id": 202635,
    "sfomuseum:placetype": "image",
    "sfomuseum:primary_image": 1,
    "src:geom": "sfomuseum",
    "wof:belongsto": [
      102527513,
      1159162825,
      102191575,
      85633793,
      102087579,
      85922583,
      1880246621,
      85688637,
      1159160869
    ],
    "wof:country": "XY",
    "wof:created": 1693383429,
    "wof:depicts": [
      1159288091,
      1880246621,
      1159285481
    ],
    "wof:geomhash": "ed7c2ab3547fc3916b5edc33488deaa7",
    "wof:hierarchy": [
      {
        "building_id": -1,
        "campus_id": 102527513,
        "collection_id": 1159162825,
        "concourse_id": 1159162825,
        "continent_id": 102191575,
        "country_id": 85633793,
        "county_id": 102087579,
        "custom_id": 1880246759,
        "image_id": 1880246759,
        "locality_id": 85922583,
        "neighbourhood_id": -1,
        "object_id": 1880246621,
        "region_id": 85688637,
        "wing_id": 1159160869
      }
    ],
    "wof:id": 1880246759,
    "wof:lastmodified": 1788451765,
    "wof:name": "menu: Virgin America",
    "wof:parent_id": 1880246621,
    "wof:placetype": "custom",
    "wof:placetype_alt": [
      "image"
    ],
    "wof:repo": "sfomuseum-data-media-collection",
    "wof:superseded_by": [],
    "wof:supersedes": []
  },
  "bbox": [
    -122.386472,
    37.616105,
    -122.385834,
    37.616611
  ],
  "geometry": {"type":"Polygon","coordinates":[[[-122.386472,37.616318],[-122.386435,37.616233],[-122.386376,37.616178],[-122.386301,37.616131],[-122.386161,37.616105],[-122.386022,37.616131],[-122.385914,37.616186],[-122.385855,37.616267],[-122.385834,37.616369],[-122.385871,37.616467],[-122.385941,37.616543],[-122.386054,37.616603],[-122.386183,37.616611],[-122.386306,37.616573],[-122.386419,37.616509],[-122.386467,37.616411],[-122.386472,37.616318]]]}
}
