{
  "id": 1763380795,
  "type": "Feature",
  "properties": {
    "date:cessation_lower": "1969-01-01",
    "date:cessation_upper": "1969-12-31",
    "date:inception_lower": "1969-01-01",
    "date:inception_upper": "1969-12-31",
    "edtf:cessation": "1969",
    "edtf:inception": "1969",
    "geom:area": 2.477324999997507e-7,
    "geom:bbox": "-122.386472,37.616105,-122.385834,37.616611",
    "geom:latitude": 37.61635756125121,
    "geom:longitude": -122.38615532866096,
    "media:fingerprint": "c394a730b62064765c97005b5ddd5ce18e32113b",
    "media:imagehash_avg": "a:ffe3ebe3e3c3e3ff",
    "media:imagehash_diff": "d:d3cbcbcbcbc7c3c7",
    "media:imagetext": "Atlanta\nDELTA AIR LINES",
    "media:imagetext_created": 1787962564,
    "media:imagetext_source": "com.apple.visionkit.VNImageRequestHandler#Version 26.6.2 (Build 25G83)",
    "media:mimetype": "image/tiff",
    "media:properties": {
      "sizes": {
        "b": {
          "extension": "jpg",
          "height": 768,
          "mimetype": "image/jpeg",
          "secret": "x6VTBUlipLqFjhrvn7ypWJIzAtCEUuom",
          "width": 965
        },
        "c": {
          "extension": "jpg",
          "height": 600,
          "mimetype": "image/jpeg",
          "secret": "x6VTBUlipLqFjhrvn7ypWJIzAtCEUuom",
          "width": 754
        },
        "dc": {
          "extension": "jpg",
          "height": 600,
          "mimetype": "image/jpeg",
          "secret": "x6VTBUlipLqFjhrvn7ypWJIzAtCEUuom",
          "width": 754
        },
        "ds": {
          "extension": "jpg",
          "height": 320,
          "mimetype": "image/jpeg",
          "secret": "x6VTBUlipLqFjhrvn7ypWJIzAtCEUuom",
          "width": 320
        },
        "k": {
          "extension": "jpg",
          "height": 1536,
          "mimetype": "image/jpeg",
          "secret": "x6VTBUlipLqFjhrvn7ypWJIzAtCEUuom",
          "width": 1931
        },
        "n": {
          "extension": "jpg",
          "height": 240,
          "mimetype": "image/jpeg",
          "secret": "x6VTBUlipLqFjhrvn7ypWJIzAtCEUuom",
          "width": 301
        },
        "o": {
          "extension": "jpg",
          "height": 1667,
          "mimetype": "image/jpeg",
          "secret": "LaJ5oB4HxZKFoMreyrh1iuzWMRuyuveQ",
          "width": 2096
        },
        "s": {
          "extension": "jpg",
          "height": 320,
          "mimetype": "image/jpeg",
          "secret": "x6VTBUlipLqFjhrvn7ypWJIzAtCEUuom",
          "width": 320
        },
        "z": {
          "extension": "jpg",
          "height": 480,
          "mimetype": "image/jpeg",
          "secret": "x6VTBUlipLqFjhrvn7ypWJIzAtCEUuom",
          "width": 603
        }
      }
    },
    "media:source": "sfomuseum",
    "media:status_id": 1,
    "media:uri_template": "https://static.sfomuseum.org/media/176/338/079/5/1763380795_{secret}_{label}.{extension}",
    "millsfield:airline_id": [
      1159284261
    ],
    "millsfield:category_id": 1762679663,
    "millsfield:collection_id": 1511214203,
    "millsfield:company_id": [
      1159287931
    ],
    "millsfield:images_colors": [
      {
        "hex": "#b5b3b1",
        "name": "#b5b3b1",
        "reference": "marekm4"
      },
      {
        "hex": "#a9a9a9",
        "name": "darkgrey",
        "reference": "css4"
      },
      {
        "hex": "#b0b7c6",
        "name": "Cadet Blue",
        "reference": "crayola"
      },
      {
        "hex": "#484636",
        "name": "#484636",
        "reference": "marekm4"
      },
      {
        "hex": "#2f4f4f",
        "name": "darkslategrey",
        "reference": "css4"
      },
      {
        "hex": "#414a4c",
        "name": "Outer Space",
        "reference": "crayola"
      },
      {
        "hex": "#ab9e4f",
        "name": "#ab9e4f",
        "reference": "marekm4"
      },
      {
        "hex": "#bdb76b",
        "name": "darkkhaki",
        "reference": "css4"
      },
      {
        "hex": "#bab86c",
        "name": "Olive Green",
        "reference": "crayola"
      },
      {
        "hex": "#b46e90",
        "name": "#b46e90",
        "reference": "marekm4"
      },
      {
        "hex": "#bc8f8f",
        "name": "rosybrown",
        "reference": "css4"
      },
      {
        "hex": "#c54b8c",
        "name": "Mulberry",
        "reference": "crayola"
      },
      {
        "hex": "#9a6b57",
        "name": "#9a6b57",
        "reference": "marekm4"
      },
      {
        "hex": "#a0522d",
        "name": "sienna",
        "reference": "css4"
      },
      {
        "hex": "#a5694f",
        "name": "Sepia",
        "reference": "crayola"
      }
    ],
    "millsfield:images_texts": [
      "Atlanta\nDELTA AIR LINES"
    ],
    "millsfield:images_texts_ids": [
      1763380795
    ],
    "millsfield:similar": {
      "apple/mobileclip_s0": [
        {
          "distance": 0.30569133,
          "id": 1763380907
        },
        {
          "distance": 0.41534606,
          "id": 1763380793
        },
        {
          "distance": 0.565526,
          "id": 1763380841
        },
        {
          "distance": 0.56992066,
          "id": 1763380837
        },
        {
          "distance": 0.58321613,
          "id": 1763380839
        },
        {
          "distance": 0.5839547,
          "id": 1763380879
        },
        {
          "distance": 0.5849007,
          "id": 1763380651
        },
        {
          "distance": 0.5861094,
          "id": 1763380821
        },
        {
          "distance": 0.59688586,
          "id": 1763380797
        },
        {
          "distance": 0.59960544,
          "id": 1763380787
        }
      ],
      "apple/mobileclip_s1": [
        {
          "distance": 0.22277564,
          "id": 1763380907
        },
        {
          "distance": 0.28258434,
          "id": 1763380793
        },
        {
          "distance": 0.36462253,
          "id": 1763380749
        },
        {
          "distance": 0.39179158,
          "id": 1763380841
        },
        {
          "distance": 0.3964715,
          "id": 1763380651
        },
        {
          "distance": 0.4024865,
          "id": 1763380811
        },
        {
          "distance": 0.4095717,
          "id": 1763380807
        },
        {
          "distance": 0.4103313,
          "id": 1763380909
        },
        {
          "distance": 0.41114837,
          "id": 1763380839
        },
        {
          "distance": 0.41310698,
          "id": 1763380847
        }
      ],
      "apple/mobileclip_s2": [
        {
          "distance": 0.2995238,
          "id": 1763380907
        },
        {
          "distance": 0.51794076,
          "id": 1763380793
        },
        {
          "distance": 0.54993916,
          "id": 1763380749
        },
        {
          "distance": 0.5801021,
          "id": 1763380811
        },
        {
          "distance": 0.5837376,
          "id": 1763380651
        },
        {
          "distance": 0.5933826,
          "id": 1763380807
        },
        {
          "distance": 0.5934664,
          "id": 1763380911
        },
        {
          "distance": 0.5943322,
          "id": 1763380831
        },
        {
          "distance": 0.59590316,
          "id": 1763380797
        },
        {
          "distance": 0.5970641,
          "id": 1763380825
        }
      ]
    },
    "millsfield:subcategory_id": 1511213361,
    "mz:is_current": 1,
    "sfomuseum:filename": "115161.tif",
    "sfomuseum:image_id": 115161,
    "sfomuseum:image_index": 5,
    "sfomuseum:image_type": "studio",
    "sfomuseum:object_id": 107415,
    "sfomuseum:placetype": "image",
    "sfomuseum:primary_image": 1,
    "src:geom": "sfomuseum",
    "wof:belongsto": [
      102527513,
      1159162825,
      102191575,
      85633793,
      102087579,
      85922583,
      1763350701,
      85688637,
      1159160869
    ],
    "wof:country": "XY",
    "wof:created": 1648683660,
    "wof:depicts": [
      1159284261,
      1159287931,
      1763350701
    ],
    "wof:geomhash": "ed7c2ab3547fc3916b5edc33488deaa7",
    "wof:hierarchy": [
      {
        "building_id": -1,
        "campus_id": 102527513,
        "collection_id": 1159162825,
        "concourse_id": 1159162825,
        "continent_id": 102191575,
        "country_id": 85633793,
        "county_id": 102087579,
        "custom_id": 1763380795,
        "image_id": 1763380795,
        "locality_id": 85922583,
        "neighbourhood_id": -1,
        "object_id": 1763350701,
        "region_id": 85688637,
        "wing_id": 1159160869
      }
    ],
    "wof:id": 1763380795,
    "wof:lastmodified": 1788451106,
    "wof:name": "playing cards: Delta Air Lines, Atlanta",
    "wof:parent_id": 1763350701,
    "wof:placetype": "custom",
    "wof:placetype_alt": [
      "image"
    ],
    "wof:repo": "sfomuseum-data-media-collection",
    "wof:superseded_by": [],
    "wof:supersedes": []
  },
  "bbox": [
    -122.386472,
    37.616105,
    -122.385834,
    37.616611
  ],
  "geometry": {"type":"Polygon","coordinates":[[[-122.386472,37.616318],[-122.386435,37.616233],[-122.386376,37.616178],[-122.386301,37.616131],[-122.386161,37.616105],[-122.386022,37.616131],[-122.385914,37.616186],[-122.385855,37.616267],[-122.385834,37.616369],[-122.385871,37.616467],[-122.385941,37.616543],[-122.386054,37.616603],[-122.386183,37.616611],[-122.386306,37.616573],[-122.386419,37.616509],[-122.386467,37.616411],[-122.386472,37.616318]]]}
}
