{
  "id": 1796484849,
  "type": "Feature",
  "properties": {
    "date:cessation_lower": "1980-01-01",
    "date:cessation_upper": "1989-12-31",
    "date:inception_lower": "1980-01-01",
    "date:inception_upper": "1989-12-31",
    "edtf:cessation": "198X",
    "edtf:inception": "198X",
    "geom:area": 2.477324999997507e-7,
    "geom:bbox": "-122.386472,37.616105,-122.385834,37.616611",
    "geom:latitude": 37.61635756125121,
    "geom:longitude": -122.38615532866096,
    "media:fingerprint": "84a09df031498908066dc0a9bda4717dd010e2fe",
    "media:imagehash_avg": "a:ffff9f9f8e700000",
    "media:imagehash_diff": "d:c02030302886b0c0",
    "media:mimetype": "image/tiff",
    "media:properties": {
      "sizes": {
        "b": {
          "extension": "jpg",
          "height": 768,
          "mimetype": "image/jpeg",
          "secret": "CyG19Mhwn4i0GvKRlEQwKDPV6IGRTo3Q",
          "width": 965
        },
        "c": {
          "extension": "jpg",
          "height": 600,
          "mimetype": "image/jpeg",
          "secret": "CyG19Mhwn4i0GvKRlEQwKDPV6IGRTo3Q",
          "width": 754
        },
        "dc": {
          "extension": "jpg",
          "height": 600,
          "mimetype": "image/jpeg",
          "secret": "CyG19Mhwn4i0GvKRlEQwKDPV6IGRTo3Q",
          "width": 754
        },
        "ds": {
          "extension": "jpg",
          "height": 320,
          "mimetype": "image/jpeg",
          "secret": "CyG19Mhwn4i0GvKRlEQwKDPV6IGRTo3Q",
          "width": 320
        },
        "k": {
          "extension": "jpg",
          "height": 1536,
          "mimetype": "image/jpeg",
          "secret": "CyG19Mhwn4i0GvKRlEQwKDPV6IGRTo3Q",
          "width": 1931
        },
        "n": {
          "extension": "jpg",
          "height": 240,
          "mimetype": "image/jpeg",
          "secret": "CyG19Mhwn4i0GvKRlEQwKDPV6IGRTo3Q",
          "width": 301
        },
        "o": {
          "extension": "jpg",
          "height": 1667,
          "mimetype": "image/jpeg",
          "secret": "TbI3PXqDdgqdVlC6GtbLDKplseqt6nac",
          "width": 2096
        },
        "s": {
          "extension": "jpg",
          "height": 320,
          "mimetype": "image/jpeg",
          "secret": "CyG19Mhwn4i0GvKRlEQwKDPV6IGRTo3Q",
          "width": 320
        },
        "z": {
          "extension": "jpg",
          "height": 480,
          "mimetype": "image/jpeg",
          "secret": "CyG19Mhwn4i0GvKRlEQwKDPV6IGRTo3Q",
          "width": 603
        }
      }
    },
    "media:source": "sfomuseum",
    "media:status_id": 1,
    "media:uri_template": "https://static.sfomuseum.org/media/179/648/484/9/1796484849_{secret}_{label}.{extension}",
    "millsfield:airline_id": [
      1159294431
    ],
    "millsfield:category_id": 1746152551,
    "millsfield:collection_id": 1511214203,
    "millsfield:company_id": [
      1159287595
    ],
    "millsfield:images_colors": [
      {
        "hex": "#a3a19f",
        "name": "#a3a19f",
        "reference": "marekm4"
      },
      {
        "hex": "#a9a9a9",
        "name": "darkgrey",
        "reference": "css4"
      },
      {
        "hex": "#979aaa",
        "name": "Manatee",
        "reference": "crayola"
      },
      {
        "hex": "#454343",
        "name": "#454343",
        "reference": "marekm4"
      },
      {
        "hex": "#2f4f4f",
        "name": "darkslategrey",
        "reference": "css4"
      },
      {
        "hex": "#414a4c",
        "name": "Outer Space",
        "reference": "crayola"
      }
    ],
    "millsfield:similar": {
      "apple/mobileclip_s0": [
        {
          "distance": 0.1624218,
          "id": 1796476801
        },
        {
          "distance": 0.18228856,
          "id": 1796472123
        },
        {
          "distance": 0.194725,
          "id": 1796484765
        },
        {
          "distance": 0.19482474,
          "id": 1796476819
        },
        {
          "distance": 0.19918062,
          "id": 1796527797
        },
        {
          "distance": 0.20227951,
          "id": 1796476803
        },
        {
          "distance": 0.202845,
          "id": 1796472385
        },
        {
          "distance": 0.20302927,
          "id": 1796506415
        },
        {
          "distance": 0.21198286,
          "id": 1796476817
        },
        {
          "distance": 0.21753635,
          "id": 1796465101
        }
      ],
      "apple/mobileclip_s1": [
        {
          "distance": 0.08311978,
          "id": 1796476803
        },
        {
          "distance": 0.12423876,
          "id": 1796476799
        },
        {
          "distance": 0.1437091,
          "id": 1796476801
        },
        {
          "distance": 0.14613554,
          "id": 1796484701
        },
        {
          "distance": 0.1487315,
          "id": 1796465101
        },
        {
          "distance": 0.14946729,
          "id": 1796472385
        },
        {
          "distance": 0.15379743,
          "id": 1796465109
        },
        {
          "distance": 0.15720308,
          "id": 1796484765
        },
        {
          "distance": 0.16308488,
          "id": 1796472257
        },
        {
          "distance": 0.16355565,
          "id": 1796472417
        }
      ],
      "apple/mobileclip_s2": [
        {
          "distance": 0.13686605,
          "id": 1796476803
        },
        {
          "distance": 0.13963771,
          "id": 1796476799
        },
        {
          "distance": 0.17761894,
          "id": 1796465101
        },
        {
          "distance": 0.17923838,
          "id": 1796465107
        },
        {
          "distance": 0.18128246,
          "id": 1796465109
        },
        {
          "distance": 0.18429755,
          "id": 1796484765
        },
        {
          "distance": 0.18682455,
          "id": 1796465099
        },
        {
          "distance": 0.18815285,
          "id": 1796472257
        },
        {
          "distance": 0.18843505,
          "id": 1796484701
        },
        {
          "distance": 0.19253497,
          "id": 1796465103
        }
      ]
    },
    "millsfield:subcategory_id": 1511213417,
    "mz:is_current": 1,
    "sfomuseum:filename": "107014.tif",
    "sfomuseum:image_id": 107014,
    "sfomuseum:image_index": 5,
    "sfomuseum:image_type": "studio",
    "sfomuseum:object_id": 80210,
    "sfomuseum:placetype": "image",
    "sfomuseum:primary_image": 1,
    "src:geom": "sfomuseum",
    "wof:belongsto": [
      102527513,
      1159162825,
      102191575,
      85633793,
      102087579,
      85922583,
      1796484629,
      85688637,
      1159160869
    ],
    "wof:country": "XY",
    "wof:created": 1666684221,
    "wof:depicts": [
      1796484629,
      1159294431,
      1159287595
    ],
    "wof:geomhash": "ed7c2ab3547fc3916b5edc33488deaa7",
    "wof:hierarchy": [
      {
        "building_id": -1,
        "campus_id": 102527513,
        "collection_id": 1159162825,
        "concourse_id": 1159162825,
        "continent_id": 102191575,
        "country_id": 85633793,
        "county_id": 102087579,
        "custom_id": 1796484849,
        "image_id": 1796484849,
        "locality_id": 85922583,
        "neighbourhood_id": -1,
        "object_id": 1796484629,
        "region_id": 85688637,
        "wing_id": 1159160869
      }
    ],
    "wof:id": 1796484849,
    "wof:lastmodified": 1788451546,
    "wof:name": "spoon: Western Airlines",
    "wof:parent_id": 1796484629,
    "wof:placetype": "custom",
    "wof:placetype_alt": [
      "image"
    ],
    "wof:repo": "sfomuseum-data-media-collection",
    "wof:superseded_by": [],
    "wof:supersedes": []
  },
  "bbox": [
    -122.386472,
    37.616105,
    -122.385834,
    37.616611
  ],
  "geometry": {"type":"Polygon","coordinates":[[[-122.386472,37.616318],[-122.386435,37.616233],[-122.386376,37.616178],[-122.386301,37.616131],[-122.386161,37.616105],[-122.386022,37.616131],[-122.385914,37.616186],[-122.385855,37.616267],[-122.385834,37.616369],[-122.385871,37.616467],[-122.385941,37.616543],[-122.386054,37.616603],[-122.386183,37.616611],[-122.386306,37.616573],[-122.386419,37.616509],[-122.386467,37.616411],[-122.386472,37.616318]]]}
}
