{
  "id": 1880255135,
  "type": "Feature",
  "properties": {
    "date:cessation_lower": "1988-01-01",
    "date:cessation_upper": "1988-12-31",
    "date:inception_lower": "1988-01-01",
    "date:inception_upper": "1988-12-31",
    "edtf:cessation": "1988~",
    "edtf:inception": "1988~",
    "geom:area": 2.477324999997507e-7,
    "geom:bbox": "-122.386472,37.616105,-122.385834,37.616611",
    "geom:latitude": 37.61635756125121,
    "geom:longitude": -122.38615532866096,
    "media:fingerprint": "d8c3fd36267014894b6eb2f74454becf46768468",
    "media:imagehash_avg": "a:000080c0efefe3ff",
    "media:imagehash_diff": "d:0725270e08080e07",
    "media:imagetext": "US\nARe",
    "media:imagetext_created": 1787968397,
    "media:imagetext_source": "com.apple.visionkit.VNImageRequestHandler#Version 26.6.2 (Build 25G83)",
    "media:mimetype": "image/tiff",
    "media:properties": {
      "sizes": {
        "b": {
          "extension": "jpg",
          "height": 768,
          "mimetype": "image/jpeg",
          "secret": "zvATpjGJPgJTPTYaBr3owHxY0DQmYlZk",
          "width": 965
        },
        "c": {
          "extension": "jpg",
          "height": 600,
          "mimetype": "image/jpeg",
          "secret": "zvATpjGJPgJTPTYaBr3owHxY0DQmYlZk",
          "width": 754
        },
        "dc": {
          "extension": "jpg",
          "height": 600,
          "mimetype": "image/jpeg",
          "secret": "zvATpjGJPgJTPTYaBr3owHxY0DQmYlZk",
          "width": 754
        },
        "ds": {
          "extension": "jpg",
          "height": 320,
          "mimetype": "image/jpeg",
          "secret": "zvATpjGJPgJTPTYaBr3owHxY0DQmYlZk",
          "width": 320
        },
        "k": {
          "extension": "jpg",
          "height": 1536,
          "mimetype": "image/jpeg",
          "secret": "zvATpjGJPgJTPTYaBr3owHxY0DQmYlZk",
          "width": 1931
        },
        "n": {
          "extension": "jpg",
          "height": 240,
          "mimetype": "image/jpeg",
          "secret": "zvATpjGJPgJTPTYaBr3owHxY0DQmYlZk",
          "width": 301
        },
        "o": {
          "extension": "jpg",
          "height": 1667,
          "mimetype": "image/jpeg",
          "secret": "b6GPfWk9j4qmokgFGL9DLdYHRMQzyzij",
          "width": 2096
        },
        "s": {
          "extension": "jpg",
          "height": 320,
          "mimetype": "image/jpeg",
          "secret": "zvATpjGJPgJTPTYaBr3owHxY0DQmYlZk",
          "width": 320
        },
        "z": {
          "extension": "jpg",
          "height": 480,
          "mimetype": "image/jpeg",
          "secret": "zvATpjGJPgJTPTYaBr3owHxY0DQmYlZk",
          "width": 603
        }
      }
    },
    "media:source": "sfomuseum",
    "media:status_id": 1,
    "media:uri_template": "https://static.sfomuseum.org/media/188/025/513/5/1880255135_{secret}_{label}.{extension}",
    "millsfield:aircraft_id": [
      1159289819
    ],
    "millsfield:airline_id": [
      1159285447
    ],
    "millsfield:category_id": 1511214235,
    "millsfield:collection_id": 1511214203,
    "millsfield:company_id": [
      1159293593
    ],
    "millsfield:has_coloring_book": 1,
    "millsfield:images_colors": [
      {
        "hex": "#aaa8a8",
        "name": "#aaa8a8",
        "reference": "marekm4"
      },
      {
        "hex": "#a9a9a9",
        "name": "darkgrey",
        "reference": "css4"
      },
      {
        "hex": "#979aaa",
        "name": "Manatee",
        "reference": "crayola"
      },
      {
        "hex": "#624f48",
        "name": "#624f48",
        "reference": "marekm4"
      },
      {
        "hex": "#556b2f",
        "name": "darkolivegreen",
        "reference": "css4"
      },
      {
        "hex": "#6e5160",
        "name": "Eggplant",
        "reference": "crayola"
      },
      {
        "hex": "#8d4e4d",
        "name": "#8d4e4d",
        "reference": "marekm4"
      },
      {
        "hex": "#a0522d",
        "name": "sienna",
        "reference": "css4"
      },
      {
        "hex": "#a5694f",
        "name": "Sepia",
        "reference": "crayola"
      }
    ],
    "millsfield:images_texts": [
      "USAIR\n.••..\nUSAIR",
      "VISA\nTURPEN\nFrancisco\nlaternations/\nAirport\nDeerarber",
      "US\nARe",
      "USAIR\nUSAIR"
    ],
    "millsfield:images_texts_ids": [
      1880255127,
      1880255129,
      1880255135,
      1880255137
    ],
    "millsfield:similar": {
      "apple/mobileclip_s0": [
        {
          "distance": 0.27451327,
          "id": 1880255129
        },
        {
          "distance": 0.3437086,
          "id": 1880255127
        },
        {
          "distance": 0.3717867,
          "id": 1931132101
        },
        {
          "distance": 0.39176533,
          "id": 1729566753
        },
        {
          "distance": 0.3950721,
          "id": 1880255053
        },
        {
          "distance": 0.39821404,
          "id": 1729566749
        },
        {
          "distance": 0.40105972,
          "id": 1880255137
        },
        {
          "distance": 0.40138274,
          "id": 1729566739
        },
        {
          "distance": 0.40161422,
          "id": 1914676513
        },
        {
          "distance": 0.40919763,
          "id": 1914676521
        }
      ],
      "apple/mobileclip_s1": [
        {
          "distance": 0.22462048,
          "id": 1880255129
        },
        {
          "distance": 0.26465887,
          "id": 1729566739
        },
        {
          "distance": 0.27340746,
          "id": 1729566749
        },
        {
          "distance": 0.27753687,
          "id": 1729566753
        },
        {
          "distance": 0.28311417,
          "id": 1947939387
        },
        {
          "distance": 0.28512898,
          "id": 1880255127
        },
        {
          "distance": 0.28647923,
          "id": 1914676521
        },
        {
          "distance": 0.29143128,
          "id": 1763110507
        },
        {
          "distance": 0.2935089,
          "id": 1880255311
        },
        {
          "distance": 0.29407978,
          "id": 1896922389
        }
      ],
      "apple/mobileclip_s2": [
        {
          "distance": 0.2640659,
          "id": 1880255129
        },
        {
          "distance": 0.38569275,
          "id": 1729566753
        },
        {
          "distance": 0.40176558,
          "id": 1880255127
        },
        {
          "distance": 0.42176315,
          "id": 1729566749
        },
        {
          "distance": 0.4277678,
          "id": 1880255137
        },
        {
          "distance": 0.43150145,
          "id": 1729566739
        },
        {
          "distance": 0.44553658,
          "id": 1763110459
        },
        {
          "distance": 0.44938427,
          "id": 1729566735
        },
        {
          "distance": 0.45157543,
          "id": 1880255317
        },
        {
          "distance": 0.4539216,
          "id": 1527857615
        }
      ]
    },
    "millsfield:subcategory_id": 1511213161,
    "mz:is_current": 1,
    "sfomuseum:filename": "L1996.14.015_04.tif",
    "sfomuseum:image_id": 161608,
    "sfomuseum:image_index": 5,
    "sfomuseum:image_type": "studio",
    "sfomuseum:object_id": 43279,
    "sfomuseum:placetype": "image",
    "sfomuseum:primary_image": 0,
    "src:geom": "sfomuseum",
    "wof:belongsto": [
      102527513,
      1159162825,
      102191575,
      85633793,
      102087579,
      85922583,
      1880254951,
      85688637,
      1159160869
    ],
    "wof:country": "XY",
    "wof:created": 1693470438,
    "wof:depicts": [
      1880254951,
      1159285447,
      1159289819,
      1159293593,
      1159288239
    ],
    "wof:geomhash": "ed7c2ab3547fc3916b5edc33488deaa7",
    "wof:hierarchy": [
      {
        "building_id": -1,
        "campus_id": 102527513,
        "collection_id": 1159162825,
        "concourse_id": 1159162825,
        "continent_id": 102191575,
        "country_id": 85633793,
        "county_id": 102087579,
        "custom_id": 1880255135,
        "image_id": 1880255135,
        "locality_id": 85922583,
        "neighbourhood_id": -1,
        "object_id": 1880254951,
        "region_id": 85688637,
        "wing_id": 1159160869
      }
    ],
    "wof:id": 1880255135,
    "wof:lastmodified": 1788451769,
    "wof:name": "model airplane: USAir, Boeing 737",
    "wof:parent_id": 1880254951,
    "wof:placetype": "custom",
    "wof:placetype_alt": [
      "image"
    ],
    "wof:repo": "sfomuseum-data-media-collection",
    "wof:superseded_by": [],
    "wof:supersedes": []
  },
  "bbox": [
    -122.386472,
    37.616105,
    -122.385834,
    37.616611
  ],
  "geometry": {"type":"Polygon","coordinates":[[[-122.386472,37.616318],[-122.386435,37.616233],[-122.386376,37.616178],[-122.386301,37.616131],[-122.386161,37.616105],[-122.386022,37.616131],[-122.385914,37.616186],[-122.385855,37.616267],[-122.385834,37.616369],[-122.385871,37.616467],[-122.385941,37.616543],[-122.386054,37.616603],[-122.386183,37.616611],[-122.386306,37.616573],[-122.386419,37.616509],[-122.386467,37.616411],[-122.386472,37.616318]]]}
}
