{
  "id": 1762712555,
  "type": "Feature",
  "properties": {
    "date:cessation_lower": "1960-01-01",
    "date:cessation_upper": "1969-12-31",
    "date:inception_lower": "1960-01-01",
    "date:inception_upper": "1969-12-31",
    "edtf:cessation": "196X",
    "edtf:inception": "196X",
    "geom:area": 2.477324999997507e-7,
    "geom:bbox": "-122.386472,37.616105,-122.385834,37.616611",
    "geom:latitude": 37.61635756125121,
    "geom:longitude": -122.38615532866096,
    "iso:country": "US",
    "media:fingerprint": "9459bf3e3277ee127d3a73fca471a781ef08b673",
    "media:imagehash_avg": "a:9f0cf0f1e7a7877f",
    "media:imagehash_diff": "d:7979616b6d4f6fc9",
    "media:imagetext": "SEATTLE-TACOMA AIRPORT waiting room.\nW-492\nPublished by Ellis Post Card Co., Arlingion,\nWashingion\n149882\nPLACE\nSTAMP\nHERE\nPOST CARD\nAddress\n2015,166 3209",
    "media:imagetext_created": 1787957954,
    "media:imagetext_source": "com.apple.visionkit.VNImageRequestHandler#Version 26.6.2 (Build 25G83)",
    "media:mimetype": "image/tiff",
    "media:properties": {
      "sizes": {
        "b": {
          "extension": "jpg",
          "height": 719,
          "mimetype": "image/jpeg",
          "secret": "16Z84FufZRlf8IojSKpwEGdbaZ7uX16i",
          "width": 1023
        },
        "c": {
          "extension": "jpg",
          "height": 562,
          "mimetype": "image/jpeg",
          "secret": "16Z84FufZRlf8IojSKpwEGdbaZ7uX16i",
          "width": 800
        },
        "dc": {
          "extension": "jpg",
          "height": 562,
          "mimetype": "image/jpeg",
          "secret": "16Z84FufZRlf8IojSKpwEGdbaZ7uX16i",
          "width": 800
        },
        "ds": {
          "extension": "jpg",
          "height": 320,
          "mimetype": "image/jpeg",
          "secret": "16Z84FufZRlf8IojSKpwEGdbaZ7uX16i",
          "width": 320
        },
        "k": {
          "extension": "jpg",
          "height": 1439,
          "mimetype": "image/jpeg",
          "secret": "16Z84FufZRlf8IojSKpwEGdbaZ7uX16i",
          "width": 2047
        },
        "n": {
          "extension": "jpg",
          "height": 224,
          "mimetype": "image/jpeg",
          "secret": "16Z84FufZRlf8IojSKpwEGdbaZ7uX16i",
          "width": 320
        },
        "o": {
          "extension": "jpg",
          "height": 1276,
          "mimetype": "image/jpeg",
          "secret": "QyEHconlplKMLNxOPFYANbXKIjR4503d",
          "width": 1815
        },
        "s": {
          "extension": "jpg",
          "height": 320,
          "mimetype": "image/jpeg",
          "secret": "16Z84FufZRlf8IojSKpwEGdbaZ7uX16i",
          "width": 320
        },
        "z": {
          "extension": "jpg",
          "height": 449,
          "mimetype": "image/jpeg",
          "secret": "16Z84FufZRlf8IojSKpwEGdbaZ7uX16i",
          "width": 640
        }
      }
    },
    "media:source": "sfomuseum",
    "media:status_id": 1,
    "media:uri_template": "https://static.sfomuseum.org/media/176/271/255/5/1762712555_{secret}_{label}.{extension}",
    "millsfield:airport_id": [
      102533269
    ],
    "millsfield:category_id": 1511214215,
    "millsfield:collection_id": 1511214207,
    "millsfield:images_colors": [
      {
        "hex": "#f1e7d1",
        "name": "#f1e7d1",
        "reference": "marekm4"
      },
      {
        "hex": "#faebd7",
        "name": "antiquewhite",
        "reference": "css4"
      },
      {
        "hex": "#efdecd",
        "name": "Almond",
        "reference": "crayola"
      },
      {
        "hex": "#3c4e2b",
        "name": "#3c4e2b",
        "reference": "marekm4"
      },
      {
        "hex": "#2f4f4f",
        "name": "darkslategrey",
        "reference": "css4"
      },
      {
        "hex": "#414a4c",
        "name": "Outer Space",
        "reference": "crayola"
      }
    ],
    "millsfield:images_texts": [
      "Ticketing\narking\nBaggage Claim\nA1-A6\n$1-S20\nB1-B15 •\nTravel Insuranc\nSeattle-Tacoma Airport, Seattle, Wash.\nPhoto by C.B. Ellis",
      "SEATTLE-TACOMA AIRPORT waiting room.\nW-492\nPublished by Ellis Post Card Co., Arlingion,\nWashingion\n149882\nPLACE\nSTAMP\nHERE\nPOST CARD\nAddress\n2015,166 3209"
    ],
    "millsfield:images_texts_ids": [
      1762712553,
      1762712555
    ],
    "millsfield:similar": {
      "apple/mobileclip_s0": [
        {
          "distance": 0.36195627,
          "id": 1762702791
        },
        {
          "distance": 0.42136854,
          "id": 1762712619
        },
        {
          "distance": 0.42683056,
          "id": 1762712223
        },
        {
          "distance": 0.4287621,
          "id": 1762712327
        },
        {
          "distance": 0.43759802,
          "id": 1762711435
        },
        {
          "distance": 0.43816075,
          "id": 1762712837
        },
        {
          "distance": 0.4560001,
          "id": 1762712453
        },
        {
          "distance": 0.46075627,
          "id": 1762712493
        },
        {
          "distance": 0.46127012,
          "id": 1762711049
        },
        {
          "distance": 0.46289876,
          "id": 1762711183
        }
      ],
      "apple/mobileclip_s1": [
        {
          "distance": 0.26029822,
          "id": 1762712619
        },
        {
          "distance": 0.2706528,
          "id": 1762711539
        },
        {
          "distance": 0.27102596,
          "id": 1762702791
        },
        {
          "distance": 0.27155477,
          "id": 1762711035
        },
        {
          "distance": 0.27376065,
          "id": 1762710869
        },
        {
          "distance": 0.27656505,
          "id": 1762711247
        },
        {
          "distance": 0.27818662,
          "id": 1762710805
        },
        {
          "distance": 0.27954328,
          "id": 1762711183
        },
        {
          "distance": 0.2796436,
          "id": 1762711025
        },
        {
          "distance": 0.27972722,
          "id": 1762710589
        }
      ],
      "apple/mobileclip_s2": [
        {
          "distance": 0.42036605,
          "id": 1762711183
        },
        {
          "distance": 0.42902344,
          "id": 1762711025
        },
        {
          "distance": 0.43767685,
          "id": 1762712887
        },
        {
          "distance": 0.4387057,
          "id": 1762712619
        },
        {
          "distance": 0.45740765,
          "id": 1762711525
        },
        {
          "distance": 0.46370587,
          "id": 1762710311
        },
        {
          "distance": 0.46441525,
          "id": 1762710373
        },
        {
          "distance": 0.46689257,
          "id": 1762711539
        },
        {
          "distance": 0.46798995,
          "id": 1762702817
        },
        {
          "distance": 0.46844262,
          "id": 1897762205
        }
      ]
    },
    "millsfield:subcategory_id": 1511213363,
    "mz:is_current": 1,
    "sfomuseum:filename": "2015.166.2309_bk.tif",
    "sfomuseum:image_id": 159412,
    "sfomuseum:image_index": 5,
    "sfomuseum:image_type": "studio",
    "sfomuseum:object_id": 182070,
    "sfomuseum:placetype": "image",
    "sfomuseum:primary_image": 0,
    "src:geom": "sfomuseum",
    "wof:belongsto": [
      102527513,
      1159162825,
      102191575,
      85633793,
      102087579,
      85922583,
      1762689529,
      85688637,
      1159160869
    ],
    "wof:country": "US",
    "wof:created": 1641350835,
    "wof:depicts": [
      1762689529,
      102533269
    ],
    "wof:geomhash": "ed7c2ab3547fc3916b5edc33488deaa7",
    "wof:hierarchy": [
      {
        "building_id": -1,
        "campus_id": 102527513,
        "collection_id": 1159162825,
        "concourse_id": 1159162825,
        "continent_id": 102191575,
        "country_id": 85633793,
        "county_id": 102087579,
        "custom_id": 1762712555,
        "image_id": 1762712555,
        "locality_id": 85922583,
        "neighbourhood_id": -1,
        "object_id": 1762689529,
        "region_id": 85688637,
        "wing_id": 1159160869
      }
    ],
    "wof:id": 1762712555,
    "wof:lastmodified": 1788450651,
    "wof:name": "postcard: Seattle - Tacoma International Airport",
    "wof:parent_id": 1762689529,
    "wof:placetype": "custom",
    "wof:placetype_alt": [
      "image"
    ],
    "wof:repo": "sfomuseum-data-media-collection",
    "wof:superseded_by": [],
    "wof:supersedes": []
  },
  "bbox": [
    -122.386472,
    37.616105,
    -122.385834,
    37.616611
  ],
  "geometry": {"type":"Polygon","coordinates":[[[-122.386472,37.616318],[-122.386435,37.616233],[-122.386376,37.616178],[-122.386301,37.616131],[-122.386161,37.616105],[-122.386022,37.616131],[-122.385914,37.616186],[-122.385855,37.616267],[-122.385834,37.616369],[-122.385871,37.616467],[-122.385941,37.616543],[-122.386054,37.616603],[-122.386183,37.616611],[-122.386306,37.616573],[-122.386419,37.616509],[-122.386467,37.616411],[-122.386472,37.616318]]]}
}
