{
  "id": 2048166871,
  "type": "Feature",
  "properties": {
    "date:cessation_lower": "1978-01-01",
    "date:cessation_upper": "1978-12-31",
    "date:inception_lower": "1978-01-01",
    "date:inception_upper": "1978-12-31",
    "edtf:cessation": "1978",
    "edtf:inception": "1978",
    "geom:area": 2.4750474575706356e-7,
    "geom:bbox": "-122.386472,37.616105,-122.385834,37.616611",
    "geom:latitude": 37.61635747477365,
    "geom:longitude": -122.38615540108617,
    "media:fingerprint": "c86a4f373aaa09d9fdb978b3c7cfbfacb38e8c20",
    "media:imagehash_avg": "a:0c8cfcf0f0fdffff",
    "media:imagehash_diff": "d:1818480103010818",
    "media:imagetext": "Western Airlines (7No/ 78\nTHE DC-10 SPACESHIP, the magnificen\nQueen of Western's jet fleet, offers you more\nLETT\nindividual comfort than any other big-jet in\nHawaii/\nthe sky. All seats in pairs, extra-wide aisles\nspacious eight foot ceilings, you enjay reak\nAVNES SPACESHIP.\nstretch-out comfort on a Western DC-179\nENTINE FROM SEO, PLADE ½ FUL.\nWe hold these Tails\nTOCO\nUNTIED STATES 1O C\nSEATRE jUST ID AWE TOCHECK IN ON\nWestern\nMRENUES S. A ABERCROMBE\nHOB9-DE-1O INTOLCHANGE FUCTET\nC\n8100 FONT BOULEVAKD #50\nLOM WALCONTMENTAL. SOINONOT\nHAVE A CHANTE TO CALL VIREN.\nOSAN FRANCISCO\nTHIS FLIGHE 13 ABOT 3/4 POL- SCAMFORTA 94/32\nHAD A \"SNACK\" - ChEESE \u0026 TURKES\nSO FAR; WE MAVE 45 MINUTES TOGO,\nWin WEE mORELATER. LOVE,\nDAD",
    "media:mimetype": "image/jpeg",
    "media:properties": {
      "colours": null,
      "sizes": {
        "b": {
          "extension": "jpg",
          "height": 643,
          "mimetype": "image/jpeg",
          "secret": "O6OI4bsgtDzALQuXRmFUfETDtBjxOMAG",
          "width": 1024
        },
        "c": {
          "extension": "jpg",
          "height": 502,
          "mimetype": "image/jpeg",
          "secret": "O6OI4bsgtDzALQuXRmFUfETDtBjxOMAG",
          "width": 800
        },
        "dc": {
          "extension": "jpg",
          "height": 320,
          "mimetype": "image/jpeg",
          "secret": "O6OI4bsgtDzALQuXRmFUfETDtBjxOMAG",
          "width": 320
        },
        "ds": {
          "extension": "jpg",
          "height": 320,
          "mimetype": "image/jpeg",
          "secret": "O6OI4bsgtDzALQuXRmFUfETDtBjxOMAG",
          "width": 320
        },
        "k": {
          "extension": "jpg",
          "height": 1286,
          "mimetype": "image/jpeg",
          "secret": "O6OI4bsgtDzALQuXRmFUfETDtBjxOMAG",
          "width": 2048
        },
        "n": {
          "extension": "jpg",
          "height": 200,
          "mimetype": "image/jpeg",
          "secret": "O6OI4bsgtDzALQuXRmFUfETDtBjxOMAG",
          "width": 320
        },
        "o": {
          "extension": "jpg",
          "height": 907,
          "mimetype": "image/jpeg",
          "secret": "ID4xN7mUsQtoZFnzVNpVsDWQmnA2F2HB",
          "width": 1444
        },
        "s": {
          "extension": "jpg",
          "height": 320,
          "mimetype": "image/jpeg",
          "secret": "O6OI4bsgtDzALQuXRmFUfETDtBjxOMAG",
          "width": 320
        },
        "z": {
          "extension": "jpg",
          "height": 401,
          "mimetype": "image/jpeg",
          "secret": "O6OI4bsgtDzALQuXRmFUfETDtBjxOMAG",
          "width": 640
        }
      }
    },
    "media:source": "sfomuseum",
    "media:status_id": 1,
    "media:uri_template": "https://static.sfomuseum.org/media/204/816/687/1/2048166871_{secret}_{label}.{extention}",
    "millsfield:aircraft_id": [
      1159291259
    ],
    "millsfield:airline_id": [
      1159294431
    ],
    "millsfield:category_id": 1511214215,
    "millsfield:collection_id": 1511214207,
    "millsfield:company_id": [
      1159293561
    ],
    "millsfield:images_colors": [
      {
        "hex": "#e0d2a9",
        "name": "#e0d2a9",
        "reference": "marekm4"
      },
      {
        "hex": "#eee8aa",
        "name": "palegoldenrod",
        "reference": "css4"
      },
      {
        "hex": "#edd19c",
        "name": "Maize",
        "reference": "crayola"
      },
      {
        "hex": "#443d33",
        "name": "#443d33",
        "reference": "marekm4"
      },
      {
        "hex": "#2f4f4f",
        "name": "darkslategrey",
        "reference": "css4"
      },
      {
        "hex": "#414a4c",
        "name": "Outer Space",
        "reference": "crayola"
      },
      {
        "hex": "#a69774",
        "name": "#a69774",
        "reference": "marekm4"
      },
      {
        "hex": "#bc8f8f",
        "name": "rosybrown",
        "reference": "css4"
      },
      {
        "hex": "#9f8170",
        "name": "Beaver",
        "reference": "crayola"
      },
      {
        "hex": "#8d725a",
        "name": "#8d725a",
        "reference": "marekm4"
      },
      {
        "hex": "#696969",
        "name": "dimgrey",
        "reference": "css4"
      },
      {
        "hex": "#8a795d",
        "name": "Shadow",
        "reference": "crayola"
      }
    ],
    "millsfield:subcategory_id": 1511213363,
    "mz:is_current": 1,
    "sfomuseum:filename": "image00047.jpg",
    "sfomuseum:image_id": 281536,
    "sfomuseum:image_index": 0,
    "sfomuseum:image_type": "studio",
    "sfomuseum:object_id": 245342,
    "sfomuseum:placetype": "image",
    "sfomuseum:primary_image": 0,
    "src:geom": "sfomuseum",
    "wof:belongsto": [
      102527513,
      1159162825,
      102191575,
      85633793,
      102087579,
      85922583,
      2048161361,
      85688637,
      1159160869
    ],
    "wof:country": "XY",
    "wof:created": 1787815284,
    "wof:depicts": [
      1159294431,
      1159291259,
      1159293561,
      2048161361
    ],
    "wof:geomhash": "c281b9d9eefc83b5710e64b9d646067d",
    "wof:hierarchy": [
      {
        "building_id": -1,
        "campus_id": 102527513,
        "collection_id": 1159162825,
        "concourse_id": 1159162825,
        "continent_id": 102191575,
        "country_id": 85633793,
        "county_id": 102087579,
        "custom_id": 2048166871,
        "locality_id": 85922583,
        "neighbourhood_id": -1,
        "object_id": 2048161361,
        "region_id": 85688637,
        "wing_id": 1159160869
      }
    ],
    "wof:id": 2048166871,
    "wof:lastmodified": 1787816375,
    "wof:name": "postcard: Western Airlines, McDonnell Douglas DC-10",
    "wof:parent_id": 2048161361,
    "wof:placetype": "custom",
    "wof:repo": "sfomuseum-data-media-collection",
    "wof:superseded_by": [],
    "wof:supersedes": []
  },
  "bbox": [
    -122.38647222518921,
    37.6161053594541,
    -122.38583385944366,
    37.61661101879963
  ],
  "geometry": {"type":"Polygon","coordinates":[[[-122.38647222518921,37.61631782178288],[-122.386434674263,37.61623283692423],[-122.38637566566466,37.61617759671399],[-122.38630056381224,37.6161308549656],[-122.38616108894348,37.6161053594541],[-122.38602161407469,37.6161308549656],[-122.38591432571411,37.61618609521055],[-122.38585531711577,37.61626683087935],[-122.38583385944366,37.61636881265146],[-122.38587141036987,37.61646654505181],[-122.38594114780425,37.61654303118856],[-122.38605380058287,37.61660252035167],[-122.38618254661559,37.61661101879963],[-122.3863059282303,37.61657277577607],[-122.3864185810089,37.61650903735973],[-122.3864668607712,37.61641130501523],[-122.38647222518921,37.61631782178288]]]}
}
