{
  "id": 1527856877,
  "type": "Feature",
  "properties": {
    "date:cessation_lower": "1927-01-01",
    "date:cessation_upper": "1927-12-31",
    "date:inception_lower": "1927-01-01",
    "date:inception_upper": "1927-12-31",
    "edtf:cessation": "1927~",
    "edtf:date": "1927~",
    "edtf:inception": "1927~",
    "geom:area": 0,
    "geom:bbox": "-122.386155,37.616358,-122.386155,37.616358",
    "geom:latitude": 37.616358,
    "geom:longitude": -122.386155,
    "iso:country": "US",
    "media:fingerprint": "76bed66ecf478b2e8efa1c78e2e08ff6e1225140",
    "media:imagehash_avg": "a:ff8a808080ffffff",
    "media:imagehash_diff": "d:50727a730b1c1c11",
    "media:imagetext": "PARCEL #1\nW. T. COLEMAN\nBAYSIDE LAND CO•\n- 64 acres - Assessed\n- 135\n- 126 \"\n-\n75\n53\n$1,200•\n2,800.\n2,500.\n1,500.\nPARCEL 13\nJ. MITVOLSKY\nINDES LYDIA\nBARRON PROPERTY\nE. C. HYNES\nE. C. HAMILTON\n73 acres - Assessed\n-\n- 876\n$1,500. Imp.\n1,200.\n5,000.\n9,000.\n1,800.\n250.00\n250.00\n1,000.00\nPARCEL #2\nSOUTH SAN FRANCISCO LAND \u0026 IMP. CO. BELI AIR ISLAND\nCONTAINING\n58 Acres and lot 1 and 2.\nAssessed for\n$3,000.\nSame owner - 80 acres - Iots 15-16-162-17-32 - Assessed\n$800.00\n-419\n- Iots 1 to 15 and portion of lots\n15, 18, 19, 26, 28, 30 and 51\nAssessed for\n4,000.00\nCITY TAXES - $118.59\n-\n141.60\n18\n-\n159.30\n1.600 P",
    "media:imagetext_created": 1787954133,
    "media:imagetext_source": "com.apple.visionkit.VNImageRequestHandler#Version 26.6.2 (Build 25G83)",
    "media:medium": "image",
    "media:mimetype": "image/tiff",
    "media:properties": {
      "sizes": {
        "b": {
          "extension": "jpg",
          "height": 768,
          "mimetype": "image/jpeg",
          "secret": "tAS0ghm9DxmxaF2QLeMEqZ1kzxfyTCYo",
          "width": 596
        },
        "c": {
          "extension": "jpg",
          "height": 600,
          "mimetype": "image/jpeg",
          "secret": "tAS0ghm9DxmxaF2QLeMEqZ1kzxfyTCYo",
          "width": 465
        },
        "dc": {
          "extension": "jpg",
          "height": 600,
          "mimetype": "image/jpeg",
          "secret": "tAS0ghm9DxmxaF2QLeMEqZ1kzxfyTCYo",
          "width": 465
        },
        "ds": {
          "extension": "jpg",
          "height": 320,
          "mimetype": "image/jpeg",
          "secret": "tAS0ghm9DxmxaF2QLeMEqZ1kzxfyTCYo",
          "width": 320
        },
        "k": {
          "extension": "jpg",
          "height": 1536,
          "mimetype": "image/jpeg",
          "secret": "tAS0ghm9DxmxaF2QLeMEqZ1kzxfyTCYo",
          "width": 1192
        },
        "n": {
          "extension": "jpg",
          "height": 240,
          "mimetype": "image/jpeg",
          "secret": "tAS0ghm9DxmxaF2QLeMEqZ1kzxfyTCYo",
          "width": 186
        },
        "o": {
          "extension": "jpg",
          "height": 1800,
          "mimetype": "image/jpeg",
          "secret": "SYva7wRLe1Bq868MJOJ9YFcpe0jsRO4h",
          "width": 1397
        },
        "s": {
          "extension": "jpg",
          "height": 320,
          "mimetype": "image/jpeg",
          "secret": "tAS0ghm9DxmxaF2QLeMEqZ1kzxfyTCYo",
          "width": 320
        },
        "z": {
          "extension": "jpg",
          "height": 480,
          "mimetype": "image/jpeg",
          "secret": "tAS0ghm9DxmxaF2QLeMEqZ1kzxfyTCYo",
          "width": 372
        }
      }
    },
    "media:source": "sfomuseum",
    "media:status_id": 1,
    "media:uri_template": "https://static.sfomuseum.org/media/152/785/687/7/1527856877_{secret}_{label}.{extension}",
    "millsfield:airport_id": [
      1360695653
    ],
    "millsfield:category_id": 1511214239,
    "millsfield:collection_id": 1511214207,
    "millsfield:images_colors": [
      {
        "hex": "#e8e0be",
        "name": "#e8e0be",
        "reference": "marekm4"
      },
      {
        "hex": "#f5deb3",
        "name": "wheat",
        "reference": "css4"
      },
      {
        "hex": "#eceabe",
        "name": "Spring Green",
        "reference": "crayola"
      },
      {
        "hex": "#616048",
        "name": "#616048",
        "reference": "marekm4"
      },
      {
        "hex": "#556b2f",
        "name": "darkolivegreen",
        "reference": "css4"
      },
      {
        "hex": "#6e5160",
        "name": "Eggplant",
        "reference": "crayola"
      },
      {
        "hex": "#938f73",
        "name": "#938f73",
        "reference": "marekm4"
      },
      {
        "hex": "#808080",
        "name": "grey",
        "reference": "css4"
      },
      {
        "hex": "#9f8170",
        "name": "Beaver",
        "reference": "crayola"
      }
    ],
    "millsfield:images_texts": [
      "PARCEL #1\nW. T. COLEMAN\nBAYSIDE LAND CO•\n- 64 acres - Assessed\n- 135\n- 126 \"\n-\n75\n53\n$1,200•\n2,800.\n2,500.\n1,500.\nPARCEL 13\nJ. MITVOLSKY\nINDES LYDIA\nBARRON PROPERTY\nE. C. HYNES\nE. C. HAMILTON\n73 acres - Assessed\n-\n- 876\n$1,500. Imp.\n1,200.\n5,000.\n9,000.\n1,800.\n250.00\n250.00\n1,000.00\nPARCEL #2\nSOUTH SAN FRANCISCO LAND \u0026 IMP. CO. BELI AIR ISLAND\nCONTAINING\n58 Acres and lot 1 and 2.\nAssessed for\n$3,000.\nSame owner - 80 acres - Iots 15-16-162-17-32 - Assessed\n$800.00\n-419\n- Iots 1 to 15 and portion of lots\n15, 18, 19, 26, 28, 30 and 51\nAssessed for\n4,000.00\nCITY TAXES - $118.59\n-\n141.60\n18\n-\n159.30\n1.600 P"
    ],
    "millsfield:images_texts_ids": [
      1527856877
    ],
    "millsfield:similar": {
      "apple/mobileclip_s0": [
        {
          "distance": 0.37979004,
          "id": 1527841031
        },
        {
          "distance": 0.403595,
          "id": 1797195201
        },
        {
          "distance": 0.41553223,
          "id": 1527856869
        },
        {
          "distance": 0.42317638,
          "id": 1762897047
        },
        {
          "distance": 0.42432946,
          "id": 1527856879
        },
        {
          "distance": 0.4251706,
          "id": 1762897051
        },
        {
          "distance": 0.42639962,
          "id": 1762897053
        },
        {
          "distance": 0.4268159,
          "id": 1762897049
        },
        {
          "distance": 0.42934313,
          "id": 1762897045
        },
        {
          "distance": 0.43951973,
          "id": 1762897247
        }
      ],
      "apple/mobileclip_s1": [
        {
          "distance": 0.28627944,
          "id": 1913822713
        },
        {
          "distance": 0.2932702,
          "id": 1527841031
        },
        {
          "distance": 0.3023002,
          "id": 1762897051
        },
        {
          "distance": 0.31752965,
          "id": 1762897047
        },
        {
          "distance": 0.32068217,
          "id": 1527845687
        },
        {
          "distance": 0.33037618,
          "id": 1762897247
        },
        {
          "distance": 0.33240166,
          "id": 1762897049
        },
        {
          "distance": 0.33347738,
          "id": 1527856823
        },
        {
          "distance": 0.3413439,
          "id": 1527856729
        },
        {
          "distance": 0.34293675,
          "id": 1527856869
        }
      ],
      "apple/mobileclip_s2": [
        {
          "distance": 0.42062104,
          "id": 1762897047
        },
        {
          "distance": 0.4257251,
          "id": 1762897051
        },
        {
          "distance": 0.4399011,
          "id": 1527841031
        },
        {
          "distance": 0.44081497,
          "id": 1527856823
        },
        {
          "distance": 0.44355586,
          "id": 1527856869
        },
        {
          "distance": 0.44802612,
          "id": 1762897045
        },
        {
          "distance": 0.45832145,
          "id": 1913822713
        },
        {
          "distance": 0.46164104,
          "id": 1762897049
        },
        {
          "distance": 0.46596095,
          "id": 1762897053
        },
        {
          "distance": 0.46810055,
          "id": 1762897247
        }
      ]
    },
    "millsfield:subcategory_id": 1511213147,
    "mz:hierarchy_label": 1,
    "mz:is_current": -1,
    "sfomuseum:filename": "157230.tif",
    "sfomuseum:image_id": 157230,
    "sfomuseum:image_index": 5,
    "sfomuseum:image_type": "studio",
    "sfomuseum:object_id": 50643,
    "sfomuseum:placetype": "image",
    "sfomuseum:primary_image": 1,
    "src:geom": "sfomuseum",
    "wof:belongsto": [
      1511214239,
      1511910111,
      102527513,
      102191575,
      85633793,
      1511213147,
      85922583,
      102087579,
      1511214277,
      1511214203,
      85688637
    ],
    "wof:breaches": [],
    "wof:country": "US",
    "wof:created": 1578955205,
    "wof:depicts": [
      1511910111,
      1360695653
    ],
    "wof:geomhash": "bd906905ce4be6c0651c90b0fc24804c",
    "wof:hierarchy": [
      {
        "arcade_id": 1511213147,
        "building_id": 1511214277,
        "campus_id": 102527513,
        "concourse_id": 1511214239,
        "continent_id": 102191575,
        "country_id": 85633793,
        "county_id": 102087579,
        "custom_id": 1527856877,
        "image_id": 1527856877,
        "locality_id": 85922583,
        "media_id": 1527856877,
        "neighbourhood_id": -1,
        "region_id": 85688637,
        "venue_id": 1511910111,
        "wing_id": 1511214203
      }
    ],
    "wof:id": 1527856877,
    "wof:lastmodified": 1788450264,
    "wof:name": "memorandum: property listings, potential airport sites",
    "wof:parent_id": 1511910111,
    "wof:placetype": "custom",
    "wof:placetype_alt": [
      "image"
    ],
    "wof:repo": "sfomuseum-data-media-collection",
    "wof:superseded_by": [],
    "wof:supersedes": [],
    "wof:tags": []
  },
  "bbox": [
    -122.386155,
    37.616358,
    -122.386155,
    37.616358
  ],
  "geometry": {"type":"Point","coordinates":[-122.386155,37.616358]}
}
